<?xml version="1.0" encoding="UTF-8"?>
<gpx creator="Garmin Connect" version="1.1" schemaLocation="http://www.topografix.com/GPX/1/1 http://www.topografix.com/GPX/11.xsd" xmlns="http://www.topografix.com/GPX/1/1" xmlns:xsi="http://www.w3.org/2001/XMLSchema-instance" xsi:schemaLocation="http://www.topografix.com/GPX/1/1 http://www.topografix.com/GPX/1/1/gpx.xsd http://www.garmin.com/xmlschemas/GpxExtensions/v3 http://www.garmin.com/xmlschemas/GpxExtensionsv3.xsd http://www.garmin.com/xmlschemas/TrackPointExtension/v1 http://www.garmin.com/xmlschemas/TrackPointExtensionv1.xsd http://www.garmin.com/xmlschemas/PowerExtension/v1 http://www.garmin.com/xmlschemas/PowerExtensionv1.xsd http://www.topografix.com/GPX/gpx_style/0/2 http://www.topografix.com/GPX/gpx_style/0/2/gpx_style.xsd" xmlns:gpxtpx="http://www.garmin.com/xmlschemas/TrackPointExtension/v1" xmlns:gpxx="http://www.garmin.com/xmlschemas/GpxExtensions/v3" xmlns:gpxpx="http://www.garmin.com/xmlschemas/PowerExtension/v1" xmlns:gpx_style="http://www.topografix.com/GPX/gpx_style/0/2">
	<metadata>
		<name>001-G2-100 km-D 917 m-Le nord</name>
		<author>
			<name>gpx.studio</name>
			<link href="https://gpx.studio"/>
		</author>
		<link href="connect.garmin.com">
			<text>Garmin Connect</text>
		</link>
		<time>2013-07-12T08:00:00</time>
	</metadata>
	<trk>
		<name>001-G2-100 km-D 917 m-Le nord</name>
		<trkseg>
			<trkpt lat="48.85758996941149" lon="2.9067898727953434">
				<ele>50</ele>
				<time>2013-07-12T08:00:00</time>
			</trkpt>
			<trkpt lat="48.858069917187095" lon="2.90694996714592">
				<ele>50</ele>
				<time>2013-07-12T08:00:08</time>
			</trkpt>
			<trkpt lat="48.85823990218341" lon="2.907229922711849">
				<ele>51</ele>
				<time>2013-07-12T08:00:12</time>
			</trkpt>
			<trkpt lat="48.8591299764812" lon="2.9071199521422386">
				<ele>51</ele>
				<time>2013-07-12T08:00:26</time>
			</trkpt>
			<trkpt lat="48.85987998917699" lon="2.90692993439734">
				<ele>53</ele>
				<time>2013-07-12T08:00:38</time>
			</trkpt>
			<trkpt lat="48.861209861934185" lon="2.906129965558648">
				<ele>60</ele>
				<time>2013-07-12T08:01:01</time>
			</trkpt>
			<trkpt lat="48.8623798917979" lon="2.897809837013483">
				<ele>65</ele>
				<time>2013-07-12T08:02:31</time>
			</trkpt>
			<trkpt lat="48.86248986236751" lon="2.89594997651875">
				<ele>72</ele>
				<time>2013-07-12T08:02:51</time>
			</trkpt>
			<trkpt lat="48.86450998485088" lon="2.886789981275797">
				<ele>91</ele>
				<time>2013-07-12T08:04:32</time>
			</trkpt>
			<trkpt lat="48.8664398342371" lon="2.88391993381083">
				<ele>98</ele>
				<time>2013-07-12T08:05:16</time>
			</trkpt>
			<trkpt lat="48.86712983250618" lon="2.8833299316465855">
				<ele>98</ele>
				<time>2013-07-12T08:05:28</time>
			</trkpt>
			<trkpt lat="48.868019990623" lon="2.8829499799758196">
				<ele>96</ele>
				<time>2013-07-12T08:05:43</time>
			</trkpt>
			<trkpt lat="48.86866983957589" lon="2.882359893992543">
				<ele>99</ele>
				<time>2013-07-12T08:05:55</time>
			</trkpt>
			<trkpt lat="48.8704598788172" lon="2.8804199025034904">
				<ele>100</ele>
				<time>2013-07-12T08:06:30</time>
			</trkpt>
			<trkpt lat="48.8717498537153" lon="2.878729859367013">
				<ele>99</ele>
				<time>2013-07-12T08:06:58</time>
			</trkpt>
			<trkpt lat="48.87434983626008" lon="2.8762599639594555">
				<ele>87</ele>
				<time>2013-07-12T08:07:47</time>
			</trkpt>
			<trkpt lat="48.87472987174988" lon="2.877879934385419">
				<ele>91</ele>
				<time>2013-07-12T08:08:05</time>
			</trkpt>
			<trkpt lat="48.87580996379256" lon="2.8796199336647987">
				<ele>93</ele>
				<time>2013-07-12T08:08:30</time>
			</trkpt>
			<trkpt lat="48.87677991762757" lon="2.883419953286648">
				<ele>94</ele>
				<time>2013-07-12T08:09:13</time>
			</trkpt>
			<trkpt lat="48.8779198564589" lon="2.886379938572645">
				<ele>95</ele>
				<time>2013-07-12T08:09:49</time>
			</trkpt>
			<trkpt lat="48.87803996913135" lon="2.890379950404167">
				<ele>89</ele>
				<time>2013-07-12T08:10:31</time>
			</trkpt>
			<trkpt lat="48.87860985472798" lon="2.8950899094343185">
				<ele>97</ele>
				<time>2013-07-12T08:11:22</time>
			</trkpt>
			<trkpt lat="48.87827994301915" lon="2.897229976952076">
				<ele>98</ele>
				<time>2013-07-12T08:11:45</time>
			</trkpt>
			<trkpt lat="48.877859842032194" lon="2.9026299342513084">
				<ele>99</ele>
				<time>2013-07-12T08:12:42</time>
			</trkpt>
			<trkpt lat="48.87726992368698" lon="2.9047999251633883">
				<ele>99</ele>
				<time>2013-07-12T08:13:07</time>
			</trkpt>
			<trkpt lat="48.87817986309528" lon="2.90602988563478">
				<ele>93</ele>
				<time>2013-07-12T08:13:26</time>
			</trkpt>
			<trkpt lat="48.87965985573828" lon="2.9056698828935623">
				<ele>91</ele>
				<time>2013-07-12T08:13:50</time>
			</trkpt>
			<trkpt lat="48.8806398678571" lon="2.9057399556040764">
				<ele>93</ele>
				<time>2013-07-12T08:14:06</time>
			</trkpt>
			<trkpt lat="48.88113984838128" lon="2.9059498384594917">
				<ele>95</ele>
				<time>2013-07-12T08:14:14</time>
			</trkpt>
			<trkpt lat="48.88265999034047" lon="2.907239980995655">
				<ele>99</ele>
				<time>2013-07-12T08:14:42</time>
			</trkpt>
			<trkpt lat="48.88442991301417" lon="2.9095699824392796">
				<ele>105</ele>
				<time>2013-07-12T08:15:20</time>
			</trkpt>
			<trkpt lat="48.88553992845118" lon="2.9092598520219326">
				<ele>110</ele>
				<time>2013-07-12T08:15:38</time>
			</trkpt>
			<trkpt lat="48.886839961633086" lon="2.909339899197221">
				<ele>116</ele>
				<time>2013-07-12T08:15:59</time>
			</trkpt>
			<trkpt lat="48.8910698890686" lon="2.9081199131906033">
				<ele>123</ele>
				<time>2013-07-12T08:17:07</time>
			</trkpt>
			<trkpt lat="48.891669949516654" lon="2.908269865438342">
				<ele>123</ele>
				<time>2013-07-12T08:17:17</time>
			</trkpt>
			<trkpt lat="48.8924499694258" lon="2.90881996974349">
				<ele>124</ele>
				<time>2013-07-12T08:17:31</time>
			</trkpt>
			<trkpt lat="48.893349850550294" lon="2.909199921414256">
				<ele>124</ele>
				<time>2013-07-12T08:17:46</time>
			</trkpt>
			<trkpt lat="48.89365989714861" lon="2.9083499126136303">
				<ele>119</ele>
				<time>2013-07-12T08:17:56</time>
			</trkpt>
			<trkpt lat="48.89448995701969" lon="2.907179966568947">
				<ele>110</ele>
				<time>2013-07-12T08:18:14</time>
			</trkpt>
			<trkpt lat="48.8950399775058" lon="2.9069399926811457">
				<ele>108</ele>
				<time>2013-07-12T08:18:23</time>
			</trkpt>
			<trkpt lat="48.896119985729456" lon="2.9070798866450787">
				<ele>102</ele>
				<time>2013-07-12T08:18:41</time>
			</trkpt>
			<trkpt lat="48.896479988470674" lon="2.906989948824048">
				<ele>100</ele>
				<time>2013-07-12T08:18:47</time>
			</trkpt>
			<trkpt lat="48.89729990623891" lon="2.9062399361282587">
				<ele>93</ele>
				<time>2013-07-12T08:19:02</time>
			</trkpt>
			<trkpt lat="48.89879993163049" lon="2.9026399087160826">
				<ele>91</ele>
				<time>2013-07-12T08:19:47</time>
			</trkpt>
			<trkpt lat="48.89868996106088" lon="2.898689853027463">
				<ele>105</ele>
				<time>2013-07-12T08:20:28</time>
			</trkpt>
			<trkpt lat="48.89883999712765" lon="2.896489854902029">
				<ele>116</ele>
				<time>2013-07-12T08:20:52</time>
			</trkpt>
			<trkpt lat="48.89806995168328" lon="2.8940799739211798">
				<ele>123</ele>
				<time>2013-07-12T08:21:20</time>
			</trkpt>
			<trkpt lat="48.89773987233639" lon="2.89098990149796">
				<ele>128</ele>
				<time>2013-07-12T08:21:53</time>
			</trkpt>
			<trkpt lat="48.8976098690182" lon="2.888149945065379">
				<ele>132</ele>
				<time>2013-07-12T08:22:23</time>
			</trkpt>
			<trkpt lat="48.897839952260256" lon="2.8851199708878994">
				<ele>131</ele>
				<time>2013-07-12T08:22:55</time>
			</trkpt>
			<trkpt lat="48.897859901189804" lon="2.8817098774015903">
				<ele>131</ele>
				<time>2013-07-12T08:23:31</time>
			</trkpt>
			<trkpt lat="48.89719991013408" lon="2.8779698722064495">
				<ele>126</ele>
				<time>2013-07-12T08:24:12</time>
			</trkpt>
			<trkpt lat="48.898959858343005" lon="2.873489996418357">
				<ele>127</ele>
				<time>2013-07-12T08:25:07</time>
			</trkpt>
			<trkpt lat="48.90087990090251" lon="2.871199892833829">
				<ele>122</ele>
				<time>2013-07-12T08:25:46</time>
			</trkpt>
			<trkpt lat="48.9009599480778" lon="2.8705099783837795">
				<ele>120</ele>
				<time>2013-07-12T08:25:53</time>
			</trkpt>
			<trkpt lat="48.90054998919368" lon="2.8693298902362585">
				<ele>120</ele>
				<time>2013-07-12T08:26:07</time>
			</trkpt>
			<trkpt lat="48.90066993422806" lon="2.865399867296219">
				<ele>117</ele>
				<time>2013-07-12T08:26:48</time>
			</trkpt>
			<trkpt lat="48.90025989152491" lon="2.8611399326473475">
				<ele>111</ele>
				<time>2013-07-12T08:27:34</time>
			</trkpt>
			<trkpt lat="48.90044990926981" lon="2.8607499226927757">
				<ele>109</ele>
				<time>2013-07-12T08:27:39</time>
			</trkpt>
			<trkpt lat="48.90115994028747" lon="2.8604499343782663">
				<ele>105</ele>
				<time>2013-07-12T08:27:51</time>
			</trkpt>
			<trkpt lat="48.90123998746276" lon="2.8600698988884687">
				<ele>104</ele>
				<time>2013-07-12T08:27:55</time>
			</trkpt>
			<trkpt lat="48.900079848244786" lon="2.855999981984496">
				<ele>104</ele>
				<time>2013-07-12T08:28:42</time>
			</trkpt>
			<trkpt lat="48.89988999813795" lon="2.8509399108588696">
				<ele>98</ele>
				<time>2013-07-12T08:29:35</time>
			</trkpt>
			<trkpt lat="48.899649856612086" lon="2.8493698965758085">
				<ele>96</ele>
				<time>2013-07-12T08:29:52</time>
			</trkpt>
			<trkpt lat="48.8996699731797" lon="2.847529901191592">
				<ele>87</ele>
				<time>2013-07-12T08:30:11</time>
			</trkpt>
			<trkpt lat="48.89844998717308" lon="2.8462699335068464">
				<ele>86</ele>
				<time>2013-07-12T08:30:35</time>
			</trkpt>
			<trkpt lat="48.89603993855417" lon="2.841919893398881">
				<ele>71</ele>
				<time>2013-07-12T08:31:35</time>
			</trkpt>
			<trkpt lat="48.89661988243461" lon="2.8394499141722918">
				<ele>74</ele>
				<time>2013-07-12T08:32:02</time>
			</trkpt>
			<trkpt lat="48.89776996336877" lon="2.8312099166214466">
				<ele>51</ele>
				<time>2013-07-12T08:33:31</time>
			</trkpt>
			<trkpt lat="48.89814999885857" lon="2.829539906233549">
				<ele>48</ele>
				<time>2013-07-12T08:33:50</time>
			</trkpt>
			<trkpt lat="48.8965598680079" lon="2.8287499118596315">
				<ele>45</ele>
				<time>2013-07-12T08:34:16</time>
			</trkpt>
			<trkpt lat="48.896269937977195" lon="2.8275699075311422">
				<ele>47</ele>
				<time>2013-07-12T08:34:30</time>
			</trkpt>
			<trkpt lat="48.891669949516654" lon="2.825929904356599">
				<ele>46</ele>
				<time>2013-07-12T08:35:45</time>
			</trkpt>
			<trkpt lat="48.89137985184789" lon="2.8256299160420895">
				<ele>46</ele>
				<time>2013-07-12T08:35:51</time>
			</trkpt>
			<trkpt lat="48.89178997837007" lon="2.824639929458499">
				<ele>46</ele>
				<time>2013-07-12T08:36:03</time>
			</trkpt>
			<trkpt lat="48.8946498837322" lon="2.820509998127818">
				<ele>47</ele>
				<time>2013-07-12T08:37:06</time>
			</trkpt>
			<trkpt lat="48.89621998183429" lon="2.816159874200821">
				<ele>50</ele>
				<time>2013-07-12T08:37:59</time>
			</trkpt>
			<trkpt lat="48.89661988243461" lon="2.8158398531377316">
				<ele>46</ele>
				<time>2013-07-12T08:38:06</time>
			</trkpt>
			<trkpt lat="48.896509911864996" lon="2.8152299020439386">
				<ele>48</ele>
				<time>2013-07-12T08:38:13</time>
			</trkpt>
			<trkpt lat="48.8972298335284" lon="2.813129900023341">
				<ele>48</ele>
				<time>2013-07-12T08:38:38</time>
			</trkpt>
			<trkpt lat="48.898099875077605" lon="2.811379926279187">
				<ele>50</ele>
				<time>2013-07-12T08:39:01</time>
			</trkpt>
			<trkpt lat="48.898249911144376" lon="2.809849977493286">
				<ele>48</ele>
				<time>2013-07-12T08:39:17</time>
			</trkpt>
			<trkpt lat="48.89786987565458" lon="2.8086798638105392">
				<ele>47</ele>
				<time>2013-07-12T08:39:31</time>
			</trkpt>
			<trkpt lat="48.8965598680079" lon="2.8019398916512728">
				<ele>46</ele>
				<time>2013-07-12T08:40:45</time>
			</trkpt>
			<trkpt lat="48.89618989080191" lon="2.7971698343753815">
				<ele>45</ele>
				<time>2013-07-12T08:41:35</time>
			</trkpt>
			<trkpt lat="48.89541992917657" lon="2.796009862795472">
				<ele>50</ele>
				<time>2013-07-12T08:41:53</time>
			</trkpt>
			<trkpt lat="48.89525983482599" lon="2.7950198762118816">
				<ele>47</ele>
				<time>2013-07-12T08:42:03</time>
			</trkpt>
			<trkpt lat="48.89590993523598" lon="2.79247990809381">
				<ele>50</ele>
				<time>2013-07-12T08:42:32</time>
			</trkpt>
			<trkpt lat="48.896849965676665" lon="2.7913898415863514">
				<ele>46</ele>
				<time>2013-07-12T08:42:51</time>
			</trkpt>
			<trkpt lat="48.8972298335284" lon="2.7914999797940254">
				<ele>47</ele>
				<time>2013-07-12T08:42:57</time>
			</trkpt>
			<trkpt lat="48.89821998775005" lon="2.792229875922203">
				<ele>49</ele>
				<time>2013-07-12T08:43:15</time>
			</trkpt>
			<trkpt lat="48.90209997072816" lon="2.79247990809381">
				<ele>76</ele>
				<time>2013-07-12T08:44:17</time>
			</trkpt>
			<trkpt lat="48.90442997217178" lon="2.7927899546921253">
				<ele>80</ele>
				<time>2013-07-12T08:44:54</time>
			</trkpt>
			<trkpt lat="48.90579999424517" lon="2.793139982968569">
				<ele>83</ele>
				<time>2013-07-12T08:45:17</time>
			</trkpt>
			<trkpt lat="48.9073699247092" lon="2.78456998988986">
				<ele>67</ele>
				<time>2013-07-12T08:46:50</time>
			</trkpt>
			<trkpt lat="48.9084698818624" lon="2.7798498887568712">
				<ele>46</ele>
				<time>2013-07-12T08:47:43</time>
			</trkpt>
			<trkpt lat="48.909179996699095" lon="2.780729904770851">
				<ele>45</ele>
				<time>2013-07-12T08:47:58</time>
			</trkpt>
			<trkpt lat="48.91155987046659" lon="2.774509945884347">
				<ele>43</ele>
				<time>2013-07-12T08:49:13</time>
			</trkpt>
			<trkpt lat="48.91325997188687" lon="2.767179971560836">
				<ele>61</ele>
				<time>2013-07-12T08:50:35</time>
			</trkpt>
			<trkpt lat="48.914579870179296" lon="2.7650699112564325">
				<ele>61</ele>
				<time>2013-07-12T08:51:06</time>
			</trkpt>
			<trkpt lat="48.915669936686754" lon="2.7626399137079716">
				<ele>58</ele>
				<time>2013-07-12T08:51:37</time>
			</trkpt>
			<trkpt lat="48.91578996554017" lon="2.762539917603135">
				<ele>58</ele>
				<time>2013-07-12T08:51:39</time>
			</trkpt>
			<trkpt lat="48.91726995818317" lon="2.762969993054867">
				<ele>55</ele>
				<time>2013-07-12T08:52:03</time>
			</trkpt>
			<trkpt lat="48.91820998862386" lon="2.760679889470339">
				<ele>60</ele>
				<time>2013-07-12T08:52:31</time>
			</trkpt>
			<trkpt lat="48.918869979679585" lon="2.759569874033332">
				<ele>58</ele>
				<time>2013-07-12T08:52:47</time>
			</trkpt>
			<trkpt lat="48.91918983310461" lon="2.758259866386652">
				<ele>56</ele>
				<time>2013-07-12T08:53:02</time>
			</trkpt>
			<trkpt lat="48.919409941881895" lon="2.756529925391078">
				<ele>57</ele>
				<time>2013-07-12T08:53:20</time>
			</trkpt>
			<trkpt lat="48.91851986758411" lon="2.7444999665021896">
				<ele>51</ele>
				<time>2013-07-12T08:55:28</time>
			</trkpt>
			<trkpt lat="48.9190299063921" lon="2.744269883260131">
				<ele>51</ele>
				<time>2013-07-12T08:55:36</time>
			</trkpt>
			<trkpt lat="48.920529931783676" lon="2.7442799415439367">
				<ele>48</ele>
				<time>2013-07-12T08:56:00</time>
			</trkpt>
			<trkpt lat="48.92108992673457" lon="2.7440199349075556">
				<ele>45</ele>
				<time>2013-07-12T08:56:10</time>
			</trkpt>
			<trkpt lat="48.921669870615005" lon="2.743429848924279">
				<ele>44</ele>
				<time>2013-07-12T08:56:21</time>
			</trkpt>
			<trkpt lat="48.922269931063056" lon="2.7419098746031523">
				<ele>42</ele>
				<time>2013-07-12T08:56:40</time>
			</trkpt>
			<trkpt lat="48.922719871625304" lon="2.7377398777753115">
				<ele>43</ele>
				<time>2013-07-12T08:57:24</time>
			</trkpt>
			<trkpt lat="48.9224299415946" lon="2.7351699862629175">
				<ele>43</ele>
				<time>2013-07-12T08:57:51</time>
			</trkpt>
			<trkpt lat="48.92010999843478" lon="2.7291299868375063">
				<ele>41</ele>
				<time>2013-07-12T08:59:05</time>
			</trkpt>
			<trkpt lat="48.91997999511659" lon="2.7276199031621218">
				<ele>44</ele>
				<time>2013-07-12T08:59:21</time>
			</trkpt>
			<trkpt lat="48.920269925147295" lon="2.7262699976563454">
				<ele>43</ele>
				<time>2013-07-12T08:59:36</time>
			</trkpt>
			<trkpt lat="48.92107995226979" lon="2.725089993327856">
				<ele>43</ele>
				<time>2013-07-12T08:59:54</time>
			</trkpt>
			<trkpt lat="48.92233983613551" lon="2.7241998352110386">
				<ele>41</ele>
				<time>2013-07-12T09:00:16</time>
			</trkpt>
			<trkpt lat="48.92348991706967" lon="2.7238299418240786">
				<ele>42</ele>
				<time>2013-07-12T09:00:35</time>
			</trkpt>
			<trkpt lat="48.92378990538418" lon="2.7232199907302856">
				<ele>45</ele>
				<time>2013-07-12T09:00:43</time>
			</trkpt>
			<trkpt lat="48.925039982423186" lon="2.7222599275410175">
				<ele>47</ele>
				<time>2013-07-12T09:01:05</time>
			</trkpt>
			<trkpt lat="48.925529988482594" lon="2.7215398382395506">
				<ele>48</ele>
				<time>2013-07-12T09:01:16</time>
			</trkpt>
			<trkpt lat="48.92606986686587" lon="2.7198699954897165">
				<ele>52</ele>
				<time>2013-07-12T09:01:36</time>
			</trkpt>
			<trkpt lat="48.92652994953096" lon="2.720099911093712">
				<ele>52</ele>
				<time>2013-07-12T09:01:44</time>
			</trkpt>
			<trkpt lat="48.92682993784547" lon="2.7196199633181095">
				<ele>54</ele>
				<time>2013-07-12T09:01:51</time>
			</trkpt>
			<trkpt lat="48.92778983339667" lon="2.7200699876993895">
				<ele>52</ele>
				<time>2013-07-12T09:02:07</time>
			</trkpt>
			<trkpt lat="48.928889874368906" lon="2.7211599703878164">
				<ele>50</ele>
				<time>2013-07-12T09:02:28</time>
			</trkpt>
			<trkpt lat="48.929439978674054" lon="2.719549974426627">
				<ele>54</ele>
				<time>2013-07-12T09:02:47</time>
			</trkpt>
			<trkpt lat="48.92994984984398" lon="2.71966983564198">
				<ele>53</ele>
				<time>2013-07-12T09:02:55</time>
			</trkpt>
			<trkpt lat="48.93013986758888" lon="2.7195399161428213">
				<ele>52</ele>
				<time>2013-07-12T09:02:58</time>
			</trkpt>
			<trkpt lat="48.93054999411106" lon="2.7182299084961414">
				<ele>55</ele>
				<time>2013-07-12T09:03:14</time>
			</trkpt>
			<trkpt lat="48.940449943766" lon="2.69615993835032">
				<ele>51</ele>
				<time>2013-07-12T09:07:55</time>
			</trkpt>
			<trkpt lat="48.94060987047851" lon="2.6949398685246706">
				<ele>51</ele>
				<time>2013-07-12T09:08:08</time>
			</trkpt>
			<trkpt lat="48.94147991202772" lon="2.695039948448539">
				<ele>47</ele>
				<time>2013-07-12T09:08:22</time>
			</trkpt>
			<trkpt lat="48.9420298486948" lon="2.695949887856841">
				<ele>49</ele>
				<time>2013-07-12T09:08:35</time>
			</trkpt>
			<trkpt lat="48.94257986918092" lon="2.6964398939162493">
				<ele>47</ele>
				<time>2013-07-12T09:08:45</time>
			</trkpt>
			<trkpt lat="48.943619979545474" lon="2.6964799594134092">
				<ele>51</ele>
				<time>2013-07-12T09:09:02</time>
			</trkpt>
			<trkpt lat="48.944519944489" lon="2.6960299350321293">
				<ele>54</ele>
				<time>2013-07-12T09:09:17</time>
			</trkpt>
			<trkpt lat="48.944959910586476" lon="2.693979972973466">
				<ele>56</ele>
				<time>2013-07-12T09:09:40</time>
			</trkpt>
			<trkpt lat="48.94520994275808" lon="2.6911699399352074">
				<ele>52</ele>
				<time>2013-07-12T09:10:09</time>
			</trkpt>
			<trkpt lat="48.9455940015614" lon="2.6901771873235703">
				<ele>53.17</ele>
				<time>2013-07-12T09:10:22</time>
			</trkpt>
			<trkpt lat="48.945859875530005" lon="2.6894899550825357">
				<ele>54</ele>
				<time>2013-07-12T09:10:30</time>
			</trkpt>
			<trkpt lat="48.94634988158941" lon="2.6901299133896828">
				<ele>57</ele>
				<time>2013-07-12T09:10:40</time>
			</trkpt>
			<trkpt lat="48.94743994809687" lon="2.690699966624379">
				<ele>66</ele>
				<time>2013-07-12T09:10:59</time>
			</trkpt>
			<trkpt lat="48.948959922418" lon="2.691949876025319">
				<ele>64</ele>
				<time>2013-07-12T09:11:26</time>
			</trkpt>
			<trkpt lat="48.959739888086915" lon="2.6982799731194973">
				<ele>75</ele>
				<time>2013-07-12T09:14:31</time>
			</trkpt>
			<trkpt lat="48.960639936849475" lon="2.698569903150201">
				<ele>77</ele>
				<time>2013-07-12T09:14:46</time>
			</trkpt>
			<trkpt lat="48.96330999210477" lon="2.6987999863922596">
				<ele>76</ele>
				<time>2013-07-12T09:15:29</time>
			</trkpt>
			<trkpt lat="48.96433996036649" lon="2.6985999941825867">
				<ele>76</ele>
				<time>2013-07-12T09:15:46</time>
			</trkpt>
			<trkpt lat="48.96650995127857" lon="2.6989198476076126">
				<ele>75</ele>
				<time>2013-07-12T09:16:20</time>
			</trkpt>
			<trkpt lat="48.96896995604038" lon="2.6987799536436796">
				<ele>76</ele>
				<time>2013-07-12T09:17:00</time>
			</trkpt>
			<trkpt lat="48.975249929353595" lon="2.6978699304163456">
				<ele>81</ele>
				<time>2013-07-12T09:18:41</time>
			</trkpt>
			<trkpt lat="48.97830999456346" lon="2.696649944409728">
				<ele>85</ele>
				<time>2013-07-12T09:19:32</time>
			</trkpt>
			<trkpt lat="48.983759908005595" lon="2.6963299233466387">
				<ele>88</ele>
				<time>2013-07-12T09:20:59</time>
			</trkpt>
			<trkpt lat="48.986149840056896" lon="2.694199997931719">
				<ele>75</ele>
				<time>2013-07-12T09:21:43</time>
			</trkpt>
			<trkpt lat="48.98694997653365" lon="2.6936199702322483">
				<ele>66</ele>
				<time>2013-07-12T09:21:57</time>
			</trkpt>
			<trkpt lat="48.98746990598738" lon="2.6936099119484425">
				<ele>65</ele>
				<time>2013-07-12T09:22:06</time>
			</trkpt>
			<trkpt lat="48.989689936861396" lon="2.6940299291163683">
				<ele>66</ele>
				<time>2013-07-12T09:22:42</time>
			</trkpt>
			<trkpt lat="48.9912698417902" lon="2.6959199644625187">
				<ele>70</ele>
				<time>2013-07-12T09:23:14</time>
			</trkpt>
			<trkpt lat="48.99276986718178" lon="2.6971698738634586">
				<ele>70</ele>
				<time>2013-07-12T09:23:41</time>
			</trkpt>
			<trkpt lat="48.99512995965779" lon="2.699979990720749">
				<ele>71</ele>
				<time>2013-07-12T09:24:29</time>
			</trkpt>
			<trkpt lat="48.99718998000026" lon="2.7013198379427195">
				<ele>75</ele>
				<time>2013-07-12T09:25:05</time>
			</trkpt>
			<trkpt lat="48.999099964275956" lon="2.70197999663651">
				<ele>79</ele>
				<time>2013-07-12T09:25:36</time>
			</trkpt>
			<trkpt lat="49.000259935855865" lon="2.7029899321496487">
				<ele>77</ele>
				<time>2013-07-12T09:25:58</time>
			</trkpt>
			<trkpt lat="49.00144999846816" lon="2.703709853813052">
				<ele>77</ele>
				<time>2013-07-12T09:26:18</time>
			</trkpt>
			<trkpt lat="49.001999851316214" lon="2.7037498354911804">
				<ele>82</ele>
				<time>2013-07-12T09:26:27</time>
			</trkpt>
			<trkpt lat="49.0024599339813" lon="2.701749913394451">
				<ele>85</ele>
				<time>2013-07-12T09:26:49</time>
			</trkpt>
			<trkpt lat="49.00275983847678" lon="2.701159995049238">
				<ele>85</ele>
				<time>2013-07-12T09:26:57</time>
			</trkpt>
			<trkpt lat="49.01037999428809" lon="2.6993698719888926">
				<ele>94</ele>
				<time>2013-07-12T09:29:01</time>
			</trkpt>
			<trkpt lat="49.01090989820659" lon="2.704189969226718">
				<ele>87</ele>
				<time>2013-07-12T09:29:52</time>
			</trkpt>
			<trkpt lat="49.01190994307399" lon="2.705049952492118">
				<ele>86</ele>
				<time>2013-07-12T09:30:10</time>
			</trkpt>
			<trkpt lat="49.012419981881976" lon="2.7060999535024166">
				<ele>86</ele>
				<time>2013-07-12T09:30:24</time>
			</trkpt>
			<trkpt lat="49.0136999823153" lon="2.7073398884385824">
				<ele>86</ele>
				<time>2013-07-12T09:30:48</time>
			</trkpt>
			<trkpt lat="49.015059946104884" lon="2.7110598608851433">
				<ele>87</ele>
				<time>2013-07-12T09:31:33</time>
			</trkpt>
			<trkpt lat="49.01519984006882" lon="2.7182698901742697">
				<ele>100</ele>
				<time>2013-07-12T09:32:49</time>
			</trkpt>
			<trkpt lat="49.016159903258085" lon="2.7240899484604597">
				<ele>92</ele>
				<time>2013-07-12T09:33:52</time>
			</trkpt>
			<trkpt lat="49.016269873827696" lon="2.7256299555301666">
				<ele>91</ele>
				<time>2013-07-12T09:34:08</time>
			</trkpt>
			<trkpt lat="49.01620985940099" lon="2.733279950916767">
				<ele>101</ele>
				<time>2013-07-12T09:35:28</time>
			</trkpt>
			<trkpt lat="49.015709878876805" lon="2.7364298701286316">
				<ele>103</ele>
				<time>2013-07-12T09:36:02</time>
			</trkpt>
			<trkpt lat="49.0174699947238" lon="2.737709954380989">
				<ele>107</ele>
				<time>2013-07-12T09:36:34</time>
			</trkpt>
			<trkpt lat="49.01868989691138" lon="2.738319905474782">
				<ele>110</ele>
				<time>2013-07-12T09:36:54</time>
			</trkpt>
			<trkpt lat="49.019809970632195" lon="2.7386598754674196">
				<ele>111</ele>
				<time>2013-07-12T09:37:12</time>
			</trkpt>
			<trkpt lat="49.020689986646175" lon="2.73921987041831">
				<ele>112</ele>
				<time>2013-07-12T09:37:28</time>
			</trkpt>
			<trkpt lat="49.022299982607365" lon="2.7406198997050524">
				<ele>113</ele>
				<time>2013-07-12T09:37:57</time>
			</trkpt>
			<trkpt lat="49.024149952456355" lon="2.741699991747737">
				<ele>116</ele>
				<time>2013-07-12T09:38:29</time>
			</trkpt>
			<trkpt lat="49.02575986459851" lon="2.743469914421439">
				<ele>122</ele>
				<time>2013-07-12T09:39:01</time>
			</trkpt>
			<trkpt lat="49.0262699034065" lon="2.7446598932147026">
				<ele>128</ele>
				<time>2013-07-12T09:39:16</time>
			</trkpt>
			<trkpt lat="49.026919919997454" lon="2.7486498467624187">
				<ele>147</ele>
				<time>2013-07-12T09:39:59</time>
			</trkpt>
			<trkpt lat="49.02673996053636" lon="2.750379955396056">
				<ele>153</ele>
				<time>2013-07-12T09:40:17</time>
			</trkpt>
			<trkpt lat="49.02834995649755" lon="2.749019907787442">
				<ele>165</ele>
				<time>2013-07-12T09:40:47</time>
			</trkpt>
			<trkpt lat="49.02894993312657" lon="2.7477099001407623">
				<ele>158</ele>
				<time>2013-07-12T09:41:04</time>
			</trkpt>
			<trkpt lat="49.03019984252751" lon="2.7479999978095293">
				<ele>158</ele>
				<time>2013-07-12T09:41:24</time>
			</trkpt>
			<trkpt lat="49.03125990182161" lon="2.7476698346436024">
				<ele>167</ele>
				<time>2013-07-12T09:41:41</time>
			</trkpt>
			<trkpt lat="49.03255985118449" lon="2.744739856570959">
				<ele>167</ele>
				<time>2013-07-12T09:42:18</time>
			</trkpt>
			<trkpt lat="49.03340985998511" lon="2.743919938802719">
				<ele>164</ele>
				<time>2013-07-12T09:42:34</time>
			</trkpt>
			<trkpt lat="49.03371999040246" lon="2.743049981072545">
				<ele>160</ele>
				<time>2013-07-12T09:42:45</time>
			</trkpt>
			<trkpt lat="49.034999990835786" lon="2.742599956691265">
				<ele>155</ele>
				<time>2013-07-12T09:43:06</time>
			</trkpt>
			<trkpt lat="49.03603993356228" lon="2.7405199874192476">
				<ele>138</ele>
				<time>2013-07-12T09:43:33</time>
			</trkpt>
			<trkpt lat="49.03794991783798" lon="2.738979896530509">
				<ele>122</ele>
				<time>2013-07-12T09:44:08</time>
			</trkpt>
			<trkpt lat="49.03930996544659" lon="2.742099892348051">
				<ele>127</ele>
				<time>2013-07-12T09:44:47</time>
			</trkpt>
			<trkpt lat="49.03967994265258" lon="2.7446098532527685">
				<ele>137</ele>
				<time>2013-07-12T09:45:14</time>
			</trkpt>
			<trkpt lat="49.039399987086654" lon="2.7448698598891497">
				<ele>147</ele>
				<time>2013-07-12T09:45:20</time>
			</trkpt>
			<trkpt lat="49.03952990658581" lon="2.7459799591451883">
				<ele>146</ele>
				<time>2013-07-12T09:45:31</time>
			</trkpt>
			<trkpt lat="49.039399987086654" lon="2.7459999918937683">
				<ele>148</ele>
				<time>2013-07-12T09:45:33</time>
			</trkpt>
			<trkpt lat="49.039169903844595" lon="2.745399931445718">
				<ele>148</ele>
				<time>2013-07-12T09:45:41</time>
			</trkpt>
			<trkpt lat="49.038979886099696" lon="2.7453499753028154">
				<ele>151</ele>
				<time>2013-07-12T09:45:44</time>
			</trkpt>
			<trkpt lat="49.03882993385196" lon="2.7461899258196354">
				<ele>155</ele>
				<time>2013-07-12T09:45:53</time>
			</trkpt>
			<trkpt lat="49.03823984786868" lon="2.7475299406796694">
				<ele>159</ele>
				<time>2013-07-12T09:46:10</time>
			</trkpt>
			<trkpt lat="49.0383598767221" lon="2.7488399483263493">
				<ele>161</ele>
				<time>2013-07-12T09:46:24</time>
			</trkpt>
			<trkpt lat="49.038159968331456" lon="2.749669924378395">
				<ele>171</ele>
				<time>2013-07-12T09:46:33</time>
			</trkpt>
			<trkpt lat="49.037919994443655" lon="2.75253988802433">
				<ele>176</ele>
				<time>2013-07-12T09:47:03</time>
			</trkpt>
			<trkpt lat="49.03838996775448" lon="2.753159897401929">
				<ele>171</ele>
				<time>2013-07-12T09:47:13</time>
			</trkpt>
			<trkpt lat="49.03975998982787" lon="2.7542198728770018">
				<ele>172</ele>
				<time>2013-07-12T09:47:38</time>
			</trkpt>
			<trkpt lat="49.0418098680675" lon="2.7563898637890816">
				<ele>159</ele>
				<time>2013-07-12T09:48:18</time>
			</trkpt>
			<trkpt lat="49.04214992187917" lon="2.7569199353456497">
				<ele>153</ele>
				<time>2013-07-12T09:48:26</time>
			</trkpt>
			<trkpt lat="49.04245996847749" lon="2.7581399213522673">
				<ele>144</ele>
				<time>2013-07-12T09:48:39</time>
			</trkpt>
			<trkpt lat="49.04345992952585" lon="2.760269930586219">
				<ele>119</ele>
				<time>2013-07-12T09:49:07</time>
			</trkpt>
			<trkpt lat="49.04443994164467" lon="2.759999865666032">
				<ele>114</ele>
				<time>2013-07-12T09:49:23</time>
			</trkpt>
			<trkpt lat="49.04463985003531" lon="2.7608699910342693">
				<ele>112</ele>
				<time>2013-07-12T09:49:33</time>
			</trkpt>
			<trkpt lat="49.04483984224498" lon="2.761109881103039">
				<ele>112</ele>
				<time>2013-07-12T09:49:37</time>
			</trkpt>
			<trkpt lat="49.04839997179806" lon="2.7624599542468786">
				<ele>107</ele>
				<time>2013-07-12T09:50:35</time>
			</trkpt>
			<trkpt lat="49.04867992736399" lon="2.7627199608832598">
				<ele>107</ele>
				<time>2013-07-12T09:50:41</time>
			</trkpt>
			<trkpt lat="49.049829840660095" lon="2.766939913854003">
				<ele>106</ele>
				<time>2013-07-12T09:51:29</time>
			</trkpt>
			<trkpt lat="49.050579853355885" lon="2.7679399587213993">
				<ele>106</ele>
				<time>2013-07-12T09:51:45</time>
			</trkpt>
			<trkpt lat="49.05063986778259" lon="2.7685499098151922">
				<ele>106</ele>
				<time>2013-07-12T09:51:51</time>
			</trkpt>
			<trkpt lat="49.04987996444106" lon="2.7730899676680565">
				<ele>105</ele>
				<time>2013-07-12T09:52:40</time>
			</trkpt>
			<trkpt lat="49.05062997713685" lon="2.7743498515337706">
				<ele>104</ele>
				<time>2013-07-12T09:52:58</time>
			</trkpt>
			<trkpt lat="49.05080985277891" lon="2.774949911981821">
				<ele>104</ele>
				<time>2013-07-12T09:53:05</time>
			</trkpt>
			<trkpt lat="49.051459953188896" lon="2.778929891064763">
				<ele>101</ele>
				<time>2013-07-12T09:53:48</time>
			</trkpt>
			<trkpt lat="49.05187988653779" lon="2.782969968393445">
				<ele>101</ele>
				<time>2013-07-12T09:54:31</time>
			</trkpt>
			<trkpt lat="49.052609866485" lon="2.7861198876053095">
				<ele>102</ele>
				<time>2013-07-12T09:55:06</time>
			</trkpt>
			<trkpt lat="49.06024997122586" lon="2.8047799319028854">
				<ele>111</ele>
				<time>2013-07-12T09:58:57</time>
			</trkpt>
			<trkpt lat="49.06137985177338" lon="2.806419935077429">
				<ele>111</ele>
				<time>2013-07-12T09:59:22</time>
			</trkpt>
			<trkpt lat="49.06237989664078" lon="2.808669973164797">
				<ele>111</ele>
				<time>2013-07-12T09:59:50</time>
			</trkpt>
			<trkpt lat="49.06439985148609" lon="2.811239864677191">
				<ele>109</ele>
				<time>2013-07-12T10:00:32</time>
			</trkpt>
			<trkpt lat="49.06542998738587" lon="2.81376994214952">
				<ele>107</ele>
				<time>2013-07-12T10:01:04</time>
			</trkpt>
			<trkpt lat="49.06903990544379" lon="2.815109873190522">
				<ele>101</ele>
				<time>2013-07-12T10:02:03</time>
			</trkpt>
			<trkpt lat="49.07007984817028" lon="2.8156899008899927">
				<ele>93</ele>
				<time>2013-07-12T10:02:21</time>
			</trkpt>
			<trkpt lat="49.071139907464385" lon="2.816879963502288">
				<ele>88</ele>
				<time>2013-07-12T10:02:42</time>
			</trkpt>
			<trkpt lat="49.071009904146194" lon="2.8174799401313066">
				<ele>89</ele>
				<time>2013-07-12T10:02:49</time>
			</trkpt>
			<trkpt lat="49.071359848603606" lon="2.81819986179471">
				<ele>89</ele>
				<time>2013-07-12T10:02:58</time>
			</trkpt>
			<trkpt lat="49.073479883372784" lon="2.8193798661231995">
				<ele>93</ele>
				<time>2013-07-12T10:03:34</time>
			</trkpt>
			<trkpt lat="49.07329992391169" lon="2.82126990146935">
				<ele>93</ele>
				<time>2013-07-12T10:03:54</time>
			</trkpt>
			<trkpt lat="49.0731699205935" lon="2.8217099513858557">
				<ele>92</ele>
				<time>2013-07-12T10:03:59</time>
			</trkpt>
			<trkpt lat="49.07286993227899" lon="2.822039946913719">
				<ele>89</ele>
				<time>2013-07-12T10:04:05</time>
			</trkpt>
			<trkpt lat="49.072729870676994" lon="2.8234699834138155">
				<ele>90</ele>
				<time>2013-07-12T10:04:20</time>
			</trkpt>
			<trkpt lat="49.07350997440517" lon="2.8269399236887693">
				<ele>96</ele>
				<time>2013-07-12T10:04:59</time>
			</trkpt>
			<trkpt lat="49.074019845575094" lon="2.830689987167716">
				<ele>101</ele>
				<time>2013-07-12T10:05:39</time>
			</trkpt>
			<trkpt lat="49.0748499892652" lon="2.833519885316491">
				<ele>107</ele>
				<time>2013-07-12T10:06:12</time>
			</trkpt>
			<trkpt lat="49.07594986259937" lon="2.8386999014765024">
				<ele>105</ele>
				<time>2013-07-12T10:07:09</time>
			</trkpt>
			<trkpt lat="49.07624985091388" lon="2.8412199206650257">
				<ele>102</ele>
				<time>2013-07-12T10:07:36</time>
			</trkpt>
			<trkpt lat="49.07601993530989" lon="2.842859923839569">
				<ele>101</ele>
				<time>2013-07-12T10:07:53</time>
			</trkpt>
			<trkpt lat="49.07615999691188" lon="2.8455999679863453">
				<ele>101</ele>
				<time>2013-07-12T10:08:22</time>
			</trkpt>
			<trkpt lat="49.075409984216094" lon="2.848799843341112">
				<ele>96</ele>
				<time>2013-07-12T10:08:58</time>
			</trkpt>
			<trkpt lat="49.07495987601578" lon="2.8515698947012424">
				<ele>90</ele>
				<time>2013-07-12T10:09:28</time>
			</trkpt>
			<trkpt lat="49.074619989842176" lon="2.8523299656808376">
				<ele>88</ele>
				<time>2013-07-12T10:09:37</time>
			</trkpt>
			<trkpt lat="49.074789974838495" lon="2.855319958180189">
				<ele>90</ele>
				<time>2013-07-12T10:10:09</time>
			</trkpt>
			<trkpt lat="49.07601993530989" lon="2.85770989023149">
				<ele>92</ele>
				<time>2013-07-12T10:10:41</time>
			</trkpt>
			<trkpt lat="49.0773799829185" lon="2.8598499577492476">
				<ele>98</ele>
				<time>2013-07-12T10:11:12</time>
			</trkpt>
			<trkpt lat="49.07960998825729" lon="2.8625599946826696">
				<ele>100</ele>
				<time>2013-07-12T10:11:57</time>
			</trkpt>
			<trkpt lat="49.08036997541785" lon="2.862999876961112">
				<ele>104</ele>
				<time>2013-07-12T10:12:10</time>
			</trkpt>
			<trkpt lat="49.08133992925286" lon="2.86395994015038">
				<ele>103</ele>
				<time>2013-07-12T10:12:29</time>
			</trkpt>
			<trkpt lat="49.08203990198672" lon="2.8655298706144094">
				<ele>97</ele>
				<time>2013-07-12T10:12:49</time>
			</trkpt>
			<trkpt lat="49.08249990083277" lon="2.865929938852787">
				<ele>96</ele>
				<time>2013-07-12T10:12:57</time>
			</trkpt>
			<trkpt lat="49.083299953490496" lon="2.865689964964986">
				<ele>97</ele>
				<time>2013-07-12T10:13:10</time>
			</trkpt>
			<trkpt lat="49.08402984961867" lon="2.865669932216406">
				<ele>98</ele>
				<time>2013-07-12T10:13:22</time>
			</trkpt>
			<trkpt lat="49.086499912664294" lon="2.8668398782610893">
				<ele>104</ele>
				<time>2013-07-12T10:14:04</time>
			</trkpt>
			<trkpt lat="49.087829953059554" lon="2.8693499229848385">
				<ele>110</ele>
				<time>2013-07-12T10:14:37</time>
			</trkpt>
			<trkpt lat="49.08880996517837" lon="2.8717699460685253">
				<ele>114</ele>
				<time>2013-07-12T10:15:07</time>
			</trkpt>
			<trkpt lat="49.08863998018205" lon="2.8769099805504084">
				<ele>117</ele>
				<time>2013-07-12T10:16:01</time>
			</trkpt>
			<trkpt lat="49.090409986674786" lon="2.8810999263077974">
				<ele>114</ele>
				<time>2013-07-12T10:16:53</time>
			</trkpt>
			<trkpt lat="49.09699992276728" lon="2.889199946075678">
				<ele>117</ele>
				<time>2013-07-12T10:19:09</time>
			</trkpt>
			<trkpt lat="49.098339853808284" lon="2.8904899209737778">
				<ele>119</ele>
				<time>2013-07-12T10:19:34</time>
			</trkpt>
			<trkpt lat="49.101669900119305" lon="2.895179847255349">
				<ele>119</ele>
				<time>2013-07-12T10:20:47</time>
			</trkpt>
			<trkpt lat="49.101949939504266" lon="2.896039914339781">
				<ele>119</ele>
				<time>2013-07-12T10:20:57</time>
			</trkpt>
			<trkpt lat="49.102509934455156" lon="2.899469956755638">
				<ele>118</ele>
				<time>2013-07-12T10:21:34</time>
			</trkpt>
			<trkpt lat="49.105259869247675" lon="2.9104499984532595">
				<ele>126</ele>
				<time>2013-07-12T10:23:37</time>
			</trkpt>
			<trkpt lat="49.10569991916418" lon="2.9113699961453676">
				<ele>125</ele>
				<time>2013-07-12T10:23:49</time>
			</trkpt>
			<trkpt lat="49.10641120746732" lon="2.912196535617113">
				<ele>125.96</ele>
				<time>2013-07-12T10:24:03</time>
			</trkpt>
			<trkpt lat="49.10717991180718" lon="2.9130899626761675">
				<ele>127</ele>
				<time>2013-07-12T10:24:19</time>
			</trkpt>
			<trkpt lat="49.090839978307486" lon="2.9093499574810266">
				<ele>126</ele>
				<time>2013-07-12T10:28:43</time>
			</trkpt>
			<trkpt lat="49.08852984197438" lon="2.90733989328146">
				<ele>123</ele>
				<time>2013-07-12T10:29:26</time>
			</trkpt>
			<trkpt lat="49.08738998696208" lon="2.905629985034466">
				<ele>121</ele>
				<time>2013-07-12T10:29:52</time>
			</trkpt>
			<trkpt lat="49.08706996589899" lon="2.9057298973202705">
				<ele>123</ele>
				<time>2013-07-12T10:29:57</time>
			</trkpt>
			<trkpt lat="49.086409974843264" lon="2.9065098334103823">
				<ele>125</ele>
				<time>2013-07-12T10:30:10</time>
			</trkpt>
			<trkpt lat="49.085099967196584" lon="2.9060098528862">
				<ele>125</ele>
				<time>2013-07-12T10:30:32</time>
			</trkpt>
			<trkpt lat="49.083829857409" lon="2.904579984024167">
				<ele>126</ele>
				<time>2013-07-12T10:30:57</time>
			</trkpt>
			<trkpt lat="49.078019857406616" lon="2.8989299945533276">
				<ele>118</ele>
				<time>2013-07-12T10:32:47</time>
			</trkpt>
			<trkpt lat="49.076319923624396" lon="2.89682999253273">
				<ele>111</ele>
				<time>2013-07-12T10:33:22</time>
			</trkpt>
			<trkpt lat="49.07399998046458" lon="2.8932799212634563">
				<ele>107</ele>
				<time>2013-07-12T10:34:15</time>
			</trkpt>
			<trkpt lat="49.07301996834576" lon="2.891239933669567">
				<ele>102</ele>
				<time>2013-07-12T10:34:42</time>
			</trkpt>
			<trkpt lat="49.072319911792874" lon="2.8904499392956495">
				<ele>103</ele>
				<time>2013-07-12T10:34:55</time>
			</trkpt>
			<trkpt lat="49.07078996300697" lon="2.8894099965691566">
				<ele>98</ele>
				<time>2013-07-12T10:35:22</time>
			</trkpt>
			<trkpt lat="49.06970987096429" lon="2.8879898507148027">
				<ele>95</ele>
				<time>2013-07-12T10:35:45</time>
			</trkpt>
			<trkpt lat="49.06837999820709" lon="2.8846298810094595">
				<ele>116</ele>
				<time>2013-07-12T10:36:26</time>
			</trkpt>
			<trkpt lat="49.06800993718207" lon="2.8828698489814997">
				<ele>121</ele>
				<time>2013-07-12T10:36:46</time>
			</trkpt>
			<trkpt lat="49.066949961706996" lon="2.8819498512893915">
				<ele>120</ele>
				<time>2013-07-12T10:37:05</time>
			</trkpt>
			<trkpt lat="49.06605988740921" lon="2.880469858646393">
				<ele>120</ele>
				<time>2013-07-12T10:37:26</time>
			</trkpt>
			<trkpt lat="49.06582988798618" lon="2.87944994866848">
				<ele>119</ele>
				<time>2013-07-12T10:37:38</time>
			</trkpt>
			<trkpt lat="49.064289880916476" lon="2.8783998638391495">
				<ele>116</ele>
				<time>2013-07-12T10:38:05</time>
			</trkpt>
			<trkpt lat="49.06259983778" lon="2.8775599133223295">
				<ele>109</ele>
				<time>2013-07-12T10:38:33</time>
			</trkpt>
			<trkpt lat="49.06186985783279" lon="2.8764399234205484">
				<ele>108</ele>
				<time>2013-07-12T10:38:50</time>
			</trkpt>
			<trkpt lat="49.0589698869735" lon="2.873059920966625">
				<ele>106</ele>
				<time>2013-07-12T10:39:48</time>
			</trkpt>
			<trkpt lat="49.05842992477119" lon="2.8726399037986994">
				<ele>104</ele>
				<time>2013-07-12T10:39:58</time>
			</trkpt>
			<trkpt lat="49.0576799120754" lon="2.872539907693863">
				<ele>96</ele>
				<time>2013-07-12T10:40:10</time>
			</trkpt>
			<trkpt lat="49.0574399381876" lon="2.872349973767996">
				<ele>93</ele>
				<time>2013-07-12T10:40:14</time>
			</trkpt>
			<trkpt lat="49.056359846144915" lon="2.8695799224078655">
				<ele>79</ele>
				<time>2013-07-12T10:40:48</time>
			</trkpt>
			<trkpt lat="49.056639885529876" lon="2.867259979248047">
				<ele>78</ele>
				<time>2013-07-12T10:41:13</time>
			</trkpt>
			<trkpt lat="49.055559961125255" lon="2.8663399815559387">
				<ele>81</ele>
				<time>2013-07-12T10:41:33</time>
			</trkpt>
			<trkpt lat="49.05418993905187" lon="2.866119956597686">
				<ele>78</ele>
				<time>2013-07-12T10:41:55</time>
			</trkpt>
			<trkpt lat="49.053179919719696" lon="2.8672199975699186">
				<ele>75</ele>
				<time>2013-07-12T10:42:14</time>
			</trkpt>
			<trkpt lat="49.05108989216387" lon="2.871919982135296">
				<ele>80</ele>
				<time>2013-07-12T10:43:14</time>
			</trkpt>
			<trkpt lat="49.05029998160899" lon="2.87276990711689">
				<ele>85</ele>
				<time>2013-07-12T10:43:30</time>
			</trkpt>
			<trkpt lat="49.046259904280305" lon="2.873939936980605">
				<ele>79</ele>
				<time>2013-07-12T10:44:35</time>
			</trkpt>
			<trkpt lat="49.04435989446938" lon="2.87489983253181">
				<ele>80</ele>
				<time>2013-07-12T10:45:07</time>
			</trkpt>
			<trkpt lat="49.04186988249421" lon="2.875199904665351">
				<ele>80</ele>
				<time>2013-07-12T10:45:47</time>
			</trkpt>
			<trkpt lat="49.04078995808959" lon="2.8751499485224485">
				<ele>84</ele>
				<time>2013-07-12T10:46:05</time>
			</trkpt>
			<trkpt lat="49.039489924907684" lon="2.8759698662906885">
				<ele>84</ele>
				<time>2013-07-12T10:46:27</time>
			</trkpt>
			<trkpt lat="49.039079966023564" lon="2.8772099688649178">
				<ele>89</ele>
				<time>2013-07-12T10:46:42</time>
			</trkpt>
			<trkpt lat="49.03801999054849" lon="2.8773098811507225">
				<ele>91</ele>
				<time>2013-07-12T10:46:59</time>
			</trkpt>
			<trkpt lat="49.036809895187616" lon="2.8771098889410496">
				<ele>91</ele>
				<time>2013-07-12T10:47:18</time>
			</trkpt>
			<trkpt lat="49.036399936303496" lon="2.8773599211126566">
				<ele>92</ele>
				<time>2013-07-12T10:47:25</time>
			</trkpt>
			<trkpt lat="49.03470997698605" lon="2.876779977232218">
				<ele>94</ele>
				<time>2013-07-12T10:47:53</time>
			</trkpt>
			<trkpt lat="49.032679880037904" lon="2.876749886199832">
				<ele>97</ele>
				<time>2013-07-12T10:48:26</time>
			</trkpt>
			<trkpt lat="49.0296598803252" lon="2.877839868888259">
				<ele>96</ele>
				<time>2013-07-12T10:49:15</time>
			</trkpt>
			<trkpt lat="49.02873988263309" lon="2.8779999632388353">
				<ele>93</ele>
				<time>2013-07-12T10:49:30</time>
			</trkpt>
			<trkpt lat="49.02772994711995" lon="2.877919999882579">
				<ele>94</ele>
				<time>2013-07-12T10:49:46</time>
			</trkpt>
			<trkpt lat="49.02576983906329" lon="2.8771499544382095">
				<ele>102</ele>
				<time>2013-07-12T10:50:19</time>
			</trkpt>
			<trkpt lat="49.02505997568369" lon="2.877059932798147">
				<ele>105</ele>
				<time>2013-07-12T10:50:30</time>
			</trkpt>
			<trkpt lat="49.021849958226085" lon="2.877489924430847">
				<ele>113</ele>
				<time>2013-07-12T10:51:22</time>
			</trkpt>
			<trkpt lat="49.02007995173335" lon="2.877859901636839">
				<ele>115</ele>
				<time>2013-07-12T10:51:50</time>
			</trkpt>
			<trkpt lat="49.01967988349497" lon="2.8781799226999283">
				<ele>115</ele>
				<time>2013-07-12T10:51:58</time>
			</trkpt>
			<trkpt lat="49.01825990527868" lon="2.880819970741868">
				<ele>116</ele>
				<time>2013-07-12T10:52:33</time>
			</trkpt>
			<trkpt lat="49.01644983328879" lon="2.8826699405908585">
				<ele>120</ele>
				<time>2013-07-12T10:53:08</time>
			</trkpt>
			<trkpt lat="49.014139948412776" lon="2.8926399629563093">
				<ele>123</ele>
				<time>2013-07-12T10:54:59</time>
			</trkpt>
			<trkpt lat="49.01407993398607" lon="2.898519951850176">
				<ele>125</ele>
				<time>2013-07-12T10:56:01</time>
			</trkpt>
			<trkpt lat="49.01394993066788" lon="2.899179859086871">
				<ele>125</ele>
				<time>2013-07-12T10:56:08</time>
			</trkpt>
			<trkpt lat="49.01305985637009" lon="2.9024399165064096">
				<ele>122</ele>
				<time>2013-07-12T10:56:45</time>
			</trkpt>
			<trkpt lat="49.0092999022454" lon="2.909559840336442">
				<ele>113</ele>
				<time>2013-07-12T10:58:21</time>
			</trkpt>
			<trkpt lat="49.00845995172858" lon="2.91270992718637">
				<ele>111</ele>
				<time>2013-07-12T10:58:57</time>
			</trkpt>
			<trkpt lat="49.008529940620065" lon="2.914499882608652">
				<ele>107</ele>
				<time>2013-07-12T10:59:16</time>
			</trkpt>
			<trkpt lat="49.00821997784078" lon="2.9146199114620686">
				<ele>104</ele>
				<time>2013-07-12T10:59:21</time>
			</trkpt>
			<trkpt lat="49.0077199973166" lon="2.914269967004657">
				<ele>107</ele>
				<time>2013-07-12T10:59:30</time>
			</trkpt>
			<trkpt lat="49.00672992691398" lon="2.914139963686466">
				<ele>102</ele>
				<time>2013-07-12T10:59:46</time>
			</trkpt>
			<trkpt lat="49.00597991421819" lon="2.914549922570586">
				<ele>93</ele>
				<time>2013-07-12T10:59:59</time>
			</trkpt>
			<trkpt lat="49.006059961393476" lon="2.9147598892450333">
				<ele>88</ele>
				<time>2013-07-12T11:00:01</time>
			</trkpt>
			<trkpt lat="49.00692983530462" lon="2.9152698442339897">
				<ele>86</ele>
				<time>2013-07-12T11:00:16</time>
			</trkpt>
			<trkpt lat="49.007199900224805" lon="2.915639905259013">
				<ele>83</ele>
				<time>2013-07-12T11:00:22</time>
			</trkpt>
			<trkpt lat="49.00724985636771" lon="2.916289921849966">
				<ele>78</ele>
				<time>2013-07-12T11:00:29</time>
			</trkpt>
			<trkpt lat="49.005739940330386" lon="2.921619974076748">
				<ele>52</ele>
				<time>2013-07-12T11:01:30</time>
			</trkpt>
			<trkpt lat="49.004019973799586" lon="2.9217499773949385">
				<ele>53</ele>
				<time>2013-07-12T11:01:57</time>
			</trkpt>
			<trkpt lat="49.001289904117584" lon="2.9237499833106995">
				<ele>51</ele>
				<time>2013-07-12T11:02:46</time>
			</trkpt>
			<trkpt lat="49.00056998245418" lon="2.9246499482542276">
				<ele>51</ele>
				<time>2013-07-12T11:03:01</time>
			</trkpt>
			<trkpt lat="49.00028985925019" lon="2.9255099315196276">
				<ele>52</ele>
				<time>2013-07-12T11:03:11</time>
			</trkpt>
			<trkpt lat="49.0003099758178" lon="2.926799990236759">
				<ele>49</ele>
				<time>2013-07-12T11:03:24</time>
			</trkpt>
			<trkpt lat="49.00052983313799" lon="2.928929915651679">
				<ele>53</ele>
				<time>2013-07-12T11:03:47</time>
			</trkpt>
			<trkpt lat="49.000449953600764" lon="2.9297199938446283">
				<ele>53</ele>
				<time>2013-07-12T11:03:55</time>
			</trkpt>
			<trkpt lat="49.00071985088289" lon="2.9309699870646">
				<ele>51</ele>
				<time>2013-07-12T11:04:09</time>
			</trkpt>
			<trkpt lat="48.9983999915421" lon="2.9356198478490114">
				<ele>49</ele>
				<time>2013-07-12T11:05:11</time>
			</trkpt>
			<trkpt lat="48.997719967737794" lon="2.936479914933443">
				<ele>47</ele>
				<time>2013-07-12T11:05:25</time>
			</trkpt>
			<trkpt lat="48.9969598967582" lon="2.936939997598529">
				<ele>47</ele>
				<time>2013-07-12T11:05:38</time>
			</trkpt>
			<trkpt lat="48.99263986386359" lon="2.937919842079282">
				<ele>68</ele>
				<time>2013-07-12T11:06:48</time>
			</trkpt>
			<trkpt lat="48.9854399766773" lon="2.9440798703581095">
				<ele>67</ele>
				<time>2013-07-12T11:09:00</time>
			</trkpt>
			<trkpt lat="48.98051996715367" lon="2.9457299318164587">
				<ele>70</ele>
				<time>2013-07-12T11:10:21</time>
			</trkpt>
			<trkpt lat="48.96434993483126" lon="2.949739834293723">
				<ele>73</ele>
				<time>2013-07-12T11:14:43</time>
			</trkpt>
			<trkpt lat="48.96427994593978" lon="2.9499599430710077">
				<ele>73</ele>
				<time>2013-07-12T11:14:46</time>
			</trkpt>
			<trkpt lat="48.957799980416894" lon="2.9469798412173986">
				<ele>58</ele>
				<time>2013-07-12T11:16:34</time>
			</trkpt>
			<trkpt lat="48.95781984552741" lon="2.95047995634377">
				<ele>60</ele>
				<time>2013-07-12T11:17:11</time>
			</trkpt>
			<trkpt lat="48.95744995214045" lon="2.9505698941648006">
				<ele>58</ele>
				<time>2013-07-12T11:17:17</time>
			</trkpt>
			<trkpt lat="48.95649994723499" lon="2.9503299202769995">
				<ele>58</ele>
				<time>2013-07-12T11:17:32</time>
			</trkpt>
			<trkpt lat="48.956989953294396" lon="2.9480899404734373">
				<ele>60</ele>
				<time>2013-07-12T11:17:57</time>
			</trkpt>
			<trkpt lat="48.95710989832878" lon="2.94680985622108">
				<ele>58</ele>
				<time>2013-07-12T11:18:11</time>
			</trkpt>
			<trkpt lat="48.956839833408594" lon="2.94600997120142">
				<ele>55</ele>
				<time>2013-07-12T11:18:20</time>
			</trkpt>
			<trkpt lat="48.95442986860871" lon="2.9443599097430706">
				<ele>54</ele>
				<time>2013-07-12T11:19:02</time>
			</trkpt>
			<trkpt lat="48.952409913763404" lon="2.942249933257699">
				<ele>54</ele>
				<time>2013-07-12T11:19:42</time>
			</trkpt>
			<trkpt lat="48.95233984105289" lon="2.9423799365758896">
				<ele>55</ele>
				<time>2013-07-12T11:19:43</time>
			</trkpt>
			<trkpt lat="48.9515398722142" lon="2.9421599954366684">
				<ele>55</ele>
				<time>2013-07-12T11:19:56</time>
			</trkpt>
			<trkpt lat="48.9487199485302" lon="2.9399299062788486">
				<ele>50</ele>
				<time>2013-07-12T11:20:47</time>
			</trkpt>
			<trkpt lat="48.94541999325156" lon="2.939079897478223">
				<ele>50</ele>
				<time>2013-07-12T11:21:41</time>
			</trkpt>
			<trkpt lat="48.9436599612236" lon="2.937529915943742">
				<ele>54</ele>
				<time>2013-07-12T11:22:13</time>
			</trkpt>
			<trkpt lat="48.9426498580724" lon="2.936909906566143">
				<ele>59</ele>
				<time>2013-07-12T11:22:31</time>
			</trkpt>
			<trkpt lat="48.94151997752488" lon="2.936959946528077">
				<ele>66</ele>
				<time>2013-07-12T11:22:49</time>
			</trkpt>
			<trkpt lat="48.9402099698782" lon="2.9374999925494194">
				<ele>80</ele>
				<time>2013-07-12T11:23:11</time>
			</trkpt>
			<trkpt lat="48.939329870045185" lon="2.9372098948806524">
				<ele>88</ele>
				<time>2013-07-12T11:23:25</time>
			</trkpt>
			<trkpt lat="48.93918997608125" lon="2.937509883195162">
				<ele>90</ele>
				<time>2013-07-12T11:23:29</time>
			</trkpt>
			<trkpt lat="48.93909995444119" lon="2.939489856362343">
				<ele>97</ele>
				<time>2013-07-12T11:23:50</time>
			</trkpt>
			<trkpt lat="48.93890993669629" lon="2.9399599134922028">
				<ele>99</ele>
				<time>2013-07-12T11:23:56</time>
			</trkpt>
			<trkpt lat="48.939029881730676" lon="2.940859878435731">
				<ele>100</ele>
				<time>2013-07-12T11:24:05</time>
			</trkpt>
			<trkpt lat="48.93890993669629" lon="2.9437499586492777">
				<ele>105</ele>
				<time>2013-07-12T11:24:36</time>
			</trkpt>
			<trkpt lat="48.93929994665086" lon="2.94594987295568">
				<ele>102</ele>
				<time>2013-07-12T11:25:00</time>
			</trkpt>
			<trkpt lat="48.93929994665086" lon="2.9472799133509398">
				<ele>104</ele>
				<time>2013-07-12T11:25:14</time>
			</trkpt>
			<trkpt lat="48.93893986009061" lon="2.949849972501397">
				<ele>111</ele>
				<time>2013-07-12T11:25:41</time>
			</trkpt>
			<trkpt lat="48.93885998055339" lon="2.953369952738285">
				<ele>114</ele>
				<time>2013-07-12T11:26:18</time>
			</trkpt>
			<trkpt lat="48.9381599240005" lon="2.9563399963080883">
				<ele>118</ele>
				<time>2013-07-12T11:26:52</time>
			</trkpt>
			<trkpt lat="48.937389962375164" lon="2.958179907873273">
				<ele>125</ele>
				<time>2013-07-12T11:27:15</time>
			</trkpt>
			<trkpt lat="48.93679987639189" lon="2.959149945527315">
				<ele>131</ele>
				<time>2013-07-12T11:27:28</time>
			</trkpt>
			<trkpt lat="48.93696986138821" lon="2.960699927061796">
				<ele>136</ele>
				<time>2013-07-12T11:27:45</time>
			</trkpt>
			<trkpt lat="48.93755994737148" lon="2.96330988407135">
				<ele>138</ele>
				<time>2013-07-12T11:28:14</time>
			</trkpt>
			<trkpt lat="48.9370998647064" lon="2.9629699140787125">
				<ele>139</ele>
				<time>2013-07-12T11:28:22</time>
			</trkpt>
			<trkpt lat="48.93641984090209" lon="2.9629999212920666">
				<ele>140</ele>
				<time>2013-07-12T11:28:33</time>
			</trkpt>
			<trkpt lat="48.93574987538159" lon="2.9632599279284477">
				<ele>139</ele>
				<time>2013-07-12T11:28:44</time>
			</trkpt>
			<trkpt lat="48.93535986542702" lon="2.9636499378830194">
				<ele>139</ele>
				<time>2013-07-12T11:28:52</time>
			</trkpt>
			<trkpt lat="48.935219971463084" lon="2.9640799295157194">
				<ele>138</ele>
				<time>2013-07-12T11:28:57</time>
			</trkpt>
			<trkpt lat="48.93512986600399" lon="2.9668299481272697">
				<ele>137</ele>
				<time>2013-07-12T11:29:26</time>
			</trkpt>
			<trkpt lat="48.93477992154658" lon="2.96826995909214">
				<ele>127</ele>
				<time>2013-07-12T11:29:42</time>
			</trkpt>
			<trkpt lat="48.93259987235069" lon="2.969529926776886">
				<ele>120</ele>
				<time>2013-07-12T11:30:19</time>
			</trkpt>
			<trkpt lat="48.923272490501404" lon="2.9704899061471224">
				<ele>147.3</ele>
				<time>2013-07-12T11:32:49</time>
			</trkpt>
			<trkpt lat="48.922009924426675" lon="2.970619909465313">
				<ele>151</ele>
				<time>2013-07-12T11:33:09</time>
			</trkpt>
			<trkpt lat="48.92108992673457" lon="2.9704799316823483">
				<ele>154</ele>
				<time>2013-07-12T11:33:24</time>
			</trkpt>
			<trkpt lat="48.92081986181438" lon="2.969749951735139">
				<ele>151</ele>
				<time>2013-07-12T11:33:33</time>
			</trkpt>
			<trkpt lat="48.919649915769696" lon="2.9684999585151672">
				<ele>153</ele>
				<time>2013-07-12T11:33:56</time>
			</trkpt>
			<trkpt lat="48.915309850126505" lon="2.966439938172698">
				<ele>169</ele>
				<time>2013-07-12T11:35:08</time>
			</trkpt>
			<trkpt lat="48.914879858493805" lon="2.9660798516124487">
				<ele>170</ele>
				<time>2013-07-12T11:35:16</time>
			</trkpt>
			<trkpt lat="48.91397989355028" lon="2.96506991609931">
				<ele>167</ele>
				<time>2013-07-12T11:35:34</time>
			</trkpt>
			<trkpt lat="48.9135399274528" lon="2.962389886379242">
				<ele>165</ele>
				<time>2013-07-12T11:36:03</time>
			</trkpt>
			<trkpt lat="48.91323993913829" lon="2.961989985778928">
				<ele>166</ele>
				<time>2013-07-12T11:36:10</time>
			</trkpt>
			<trkpt lat="48.91060994938016" lon="2.9625499807298183">
				<ele>169</ele>
				<time>2013-07-12T11:36:52</time>
			</trkpt>
			<trkpt lat="48.90929994173348" lon="2.9620799235999584">
				<ele>168</ele>
				<time>2013-07-12T11:37:14</time>
			</trkpt>
			<trkpt lat="48.90787996351719" lon="2.961799968034029">
				<ele>170</ele>
				<time>2013-07-12T11:37:37</time>
			</trkpt>
			<trkpt lat="48.906409945338964" lon="2.961129918694496">
				<ele>165</ele>
				<time>2013-07-12T11:38:01</time>
			</trkpt>
			<trkpt lat="48.90161985531449" lon="2.9602799098938704">
				<ele>147</ele>
				<time>2013-07-12T11:39:18</time>
			</trkpt>
			<trkpt lat="48.9011499658227" lon="2.9582398384809494">
				<ele>145</ele>
				<time>2013-07-12T11:39:41</time>
			</trkpt>
			<trkpt lat="48.8998599909246" lon="2.9544998332858086">
				<ele>152</ele>
				<time>2013-07-12T11:40:26</time>
			</trkpt>
			<trkpt lat="48.89915985055268" lon="2.954079983755946">
				<ele>152</ele>
				<time>2013-07-12T11:40:38</time>
			</trkpt>
			<trkpt lat="48.89859985560179" lon="2.9531498439610004">
				<ele>153</ele>
				<time>2013-07-12T11:40:51</time>
			</trkpt>
			<trkpt lat="48.89763996005058" lon="2.95221995562315">
				<ele>155</ele>
				<time>2013-07-12T11:41:09</time>
			</trkpt>
			<trkpt lat="48.89621998183429" lon="2.95221995562315">
				<ele>159</ele>
				<time>2013-07-12T11:41:32</time>
			</trkpt>
			<trkpt lat="48.89556988142431" lon="2.952399915084243">
				<ele>161</ele>
				<time>2013-07-12T11:41:42</time>
			</trkpt>
			<trkpt lat="48.8954599108547" lon="2.9512199945747852">
				<ele>159</ele>
				<time>2013-07-12T11:41:55</time>
			</trkpt>
			<trkpt lat="48.89571991749108" lon="2.949309842661023">
				<ele>158</ele>
				<time>2013-07-12T11:42:16</time>
			</trkpt>
			<trkpt lat="48.89625987969339" lon="2.9485899209976196">
				<ele>159</ele>
				<time>2013-07-12T11:42:27</time>
			</trkpt>
			<trkpt lat="48.896369850263" lon="2.9480999149382114">
				<ele>160</ele>
				<time>2013-07-12T11:42:32</time>
			</trkpt>
			<trkpt lat="48.89575989916921" lon="2.943569915369153">
				<ele>158</ele>
				<time>2013-07-12T11:43:21</time>
			</trkpt>
			<trkpt lat="48.89587984420359" lon="2.940499959513545">
				<ele>157</ele>
				<time>2013-07-12T11:43:54</time>
			</trkpt>
			<trkpt lat="48.89538983814418" lon="2.940839845687151">
				<ele>157</ele>
				<time>2013-07-12T11:44:02</time>
			</trkpt>
			<trkpt lat="48.89401998370886" lon="2.938979985192418">
				<ele>153</ele>
				<time>2013-07-12T11:44:32</time>
			</trkpt>
			<trkpt lat="48.8923099078238" lon="2.9354599211364985">
				<ele>156</ele>
				<time>2013-07-12T11:45:18</time>
			</trkpt>
			<trkpt lat="48.891649916768074" lon="2.9348799772560596">
				<ele>156</ele>
				<time>2013-07-12T11:45:30</time>
			</trkpt>
			<trkpt lat="48.8910199329257" lon="2.934669842943549">
				<ele>152</ele>
				<time>2013-07-12T11:45:40</time>
			</trkpt>
			<trkpt lat="48.8911599945277" lon="2.932479903101921">
				<ele>153</ele>
				<time>2013-07-12T11:46:03</time>
			</trkpt>
			<trkpt lat="48.89107986353338" lon="2.9321699403226376">
				<ele>153</ele>
				<time>2013-07-12T11:46:07</time>
			</trkpt>
			<trkpt lat="48.890359941869974" lon="2.931549930945039">
				<ele>153</ele>
				<time>2013-07-12T11:46:20</time>
			</trkpt>
			<trkpt lat="48.89047997072339" lon="2.9310299176722765">
				<ele>152</ele>
				<time>2013-07-12T11:46:26</time>
			</trkpt>
			<trkpt lat="48.88934983871877" lon="2.9305599443614483">
				<ele>148</ele>
				<time>2013-07-12T11:46:45</time>
			</trkpt>
			<trkpt lat="48.887889962643385" lon="2.9305799771100283">
				<ele>144</ele>
				<time>2013-07-12T11:47:08</time>
			</trkpt>
			<trkpt lat="48.88707993552089" lon="2.931159920990467">
				<ele>141</ele>
				<time>2013-07-12T11:47:22</time>
			</trkpt>
			<trkpt lat="48.88497993350029" lon="2.931459993124008">
				<ele>125</ele>
				<time>2013-07-12T11:47:56</time>
			</trkpt>
			<trkpt lat="48.883679900318384" lon="2.9302099999040365">
				<ele>122</ele>
				<time>2013-07-12T11:48:21</time>
			</trkpt>
			<trkpt lat="48.882759902626276" lon="2.9296799283474684">
				<ele>121</ele>
				<time>2013-07-12T11:48:37</time>
			</trkpt>
			<trkpt lat="48.88216998428106" lon="2.929609939455986">
				<ele>121</ele>
				<time>2013-07-12T11:48:46</time>
			</trkpt>
			<trkpt lat="48.881399938836694" lon="2.929089842364192">
				<ele>122</ele>
				<time>2013-07-12T11:48:59</time>
			</trkpt>
			<trkpt lat="48.879489954560995" lon="2.9299599677324295">
				<ele>129</ele>
				<time>2013-07-12T11:49:31</time>
			</trkpt>
			<trkpt lat="48.87851991690695" lon="2.921379916369915">
				<ele>109</ele>
				<time>2013-07-12T11:51:03</time>
			</trkpt>
			<trkpt lat="48.876889888197184" lon="2.913879957050085">
				<ele>99</ele>
				<time>2013-07-12T11:52:26</time>
			</trkpt>
			<trkpt lat="48.87709993869066" lon="2.909219954162836">
				<ele>99</ele>
				<time>2013-07-12T11:53:15</time>
			</trkpt>
			<trkpt lat="48.8776798825711" lon="2.9070399049669504">
				<ele>96</ele>
				<time>2013-07-12T11:53:40</time>
			</trkpt>
			<trkpt lat="48.87817986309528" lon="2.90602988563478">
				<ele>93</ele>
				<time>2013-07-12T11:53:54</time>
			</trkpt>
			<trkpt lat="48.87713992036879" lon="2.9046299401670694">
				<ele>99</ele>
				<time>2013-07-12T11:54:16</time>
			</trkpt>
			<trkpt lat="48.87603996321559" lon="2.903699968010187">
				<ele>105</ele>
				<time>2013-07-12T11:54:36</time>
			</trkpt>
			<trkpt lat="48.873599991202354" lon="2.902579978108406">
				<ele>115</ele>
				<time>2013-07-12T11:55:17</time>
			</trkpt>
			<trkpt lat="48.87173996306956" lon="2.902949955314398">
				<ele>121</ele>
				<time>2013-07-12T11:55:47</time>
			</trkpt>
			<trkpt lat="48.867669962346554" lon="2.902949955314398">
				<ele>118</ele>
				<time>2013-07-12T11:56:52</time>
			</trkpt>
			<trkpt lat="48.8660098426044" lon="2.90432995185256">
				<ele>105</ele>
				<time>2013-07-12T11:57:22</time>
			</trkpt>
			<trkpt lat="48.86546988040209" lon="2.9044299479573965">
				<ele>101</ele>
				<time>2013-07-12T11:57:31</time>
			</trkpt>
			<trkpt lat="48.86446983553469" lon="2.9043398424983025">
				<ele>92</ele>
				<time>2013-07-12T11:57:47</time>
			</trkpt>
			<trkpt lat="48.86398988775909" lon="2.9033599980175495">
				<ele>89</ele>
				<time>2013-07-12T11:58:00</time>
			</trkpt>
			<trkpt lat="48.86353986337781" lon="2.903189929202199">
				<ele>82</ele>
				<time>2013-07-12T11:58:07</time>
			</trkpt>
			<trkpt lat="48.86325990781188" lon="2.90344993583858">
				<ele>78</ele>
				<time>2013-07-12T11:58:13</time>
			</trkpt>
			<trkpt lat="48.862259862944484" lon="2.905349861830473">
				<ele>67</ele>
				<time>2013-07-12T11:58:38</time>
			</trkpt>
			<trkpt lat="48.85987998917699" lon="2.90692993439734">
				<ele>53</ele>
				<time>2013-07-12T11:59:20</time>
			</trkpt>
			<trkpt lat="48.85888849385083" lon="2.90711123496294">
				<ele>51.79</ele>
				<time>2013-07-12T11:59:36</time>
			</trkpt>
		</trkseg>
	</trk>
</gpx>
