<?xml version="1.0" encoding="UTF-8"?>
<gpx creator="Garmin Connect" version="1.1" xsi:schemaLocation="http://www.topografix.com/GPX/1/1 http://www.topografix.com/GPX/11.xsd" xmlns:ns3="http://www.garmin.com/xmlschemas/TrackPointExtension/v1" xmlns="http://www.topografix.com/GPX/1/1" xmlns:xsi="http://www.w3.org/2001/XMLSchema-instance" xmlns:ns2="http://www.garmin.com/xmlschemas/GpxExtensions/v3">
	<metadata>
		<name>002-G2-95 km-D 858 m-La Marne</name>
		<link href="connect.garmin.com">
			<text>Garmin Connect</text>
		</link>
		<time>2013-07-12T08:00:00</time>
	</metadata>
	<trk>
		<name>002-G2-95 km-D 858 m-La Marne</name>
		<trkseg>
			<trkpt lat="48.858190616592765" lon="2.9070160165429115">
				<ele>50.81</ele>
				<time>2013-07-12T08:00:00</time>
			</trkpt>
			<trkpt lat="48.858190616592765" lon="2.9070161003619432">
				<ele>50.97</ele>
				<time>2013-07-12T08:00:00</time>
			</trkpt>
			<trkpt lat="48.85822900570929" lon="2.9070639610290527">
				<ele>51.06</ele>
				<time>2013-07-12T08:00:01</time>
			</trkpt>
			<trkpt lat="48.8581109046936" lon="2.9073429107666016">
				<ele>51.36</ele>
				<time>2013-07-12T08:00:04</time>
			</trkpt>
			<trkpt lat="48.8577139377594" lon="2.90812611579895">
				<ele>51.32</ele>
				<time>2013-07-12T08:00:15</time>
			</trkpt>
			<trkpt lat="48.857638919726014" lon="2.908276319503784">
				<ele>51.31</ele>
				<time>2013-07-12T08:00:17</time>
			</trkpt>
			<trkpt lat="48.85763883590698" lon="2.908276319503784">
				<ele>51.34</ele>
				<time>2013-07-12T08:00:17</time>
			</trkpt>
			<trkpt lat="48.85724195279181" lon="2.909005880355835">
				<ele>51.43</ele>
				<time>2013-07-12T08:00:27</time>
			</trkpt>
			<trkpt lat="48.85717757977545" lon="2.9090917110443115">
				<ele>51.59</ele>
				<time>2013-07-12T08:00:28</time>
			</trkpt>
			<trkpt lat="48.857102394104004" lon="2.9091989994049072">
				<ele>51.71</ele>
				<time>2013-07-12T08:00:30</time>
			</trkpt>
			<trkpt lat="48.85717757977545" lon="2.9096603393554688">
				<ele>51.72</ele>
				<time>2013-07-12T08:00:35</time>
			</trkpt>
			<trkpt lat="48.857392156496644" lon="2.9109370708465576">
				<ele>51.86</ele>
				<time>2013-07-12T08:00:49</time>
			</trkpt>
			<trkpt lat="48.857402885332704" lon="2.9110658168792725">
				<ele>51.93</ele>
				<time>2013-07-12T08:00:50</time>
			</trkpt>
			<trkpt lat="48.85772475041449" lon="2.913597822189331">
				<ele>52.19</ele>
				<time>2013-07-12T08:01:17</time>
			</trkpt>
			<trkpt lat="48.8579607848078" lon="2.9136407375335693">
				<ele>52.27</ele>
				<time>2013-07-12T08:01:21</time>
			</trkpt>
			<trkpt lat="48.8581645488739" lon="2.9137051105499268">
				<ele>52.28</ele>
				<time>2013-07-12T08:01:24</time>
			</trkpt>
			<trkpt lat="48.858304023742676" lon="2.913823127746582">
				<ele>52.2</ele>
				<time>2013-07-12T08:01:27</time>
			</trkpt>
			<trkpt lat="48.85854014195502" lon="2.9140377044677734">
				<ele>52.18</ele>
				<time>2013-07-12T08:01:31</time>
			</trkpt>
			<trkpt lat="48.85866888798773" lon="2.914177179336548">
				<ele>52.29</ele>
				<time>2013-07-12T08:01:34</time>
			</trkpt>
			<trkpt lat="48.85920532979071" lon="2.914777994155884">
				<ele>52.6</ele>
				<time>2013-07-12T08:01:44</time>
			</trkpt>
			<trkpt lat="48.85920524597168" lon="2.914777994155884">
				<ele>52.74</ele>
				<time>2013-07-12T08:01:44</time>
			</trkpt>
			<trkpt lat="48.85925889015198" lon="2.9148316383361816">
				<ele>52.92</ele>
				<time>2013-07-12T08:01:45</time>
			</trkpt>
			<trkpt lat="48.859323263168335" lon="2.915024757385254">
				<ele>53.23</ele>
				<time>2013-07-12T08:01:48</time>
			</trkpt>
			<trkpt lat="48.859355449676514" lon="2.915142774581909">
				<ele>53.52</ele>
				<time>2013-07-12T08:01:49</time>
			</trkpt>
			<trkpt lat="48.85936617851257" lon="2.915250062942505">
				<ele>53.81</ele>
				<time>2013-07-12T08:01:50</time>
			</trkpt>
			<trkpt lat="48.859355533495545" lon="2.91562557220459">
				<ele>54.17</ele>
				<time>2013-07-12T08:01:54</time>
			</trkpt>
			<trkpt lat="48.85930188931525" lon="2.9161834716796875">
				<ele>54.57</ele>
				<time>2013-07-12T08:02:00</time>
			</trkpt>
			<trkpt lat="48.859301805496216" lon="2.9161834716796875">
				<ele>55.07</ele>
				<time>2013-07-12T08:02:00</time>
			</trkpt>
			<trkpt lat="48.85900139808655" lon="2.918039560317993">
				<ele>55.57</ele>
				<time>2013-07-12T08:02:20</time>
			</trkpt>
			<trkpt lat="48.859065771102905" lon="2.918071746826172">
				<ele>56.59</ele>
				<time>2013-07-12T08:02:21</time>
			</trkpt>
			<trkpt lat="48.859087228775024" lon="2.918168306350708">
				<ele>57.76</ele>
				<time>2013-07-12T08:02:22</time>
			</trkpt>
			<trkpt lat="48.859097957611084" lon="2.9183077812194824">
				<ele>59.2</ele>
				<time>2013-07-12T08:02:24</time>
			</trkpt>
			<trkpt lat="48.85894775390625" lon="2.919820547103882">
				<ele>60.89</ele>
				<time>2013-07-12T08:02:40</time>
			</trkpt>
			<trkpt lat="48.85895848274231" lon="2.921783924102783">
				<ele>63.64</ele>
				<time>2013-07-12T08:03:01</time>
			</trkpt>
			<trkpt lat="48.859108686447144" lon="2.922492027282715">
				<ele>66.13</ele>
				<time>2013-07-12T08:03:09</time>
			</trkpt>
			<trkpt lat="48.85946273803711" lon="2.9234039783477783">
				<ele>68.73</ele>
				<time>2013-07-12T08:03:20</time>
			</trkpt>
			<trkpt lat="48.85951646603644" lon="2.9234683513641357">
				<ele>70.72</ele>
				<time>2013-07-12T08:03:21</time>
			</trkpt>
			<trkpt lat="48.860106552019715" lon="2.924240827560425">
				<ele>72.83</ele>
				<time>2013-07-12T08:03:33</time>
			</trkpt>
			<trkpt lat="48.86040687561035" lon="2.9246699810028076">
				<ele>75.0</ele>
				<time>2013-07-12T08:03:40</time>
			</trkpt>
			<trkpt lat="48.860578536987305" lon="2.9250240325927734">
				<ele>76.73</ele>
				<time>2013-07-12T08:03:44</time>
			</trkpt>
			<trkpt lat="48.86071801185608" lon="2.925539016723633">
				<ele>78.2</ele>
				<time>2013-07-12T08:03:50</time>
			</trkpt>
			<trkpt lat="48.86073955334723" lon="2.9256677627563477">
				<ele>79.68</ele>
				<time>2013-07-12T08:03:52</time>
			</trkpt>
			<trkpt lat="48.860793113708496" lon="2.9260432720184326">
				<ele>81.24</ele>
				<time>2013-07-12T08:03:56</time>
			</trkpt>
			<trkpt lat="48.86081465519965" lon="2.9275882244110107">
				<ele>83.03</ele>
				<time>2013-07-12T08:04:12</time>
			</trkpt>
			<trkpt lat="48.86107214726508" lon="2.9296374320983887">
				<ele>84.08</ele>
				<time>2013-07-12T08:04:34</time>
			</trkpt>
			<trkpt lat="48.86118614114821" lon="2.9305359721183777">
				<ele>85.31</ele>
				<time>2013-07-12T08:04:44</time>
			</trkpt>
			<trkpt lat="48.861185889691114" lon="2.9305337090045214">
				<ele>85.32</ele>
				<time>2013-07-12T08:04:44</time>
			</trkpt>
			<trkpt lat="48.861185889691114" lon="2.930533792823553">
				<ele>85.21</ele>
				<time>2013-07-12T08:04:44</time>
			</trkpt>
			<trkpt lat="48.861243724823" lon="2.9309892654418945">
				<ele>87.36</ele>
				<time>2013-07-12T08:04:49</time>
			</trkpt>
			<trkpt lat="48.8616943359375" lon="2.9336178302764893">
				<ele>94.0</ele>
				<time>2013-07-12T08:05:17</time>
			</trkpt>
			<trkpt lat="48.8622522354126" lon="2.935420274734497">
				<ele>93.0</ele>
				<time>2013-07-12T08:05:38</time>
			</trkpt>
			<trkpt lat="48.862831592559814" lon="2.937115430831909">
				<ele>98.66</ele>
				<time>2013-07-12T08:05:58</time>
			</trkpt>
			<trkpt lat="48.86364698410034" lon="2.939615249633789">
				<ele>98.17</ele>
				<time>2013-07-12T08:06:28</time>
			</trkpt>
			<trkpt lat="48.8641619682312" lon="2.9414284229278564">
				<ele>102.02</ele>
				<time>2013-07-12T08:06:49</time>
			</trkpt>
			<trkpt lat="48.86420496739447" lon="2.9416000843048096">
				<ele>102.77</ele>
				<time>2013-07-12T08:06:50</time>
			</trkpt>
			<trkpt lat="48.86446237564087" lon="2.9428446292877197">
				<ele>104.29</ele>
				<time>2013-07-12T08:07:04</time>
			</trkpt>
			<trkpt lat="48.864601934328675" lon="2.9438316822052">
				<ele>106.49</ele>
				<time>2013-07-12T08:07:15</time>
			</trkpt>
			<trkpt lat="48.864634120836854" lon="2.9440999031066895">
				<ele>108.31</ele>
				<time>2013-07-12T08:07:18</time>
			</trkpt>
			<trkpt lat="48.86463403701782" lon="2.9440999031066895">
				<ele>108.31</ele>
				<time>2013-07-12T08:07:18</time>
			</trkpt>
			<trkpt lat="48.86531003750861" lon="2.9484879970550537">
				<ele>134.21</ele>
				<time>2013-07-12T08:08:05</time>
			</trkpt>
			<trkpt lat="48.865374410524964" lon="2.9490458965301514">
				<ele>136.05</ele>
				<time>2013-07-12T08:08:11</time>
			</trkpt>
			<trkpt lat="48.86538505554199" lon="2.949206829071045">
				<ele>135.93</ele>
				<time>2013-07-12T08:08:13</time>
			</trkpt>
			<trkpt lat="48.86541724205017" lon="2.9503870010375977">
				<ele>136.0</ele>
				<time>2013-07-12T08:08:25</time>
			</trkpt>
			<trkpt lat="48.86547088623047" lon="2.951202392578125">
				<ele>141.09</ele>
				<time>2013-07-12T08:08:34</time>
			</trkpt>
			<trkpt lat="48.865824937820435" lon="2.9536914825439453">
				<ele>150.0</ele>
				<time>2013-07-12T08:09:01</time>
			</trkpt>
			<trkpt lat="48.86600732803345" lon="2.954678535461426">
				<ele>150.0</ele>
				<time>2013-07-12T08:09:12</time>
			</trkpt>
			<trkpt lat="48.86601814068854" lon="2.954721450805664">
				<ele>150.0</ele>
				<time>2013-07-12T08:09:12</time>
			</trkpt>
			<trkpt lat="48.86614680290222" lon="2.955118417739868">
				<ele>150.0</ele>
				<time>2013-07-12T08:09:17</time>
			</trkpt>
			<trkpt lat="48.86822819709778" lon="2.960193157196045">
				<ele>148.25</ele>
				<time>2013-07-12T08:10:20</time>
			</trkpt>
			<trkpt lat="48.86701583862305" lon="2.9636693000793457">
				<ele>146.74</ele>
				<time>2013-07-12T08:11:01</time>
			</trkpt>
			<trkpt lat="48.86684099212289" lon="2.9640395287424326">
				<ele>146.26</ele>
				<time>2013-07-12T08:11:06</time>
			</trkpt>
			<trkpt lat="48.866841327399015" lon="2.9640389420092106">
				<ele>146.26</ele>
				<time>2013-07-12T08:11:06</time>
			</trkpt>
			<trkpt lat="48.865835666656494" lon="2.9661691188812256">
				<ele>149.75</ele>
				<time>2013-07-12T08:11:34</time>
			</trkpt>
			<trkpt lat="48.86505254544318" lon="2.967735528945923">
				<ele>150.25</ele>
				<time>2013-07-12T08:11:54</time>
			</trkpt>
			<trkpt lat="48.86419415473938" lon="2.9694736003875732">
				<ele>150.4</ele>
				<time>2013-07-12T08:12:17</time>
			</trkpt>
			<trkpt lat="48.864140594378114" lon="2.9696881771087646">
				<ele>150.06</ele>
				<time>2013-07-12T08:12:20</time>
			</trkpt>
			<trkpt lat="48.86414051055908" lon="2.9696881771087646">
				<ele>149.29</ele>
				<time>2013-07-12T08:12:20</time>
			</trkpt>
			<trkpt lat="48.86362552642822" lon="2.975921630859375">
				<ele>147.53</ele>
				<time>2013-07-12T08:13:26</time>
			</trkpt>
			<trkpt lat="48.863346576690674" lon="2.979590892791748">
				<ele>145.97</ele>
				<time>2013-07-12T08:14:05</time>
			</trkpt>
			<trkpt lat="48.86325001716614" lon="2.980191707611084">
				<ele>144.8</ele>
				<time>2013-07-12T08:14:11</time>
			</trkpt>
			<trkpt lat="48.862799406051636" lon="2.982316017150879">
				<ele>143.37</ele>
				<time>2013-07-12T08:14:35</time>
			</trkpt>
			<trkpt lat="48.862627828493714" lon="2.9835498332977295">
				<ele>142.65</ele>
				<time>2013-07-12T08:14:48</time>
			</trkpt>
			<trkpt lat="48.862617099657655" lon="2.983582019805908">
				<ele>142.25</ele>
				<time>2013-07-12T08:14:48</time>
			</trkpt>
			<trkpt lat="48.862552642822266" lon="2.9840219020843506">
				<ele>142.01</ele>
				<time>2013-07-12T08:14:53</time>
			</trkpt>
			<trkpt lat="48.86253126896918" lon="2.9842793941497803">
				<ele>142.2</ele>
				<time>2013-07-12T08:14:56</time>
			</trkpt>
			<trkpt lat="48.86248826980591" lon="2.9854273796081543">
				<ele>142.61</ele>
				<time>2013-07-12T08:15:08</time>
			</trkpt>
			<trkpt lat="48.86248835362494" lon="2.9864895343780518">
				<ele>142.63</ele>
				<time>2013-07-12T08:15:19</time>
			</trkpt>
			<trkpt lat="48.862499082461" lon="2.9873263835906982">
				<ele>142.23</ele>
				<time>2013-07-12T08:15:28</time>
			</trkpt>
			<trkpt lat="48.86249899864197" lon="2.9873263835906982">
				<ele>141.69</ele>
				<time>2013-07-12T08:15:28</time>
			</trkpt>
			<trkpt lat="48.86252045631409" lon="2.988184690475464">
				<ele>140.57</ele>
				<time>2013-07-12T08:15:37</time>
			</trkpt>
			<trkpt lat="48.86242398060858" lon="2.9893970489501953">
				<ele>139.37</ele>
				<time>2013-07-12T08:15:50</time>
			</trkpt>
			<trkpt lat="48.86241325177252" lon="2.9895150661468506">
				<ele>138.89</ele>
				<time>2013-07-12T08:15:51</time>
			</trkpt>
			<trkpt lat="48.86240243911743" lon="2.9896867275238037">
				<ele>138.8</ele>
				<time>2013-07-12T08:15:53</time>
			</trkpt>
			<trkpt lat="48.86243470944464" lon="2.9905128479003906">
				<ele>139.46</ele>
				<time>2013-07-12T08:16:02</time>
			</trkpt>
			<trkpt lat="48.86261701583862" lon="2.9908347129821777">
				<ele>140.46</ele>
				<time>2013-07-12T08:16:06</time>
			</trkpt>
			<trkpt lat="48.8627028465271" lon="2.9912853240966797">
				<ele>141.55</ele>
				<time>2013-07-12T08:16:11</time>
			</trkpt>
			<trkpt lat="48.86272430419922" lon="2.9915213584899902">
				<ele>142.63</ele>
				<time>2013-07-12T08:16:14</time>
			</trkpt>
			<trkpt lat="48.86271357536316" lon="2.99352765083313">
				<ele>144.05</ele>
				<time>2013-07-12T08:16:35</time>
			</trkpt>
			<trkpt lat="48.86273503303528" lon="2.9956412315368652">
				<ele>145.48</ele>
				<time>2013-07-12T08:16:57</time>
			</trkpt>
			<trkpt lat="48.86272430419922" lon="2.997497320175171">
				<ele>147.0</ele>
				<time>2013-07-12T08:17:17</time>
			</trkpt>
			<trkpt lat="48.8627028465271" lon="2.997722625732422">
				<ele>147.5</ele>
				<time>2013-07-12T08:17:19</time>
			</trkpt>
			<trkpt lat="48.8626492023468" lon="2.9979586601257324">
				<ele>147.7</ele>
				<time>2013-07-12T08:17:22</time>
			</trkpt>
			<trkpt lat="48.86253118515015" lon="2.9983127117156982">
				<ele>147.63</ele>
				<time>2013-07-12T08:17:26</time>
			</trkpt>
			<trkpt lat="48.86252045631409" lon="2.998420000076294">
				<ele>147.46</ele>
				<time>2013-07-12T08:17:27</time>
			</trkpt>
			<trkpt lat="48.86252054013312" lon="2.998420000076294">
				<ele>147.16</ele>
				<time>2013-07-12T08:17:27</time>
			</trkpt>
			<trkpt lat="48.862563371658325" lon="2.9986023902893066">
				<ele>146.69</ele>
				<time>2013-07-12T08:17:29</time>
			</trkpt>
			<trkpt lat="48.86262774467468" lon="2.9987311363220215">
				<ele>146.18</ele>
				<time>2013-07-12T08:17:31</time>
			</trkpt>
			<trkpt lat="48.86289596557617" lon="2.9991817474365234">
				<ele>145.77</ele>
				<time>2013-07-12T08:17:37</time>
			</trkpt>
			<trkpt lat="48.86300325393677" lon="2.9993319511413574">
				<ele>145.37</ele>
				<time>2013-07-12T08:17:39</time>
			</trkpt>
			<trkpt lat="48.86322855949402" lon="2.99951434135437">
				<ele>144.99</ele>
				<time>2013-07-12T08:17:43</time>
			</trkpt>
			<trkpt lat="48.86362552642822" lon="2.999718189239502">
				<ele>145.06</ele>
				<time>2013-07-12T08:17:50</time>
			</trkpt>
			<trkpt lat="48.863797187805176" lon="2.999868392944336">
				<ele>145.3</ele>
				<time>2013-07-12T08:17:53</time>
			</trkpt>
			<trkpt lat="48.864097679033875" lon="3.0003082752227783">
				<ele>145.83</ele>
				<time>2013-07-12T08:18:00</time>
			</trkpt>
			<trkpt lat="48.86415123939514" lon="3.0004048347473145">
				<ele>146.29</ele>
				<time>2013-07-12T08:18:01</time>
			</trkpt>
			<trkpt lat="48.86418342590332" lon="3.0005764961242676">
				<ele>146.87</ele>
				<time>2013-07-12T08:18:03</time>
			</trkpt>
			<trkpt lat="48.86419415473938" lon="3.000791072845459">
				<ele>147.39</ele>
				<time>2013-07-12T08:18:05</time>
			</trkpt>
			<trkpt lat="48.86419415473938" lon="3.001810312271118">
				<ele>148.03</ele>
				<time>2013-07-12T08:18:16</time>
			</trkpt>
			<trkpt lat="48.86417278088629" lon="3.0020570755004883">
				<ele>148.51</ele>
				<time>2013-07-12T08:18:19</time>
			</trkpt>
			<trkpt lat="48.86044987477362" lon="3.0084943771362305">
				<ele>148.28</ele>
				<time>2013-07-12T08:19:49</time>
			</trkpt>
			<trkpt lat="48.85994561947882" lon="3.0093741416931152">
				<ele>149.0</ele>
				<time>2013-07-12T08:20:01</time>
			</trkpt>
			<trkpt lat="48.85716685093939" lon="3.014223575592041">
				<ele>148.77</ele>
				<time>2013-07-12T08:21:09</time>
			</trkpt>
			<trkpt lat="48.855096101760864" lon="3.0179035663604736">
				<ele>148.1</ele>
				<time>2013-07-12T08:22:00</time>
			</trkpt>
			<trkpt lat="48.85496743954718" lon="3.0180859565734863">
				<ele>147.15</ele>
				<time>2013-07-12T08:22:03</time>
			</trkpt>
			<trkpt lat="48.85487079620361" lon="3.0182254314422607">
				<ele>145.92</ele>
				<time>2013-07-12T08:22:05</time>
			</trkpt>
			<trkpt lat="48.8547420501709" lon="3.018343448638916">
				<ele>144.3</ele>
				<time>2013-07-12T08:22:08</time>
			</trkpt>
			<trkpt lat="48.854570388793945" lon="3.0184292793273926">
				<ele>142.49</ele>
				<time>2013-07-12T08:22:10</time>
			</trkpt>
			<trkpt lat="48.85082610882819" lon="3.018590211868286">
				<ele>139.83</ele>
				<time>2013-07-12T08:23:10</time>
			</trkpt>
			<trkpt lat="48.85063290596008" lon="3.0186116695404053">
				<ele>138.46</ele>
				<time>2013-07-12T08:23:14</time>
			</trkpt>
			<trkpt lat="48.850632989779115" lon="3.0186116695404053">
				<ele>137.37</ele>
				<time>2013-07-12T08:23:14</time>
			</trkpt>
			<trkpt lat="48.85041832923889" lon="3.0186116695404053">
				<ele>136.57</ele>
				<time>2013-07-12T08:23:17</time>
			</trkpt>
			<trkpt lat="48.85016083717346" lon="3.0186545848846436">
				<ele>135.91</ele>
				<time>2013-07-12T08:23:21</time>
			</trkpt>
			<trkpt lat="48.84950637817383" lon="3.0186545848846436">
				<ele>135.07</ele>
				<time>2013-07-12T08:23:32</time>
			</trkpt>
			<trkpt lat="48.84925961494446" lon="3.018697500228882">
				<ele>134.77</ele>
				<time>2013-07-12T08:23:36</time>
			</trkpt>
			<trkpt lat="48.84872317314148" lon="3.018697500228882">
				<ele>134.63</ele>
				<time>2013-07-12T08:23:44</time>
			</trkpt>
			<trkpt lat="48.84842276573181" lon="3.01874041557312">
				<ele>134.61</ele>
				<time>2013-07-12T08:23:49</time>
			</trkpt>
			<trkpt lat="48.84791851043701" lon="3.01874041557312">
				<ele>134.69</ele>
				<time>2013-07-12T08:23:57</time>
			</trkpt>
			<trkpt lat="48.847607374191284" lon="3.0187833309173584">
				<ele>134.84</ele>
				<time>2013-07-12T08:24:02</time>
			</trkpt>
			<trkpt lat="48.84697437286377" lon="3.0187833309173584">
				<ele>134.94</ele>
				<time>2013-07-12T08:24:12</time>
			</trkpt>
			<trkpt lat="48.846824169158936" lon="3.018815517425537">
				<ele>135.32</ele>
				<time>2013-07-12T08:24:15</time>
			</trkpt>
			<trkpt lat="48.84618043899536" lon="3.0188262462615967">
				<ele>135.73</ele>
				<time>2013-07-12T08:24:25</time>
			</trkpt>
			<trkpt lat="48.845869302749634" lon="3.018869161605835">
				<ele>135.82</ele>
				<time>2013-07-12T08:24:30</time>
			</trkpt>
			<trkpt lat="48.84427070617676" lon="3.0189120769500732">
				<ele>135.58</ele>
				<time>2013-07-12T08:24:56</time>
			</trkpt>
			<trkpt lat="48.84427078999579" lon="3.0189120769500732">
				<ele>135.59</ele>
				<time>2013-07-12T08:24:56</time>
			</trkpt>
			<trkpt lat="48.84406694211066" lon="3.0189335346221924">
				<ele>135.7</ele>
				<time>2013-07-12T08:24:59</time>
			</trkpt>
			<trkpt lat="48.84371280670166" lon="3.018965721130371">
				<ele>135.79</ele>
				<time>2013-07-12T08:25:04</time>
			</trkpt>
			<trkpt lat="48.84363770484924" lon="3.0190086364746094">
				<ele>136.12</ele>
				<time>2013-07-12T08:25:06</time>
			</trkpt>
			<trkpt lat="48.84358414448798" lon="3.019073009490967">
				<ele>136.64</ele>
				<time>2013-07-12T08:25:07</time>
			</trkpt>
			<trkpt lat="48.84354114532471" lon="3.019169569015503">
				<ele>137.29</ele>
				<time>2013-07-12T08:25:08</time>
			</trkpt>
			<trkpt lat="48.84351968765259" lon="3.0193090438842773">
				<ele>137.92</ele>
				<time>2013-07-12T08:25:10</time>
			</trkpt>
			<trkpt lat="48.84347677230835" lon="3.019866943359375">
				<ele>138.88</ele>
				<time>2013-07-12T08:25:16</time>
			</trkpt>
			<trkpt lat="48.84341239929199" lon="3.020446300506592">
				<ele>139.82</ele>
				<time>2013-07-12T08:25:22</time>
			</trkpt>
			<trkpt lat="48.84302616119385" lon="3.022516965866089">
				<ele>139.66</ele>
				<time>2013-07-12T08:25:44</time>
			</trkpt>
			<trkpt lat="48.842875957489014" lon="3.0234932899475098">
				<ele>138.87</ele>
				<time>2013-07-12T08:25:55</time>
			</trkpt>
			<trkpt lat="48.842833042144775" lon="3.023707866668701">
				<ele>138.35</ele>
				<time>2013-07-12T08:25:57</time>
			</trkpt>
			<trkpt lat="48.84272583760321" lon="3.0239975452423096">
				<ele>137.62</ele>
				<time>2013-07-12T08:26:01</time>
			</trkpt>
			<trkpt lat="48.8421893119812" lon="3.0249524116516113">
				<ele>136.42</ele>
				<time>2013-07-12T08:26:14</time>
			</trkpt>
			<trkpt lat="48.84167432785034" lon="3.025907278060913">
				<ele>134.79</ele>
				<time>2013-07-12T08:26:27</time>
			</trkpt>
			<trkpt lat="48.84151339530945" lon="3.0262398719787598">
				<ele>134.48</ele>
				<time>2013-07-12T08:26:31</time>
			</trkpt>
			<trkpt lat="48.84144449606538" lon="3.0260883271694183">
				<ele>133.91</ele>
				<time>2013-07-12T08:26:33</time>
			</trkpt>
			<trkpt lat="48.841439969837666" lon="3.026093104854226">
				<ele>134.27</ele>
				<time>2013-07-12T08:26:33</time>
			</trkpt>
			<trkpt lat="48.84143971838057" lon="3.026093440130353">
				<ele>134.3</ele>
				<time>2013-07-12T08:26:33</time>
			</trkpt>
			<trkpt lat="48.84143971838057" lon="3.0260935239493847">
				<ele>134.3</ele>
				<time>2013-07-12T08:26:33</time>
			</trkpt>
			<trkpt lat="48.8412999920547" lon="3.026339951902628">
				<ele>134.0</ele>
				<time>2013-07-12T08:26:37</time>
			</trkpt>
			<trkpt lat="48.841829895973206" lon="3.0277498718351126">
				<ele>133.0</ele>
				<time>2013-07-12T08:26:54</time>
			</trkpt>
			<trkpt lat="48.841509874910116" lon="3.0284499283879995">
				<ele>133.0</ele>
				<time>2013-07-12T08:27:03</time>
			</trkpt>
			<trkpt lat="48.84178991429508" lon="3.0285299755632877">
				<ele>133.0</ele>
				<time>2013-07-12T08:27:08</time>
			</trkpt>
			<trkpt lat="48.843739880248904" lon="3.0314598698168993">
				<ele>132.0</ele>
				<time>2013-07-12T08:27:51</time>
			</trkpt>
			<trkpt lat="48.852489832788706" lon="3.041659975424409">
				<ele>145.0</ele>
				<time>2013-07-12T08:30:48</time>
			</trkpt>
			<trkpt lat="48.85374988429248" lon="3.042249893769622">
				<ele>145.0</ele>
				<time>2013-07-12T08:31:09</time>
			</trkpt>
			<trkpt lat="48.85321998037398" lon="3.0434698797762394">
				<ele>146.0</ele>
				<time>2013-07-12T08:31:25</time>
			</trkpt>
			<trkpt lat="48.85296994820237" lon="3.044719872996211">
				<ele>145.0</ele>
				<time>2013-07-12T08:31:38</time>
			</trkpt>
			<trkpt lat="48.85291999205947" lon="3.0486498959362507">
				<ele>142.0</ele>
				<time>2013-07-12T08:32:20</time>
			</trkpt>
			<trkpt lat="48.85273986496031" lon="3.0506298691034317">
				<ele>142.0</ele>
				<time>2013-07-12T08:32:41</time>
			</trkpt>
			<trkpt lat="48.85154996998608" lon="3.05474990978837">
				<ele>139.0</ele>
				<time>2013-07-12T08:33:28</time>
			</trkpt>
			<trkpt lat="48.85107999667525" lon="3.0576998367905617">
				<ele>140.0</ele>
				<time>2013-07-12T08:34:00</time>
			</trkpt>
			<trkpt lat="48.8502798601985" lon="3.0599399842321873">
				<ele>140.0</ele>
				<time>2013-07-12T08:34:27</time>
			</trkpt>
			<trkpt lat="48.850229904055595" lon="3.060449855402112">
				<ele>140.0</ele>
				<time>2013-07-12T08:34:32</time>
			</trkpt>
			<trkpt lat="48.85062997229397" lon="3.06318998336792">
				<ele>139.0</ele>
				<time>2013-07-12T08:35:02</time>
			</trkpt>
			<trkpt lat="48.85044984519482" lon="3.0677199829369783">
				<ele>139.0</ele>
				<time>2013-07-12T08:35:50</time>
			</trkpt>
			<trkpt lat="48.8508998695761" lon="3.0713998898863792">
				<ele>136.0</ele>
				<time>2013-07-12T08:36:29</time>
			</trkpt>
			<trkpt lat="48.85074991732836" lon="3.0732199363410473">
				<ele>134.0</ele>
				<time>2013-07-12T08:36:49</time>
			</trkpt>
			<trkpt lat="48.850869946181774" lon="3.0752799566835165">
				<ele>132.0</ele>
				<time>2013-07-12T08:37:10</time>
			</trkpt>
			<trkpt lat="48.8479398842901" lon="3.0790199618786573">
				<ele>130.0</ele>
				<time>2013-07-12T08:38:12</time>
			</trkpt>
			<trkpt lat="48.846979988738894" lon="3.0793199501931667">
				<ele>126.0</ele>
				<time>2013-07-12T08:38:27</time>
			</trkpt>
			<trkpt lat="48.84572991169989" lon="3.0802199989557266">
				<ele>124.0</ele>
				<time>2013-07-12T08:38:50</time>
			</trkpt>
			<trkpt lat="48.84499993175268" lon="3.084449842572212">
				<ele>126.0</ele>
				<time>2013-07-12T08:39:36</time>
			</trkpt>
			<trkpt lat="48.84350988082588" lon="3.088239971548319">
				<ele>123.0</ele>
				<time>2013-07-12T08:40:22</time>
			</trkpt>
			<trkpt lat="48.84296991862357" lon="3.09017987921834">
				<ele>124.0</ele>
				<time>2013-07-12T08:40:44</time>
			</trkpt>
			<trkpt lat="48.843719931319356" lon="3.0936398450285196">
				<ele>136.0</ele>
				<time>2013-07-12T08:41:23</time>
			</trkpt>
			<trkpt lat="48.84316999465227" lon="3.095649993047118">
				<ele>139.0</ele>
				<time>2013-07-12T08:41:46</time>
			</trkpt>
			<trkpt lat="48.843289939686656" lon="3.0969698913395405">
				<ele>138.0</ele>
				<time>2013-07-12T08:42:00</time>
			</trkpt>
			<trkpt lat="48.844059901311994" lon="3.1017398647964">
				<ele>134.0</ele>
				<time>2013-07-12T08:42:51</time>
			</trkpt>
			<trkpt lat="48.844769932329655" lon="3.102949960157275">
				<ele>136.0</ele>
				<time>2013-07-12T08:43:09</time>
			</trkpt>
			<trkpt lat="48.84493991732597" lon="3.106239940971136">
				<ele>134.0</ele>
				<time>2013-07-12T08:43:43</time>
			</trkpt>
			<trkpt lat="48.8455499522388" lon="3.10757995583117">
				<ele>133.0</ele>
				<time>2013-07-12T08:44:00</time>
			</trkpt>
			<trkpt lat="48.84569998830557" lon="3.10933998785913">
				<ele>133.0</ele>
				<time>2013-07-12T08:44:19</time>
			</trkpt>
			<trkpt lat="48.84550997056067" lon="3.11013987287879">
				<ele>131.0</ele>
				<time>2013-07-12T08:44:28</time>
			</trkpt>
			<trkpt lat="48.84500999003649" lon="3.1111399177461863">
				<ele>129.0</ele>
				<time>2013-07-12T08:44:41</time>
			</trkpt>
			<trkpt lat="48.844469860196114" lon="3.114409949630499">
				<ele>125.0</ele>
				<time>2013-07-12T08:45:17</time>
			</trkpt>
			<trkpt lat="48.8447399251163" lon="3.1174498982727528">
				<ele>131.0</ele>
				<time>2013-07-12T08:45:49</time>
			</trkpt>
			<trkpt lat="48.84509984403849" lon="3.119129966944456">
				<ele>134.0</ele>
				<time>2013-07-12T08:46:08</time>
			</trkpt>
			<trkpt lat="48.8449299428612" lon="3.120149876922369">
				<ele>135.0</ele>
				<time>2013-07-12T08:46:19</time>
			</trkpt>
			<trkpt lat="48.844429878517985" lon="3.1210998818278313">
				<ele>136.0</ele>
				<time>2013-07-12T08:46:32</time>
			</trkpt>
			<trkpt lat="48.845479879528284" lon="3.1243299320340157">
				<ele>139.0</ele>
				<time>2013-07-12T08:47:10</time>
			</trkpt>
			<trkpt lat="48.84536990895867" lon="3.125269878655672">
				<ele>139.0</ele>
				<time>2013-07-12T08:47:20</time>
			</trkpt>
			<trkpt lat="48.8447399251163" lon="3.1267498712986708">
				<ele>137.0</ele>
				<time>2013-07-12T08:47:38</time>
			</trkpt>
			<trkpt lat="48.844729866832495" lon="3.1275599822402">
				<ele>137.0</ele>
				<time>2013-07-12T08:47:47</time>
			</trkpt>
			<trkpt lat="48.84725986048579" lon="3.133499901741743">
				<ele>133.0</ele>
				<time>2013-07-12T08:49:01</time>
			</trkpt>
			<trkpt lat="48.84808992035687" lon="3.134409924969077">
				<ele>134.0</ele>
				<time>2013-07-12T08:49:18</time>
			</trkpt>
			<trkpt lat="48.84931996464729" lon="3.13503990881145">
				<ele>135.0</ele>
				<time>2013-07-12T08:49:39</time>
			</trkpt>
			<trkpt lat="48.850439954549074" lon="3.1364199053496122">
				<ele>132.0</ele>
				<time>2013-07-12T08:50:02</time>
			</trkpt>
			<trkpt lat="48.85038999840617" lon="3.1374199502170086">
				<ele>130.0</ele>
				<time>2013-07-12T08:50:12</time>
			</trkpt>
			<trkpt lat="48.85075997561216" lon="3.1382698751986027">
				<ele>128.0</ele>
				<time>2013-07-12T08:50:23</time>
			</trkpt>
			<trkpt lat="48.850979916751385" lon="3.139709886163473">
				<ele>127.0</ele>
				<time>2013-07-12T08:50:39</time>
			</trkpt>
			<trkpt lat="48.850679928436875" lon="3.140809927135706">
				<ele>126.0</ele>
				<time>2013-07-12T08:50:51</time>
			</trkpt>
			<trkpt lat="48.8504299800843" lon="3.1431398447602987">
				<ele>125.0</ele>
				<time>2013-07-12T08:51:16</time>
			</trkpt>
			<trkpt lat="48.85038999840617" lon="3.144089849665761">
				<ele>124.0</ele>
				<time>2013-07-12T08:51:26</time>
			</trkpt>
			<trkpt lat="48.85072988457978" lon="3.1447098590433598">
				<ele>124.0</ele>
				<time>2013-07-12T08:51:35</time>
			</trkpt>
			<trkpt lat="48.8512899633497" lon="3.145259963348508">
				<ele>125.0</ele>
				<time>2013-07-12T08:51:45</time>
			</trkpt>
			<trkpt lat="48.85230987332761" lon="3.145689954981208">
				<ele>128.0</ele>
				<time>2013-07-12T08:52:02</time>
			</trkpt>
			<trkpt lat="48.85474992915988" lon="3.14882998354733">
				<ele>126.0</ele>
				<time>2013-07-12T08:52:53</time>
			</trkpt>
			<trkpt lat="48.85526985861361" lon="3.149299956858158">
				<ele>128.0</ele>
				<time>2013-07-12T08:53:03</time>
			</trkpt>
			<trkpt lat="48.85813990607858" lon="3.150179972872138">
				<ele>132.0</ele>
				<time>2013-07-12T08:53:50</time>
			</trkpt>
			<trkpt lat="48.858839962631464" lon="3.1507898401468992">
				<ele>132.0</ele>
				<time>2013-07-12T08:54:03</time>
			</trkpt>
			<trkpt lat="48.859639931470156" lon="3.1509599089622498">
				<ele>134.0</ele>
				<time>2013-07-12T08:54:16</time>
			</trkpt>
			<trkpt lat="48.860029857605696" lon="3.1512899044901133">
				<ele>134.0</ele>
				<time>2013-07-12T08:54:23</time>
			</trkpt>
			<trkpt lat="48.86123995296657" lon="3.15372996032238">
				<ele>135.0</ele>
				<time>2013-07-12T08:54:55</time>
			</trkpt>
			<trkpt lat="48.86209993623197" lon="3.1546899396926165">
				<ele>136.0</ele>
				<time>2013-07-12T08:55:12</time>
			</trkpt>
			<trkpt lat="48.86309998109937" lon="3.157269973307848">
				<ele>137.0</ele>
				<time>2013-07-12T08:55:44</time>
			</trkpt>
			<trkpt lat="48.863979913294315" lon="3.158169938251376">
				<ele>137.0</ele>
				<time>2013-07-12T08:56:01</time>
			</trkpt>
			<trkpt lat="48.86488985270262" lon="3.1610999163240194">
				<ele>140.0</ele>
				<time>2013-07-12T08:56:35</time>
			</trkpt>
			<trkpt lat="48.8655399531126" lon="3.1639198400080204">
				<ele>141.0</ele>
				<time>2013-07-12T08:57:06</time>
			</trkpt>
			<trkpt lat="48.86567993089557" lon="3.1636798661202192">
				<ele>141.0</ele>
				<time>2013-07-12T08:57:10</time>
			</trkpt>
			<trkpt lat="48.867419846355915" lon="3.1626099161803722">
				<ele>145.0</ele>
				<time>2013-07-12T08:57:40</time>
			</trkpt>
			<trkpt lat="48.867549849674106" lon="3.16337987780571">
				<ele>149.0</ele>
				<time>2013-07-12T08:57:48</time>
			</trkpt>
			<trkpt lat="48.86823984794319" lon="3.1646698527038097">
				<ele>155.0</ele>
				<time>2013-07-12T08:58:06</time>
			</trkpt>
			<trkpt lat="48.86796995066106" lon="3.166339946910739">
				<ele>162.0</ele>
				<time>2013-07-12T08:58:24</time>
			</trkpt>
			<trkpt lat="48.86920996941626" lon="3.1687599699944258">
				<ele>172.0</ele>
				<time>2013-07-12T08:58:56</time>
			</trkpt>
			<trkpt lat="48.870469853281975" lon="3.1719598453491926">
				<ele>151.0</ele>
				<time>2013-07-12T08:59:35</time>
			</trkpt>
			<trkpt lat="48.870379999279976" lon="3.172569964081049">
				<ele>150.0</ele>
				<time>2013-07-12T08:59:42</time>
			</trkpt>
			<trkpt lat="48.86888994835317" lon="3.1726899929344654">
				<ele>145.0</ele>
				<time>2013-07-12T09:00:06</time>
			</trkpt>
			<trkpt lat="48.87195990420878" lon="3.1802799738943577">
				<ele>145.0</ele>
				<time>2013-07-12T09:01:40</time>
			</trkpt>
			<trkpt lat="48.872289983555675" lon="3.1818099226802588">
				<ele>145.0</ele>
				<time>2013-07-12T09:01:57</time>
			</trkpt>
			<trkpt lat="48.872189903631806" lon="3.1837999541312456">
				<ele>146.0</ele>
				<time>2013-07-12T09:02:18</time>
			</trkpt>
			<trkpt lat="48.87333998456597" lon="3.1847099773585796">
				<ele>150.0</ele>
				<time>2013-07-12T09:02:38</time>
			</trkpt>
			<trkpt lat="48.873449955135584" lon="3.1863298639655113">
				<ele>151.0</ele>
				<time>2013-07-12T09:02:56</time>
			</trkpt>
			<trkpt lat="48.87417993508279" lon="3.18913989700377">
				<ele>156.0</ele>
				<time>2013-07-12T09:03:27</time>
			</trkpt>
			<trkpt lat="48.8752899505198" lon="3.1907799001783133">
				<ele>159.0</ele>
				<time>2013-07-12T09:03:52</time>
			</trkpt>
			<trkpt lat="48.87608991935849" lon="3.191359844058752">
				<ele>160.0</ele>
				<time>2013-07-12T09:04:06</time>
			</trkpt>
			<trkpt lat="48.87666994705796" lon="3.192049842327833">
				<ele>162.0</ele>
				<time>2013-07-12T09:04:18</time>
			</trkpt>
			<trkpt lat="48.8760999776423" lon="3.1954899430274963">
				<ele>166.0</ele>
				<time>2013-07-12T09:04:55</time>
			</trkpt>
			<trkpt lat="48.87696993537247" lon="3.195899985730648">
				<ele>169.0</ele>
				<time>2013-07-12T09:05:10</time>
			</trkpt>
			<trkpt lat="48.8778199441731" lon="3.1960798613727093">
				<ele>171.0</ele>
				<time>2013-07-12T09:05:24</time>
			</trkpt>
			<trkpt lat="48.879059962928295" lon="3.197249975055456">
				<ele>172.0</ele>
				<time>2013-07-12T09:05:47</time>
			</trkpt>
			<trkpt lat="48.8824599981308" lon="3.200709940865636">
				<ele>177.0</ele>
				<time>2013-07-12T09:06:53</time>
			</trkpt>
			<trkpt lat="48.88306994922459" lon="3.202319936826825">
				<ele>177.0</ele>
				<time>2013-07-12T09:07:12</time>
			</trkpt>
			<trkpt lat="48.88467994518578" lon="3.202989986166358">
				<ele>175.0</ele>
				<time>2013-07-12T09:07:39</time>
			</trkpt>
			<trkpt lat="48.88622992672026" lon="3.203249992802739">
				<ele>174.0</ele>
				<time>2013-07-12T09:08:04</time>
			</trkpt>
			<trkpt lat="48.88658992946148" lon="3.2043798733502626">
				<ele>174.0</ele>
				<time>2013-07-12T09:08:17</time>
			</trkpt>
			<trkpt lat="48.886839961633086" lon="3.207129891961813">
				<ele>175.0</ele>
				<time>2013-07-12T09:08:46</time>
			</trkpt>
			<trkpt lat="48.88735989108682" lon="3.209359897300601">
				<ele>175.0</ele>
				<time>2013-07-12T09:09:11</time>
			</trkpt>
			<trkpt lat="48.887329967692494" lon="3.2097098417580128">
				<ele>175.0</ele>
				<time>2013-07-12T09:09:15</time>
			</trkpt>
			<trkpt lat="48.88658992946148" lon="3.2101598661392927">
				<ele>176.0</ele>
				<time>2013-07-12T09:09:28</time>
			</trkpt>
			<trkpt lat="48.886259850114584" lon="3.21362997405231">
				<ele>178.0</ele>
				<time>2013-07-12T09:10:05</time>
			</trkpt>
			<trkpt lat="48.8895399402827" lon="3.2169498782604933">
				<ele>179.0</ele>
				<time>2013-07-12T09:11:08</time>
			</trkpt>
			<trkpt lat="48.88770991936326" lon="3.221779866144061">
				<ele>176.0</ele>
				<time>2013-07-12T09:12:06</time>
			</trkpt>
			<trkpt lat="48.88750992715359" lon="3.222689973190427">
				<ele>175.0</ele>
				<time>2013-07-12T09:12:17</time>
			</trkpt>
			<trkpt lat="48.88720993883908" lon="3.2322599273175">
				<ele>174.0</ele>
				<time>2013-07-12T09:13:57</time>
			</trkpt>
			<trkpt lat="48.88598995283246" lon="3.235599948093295">
				<ele>171.0</ele>
				<time>2013-07-12T09:14:38</time>
			</trkpt>
			<trkpt lat="48.88399992138147" lon="3.2379199750721455">
				<ele>172.0</ele>
				<time>2013-07-12T09:15:18</time>
			</trkpt>
			<trkpt lat="48.882819917052984" lon="3.239679839462042">
				<ele>171.0</ele>
				<time>2013-07-12T09:15:44</time>
			</trkpt>
			<trkpt lat="48.879769993945956" lon="3.242629934102297">
				<ele>175.0</ele>
				<time>2013-07-12T09:16:42</time>
			</trkpt>
			<trkpt lat="48.87871999293566" lon="3.2450199499726295">
				<ele>173.0</ele>
				<time>2013-07-12T09:17:12</time>
			</trkpt>
			<trkpt lat="48.878009961917996" lon="3.245979929342866">
				<ele>172.0</ele>
				<time>2013-07-12T09:17:28</time>
			</trkpt>
			<trkpt lat="48.87754987925291" lon="3.2481299713253975">
				<ele>174.0</ele>
				<time>2013-07-12T09:17:51</time>
			</trkpt>
			<trkpt lat="48.87797987088561" lon="3.2478398736566305">
				<ele>173.0</ele>
				<time>2013-07-12T09:17:59</time>
			</trkpt>
			<trkpt lat="48.87840986251831" lon="3.247909862548113">
				<ele>173.0</ele>
				<time>2013-07-12T09:18:06</time>
			</trkpt>
			<trkpt lat="48.879059962928295" lon="3.2492699939757586">
				<ele>167.0</ele>
				<time>2013-07-12T09:18:24</time>
			</trkpt>
			<trkpt lat="48.88128996826708" lon="3.2554399129003286">
				<ele>144.0</ele>
				<time>2013-07-12T09:19:38</time>
			</trkpt>
			<trkpt lat="48.88151988387108" lon="3.2570199854671955">
				<ele>139.0</ele>
				<time>2013-07-12T09:19:55</time>
			</trkpt>
			<trkpt lat="48.882519928738475" lon="3.260849928483367">
				<ele>131.0</ele>
				<time>2013-07-12T09:20:38</time>
			</trkpt>
			<trkpt lat="48.883059890940785" lon="3.26231986284256">
				<ele>124.0</ele>
				<time>2013-07-12T09:20:56</time>
			</trkpt>
			<trkpt lat="48.88342986814678" lon="3.2620898634195328">
				<ele>119.0</ele>
				<time>2013-07-12T09:21:02</time>
			</trkpt>
			<trkpt lat="48.883589962497354" lon="3.259469848126173">
				<ele>113.0</ele>
				<time>2013-07-12T09:21:30</time>
			</trkpt>
			<trkpt lat="48.884969875216484" lon="3.2567398622632027">
				<ele>98.0</ele>
				<time>2013-07-12T09:22:06</time>
			</trkpt>
			<trkpt lat="48.88543984852731" lon="3.25399998575449">
				<ele>87.0</ele>
				<time>2013-07-12T09:22:36</time>
			</trkpt>
			<trkpt lat="48.88604996725917" lon="3.252799864858389">
				<ele>77.0</ele>
				<time>2013-07-12T09:22:52</time>
			</trkpt>
			<trkpt lat="48.8864298351109" lon="3.250449998304248">
				<ele>77.0</ele>
				<time>2013-07-12T09:23:18</time>
			</trkpt>
			<trkpt lat="48.88684993609786" lon="3.2492998335510492">
				<ele>79.0</ele>
				<time>2013-07-12T09:23:31</time>
			</trkpt>
			<trkpt lat="48.887549908831716" lon="3.249359931796789">
				<ele>75.0</ele>
				<time>2013-07-12T09:23:43</time>
			</trkpt>
			<trkpt lat="48.888019965961576" lon="3.2496398873627186">
				<ele>74.0</ele>
				<time>2013-07-12T09:23:51</time>
			</trkpt>
			<trkpt lat="48.8885298371315" lon="3.249609963968396">
				<ele>75.0</ele>
				<time>2013-07-12T09:23:59</time>
			</trkpt>
			<trkpt lat="48.889269875362515" lon="3.2488698419183493">
				<ele>78.0</ele>
				<time>2013-07-12T09:24:13</time>
			</trkpt>
			<trkpt lat="48.89176994562149" lon="3.248419901356101">
				<ele>95.0</ele>
				<time>2013-07-12T09:24:53</time>
			</trkpt>
			<trkpt lat="48.891669949516654" lon="3.2490299362689257">
				<ele>98.0</ele>
				<time>2013-07-12T09:25:00</time>
			</trkpt>
			<trkpt lat="48.89071994461119" lon="3.2510099932551384">
				<ele>98.0</ele>
				<time>2013-07-12T09:25:26</time>
			</trkpt>
			<trkpt lat="48.890579883009195" lon="3.2547598890960217">
				<ele>112.0</ele>
				<time>2013-07-12T09:26:05</time>
			</trkpt>
			<trkpt lat="48.89073997735977" lon="3.255149982869625">
				<ele>116.0</ele>
				<time>2013-07-12T09:26:10</time>
			</trkpt>
			<trkpt lat="48.89105999842286" lon="3.255039844661951">
				<ele>121.0</ele>
				<time>2013-07-12T09:26:15</time>
			</trkpt>
			<trkpt lat="48.89151991344988" lon="3.254039967432618">
				<ele>123.0</ele>
				<time>2013-07-12T09:26:28</time>
			</trkpt>
			<trkpt lat="48.891999861225486" lon="3.253779960796237">
				<ele>128.0</ele>
				<time>2013-07-12T09:26:36</time>
			</trkpt>
			<trkpt lat="48.89524994418025" lon="3.2527299597859383">
				<ele>144.0</ele>
				<time>2013-07-12T09:27:30</time>
			</trkpt>
			<trkpt lat="48.89557985588908" lon="3.2527799159288406">
				<ele>145.0</ele>
				<time>2013-07-12T09:27:35</time>
			</trkpt>
			<trkpt lat="48.895519841462374" lon="3.2533999253064394">
				<ele>151.0</ele>
				<time>2013-07-12T09:27:42</time>
			</trkpt>
			<trkpt lat="48.89438996091485" lon="3.2546698674559593">
				<ele>151.0</ele>
				<time>2013-07-12T09:28:04</time>
			</trkpt>
			<trkpt lat="48.89382996596396" lon="3.2561399694532156">
				<ele>157.0</ele>
				<time>2013-07-12T09:28:22</time>
			</trkpt>
			<trkpt lat="48.89400992542505" lon="3.257559947669506">
				<ele>164.0</ele>
				<time>2013-07-12T09:28:37</time>
			</trkpt>
			<trkpt lat="48.8948399014771" lon="3.2596899569034576">
				<ele>172.0</ele>
				<time>2013-07-12T09:29:03</time>
			</trkpt>
			<trkpt lat="48.89557985588908" lon="3.259979886934161">
				<ele>174.0</ele>
				<time>2013-07-12T09:29:15</time>
			</trkpt>
			<trkpt lat="48.89492992311716" lon="3.262929981574416">
				<ele>170.0</ele>
				<time>2013-07-12T09:29:48</time>
			</trkpt>
			<trkpt lat="48.8950399775058" lon="3.2640999276190996">
				<ele>169.0</ele>
				<time>2013-07-12T09:30:01</time>
			</trkpt>
			<trkpt lat="48.89597992412746" lon="3.266409980133176">
				<ele>171.0</ele>
				<time>2013-07-12T09:30:29</time>
			</trkpt>
			<trkpt lat="48.89548991806805" lon="3.26852984726429">
				<ele>168.0</ele>
				<time>2013-07-12T09:30:53</time>
			</trkpt>
			<trkpt lat="48.895409954711795" lon="3.271469883620739">
				<ele>169.0</ele>
				<time>2013-07-12T09:31:24</time>
			</trkpt>
			<trkpt lat="48.89504995197058" lon="3.2722999434918165">
				<ele>167.0</ele>
				<time>2013-07-12T09:31:34</time>
			</trkpt>
			<trkpt lat="48.894979963079095" lon="3.2731999922543764">
				<ele>166.0</ele>
				<time>2013-07-12T09:31:44</time>
			</trkpt>
			<trkpt lat="48.8946099858731" lon="3.273979928344488">
				<ele>167.0</ele>
				<time>2013-07-12T09:31:54</time>
			</trkpt>
			<trkpt lat="48.89413984492421" lon="3.2762598898261786">
				<ele>165.0</ele>
				<time>2013-07-12T09:32:19</time>
			</trkpt>
			<trkpt lat="48.89258994720876" lon="3.27969990670681">
				<ele>163.0</ele>
				<time>2013-07-12T09:33:03</time>
			</trkpt>
			<trkpt lat="48.89232994057238" lon="3.2807699404656887">
				<ele>162.0</ele>
				<time>2013-07-12T09:33:15</time>
			</trkpt>
			<trkpt lat="48.891759887337685" lon="3.281109994277358">
				<ele>158.0</ele>
				<time>2013-07-12T09:33:25</time>
			</trkpt>
			<trkpt lat="48.89110995456576" lon="3.283909885212779">
				<ele>157.0</ele>
				<time>2013-07-12T09:33:56</time>
			</trkpt>
			<trkpt lat="48.8905399851501" lon="3.2850899733603">
				<ele>156.0</ele>
				<time>2013-07-12T09:34:12</time>
			</trkpt>
			<trkpt lat="48.89047997072339" lon="3.286199988797307">
				<ele>155.0</ele>
				<time>2013-07-12T09:34:23</time>
			</trkpt>
			<trkpt lat="48.88954991474748" lon="3.291489975526929">
				<ele>155.0</ele>
				<time>2013-07-12T09:35:21</time>
			</trkpt>
			<trkpt lat="48.8901099935174" lon="3.291409844532609">
				<ele>155.0</ele>
				<time>2013-07-12T09:35:30</time>
			</trkpt>
			<trkpt lat="48.891199892386794" lon="3.290059855207801">
				<ele>160.0</ele>
				<time>2013-07-12T09:35:52</time>
			</trkpt>
			<trkpt lat="48.893909845501184" lon="3.288789913058281">
				<ele>165.0</ele>
				<time>2013-07-12T09:36:38</time>
			</trkpt>
			<trkpt lat="48.89434989541769" lon="3.28891983255744">
				<ele>164.0</ele>
				<time>2013-07-12T09:36:45</time>
			</trkpt>
			<trkpt lat="48.8952299952507" lon="3.2895698491483927">
				<ele>165.0</ele>
				<time>2013-07-12T09:37:01</time>
			</trkpt>
			<trkpt lat="48.8965199701488" lon="3.29088999889791">
				<ele>168.0</ele>
				<time>2013-07-12T09:37:26</time>
			</trkpt>
			<trkpt lat="48.896959936246276" lon="3.291059983894229">
				<ele>170.0</ele>
				<time>2013-07-12T09:37:33</time>
			</trkpt>
			<trkpt lat="48.897899966686964" lon="3.294839970767498">
				<ele>174.0</ele>
				<time>2013-07-12T09:38:15</time>
			</trkpt>
			<trkpt lat="48.89793994836509" lon="3.3032498694956303">
				<ele>174.0</ele>
				<time>2013-07-12T09:39:44</time>
			</trkpt>
			<trkpt lat="48.898139940574765" lon="3.305359845981002">
				<ele>170.0</ele>
				<time>2013-07-12T09:40:06</time>
			</trkpt>
			<trkpt lat="48.898009937256575" lon="3.30719992518425">
				<ele>167.0</ele>
				<time>2013-07-12T09:40:26</time>
			</trkpt>
			<trkpt lat="48.89911995269358" lon="3.3084799256175756">
				<ele>165.0</ele>
				<time>2013-07-12T09:40:48</time>
			</trkpt>
			<trkpt lat="48.91141997650266" lon="3.3065499924123287">
				<ele>198.0</ele>
				<time>2013-07-12T09:44:06</time>
			</trkpt>
			<trkpt lat="48.91191987320781" lon="3.3066399302333593">
				<ele>200.0</ele>
				<time>2013-07-12T09:44:14</time>
			</trkpt>
			<trkpt lat="48.91225992701948" lon="3.3069198857992887">
				<ele>199.0</ele>
				<time>2013-07-12T09:44:20</time>
			</trkpt>
			<trkpt lat="48.9126799441874" lon="3.3066799957305193">
				<ele>199.0</ele>
				<time>2013-07-12T09:44:28</time>
			</trkpt>
			<trkpt lat="48.913439931347966" lon="3.306849980726838">
				<ele>197.0</ele>
				<time>2013-07-12T09:44:40</time>
			</trkpt>
			<trkpt lat="48.922334890812635" lon="3.310463083907962">
				<ele>194.23</ele>
				<time>2013-07-12T09:47:07</time>
			</trkpt>
			<trkpt lat="48.92233497463167" lon="3.3104631677269936">
				<ele>194.23</ele>
				<time>2013-07-12T09:47:07</time>
			</trkpt>
			<trkpt lat="48.92233522608876" lon="3.3104632515460253">
				<ele>194.22</ele>
				<time>2013-07-12T09:47:07</time>
			</trkpt>
			<trkpt lat="48.923089848831296" lon="3.31076986156404">
				<ele>194.0</ele>
				<time>2013-07-12T09:47:20</time>
			</trkpt>
			<trkpt lat="48.92249993048608" lon="3.3046898804605007">
				<ele>194.0</ele>
				<time>2013-07-12T09:48:24</time>
			</trkpt>
			<trkpt lat="48.92251996323466" lon="3.302969913929701">
				<ele>196.0</ele>
				<time>2013-07-12T09:48:43</time>
			</trkpt>
			<trkpt lat="48.92334985546768" lon="3.292759917676449">
				<ele>196.0</ele>
				<time>2013-07-12T09:50:31</time>
			</trkpt>
			<trkpt lat="48.92479992471635" lon="3.291119998320937">
				<ele>200.0</ele>
				<time>2013-07-12T09:51:00</time>
			</trkpt>
			<trkpt lat="48.9273498672992" lon="3.2889699563384056">
				<ele>199.0</ele>
				<time>2013-07-12T09:51:46</time>
			</trkpt>
			<trkpt lat="48.9264399278909" lon="3.2874499820172787">
				<ele>196.0</ele>
				<time>2013-07-12T09:52:08</time>
			</trkpt>
			<trkpt lat="48.926519975066185" lon="3.2868398632854223">
				<ele>195.0</ele>
				<time>2013-07-12T09:52:15</time>
			</trkpt>
			<trkpt lat="48.92693990841508" lon="3.2859598472714424">
				<ele>194.0</ele>
				<time>2013-07-12T09:52:26</time>
			</trkpt>
			<trkpt lat="48.9256798569113" lon="3.2837999984622">
				<ele>190.0</ele>
				<time>2013-07-12T09:52:56</time>
			</trkpt>
			<trkpt lat="48.92611990682781" lon="3.2807899732142687">
				<ele>193.0</ele>
				<time>2013-07-12T09:53:29</time>
			</trkpt>
			<trkpt lat="48.92616986297071" lon="3.27922984957695">
				<ele>197.0</ele>
				<time>2013-07-12T09:53:45</time>
			</trkpt>
			<trkpt lat="48.928689965978265" lon="3.2794898562133312">
				<ele>197.0</ele>
				<time>2013-07-12T09:54:26</time>
			</trkpt>
			<trkpt lat="48.93024983815849" lon="3.279859833419323">
				<ele>195.0</ele>
				<time>2013-07-12T09:54:51</time>
			</trkpt>
			<trkpt lat="48.93292995169759" lon="3.275029929354787">
				<ele>195.0</ele>
				<time>2013-07-12T09:55:57</time>
			</trkpt>
			<trkpt lat="48.93445990048349" lon="3.272849880158901">
				<ele>195.0</ele>
				<time>2013-07-12T09:56:31</time>
			</trkpt>
			<trkpt lat="48.935979874804616" lon="3.2694399543106556">
				<ele>190.0</ele>
				<time>2013-07-12T09:57:14</time>
			</trkpt>
			<trkpt lat="48.936469964683056" lon="3.2674199994653463">
				<ele>184.0</ele>
				<time>2013-07-12T09:57:37</time>
			</trkpt>
			<trkpt lat="48.93789983354509" lon="3.268929999321699">
				<ele>186.0</ele>
				<time>2013-07-12T09:58:05</time>
			</trkpt>
			<trkpt lat="48.9392598811537" lon="3.269139965996146">
				<ele>189.0</ele>
				<time>2013-07-12T09:58:27</time>
			</trkpt>
			<trkpt lat="48.94103986211121" lon="3.2698499970138073">
				<ele>185.0</ele>
				<time>2013-07-12T09:58:56</time>
			</trkpt>
			<trkpt lat="48.941689962521195" lon="3.270199941471219">
				<ele>183.0</ele>
				<time>2013-07-12T09:59:07</time>
			</trkpt>
			<trkpt lat="48.94260987639427" lon="3.2713698875159025">
				<ele>179.0</ele>
				<time>2013-07-12T09:59:27</time>
			</trkpt>
			<trkpt lat="48.94291992299259" lon="3.2715599052608013">
				<ele>177.0</ele>
				<time>2013-07-12T09:59:32</time>
			</trkpt>
			<trkpt lat="48.94370983354747" lon="3.2715798541903496">
				<ele>167.0</ele>
				<time>2013-07-12T09:59:45</time>
			</trkpt>
			<trkpt lat="48.944059861823916" lon="3.271759981289506">
				<ele>165.0</ele>
				<time>2013-07-12T09:59:50</time>
			</trkpt>
			<trkpt lat="48.94459999166429" lon="3.2729699928313494">
				<ele>169.0</ele>
				<time>2013-07-12T10:00:06</time>
			</trkpt>
			<trkpt lat="48.945789970457554" lon="3.273719921708107">
				<ele>154.0</ele>
				<time>2013-07-12T10:00:26</time>
			</trkpt>
			<trkpt lat="48.94732997752726" lon="3.280379930511117">
				<ele>132.0</ele>
				<time>2013-07-12T10:01:41</time>
			</trkpt>
			<trkpt lat="48.94739988259971" lon="3.282129904255271">
				<ele>140.0</ele>
				<time>2013-07-12T10:01:59</time>
			</trkpt>
			<trkpt lat="48.948779879137874" lon="3.2846899051219225">
				<ele>125.0</ele>
				<time>2013-07-12T10:02:34</time>
			</trkpt>
			<trkpt lat="48.94968990236521" lon="3.2857899460941553">
				<ele>115.0</ele>
				<time>2013-07-12T10:02:53</time>
			</trkpt>
			<trkpt lat="48.95102983340621" lon="3.2868998777121305">
				<ele>99.0</ele>
				<time>2013-07-12T10:03:17</time>
			</trkpt>
			<trkpt lat="48.951779846102" lon="3.287079920992255">
				<ele>90.0</ele>
				<time>2013-07-12T10:03:29</time>
			</trkpt>
			<trkpt lat="48.953699888661504" lon="3.28717983327806">
				<ele>77.0</ele>
				<time>2013-07-12T10:04:00</time>
			</trkpt>
			<trkpt lat="48.95476992242038" lon="3.287749970331788">
				<ele>75.0</ele>
				<time>2013-07-12T10:04:18</time>
			</trkpt>
			<trkpt lat="48.955139899626374" lon="3.2873599603772163">
				<ele>70.0</ele>
				<time>2013-07-12T10:04:25</time>
			</trkpt>
			<trkpt lat="48.95310997031629" lon="3.285729931667447">
				<ele>69.0</ele>
				<time>2013-07-12T10:05:02</time>
			</trkpt>
			<trkpt lat="48.953009974211454" lon="3.2851299550384283">
				<ele>66.0</ele>
				<time>2013-07-12T10:05:09</time>
			</trkpt>
			<trkpt lat="48.95261996425688" lon="3.2849999517202377">
				<ele>67.0</ele>
				<time>2013-07-12T10:05:15</time>
			</trkpt>
			<trkpt lat="48.95186995156109" lon="3.283889852464199">
				<ele>68.0</ele>
				<time>2013-07-12T10:05:32</time>
			</trkpt>
			<trkpt lat="48.94951991736889" lon="3.27965984120965">
				<ele>72.0</ele>
				<time>2013-07-12T10:06:30</time>
			</trkpt>
			<trkpt lat="48.94929997622967" lon="3.279009908437729">
				<ele>74.0</ele>
				<time>2013-07-12T10:06:38</time>
			</trkpt>
			<trkpt lat="48.948929999023676" lon="3.2773299235850573">
				<ele>74.0</ele>
				<time>2013-07-12T10:06:56</time>
			</trkpt>
			<trkpt lat="48.94849983975291" lon="3.2761998753994703">
				<ele>81.0</ele>
				<time>2013-07-12T10:07:10</time>
			</trkpt>
			<trkpt lat="48.947919895872474" lon="3.2714299019426107">
				<ele>81.0</ele>
				<time>2013-07-12T10:08:01</time>
			</trkpt>
			<trkpt lat="48.94792995415628" lon="3.265749989077449">
				<ele>101.0</ele>
				<time>2013-07-12T10:09:01</time>
			</trkpt>
			<trkpt lat="48.94864987581968" lon="3.2640598621219397">
				<ele>74.0</ele>
				<time>2013-07-12T10:09:22</time>
			</trkpt>
			<trkpt lat="48.94927994348109" lon="3.26188987120986">
				<ele>83.0</ele>
				<time>2013-07-12T10:09:47</time>
			</trkpt>
			<trkpt lat="48.95042985677719" lon="3.260249951854348">
				<ele>92.0</ele>
				<time>2013-07-12T10:10:12</time>
			</trkpt>
			<trkpt lat="48.951039891690016" lon="3.25844993814826">
				<ele>100.0</ele>
				<time>2013-07-12T10:10:33</time>
			</trkpt>
			<trkpt lat="48.9525499753654" lon="3.2572599593549967">
				<ele>81.0</ele>
				<time>2013-07-12T10:11:01</time>
			</trkpt>
			<trkpt lat="48.95357985980809" lon="3.256879923865199">
				<ele>72.0</ele>
				<time>2013-07-12T10:11:18</time>
			</trkpt>
			<trkpt lat="48.95411998964846" lon="3.2564798556268215">
				<ele>73.0</ele>
				<time>2013-07-12T10:11:27</time>
			</trkpt>
			<trkpt lat="48.96451991982758" lon="3.2468899525702">
				<ele>58.0</ele>
				<time>2013-07-12T10:14:42</time>
			</trkpt>
			<trkpt lat="48.9655498880893" lon="3.2456799410283566">
				<ele>59.0</ele>
				<time>2013-07-12T10:15:03</time>
			</trkpt>
			<trkpt lat="48.967319978401065" lon="3.242449890822172">
				<ele>59.0</ele>
				<time>2013-07-12T10:15:47</time>
			</trkpt>
			<trkpt lat="48.9670298807323" lon="3.2421198952943087">
				<ele>62.0</ele>
				<time>2013-07-12T10:15:53</time>
			</trkpt>
			<trkpt lat="48.967749970033765" lon="3.24112999252975">
				<ele>60.0</ele>
				<time>2013-07-12T10:16:08</time>
			</trkpt>
			<trkpt lat="48.96866996772587" lon="3.238389864563942">
				<ele>62.0</ele>
				<time>2013-07-12T10:16:41</time>
			</trkpt>
			<trkpt lat="48.96775986067951" lon="3.2373998779803514">
				<ele>73.0</ele>
				<time>2013-07-12T10:16:58</time>
			</trkpt>
			<trkpt lat="48.967599933966994" lon="3.2362099830061197">
				<ele>76.0</ele>
				<time>2013-07-12T10:17:11</time>
			</trkpt>
			<trkpt lat="48.96850526332855" lon="3.2331966049969196">
				<ele>78.05</ele>
				<time>2013-07-12T10:17:46</time>
			</trkpt>
			<trkpt lat="48.968505347147584" lon="3.233196521177888">
				<ele>78.06</ele>
				<time>2013-07-12T10:17:46</time>
			</trkpt>
			<trkpt lat="48.96850568242371" lon="3.233195347711444">
				<ele>78.06</ele>
				<time>2013-07-12T10:17:46</time>
			</trkpt>
			<trkpt lat="48.968909941613674" lon="3.23184996843338">
				<ele>79.0</ele>
				<time>2013-07-12T10:18:02</time>
			</trkpt>
			<trkpt lat="48.9687498472631" lon="3.2300498709082603">
				<ele>80.0</ele>
				<time>2013-07-12T10:18:21</time>
			</trkpt>
			<trkpt lat="48.968029925599694" lon="3.2269598823040724">
				<ele>81.0</ele>
				<time>2013-07-12T10:18:55</time>
			</trkpt>
			<trkpt lat="48.964829966425896" lon="3.2196299079805613">
				<ele>73.0</ele>
				<time>2013-07-12T10:20:28</time>
			</trkpt>
			<trkpt lat="48.962139962241054" lon="3.2124399952590466">
				<ele>61.0</ele>
				<time>2013-07-12T10:21:55</time>
			</trkpt>
			<trkpt lat="48.962079863995314" lon="3.2108099665492773">
				<ele>60.0</ele>
				<time>2013-07-12T10:22:12</time>
			</trkpt>
			<trkpt lat="48.961799908429384" lon="3.2099099177867174">
				<ele>60.0</ele>
				<time>2013-07-12T10:22:22</time>
			</trkpt>
			<trkpt lat="48.9597699791193" lon="3.21311985142529">
				<ele>73.0</ele>
				<time>2013-07-12T10:23:09</time>
			</trkpt>
			<trkpt lat="48.9594298414886" lon="3.213939853012562">
				<ele>75.0</ele>
				<time>2013-07-12T10:23:19</time>
			</trkpt>
			<trkpt lat="48.959009908139706" lon="3.2141399290412664">
				<ele>78.0</ele>
				<time>2013-07-12T10:23:26</time>
			</trkpt>
			<trkpt lat="48.95764986053109" lon="3.21268985979259">
				<ele>94.0</ele>
				<time>2013-07-12T10:23:53</time>
			</trkpt>
			<trkpt lat="48.95589997060597" lon="3.2112799398601055">
				<ele>110.0</ele>
				<time>2013-07-12T10:24:25</time>
			</trkpt>
			<trkpt lat="48.9504898712039" lon="3.207599865272641">
				<ele>152.0</ele>
				<time>2013-07-12T10:26:00</time>
			</trkpt>
			<trkpt lat="48.949899952858686" lon="3.2076398469507694">
				<ele>154.0</ele>
				<time>2013-07-12T10:26:09</time>
			</trkpt>
			<trkpt lat="48.94889990799129" lon="3.2080199662595987">
				<ele>158.0</ele>
				<time>2013-07-12T10:26:26</time>
			</trkpt>
			<trkpt lat="48.947449838742614" lon="3.2081099040806293">
				<ele>162.0</ele>
				<time>2013-07-12T10:26:49</time>
			</trkpt>
			<trkpt lat="48.94691985100508" lon="3.2079999335110188">
				<ele>164.0</ele>
				<time>2013-07-12T10:26:57</time>
			</trkpt>
			<trkpt lat="48.946249885484576" lon="3.2077599596232176">
				<ele>166.0</ele>
				<time>2013-07-12T10:27:08</time>
			</trkpt>
			<trkpt lat="48.94414988346398" lon="3.2063999958336353">
				<ele>171.0</ele>
				<time>2013-07-12T10:27:45</time>
			</trkpt>
			<trkpt lat="48.940809862688184" lon="3.2050799299031496">
				<ele>179.0</ele>
				<time>2013-07-12T10:28:40</time>
			</trkpt>
			<trkpt lat="48.929229928180575" lon="3.201319891959429">
				<ele>183.0</ele>
				<time>2013-07-12T10:31:50</time>
			</trkpt>
			<trkpt lat="48.924139849841595" lon="3.1992598716169596">
				<ele>181.0</ele>
				<time>2013-07-12T10:33:14</time>
			</trkpt>
			<trkpt lat="48.922589868307114" lon="3.1988599710166454">
				<ele>180.0</ele>
				<time>2013-07-12T10:33:39</time>
			</trkpt>
			<trkpt lat="48.91331998631358" lon="3.1956699024885893">
				<ele>144.0</ele>
				<time>2013-07-12T10:36:11</time>
			</trkpt>
			<trkpt lat="48.91417996957898" lon="3.1904799956828356">
				<ele>139.0</ele>
				<time>2013-07-12T10:37:08</time>
			</trkpt>
			<trkpt lat="48.91417996957898" lon="3.1886599492281675">
				<ele>136.0</ele>
				<time>2013-07-12T10:37:27</time>
			</trkpt>
			<trkpt lat="48.913479913026094" lon="3.18614998832345">
				<ele>120.0</ele>
				<time>2013-07-12T10:37:56</time>
			</trkpt>
			<trkpt lat="48.9131498336792" lon="3.183439951390028">
				<ele>110.0</ele>
				<time>2013-07-12T10:38:25</time>
			</trkpt>
			<trkpt lat="48.91163991764188" lon="3.1761898566037416">
				<ele>95.0</ele>
				<time>2013-07-12T10:39:45</time>
			</trkpt>
			<trkpt lat="48.91136985272169" lon="3.172989897429943">
				<ele>90.0</ele>
				<time>2013-07-12T10:40:19</time>
			</trkpt>
			<trkpt lat="48.90999999828637" lon="3.1690699327737093">
				<ele>69.0</ele>
				<time>2013-07-12T10:41:05</time>
			</trkpt>
			<trkpt lat="48.91105988994241" lon="3.1656598392874002">
				<ele>82.0</ele>
				<time>2013-07-12T10:41:45</time>
			</trkpt>
			<trkpt lat="48.911219984292984" lon="3.1641798466444016">
				<ele>79.0</ele>
				<time>2013-07-12T10:42:01</time>
			</trkpt>
			<trkpt lat="48.91149985603988" lon="3.163559837266803">
				<ele>76.0</ele>
				<time>2013-07-12T10:42:09</time>
			</trkpt>
			<trkpt lat="48.91170999035239" lon="3.1634898483753204">
				<ele>76.0</ele>
				<time>2013-07-12T10:42:12</time>
			</trkpt>
			<trkpt lat="48.9137299451977" lon="3.164069876074791">
				<ele>70.0</ele>
				<time>2013-07-12T10:42:45</time>
			</trkpt>
			<trkpt lat="48.91579985618591" lon="3.163449866697192">
				<ele>61.0</ele>
				<time>2013-07-12T10:43:19</time>
			</trkpt>
			<trkpt lat="48.915999848395586" lon="3.1631399039179087">
				<ele>60.0</ele>
				<time>2013-07-12T10:43:23</time>
			</trkpt>
			<trkpt lat="48.91550984233618" lon="3.1615998968482018">
				<ele>58.0</ele>
				<time>2013-07-12T10:43:41</time>
			</trkpt>
			<trkpt lat="48.91626991331577" lon="3.159619839861989">
				<ele>57.0</ele>
				<time>2013-07-12T10:44:06</time>
			</trkpt>
			<trkpt lat="48.9169299043715" lon="3.1571799516677856">
				<ele>63.0</ele>
				<time>2013-07-12T10:44:33</time>
			</trkpt>
			<trkpt lat="48.91701992601156" lon="3.157079955562949">
				<ele>64.0</ele>
				<time>2013-07-12T10:44:35</time>
			</trkpt>
			<trkpt lat="48.91841987147927" lon="3.157439958304167">
				<ele>61.0</ele>
				<time>2013-07-12T10:44:58</time>
			</trkpt>
			<trkpt lat="48.918979950249195" lon="3.156529851257801">
				<ele>68.0</ele>
				<time>2013-07-12T10:45:11</time>
			</trkpt>
			<trkpt lat="48.919259989634156" lon="3.1548498664051294">
				<ele>79.0</ele>
				<time>2013-07-12T10:45:29</time>
			</trkpt>
			<trkpt lat="48.9192299824208" lon="3.1546198669821024">
				<ele>82.0</ele>
				<time>2013-07-12T10:45:32</time>
			</trkpt>
			<trkpt lat="48.91898992471397" lon="3.15454987809062">
				<ele>85.0</ele>
				<time>2013-07-12T10:45:36</time>
			</trkpt>
			<trkpt lat="48.91782995313406" lon="3.155059916898608">
				<ele>90.0</ele>
				<time>2013-07-12T10:45:55</time>
			</trkpt>
			<trkpt lat="48.916919846087694" lon="3.155269967392087">
				<ele>92.0</ele>
				<time>2013-07-12T10:46:10</time>
			</trkpt>
			<trkpt lat="48.91608995385468" lon="3.154669990763068">
				<ele>98.0</ele>
				<time>2013-07-12T10:46:24</time>
			</trkpt>
			<trkpt lat="48.9155899733305" lon="3.1539999414235353">
				<ele>103.0</ele>
				<time>2013-07-12T10:46:35</time>
			</trkpt>
			<trkpt lat="48.9155899733305" lon="3.1533298920840025">
				<ele>108.0</ele>
				<time>2013-07-12T10:46:42</time>
			</trkpt>
			<trkpt lat="48.91621995717287" lon="3.1531298998743296">
				<ele>111.0</ele>
				<time>2013-07-12T10:46:52</time>
			</trkpt>
			<trkpt lat="48.916259938851" lon="3.152839969843626">
				<ele>113.0</ele>
				<time>2013-07-12T10:46:56</time>
			</trkpt>
			<trkpt lat="48.91600990667939" lon="3.149829860776663">
				<ele>129.0</ele>
				<time>2013-07-12T10:47:27</time>
			</trkpt>
			<trkpt lat="48.91610998660326" lon="3.1484299153089523">
				<ele>135.0</ele>
				<time>2013-07-12T10:47:42</time>
			</trkpt>
			<trkpt lat="48.91567999497056" lon="3.144819913432002">
				<ele>142.0</ele>
				<time>2013-07-12T10:48:21</time>
			</trkpt>
			<trkpt lat="48.91398995183408" lon="3.1457999255508184">
				<ele>142.0</ele>
				<time>2013-07-12T10:48:50</time>
			</trkpt>
			<trkpt lat="48.91383991576731" lon="3.1445699650794268">
				<ele>144.0</ele>
				<time>2013-07-12T10:49:03</time>
			</trkpt>
			<trkpt lat="48.913929937407374" lon="3.143319971859455">
				<ele>142.0</ele>
				<time>2013-07-12T10:49:16</time>
			</trkpt>
			<trkpt lat="48.912729900330305" lon="3.1369498930871487">
				<ele>147.0</ele>
				<time>2013-07-12T10:50:26</time>
			</trkpt>
			<trkpt lat="48.911459958180785" lon="3.1340499222278595">
				<ele>153.0</ele>
				<time>2013-07-12T10:51:03</time>
			</trkpt>
			<trkpt lat="48.9114298671484" lon="3.131499895825982">
				<ele>157.0</ele>
				<time>2013-07-12T10:51:29</time>
			</trkpt>
			<trkpt lat="48.91471993178129" lon="3.123209858313203">
				<ele>156.0</ele>
				<time>2013-07-12T10:53:11</time>
			</trkpt>
			<trkpt lat="48.91636990942061" lon="3.1240999326109886">
				<ele>158.0</ele>
				<time>2013-07-12T10:53:39</time>
			</trkpt>
			<trkpt lat="48.9187999907881" lon="3.1231198366731405">
				<ele>155.0</ele>
				<time>2013-07-12T10:54:20</time>
			</trkpt>
			<trkpt lat="48.891269881278276" lon="3.0951698776334524">
				<ele>159.0</ele>
				<time>2013-07-12T11:03:10</time>
			</trkpt>
			<trkpt lat="48.889329973608255" lon="3.093579914420843">
				<ele>155.0</ele>
				<time>2013-07-12T11:03:45</time>
			</trkpt>
			<trkpt lat="48.88934983871877" lon="3.093159981071949">
				<ele>154.0</ele>
				<time>2013-07-12T11:03:49</time>
			</trkpt>
			<trkpt lat="48.88707993552089" lon="3.087929841130972">
				<ele>147.0</ele>
				<time>2013-07-12T11:04:55</time>
			</trkpt>
			<trkpt lat="48.88657987117767" lon="3.082849904894829">
				<ele>150.0</ele>
				<time>2013-07-12T11:05:49</time>
			</trkpt>
			<trkpt lat="48.88630989007652" lon="3.0826499965041876">
				<ele>150.0</ele>
				<time>2013-07-12T11:05:54</time>
			</trkpt>
			<trkpt lat="48.884899886325" lon="3.0825298838317394">
				<ele>148.0</ele>
				<time>2013-07-12T11:06:17</time>
			</trkpt>
			<trkpt lat="48.88435992412269" lon="3.08220986276865">
				<ele>147.0</ele>
				<time>2013-07-12T11:06:26</time>
			</trkpt>
			<trkpt lat="48.88319995254278" lon="3.081099847331643">
				<ele>145.0</ele>
				<time>2013-07-12T11:06:48</time>
			</trkpt>
			<trkpt lat="48.88256988488138" lon="3.079329840838909">
				<ele>143.0</ele>
				<time>2013-07-12T11:07:09</time>
			</trkpt>
			<trkpt lat="48.88138988055289" lon="3.077579950913787">
				<ele>142.0</ele>
				<time>2013-07-12T11:07:36</time>
			</trkpt>
			<trkpt lat="48.88072997331619" lon="3.073769873008132">
				<ele>145.0</ele>
				<time>2013-07-12T11:08:17</time>
			</trkpt>
			<trkpt lat="48.883489882573485" lon="3.0697499122470617">
				<ele>144.0</ele>
				<time>2013-07-12T11:09:18</time>
			</trkpt>
			<trkpt lat="48.88706987723708" lon="3.06765996851027">
				<ele>148.0</ele>
				<time>2013-07-12T11:10:20</time>
			</trkpt>
			<trkpt lat="48.892059875652194" lon="3.0653599742799997">
				<ele>154.0</ele>
				<time>2013-07-12T11:11:43</time>
			</trkpt>
			<trkpt lat="48.89630983583629" lon="3.060709862038493">
				<ele>158.0</ele>
				<time>2013-07-12T11:13:07</time>
			</trkpt>
			<trkpt lat="48.8973799534142" lon="3.0591199826449156">
				<ele>160.0</ele>
				<time>2013-07-12T11:13:31</time>
			</trkpt>
			<trkpt lat="48.89251995831728" lon="3.052979987114668">
				<ele>156.0</ele>
				<time>2013-07-12T11:15:12</time>
			</trkpt>
			<trkpt lat="48.89090996235609" lon="3.051479961723089">
				<ele>156.0</ele>
				<time>2013-07-12T11:15:42</time>
			</trkpt>
			<trkpt lat="48.89185996726155" lon="3.0388498585671186">
				<ele>152.0</ele>
				<time>2013-07-12T11:17:56</time>
			</trkpt>
			<trkpt lat="48.88449529185891" lon="3.0384198669344187">
				<ele>148.0</ele>
				<time>2013-07-12T11:19:54</time>
			</trkpt>
			<trkpt lat="48.88449177145958" lon="3.0384196992963552">
				<ele>148.0</ele>
				<time>2013-07-12T11:19:54</time>
			</trkpt>
			<trkpt lat="48.884493447840214" lon="3.038374688476324">
				<ele>146.0</ele>
				<time>2013-07-12T11:19:55</time>
			</trkpt>
			<trkpt lat="48.88272285461426" lon="3.0382239818573">
				<ele>147.41</ele>
				<time>2013-07-12T11:20:23</time>
			</trkpt>
			<trkpt lat="48.87698292732239" lon="3.037891387939453">
				<ele>149.23</ele>
				<time>2013-07-12T11:21:55</time>
			</trkpt>
			<trkpt lat="48.87663960456848" lon="3.036593198776245">
				<ele>149.0</ele>
				<time>2013-07-12T11:22:10</time>
			</trkpt>
			<trkpt lat="48.87515910901129" lon="3.029930591583252">
				<ele>151.58</ele>
				<time>2013-07-12T11:23:24</time>
			</trkpt>
			<trkpt lat="48.874611938372254" lon="3.027462959289551">
				<ele>152.22</ele>
				<time>2013-07-12T11:23:51</time>
			</trkpt>
			<trkpt lat="48.876317739486694" lon="3.0202746391296387">
				<ele>150.36</ele>
				<time>2013-07-12T11:25:12</time>
			</trkpt>
			<trkpt lat="48.87666114605963" lon="3.018772602081299">
				<ele>152.0</ele>
				<time>2013-07-12T11:25:29</time>
			</trkpt>
			<trkpt lat="48.876875722780824" lon="3.0178606510162354">
				<ele>151.0</ele>
				<time>2013-07-12T11:25:39</time>
			</trkpt>
			<trkpt lat="48.876907909289" lon="3.017774820327759">
				<ele>151.0</ele>
				<time>2013-07-12T11:25:40</time>
			</trkpt>
			<trkpt lat="48.877347791567445" lon="3.016541004180908">
				<ele>153.96</ele>
				<time>2013-07-12T11:25:55</time>
			</trkpt>
			<trkpt lat="48.87795925140381" lon="3.0148351192474365">
				<ele>153.27</ele>
				<time>2013-07-12T11:26:15</time>
			</trkpt>
			<trkpt lat="48.878055810928345" lon="3.0144059658050537">
				<ele>152.96</ele>
				<time>2013-07-12T11:26:20</time>
			</trkpt>
			<trkpt lat="48.87808799743652" lon="3.0140626430511475">
				<ele>151.22</ele>
				<time>2013-07-12T11:26:23</time>
			</trkpt>
			<trkpt lat="48.878055810928345" lon="3.013730049133301">
				<ele>149.62</ele>
				<time>2013-07-12T11:26:27</time>
			</trkpt>
			<trkpt lat="48.87735843658447" lon="3.0095887184143066">
				<ele>153.77</ele>
				<time>2013-07-12T11:27:12</time>
			</trkpt>
			<trkpt lat="48.87734770774841" lon="3.0092453956604004">
				<ele>153.92</ele>
				<time>2013-07-12T11:27:16</time>
			</trkpt>
			<trkpt lat="48.87740135192871" lon="3.0089128017425537">
				<ele>153.73</ele>
				<time>2013-07-12T11:27:19</time>
			</trkpt>
			<trkpt lat="48.87750864028931" lon="3.008655309677124">
				<ele>153.34</ele>
				<time>2013-07-12T11:27:22</time>
			</trkpt>
			<trkpt lat="48.88098478317261" lon="3.0032479763031006">
				<ele>158.0</ele>
				<time>2013-07-12T11:28:42</time>
			</trkpt>
			<trkpt lat="48.881038427352905" lon="3.0031943321228027">
				<ele>158.0</ele>
				<time>2013-07-12T11:28:43</time>
			</trkpt>
			<trkpt lat="48.88169288635254" lon="3.0013489723205566">
				<ele>160.0</ele>
				<time>2013-07-12T11:29:05</time>
			</trkpt>
			<trkpt lat="48.88197183609009" lon="3.0005979537963867">
				<ele>160.0</ele>
				<time>2013-07-12T11:29:14</time>
			</trkpt>
			<trkpt lat="48.882261514663696" lon="2.9997289180755615">
				<ele>162.99</ele>
				<time>2013-07-12T11:29:25</time>
			</trkpt>
			<trkpt lat="48.88226159848273" lon="2.9995036125183105">
				<ele>163.56</ele>
				<time>2013-07-12T11:29:27</time>
			</trkpt>
			<trkpt lat="48.88221859931946" lon="2.9993534088134766">
				<ele>163.64</ele>
				<time>2013-07-12T11:29:29</time>
			</trkpt>
			<trkpt lat="48.88149976730347" lon="2.9982054233551025">
				<ele>161.95</ele>
				<time>2013-07-12T11:29:45</time>
			</trkpt>
			<trkpt lat="48.88137102127075" lon="2.997915744781494">
				<ele>161.1</ele>
				<time>2013-07-12T11:29:49</time>
			</trkpt>
			<trkpt lat="48.881317460909486" lon="2.9977333545684814">
				<ele>160.08</ele>
				<time>2013-07-12T11:29:51</time>
			</trkpt>
			<trkpt lat="48.88074053451419" lon="2.9955789539963007">
				<ele>155.86</ele>
				<time>2013-07-12T11:30:16</time>
			</trkpt>
			<trkpt lat="48.88074103742838" lon="2.9955807980149984">
				<ele>155.86</ele>
				<time>2013-07-12T11:30:16</time>
			</trkpt>
			<trkpt lat="48.880265951156616" lon="2.9938066005706787">
				<ele>151.0</ele>
				<time>2013-07-12T11:30:36</time>
			</trkpt>
			<trkpt lat="48.87673616409302" lon="2.980341911315918">
				<ele>154.12</ele>
				<time>2013-07-12T11:33:08</time>
			</trkpt>
			<trkpt lat="48.87668251991272" lon="2.980095148086548">
				<ele>154.68</ele>
				<time>2013-07-12T11:33:11</time>
			</trkpt>
			<trkpt lat="48.87667179107666" lon="2.979869842529297">
				<ele>154.64</ele>
				<time>2013-07-12T11:33:14</time>
			</trkpt>
			<trkpt lat="48.87670397758484" lon="2.9797732830047607">
				<ele>154.75</ele>
				<time>2013-07-12T11:33:15</time>
			</trkpt>
			<trkpt lat="48.87670397758484" lon="2.979665994644165">
				<ele>154.75</ele>
				<time>2013-07-12T11:33:16</time>
			</trkpt>
			<trkpt lat="48.87668251991272" lon="2.979569435119629">
				<ele>154.68</ele>
				<time>2013-07-12T11:33:17</time>
			</trkpt>
			<trkpt lat="48.87665033340454" lon="2.9794836044311523">
				<ele>154.56</ele>
				<time>2013-07-12T11:33:18</time>
			</trkpt>
			<trkpt lat="48.876585960388184" lon="2.979419231414795">
				<ele>154.33</ele>
				<time>2013-07-12T11:33:19</time>
			</trkpt>
			<trkpt lat="48.87651085853577" lon="2.9794085025787354">
				<ele>154.06</ele>
				<time>2013-07-12T11:33:20</time>
			</trkpt>
			<trkpt lat="48.87643575668335" lon="2.9794299602508545">
				<ele>153.79</ele>
				<time>2013-07-12T11:33:22</time>
			</trkpt>
			<trkpt lat="48.87636065483093" lon="2.979311943054199">
				<ele>153.52</ele>
				<time>2013-07-12T11:33:23</time>
			</trkpt>
			<trkpt lat="48.876317739486694" lon="2.9791295528411865">
				<ele>153.98</ele>
				<time>2013-07-12T11:33:25</time>
			</trkpt>
			<trkpt lat="48.876296281814575" lon="2.978743314743042">
				<ele>154.0</ele>
				<time>2013-07-12T11:33:29</time>
			</trkpt>
			<trkpt lat="48.87623199261725" lon="2.978464365005493">
				<ele>155.0</ele>
				<time>2013-07-12T11:33:33</time>
			</trkpt>
			<trkpt lat="48.87603887356818" lon="2.9777777194976807">
				<ele>155.36</ele>
				<time>2013-07-12T11:33:40</time>
			</trkpt>
			<trkpt lat="48.87448319233954" lon="2.972005605697632">
				<ele>154.95</ele>
				<time>2013-07-12T11:34:46</time>
			</trkpt>
			<trkpt lat="48.87409687042236" lon="2.9709434509277344">
				<ele>156.92</ele>
				<time>2013-07-12T11:34:59</time>
			</trkpt>
			<trkpt lat="48.872122848406434" lon="2.9678964614868164">
				<ele>152.31</ele>
				<time>2013-07-12T11:35:44</time>
			</trkpt>
			<trkpt lat="48.86985898017883" lon="2.9634439945220947">
				<ele>151.0</ele>
				<time>2013-07-12T11:36:43</time>
			</trkpt>
			<trkpt lat="48.869859063997865" lon="2.9634439945220947">
				<ele>151.0</ele>
				<time>2013-07-12T11:36:43</time>
			</trkpt>
			<trkpt lat="48.86822828091681" lon="2.960193157196045">
				<ele>148.25</ele>
				<time>2013-07-12T11:37:26</time>
			</trkpt>
			<trkpt lat="48.86614680290222" lon="2.955118417739868">
				<ele>150.0</ele>
				<time>2013-07-12T11:38:29</time>
			</trkpt>
			<trkpt lat="48.86601814068854" lon="2.954721450805664">
				<ele>150.0</ele>
				<time>2013-07-12T11:38:34</time>
			</trkpt>
			<trkpt lat="48.86600732803345" lon="2.954678535461426">
				<ele>150.0</ele>
				<time>2013-07-12T11:38:34</time>
			</trkpt>
			<trkpt lat="48.865824937820435" lon="2.9536914825439453">
				<ele>150.0</ele>
				<time>2013-07-12T11:38:45</time>
			</trkpt>
			<trkpt lat="48.86547088623047" lon="2.951202392578125">
				<ele>141.09</ele>
				<time>2013-07-12T11:39:12</time>
			</trkpt>
			<trkpt lat="48.86541724205017" lon="2.9503870010375977">
				<ele>136.0</ele>
				<time>2013-07-12T11:39:21</time>
			</trkpt>
			<trkpt lat="48.86538505554199" lon="2.949206829071045">
				<ele>135.93</ele>
				<time>2013-07-12T11:39:33</time>
			</trkpt>
			<trkpt lat="48.865374410524964" lon="2.9490458965301514">
				<ele>136.05</ele>
				<time>2013-07-12T11:39:35</time>
			</trkpt>
			<trkpt lat="48.86531003750861" lon="2.9484879970550537">
				<ele>134.21</ele>
				<time>2013-07-12T11:39:41</time>
			</trkpt>
			<trkpt lat="48.86463403701782" lon="2.9440999031066895">
				<ele>108.31</ele>
				<time>2013-07-12T11:40:28</time>
			</trkpt>
			<trkpt lat="48.864634120836854" lon="2.9440999031066895">
				<ele>108.31</ele>
				<time>2013-07-12T11:40:28</time>
			</trkpt>
			<trkpt lat="48.864601934328675" lon="2.9438316822052">
				<ele>106.49</ele>
				<time>2013-07-12T11:40:31</time>
			</trkpt>
			<trkpt lat="48.86446237564087" lon="2.9428446292877197">
				<ele>104.29</ele>
				<time>2013-07-12T11:40:42</time>
			</trkpt>
			<trkpt lat="48.86420496739447" lon="2.9416000843048096">
				<ele>102.77</ele>
				<time>2013-07-12T11:40:56</time>
			</trkpt>
			<trkpt lat="48.8641619682312" lon="2.9414284229278564">
				<ele>102.02</ele>
				<time>2013-07-12T11:40:57</time>
			</trkpt>
			<trkpt lat="48.86364698410034" lon="2.939615249633789">
				<ele>98.17</ele>
				<time>2013-07-12T11:41:18</time>
			</trkpt>
			<trkpt lat="48.862831592559814" lon="2.937115430831909">
				<ele>98.66</ele>
				<time>2013-07-12T11:41:48</time>
			</trkpt>
			<trkpt lat="48.8622522354126" lon="2.935420274734497">
				<ele>93.0</ele>
				<time>2013-07-12T11:42:08</time>
			</trkpt>
			<trkpt lat="48.8616943359375" lon="2.9336178302764893">
				<ele>94.0</ele>
				<time>2013-07-12T11:42:29</time>
			</trkpt>
			<trkpt lat="48.861243724823" lon="2.9309892654418945">
				<ele>87.36</ele>
				<time>2013-07-12T11:42:57</time>
			</trkpt>
			<trkpt lat="48.86107214726508" lon="2.9296374320983887">
				<ele>83.49</ele>
				<time>2013-07-12T11:43:12</time>
			</trkpt>
			<trkpt lat="48.86099260300398" lon="2.9290057718753815">
				<ele>84.98</ele>
				<time>2013-07-12T11:43:19</time>
			</trkpt>
			<trkpt lat="48.860992351546884" lon="2.9290031734853983">
				<ele>85.0</ele>
				<time>2013-07-12T11:43:19</time>
			</trkpt>
			<trkpt lat="48.86081465519965" lon="2.9275882244110107">
				<ele>83.4</ele>
				<time>2013-07-12T11:43:34</time>
			</trkpt>
			<trkpt lat="48.860793113708496" lon="2.9260432720184326">
				<ele>81.49</ele>
				<time>2013-07-12T11:43:50</time>
			</trkpt>
			<trkpt lat="48.86073955334723" lon="2.9256677627563477">
				<ele>79.91</ele>
				<time>2013-07-12T11:43:54</time>
			</trkpt>
			<trkpt lat="48.86071801185608" lon="2.925539016723633">
				<ele>78.46</ele>
				<time>2013-07-12T11:43:56</time>
			</trkpt>
			<trkpt lat="48.860578536987305" lon="2.9250240325927734">
				<ele>77.04</ele>
				<time>2013-07-12T11:44:01</time>
			</trkpt>
			<trkpt lat="48.86040687561035" lon="2.9246699810028076">
				<ele>75.32</ele>
				<time>2013-07-12T11:44:06</time>
			</trkpt>
			<trkpt lat="48.860106552019715" lon="2.924240827560425">
				<ele>73.13</ele>
				<time>2013-07-12T11:44:13</time>
			</trkpt>
			<trkpt lat="48.85951646603644" lon="2.9234683513641357">
				<ele>70.99</ele>
				<time>2013-07-12T11:44:25</time>
			</trkpt>
			<trkpt lat="48.85946273803711" lon="2.9234039783477783">
				<ele>68.98</ele>
				<time>2013-07-12T11:44:26</time>
			</trkpt>
			<trkpt lat="48.859108686447144" lon="2.922492027282715">
				<ele>66.32</ele>
				<time>2013-07-12T11:44:37</time>
			</trkpt>
			<trkpt lat="48.85895848274231" lon="2.921783924102783">
				<ele>63.81</ele>
				<time>2013-07-12T11:44:45</time>
			</trkpt>
			<trkpt lat="48.85894775390625" lon="2.919820547103882">
				<ele>61.06</ele>
				<time>2013-07-12T11:45:06</time>
			</trkpt>
			<trkpt lat="48.859097957611084" lon="2.9183077812194824">
				<ele>59.5</ele>
				<time>2013-07-12T11:45:22</time>
			</trkpt>
			<trkpt lat="48.859087228775024" lon="2.918168306350708">
				<ele>58.21</ele>
				<time>2013-07-12T11:45:24</time>
			</trkpt>
			<trkpt lat="48.85906585492194" lon="2.918071746826172">
				<ele>57.2</ele>
				<time>2013-07-12T11:45:25</time>
			</trkpt>
			<trkpt lat="48.859065771102905" lon="2.918071746826172">
				<ele>56.5</ele>
				<time>2013-07-12T11:45:25</time>
			</trkpt>
			<trkpt lat="48.859376991167665" lon="2.9162049293518066">
				<ele>56.23</ele>
				<time>2013-07-12T11:45:45</time>
			</trkpt>
			<trkpt lat="48.85937690734863" lon="2.9162049293518066">
				<ele>55.83</ele>
				<time>2013-07-12T11:45:45</time>
			</trkpt>
			<trkpt lat="48.85943063534796" lon="2.9156899452209473">
				<ele>55.44</ele>
				<time>2013-07-12T11:45:50</time>
			</trkpt>
			<trkpt lat="48.85947346687317" lon="2.9154539108276367">
				<ele>55.06</ele>
				<time>2013-07-12T11:45:53</time>
			</trkpt>
			<trkpt lat="48.85949492454529" lon="2.915099859237671">
				<ele>54.58</ele>
				<time>2013-07-12T11:45:57</time>
			</trkpt>
			<trkpt lat="48.85944128036499" lon="2.915024757385254">
				<ele>54.14</ele>
				<time>2013-07-12T11:45:58</time>
			</trkpt>
			<trkpt lat="48.85925897397101" lon="2.9148316383361816">
				<ele>53.56</ele>
				<time>2013-07-12T11:46:01</time>
			</trkpt>
			<trkpt lat="48.85920524597168" lon="2.914777994155884">
				<ele>53.22</ele>
				<time>2013-07-12T11:46:02</time>
			</trkpt>
			<trkpt lat="48.85920532979071" lon="2.914777994155884">
				<ele>52.91</ele>
				<time>2013-07-12T11:46:02</time>
			</trkpt>
			<trkpt lat="48.85866888798773" lon="2.914177179336548">
				<ele>52.43</ele>
				<time>2013-07-12T11:46:13</time>
			</trkpt>
			<trkpt lat="48.85854014195502" lon="2.9140377044677734">
				<ele>52.25</ele>
				<time>2013-07-12T11:46:16</time>
			</trkpt>
			<trkpt lat="48.858304023742676" lon="2.913823127746582">
				<ele>52.27</ele>
				<time>2013-07-12T11:46:20</time>
			</trkpt>
			<trkpt lat="48.8581645488739" lon="2.9137051105499268">
				<ele>52.37</ele>
				<time>2013-07-12T11:46:23</time>
			</trkpt>
			<trkpt lat="48.85803580284119" lon="2.913544178009033">
				<ele>52.33</ele>
				<time>2013-07-12T11:46:25</time>
			</trkpt>
			<trkpt lat="48.85802507400513" lon="2.913447618484497">
				<ele>52.29</ele>
				<time>2013-07-12T11:46:26</time>
			</trkpt>
			<trkpt lat="48.85792851448059" lon="2.911022901535034">
				<ele>52.17</ele>
				<time>2013-07-12T11:46:52</time>
			</trkpt>
			<trkpt lat="48.857842683792114" lon="2.909359931945801">
				<ele>52.45</ele>
				<time>2013-07-12T11:47:09</time>
			</trkpt>
			<trkpt lat="48.85783455334604" lon="2.9092787113040686">
				<ele>52.51</ele>
				<time>2013-07-12T11:47:10</time>
			</trkpt>
			<trkpt lat="48.85782390832901" lon="2.90928122587502">
				<ele>51.0</ele>
				<time>2013-07-12T11:47:11</time>
			</trkpt>
			<trkpt lat="48.85783455334604" lon="2.9092787113040686">
				<ele>52.5</ele>
				<time>2013-07-12T11:47:11</time>
			</trkpt>
			<trkpt lat="48.857789039611816" lon="2.9088234901428223">
				<ele>52.03</ele>
				<time>2013-07-12T11:47:16</time>
			</trkpt>
			<trkpt lat="48.85775693692267" lon="2.908608913421631">
				<ele>51.69</ele>
				<time>2013-07-12T11:47:18</time>
			</trkpt>
			<trkpt lat="48.8577139377594" lon="2.9082870483398438">
				<ele>51.39</ele>
				<time>2013-07-12T11:47:21</time>
			</trkpt>
			<trkpt lat="48.8577139377594" lon="2.90812611579895">
				<ele>51.31</ele>
				<time>2013-07-12T11:47:23</time>
			</trkpt>
			<trkpt lat="48.8581109046936" lon="2.9073429107666016">
				<ele>51.4</ele>
				<time>2013-07-12T11:47:33</time>
			</trkpt>
			<trkpt lat="48.85822900570929" lon="2.907257080078125">
				<ele>51.25</ele>
				<time>2013-07-12T11:47:36</time>
			</trkpt>
			<trkpt lat="48.85827192105353" lon="2.907257080078125">
				<ele>51.17</ele>
				<time>2013-07-12T11:47:36</time>
			</trkpt>
			<trkpt lat="48.858325481414795" lon="2.9071927070617676">
				<ele>51.07</ele>
				<time>2013-07-12T11:47:37</time>
			</trkpt>
			<trkpt lat="48.858325481414795" lon="2.9070639610290527">
				<ele>51.05</ele>
				<time>2013-07-12T11:47:39</time>
			</trkpt>
			<trkpt lat="48.85822900570929" lon="2.9070639610290527">
				<ele>51.07</ele>
				<time>2013-07-12T11:47:40</time>
			</trkpt>
			<trkpt lat="48.85818449780345" lon="2.907168986275792">
				<ele>51.16</ele>
				<time>2013-07-12T11:47:42</time>
			</trkpt>
			<trkpt lat="48.85818298906088" lon="2.907172590494156">
				<ele>51.17</ele>
				<time>2013-07-12T11:47:42</time>
			</trkpt>
			<trkpt lat="48.8581109046936" lon="2.9073429107666016">
				<ele>51.6</ele>
				<time>2013-07-12T11:47:44</time>
			</trkpt>
			<trkpt lat="48.85822900570929" lon="2.907257080078125">
				<ele>51.44</ele>
				<time>2013-07-12T11:47:46</time>
			</trkpt>
			<trkpt lat="48.85827192105353" lon="2.907257080078125">
				<ele>51.31</ele>
				<time>2013-07-12T11:47:46</time>
			</trkpt>
			<trkpt lat="48.858325481414795" lon="2.9071927070617676">
				<ele>51.15</ele>
				<time>2013-07-12T11:47:48</time>
			</trkpt>
			<trkpt lat="48.858325481414795" lon="2.9070639610290527">
				<ele>51.06</ele>
				<time>2013-07-12T11:47:49</time>
			</trkpt>
			<trkpt lat="48.85822892189026" lon="2.9070639610290527">
				<ele>50.99</ele>
				<time>2013-07-12T11:47:50</time>
			</trkpt>
			<trkpt lat="48.85819287970662" lon="2.90701886638999">
				<ele>50.89</ele>
				<time>2013-07-12T11:47:51</time>
			</trkpt>
		</trkseg>
	</trk>
</gpx>
