<?xml version="1.0" encoding="UTF-8"?>
<gpx creator="Garmin Connect" version="1.1" xsi:schemaLocation="http://www.topografix.com/GPX/1/1 http://www.topografix.com/GPX/11.xsd" xmlns:ns3="http://www.garmin.com/xmlschemas/TrackPointExtension/v1" xmlns="http://www.topografix.com/GPX/1/1" xmlns:xsi="http://www.w3.org/2001/XMLSchema-instance" xmlns:ns2="http://www.garmin.com/xmlschemas/GpxExtensions/v3">
	<metadata>
		<name>003-G3-69 km-D 779 m-Les routes de Gilbert</name>
		<link href="connect.garmin.com">
			<text>Garmin Connect</text>
		</link>
		<time>2016-07-02T08:00:00</time>
	</metadata>
	<trk>
		<name>003-G3-69 km-D 779 m-Les routes de Gilbert</name>
		<trkseg>
			<trkpt lat="48.85790999047458" lon="2.90688986890018">
				<ele>50.0</ele>
				<time>2016-07-02T08:00:00</time>
			</trkpt>
			<trkpt lat="48.85824987664819" lon="2.9070798866450787">
				<ele>51.0</ele>
				<time>2016-07-02T08:00:06</time>
			</trkpt>
			<trkpt lat="48.85823990218341" lon="2.907229922711849">
				<ele>51.0</ele>
				<time>2016-07-02T08:00:08</time>
			</trkpt>
			<trkpt lat="48.857118571177125" lon="2.909202268347144">
				<ele>51.99</ele>
				<time>2016-07-02T08:00:38</time>
			</trkpt>
			<trkpt lat="48.857119996100664" lon="2.909199921414256">
				<ele>52.0</ele>
				<time>2016-07-02T08:00:38</time>
			</trkpt>
			<trkpt lat="48.85772994719446" lon="2.91356991045177">
				<ele>53.0</ele>
				<time>2016-07-02T08:01:29</time>
			</trkpt>
			<trkpt lat="48.85823990218341" lon="2.9137198626995087">
				<ele>52.0</ele>
				<time>2016-07-02T08:01:38</time>
			</trkpt>
			<trkpt lat="48.85928990319371" lon="2.9148699436336756">
				<ele>54.0</ele>
				<time>2016-07-02T08:02:01</time>
			</trkpt>
			<trkpt lat="48.859369950369" lon="2.9152498953044415">
				<ele>56.0</ele>
				<time>2016-07-02T08:02:05</time>
			</trkpt>
			<trkpt lat="48.858949933201075" lon="2.919619968160987">
				<ele>56.0</ele>
				<time>2016-07-02T08:02:56</time>
			</trkpt>
			<trkpt lat="48.859059903770685" lon="2.9222199507057667">
				<ele>65.0</ele>
				<time>2016-07-02T08:03:26</time>
			</trkpt>
			<trkpt lat="48.859399957582355" lon="2.9231998790055513">
				<ele>73.0</ele>
				<time>2016-07-02T08:03:38</time>
			</trkpt>
			<trkpt lat="48.86044995859265" lon="2.92469990439713">
				<ele>78.0</ele>
				<time>2016-07-02T08:04:03</time>
			</trkpt>
			<trkpt lat="48.86063997633755" lon="2.925229975953698">
				<ele>79.0</ele>
				<time>2016-07-02T08:04:10</time>
			</trkpt>
			<trkpt lat="48.86082999408245" lon="2.927659973502159">
				<ele>83.0</ele>
				<time>2016-07-02T08:04:38</time>
			</trkpt>
			<trkpt lat="48.86168997734785" lon="2.933579860255122">
				<ele>94.0</ele>
				<time>2016-07-02T08:05:48</time>
			</trkpt>
			<trkpt lat="48.864279985427856" lon="2.9419098794460297">
				<ele>103.0</ele>
				<time>2016-07-02T08:07:33</time>
			</trkpt>
			<trkpt lat="48.86535990983248" lon="2.948809862136841">
				<ele>135.0</ele>
				<time>2016-07-02T08:08:54</time>
			</trkpt>
			<trkpt lat="48.86544984765351" lon="2.95090994797647">
				<ele>139.0</ele>
				<time>2016-07-02T08:09:19</time>
			</trkpt>
			<trkpt lat="48.865999951958656" lon="2.954689934849739">
				<ele>150.0</ele>
				<time>2016-07-02T08:10:03</time>
			</trkpt>
			<trkpt lat="48.86822987347841" lon="2.9601699393242598">
				<ele>148.0</ele>
				<time>2016-07-02T08:11:17</time>
			</trkpt>
			<trkpt lat="48.86684996075928" lon="2.964029973372817">
				<ele>146.0</ele>
				<time>2016-07-02T08:12:07</time>
			</trkpt>
			<trkpt lat="48.864129949361086" lon="2.9696298390626907">
				<ele>151.0</ele>
				<time>2016-07-02T08:13:27</time>
			</trkpt>
			<trkpt lat="48.86333995498717" lon="2.979589970782399">
				<ele>145.0</ele>
				<time>2016-07-02T08:15:21</time>
			</trkpt>
			<trkpt lat="48.8625199533999" lon="2.984329853206873">
				<ele>142.0</ele>
				<time>2016-07-02T08:16:18</time>
			</trkpt>
			<trkpt lat="48.86243990622461" lon="2.9904498998075724">
				<ele>139.0</ele>
				<time>2016-07-02T08:17:28</time>
			</trkpt>
			<trkpt lat="48.86271994560957" lon="2.991249952465296">
				<ele>142.0</ele>
				<time>2016-07-02T08:17:38</time>
			</trkpt>
			<trkpt lat="48.86419993825257" lon="2.9911798797547817">
				<ele>141.0</ele>
				<time>2016-07-02T08:18:04</time>
			</trkpt>
			<trkpt lat="48.86611998081207" lon="2.9928998462855816">
				<ele>149.0</ele>
				<time>2016-07-02T08:18:43</time>
			</trkpt>
			<trkpt lat="48.867269894108176" lon="2.99443993717432">
				<ele>150.0</ele>
				<time>2016-07-02T08:19:09</time>
			</trkpt>
			<trkpt lat="48.8675899989903" lon="2.994649987667799">
				<ele>149.0</ele>
				<time>2016-07-02T08:19:15</time>
			</trkpt>
			<trkpt lat="48.86839994229376" lon="2.994809914380312">
				<ele>150.0</ele>
				<time>2016-07-02T08:19:30</time>
			</trkpt>
			<trkpt lat="48.868899838998914" lon="2.9957999009639025">
				<ele>150.0</ele>
				<time>2016-07-02T08:19:44</time>
			</trkpt>
			<trkpt lat="48.86923989281058" lon="2.995549952611327">
				<ele>150.0</ele>
				<time>2016-07-02T08:19:50</time>
			</trkpt>
			<trkpt lat="48.86968991719186" lon="2.994599863886833">
				<ele>151.0</ele>
				<time>2016-07-02T08:20:04</time>
			</trkpt>
			<trkpt lat="48.87106999754906" lon="2.994619896635413">
				<ele>151.0</ele>
				<time>2016-07-02T08:20:28</time>
			</trkpt>
			<trkpt lat="48.87137987650931" lon="2.997889928519726">
				<ele>154.0</ele>
				<time>2016-07-02T08:21:06</time>
			</trkpt>
			<trkpt lat="48.8729898724705" lon="2.9992998484522104">
				<ele>152.0</ele>
				<time>2016-07-02T08:21:38</time>
			</trkpt>
			<trkpt lat="48.874249923974276" lon="3.0018199514597654">
				<ele>154.0</ele>
				<time>2016-07-02T08:22:14</time>
			</trkpt>
			<trkpt lat="48.87460992671549" lon="3.001899914816022">
				<ele>154.0</ele>
				<time>2016-07-02T08:22:21</time>
			</trkpt>
			<trkpt lat="48.877879874780774" lon="3.001279905438423">
				<ele>155.0</ele>
				<time>2016-07-02T08:23:18</time>
			</trkpt>
			<trkpt lat="48.87995984405279" lon="3.002309873700142">
				<ele>156.0</ele>
				<time>2016-07-02T08:23:56</time>
			</trkpt>
			<trkpt lat="48.881119983270764" lon="3.003169856965542">
				<ele>158.0</ele>
				<time>2016-07-02T08:24:18</time>
			</trkpt>
			<trkpt lat="48.88132986612618" lon="3.00373999401927">
				<ele>157.0</ele>
				<time>2016-07-02T08:24:26</time>
			</trkpt>
			<trkpt lat="48.8909699767828" lon="3.017129832878709">
				<ele>150.0</ele>
				<time>2016-07-02T08:28:13</time>
			</trkpt>
			<trkpt lat="48.89150985516608" lon="3.0184598732739687">
				<ele>155.0</ele>
				<time>2016-07-02T08:28:31</time>
			</trkpt>
			<trkpt lat="48.892749873921275" lon="3.0240199249237776">
				<ele>157.0</ele>
				<time>2016-07-02T08:29:38</time>
			</trkpt>
			<trkpt lat="48.89905993826687" lon="3.0333799961954355">
				<ele>159.0</ele>
				<time>2016-07-02T08:32:12</time>
			</trkpt>
			<trkpt lat="48.9001499209553" lon="3.03564989939332">
				<ele>163.0</ele>
				<time>2016-07-02T08:32:44</time>
			</trkpt>
			<trkpt lat="48.90049986541271" lon="3.035569852218032">
				<ele>163.0</ele>
				<time>2016-07-02T08:32:50</time>
			</trkpt>
			<trkpt lat="48.90083991922438" lon="3.0352399405092">
				<ele>164.0</ele>
				<time>2016-07-02T08:32:57</time>
			</trkpt>
			<trkpt lat="48.90360988676548" lon="3.031419888138771">
				<ele>165.0</ele>
				<time>2016-07-02T08:34:02</time>
			</trkpt>
			<trkpt lat="48.9069898892194" lon="3.0247499886900187">
				<ele>163.0</ele>
				<time>2016-07-02T08:35:38</time>
			</trkpt>
			<trkpt lat="48.90806998126209" lon="3.0229998473078012">
				<ele>162.0</ele>
				<time>2016-07-02T08:36:06</time>
			</trkpt>
			<trkpt lat="48.910429989919066" lon="3.0205898825079203">
				<ele>169.0</ele>
				<time>2016-07-02T08:36:55</time>
			</trkpt>
			<trkpt lat="48.912469977512956" lon="3.0175398755818605">
				<ele>174.0</ele>
				<time>2016-07-02T08:37:45</time>
			</trkpt>
			<trkpt lat="48.91281992197037" lon="3.01914987154305">
				<ele>173.0</ele>
				<time>2016-07-02T08:38:05</time>
			</trkpt>
			<trkpt lat="48.91449999064207" lon="3.0243698693811893">
				<ele>174.0</ele>
				<time>2016-07-02T08:39:11</time>
			</trkpt>
			<trkpt lat="48.9139199629426" lon="3.0304899159818888">
				<ele>172.0</ele>
				<time>2016-07-02T08:40:22</time>
			</trkpt>
			<trkpt lat="48.917369870468974" lon="3.035999843850732">
				<ele>164.0</ele>
				<time>2016-07-02T08:41:49</time>
			</trkpt>
			<trkpt lat="48.91799993813038" lon="3.03734983317554">
				<ele>162.0</ele>
				<time>2016-07-02T08:42:08</time>
			</trkpt>
			<trkpt lat="48.91954991966486" lon="3.039659969508648">
				<ele>159.0</ele>
				<time>2016-07-02T08:42:45</time>
			</trkpt>
			<trkpt lat="48.920049984008074" lon="3.042249893769622">
				<ele>154.0</ele>
				<time>2016-07-02T08:43:16</time>
			</trkpt>
			<trkpt lat="48.92109998501837" lon="3.0460399389266968">
				<ele>141.0</ele>
				<time>2016-07-02T08:44:03</time>
			</trkpt>
			<trkpt lat="48.92248987220228" lon="3.0490798875689507">
				<ele>125.0</ele>
				<time>2016-07-02T08:44:46</time>
			</trkpt>
			<trkpt lat="48.92451988533139" lon="3.0521399527788162">
				<ele>113.0</ele>
				<time>2016-07-02T08:45:35</time>
			</trkpt>
			<trkpt lat="48.9247199613601" lon="3.054309943690896">
				<ele>114.0</ele>
				<time>2016-07-02T08:46:01</time>
			</trkpt>
			<trkpt lat="48.924589874222875" lon="3.0557699874043465">
				<ele>115.0</ele>
				<time>2016-07-02T08:46:17</time>
			</trkpt>
			<trkpt lat="48.92473999410868" lon="3.0582199338823557">
				<ele>109.0</ele>
				<time>2016-07-02T08:46:45</time>
			</trkpt>
			<trkpt lat="48.925919998437166" lon="3.0619498807936907">
				<ele>106.0</ele>
				<time>2016-07-02T08:47:33</time>
			</trkpt>
			<trkpt lat="48.92614999786019" lon="3.065229970961809">
				<ele>104.0</ele>
				<time>2016-07-02T08:48:11</time>
			</trkpt>
			<trkpt lat="48.92649985849857" lon="3.0663298442959785">
				<ele>98.0</ele>
				<time>2016-07-02T08:48:25</time>
			</trkpt>
			<trkpt lat="48.92757995054126" lon="3.068249886855483">
				<ele>94.0</ele>
				<time>2016-07-02T08:48:53</time>
			</trkpt>
			<trkpt lat="48.92725992947817" lon="3.0688199400901794">
				<ele>93.0</ele>
				<time>2016-07-02T08:49:02</time>
			</trkpt>
			<trkpt lat="48.92757995054126" lon="3.071459988132119">
				<ele>97.0</ele>
				<time>2016-07-02T08:49:33</time>
			</trkpt>
			<trkpt lat="48.92743997275829" lon="3.075719838961959">
				<ele>109.0</ele>
				<time>2016-07-02T08:50:21</time>
			</trkpt>
			<trkpt lat="48.926629945635796" lon="3.0827999487519264">
				<ele>124.0</ele>
				<time>2016-07-02T08:51:44</time>
			</trkpt>
			<trkpt lat="48.92698986455798" lon="3.085209997370839">
				<ele>132.0</ele>
				<time>2016-07-02T08:52:12</time>
			</trkpt>
			<trkpt lat="48.9265398401767" lon="3.0880899354815483">
				<ele>114.0</ele>
				<time>2016-07-02T08:52:46</time>
			</trkpt>
			<trkpt lat="48.926839996129274" lon="3.090419853106141">
				<ele>109.0</ele>
				<time>2016-07-02T08:53:13</time>
			</trkpt>
			<trkpt lat="48.92727987840772" lon="3.0919299367815256">
				<ele>123.0</ele>
				<time>2016-07-02T08:53:32</time>
			</trkpt>
			<trkpt lat="48.92738993279636" lon="3.09380991384387">
				<ele>136.0</ele>
				<time>2016-07-02T08:53:53</time>
			</trkpt>
			<trkpt lat="48.92785990610719" lon="3.0949899181723595">
				<ele>141.0</ele>
				<time>2016-07-02T08:54:09</time>
			</trkpt>
			<trkpt lat="48.92790986225009" lon="3.0966399796307087">
				<ele>146.0</ele>
				<time>2016-07-02T08:54:28</time>
			</trkpt>
			<trkpt lat="48.928579995408654" lon="3.099719909951091">
				<ele>143.0</ele>
				<time>2016-07-02T08:55:05</time>
			</trkpt>
			<trkpt lat="48.929379880428314" lon="3.1075099669396877">
				<ele>144.0</ele>
				<time>2016-07-02T08:56:35</time>
			</trkpt>
			<trkpt lat="48.92906983383" lon="3.112199893221259">
				<ele>144.0</ele>
				<time>2016-07-02T08:57:29</time>
			</trkpt>
			<trkpt lat="48.92912984825671" lon="3.113329941406846">
				<ele>142.0</ele>
				<time>2016-07-02T08:57:42</time>
			</trkpt>
			<trkpt lat="48.92819995991886" lon="3.1173899676650763">
				<ele>145.0</ele>
				<time>2016-07-02T08:58:31</time>
			</trkpt>
			<trkpt lat="48.928539929911494" lon="3.1201998330652714">
				<ele>149.0</ele>
				<time>2016-07-02T08:59:04</time>
			</trkpt>
			<trkpt lat="48.927959986031055" lon="3.1242699176073074">
				<ele>150.0</ele>
				<time>2016-07-02T08:59:52</time>
			</trkpt>
			<trkpt lat="48.92848997376859" lon="3.1251699663698673">
				<ele>147.0</ele>
				<time>2016-07-02T09:00:05</time>
			</trkpt>
			<trkpt lat="48.929359931498766" lon="3.126359861344099">
				<ele>138.0</ele>
				<time>2016-07-02T09:00:26</time>
			</trkpt>
			<trkpt lat="48.93574987538159" lon="3.1231899932026863">
				<ele>103.0</ele>
				<time>2016-07-02T09:02:23</time>
			</trkpt>
			<trkpt lat="48.9382999856025" lon="3.1222798861563206">
				<ele>87.0</ele>
				<time>2016-07-02T09:03:08</time>
			</trkpt>
			<trkpt lat="48.94047995097935" lon="3.12085990794003">
				<ele>72.0</ele>
				<time>2016-07-02T09:03:50</time>
			</trkpt>
			<trkpt lat="48.94118989817798" lon="3.120699981227517">
				<ele>67.0</ele>
				<time>2016-07-02T09:04:02</time>
			</trkpt>
			<trkpt lat="48.94311999902129" lon="3.1206698901951313">
				<ele>57.0</ele>
				<time>2016-07-02T09:04:36</time>
			</trkpt>
			<trkpt lat="48.943559965118766" lon="3.1207199301570654">
				<ele>55.0</ele>
				<time>2016-07-02T09:04:43</time>
			</trkpt>
			<trkpt lat="48.94323994405568" lon="3.12394998036325">
				<ele>55.0</ele>
				<time>2016-07-02T09:05:21</time>
			</trkpt>
			<trkpt lat="48.94382986240089" lon="3.1240798998624086">
				<ele>55.0</ele>
				<time>2016-07-02T09:05:31</time>
			</trkpt>
			<trkpt lat="48.94764421507716" lon="3.1265938002616167">
				<ele>54.03</ele>
				<time>2016-07-02T09:06:43</time>
			</trkpt>
			<trkpt lat="48.94778989255428" lon="3.1266898568719625">
				<ele>54.0</ele>
				<time>2016-07-02T09:06:46</time>
			</trkpt>
			<trkpt lat="48.94945990294218" lon="3.1258999463170767">
				<ele>58.0</ele>
				<time>2016-07-02T09:07:17</time>
			</trkpt>
			<trkpt lat="48.94994990900159" lon="3.1124398671090603">
				<ele>54.0</ele>
				<time>2016-07-02T09:09:51</time>
			</trkpt>
			<trkpt lat="48.951059924438596" lon="3.109429841861129">
				<ele>59.0</ele>
				<time>2016-07-02T09:10:30</time>
			</trkpt>
			<trkpt lat="48.951809937134385" lon="3.106259973719716">
				<ele>58.0</ele>
				<time>2016-07-02T09:11:09</time>
			</trkpt>
			<trkpt lat="48.95217991434038" lon="3.101339964196086">
				<ele>55.0</ele>
				<time>2016-07-02T09:12:05</time>
			</trkpt>
			<trkpt lat="48.95317995920777" lon="3.0968299973756075">
				<ele>54.0</ele>
				<time>2016-07-02T09:13:00</time>
			</trkpt>
			<trkpt lat="48.95349998027086" lon="3.0939198844134808">
				<ele>60.0</ele>
				<time>2016-07-02T09:13:33</time>
			</trkpt>
			<trkpt lat="48.96255997940898" lon="3.0856799706816673">
				<ele>72.0</ele>
				<time>2016-07-02T09:16:37</time>
			</trkpt>
			<trkpt lat="48.96426988765597" lon="3.0823598988354206">
				<ele>61.0</ele>
				<time>2016-07-02T09:17:25</time>
			</trkpt>
			<trkpt lat="48.9649798348546" lon="3.0794198624789715">
				<ele>69.0</ele>
				<time>2016-07-02T09:18:01</time>
			</trkpt>
			<trkpt lat="48.96522986702621" lon="3.078899849206209">
				<ele>72.0</ele>
				<time>2016-07-02T09:18:08</time>
			</trkpt>
			<trkpt lat="48.9655998442322" lon="3.078499948605895">
				<ele>76.0</ele>
				<time>2016-07-02T09:18:16</time>
			</trkpt>
			<trkpt lat="48.9670298807323" lon="3.0779098626226187">
				<ele>89.0</ele>
				<time>2016-07-02T09:18:42</time>
			</trkpt>
			<trkpt lat="48.9685098733753" lon="3.0796798691153526">
				<ele>95.0</ele>
				<time>2016-07-02T09:19:15</time>
			</trkpt>
			<trkpt lat="48.96988995373249" lon="3.0803999584168196">
				<ele>99.0</ele>
				<time>2016-07-02T09:19:40</time>
			</trkpt>
			<trkpt lat="48.9722899440676" lon="3.08314997702837">
				<ele>96.0</ele>
				<time>2016-07-02T09:20:33</time>
			</trkpt>
			<trkpt lat="48.975159991532564" lon="3.0843899957835674">
				<ele>98.0</ele>
				<time>2016-07-02T09:21:24</time>
			</trkpt>
			<trkpt lat="48.975679920986295" lon="3.0849998630583286">
				<ele>101.0</ele>
				<time>2016-07-02T09:21:36</time>
			</trkpt>
			<trkpt lat="48.97575996816158" lon="3.0853698402643204">
				<ele>101.0</ele>
				<time>2016-07-02T09:21:40</time>
			</trkpt>
			<trkpt lat="48.97704994305968" lon="3.086909931153059">
				<ele>105.0</ele>
				<time>2016-07-02T09:22:09</time>
			</trkpt>
			<trkpt lat="48.97652984596789" lon="3.088629897683859">
				<ele>102.0</ele>
				<time>2016-07-02T09:22:31</time>
			</trkpt>
			<trkpt lat="48.97758990526199" lon="3.09066996909678">
				<ele>108.0</ele>
				<time>2016-07-02T09:23:00</time>
			</trkpt>
			<trkpt lat="48.97918984293938" lon="3.0952199175953865">
				<ele>114.0</ele>
				<time>2016-07-02T09:23:59</time>
			</trkpt>
			<trkpt lat="48.979459991678596" lon="3.096629837527871">
				<ele>115.0</ele>
				<time>2016-07-02T09:24:16</time>
			</trkpt>
			<trkpt lat="48.9802298694849" lon="3.098229942843318">
				<ele>115.0</ele>
				<time>2016-07-02T09:24:39</time>
			</trkpt>
			<trkpt lat="48.98182989098132" lon="3.099059835076332">
				<ele>113.0</ele>
				<time>2016-07-02T09:25:08</time>
			</trkpt>
			<trkpt lat="48.98285994306207" lon="3.1009298376739025">
				<ele>114.0</ele>
				<time>2016-07-02T09:25:36</time>
			</trkpt>
			<trkpt lat="48.984409840777516" lon="3.101269891485572">
				<ele>119.0</ele>
				<time>2016-07-02T09:26:03</time>
			</trkpt>
			<trkpt lat="48.986679995432496" lon="3.1021399330347776">
				<ele>127.0</ele>
				<time>2016-07-02T09:26:44</time>
			</trkpt>
			<trkpt lat="48.98840993642807" lon="3.101769955828786">
				<ele>137.0</ele>
				<time>2016-07-02T09:27:14</time>
			</trkpt>
			<trkpt lat="48.990589985623956" lon="3.1021698564291">
				<ele>150.0</ele>
				<time>2016-07-02T09:27:53</time>
			</trkpt>
			<trkpt lat="48.992419922724366" lon="3.10181999579072">
				<ele>157.0</ele>
				<time>2016-07-02T09:28:25</time>
			</trkpt>
			<trkpt lat="48.99481991305947" lon="3.101079873740673">
				<ele>153.0</ele>
				<time>2016-07-02T09:29:07</time>
			</trkpt>
			<trkpt lat="48.996559996157885" lon="3.099739858880639">
				<ele>149.0</ele>
				<time>2016-07-02T09:29:41</time>
			</trkpt>
			<trkpt lat="48.99790998548269" lon="3.099759891629219">
				<ele>141.0</ele>
				<time>2016-07-02T09:30:05</time>
			</trkpt>
			<trkpt lat="48.997249994426966" lon="3.091809907928109">
				<ele>122.0</ele>
				<time>2016-07-02T09:31:36</time>
			</trkpt>
			<trkpt lat="48.99693994782865" lon="3.0906499363482">
				<ele>119.0</ele>
				<time>2016-07-02T09:31:51</time>
			</trkpt>
			<trkpt lat="48.99740992113948" lon="3.0869598872959614">
				<ele>131.0</ele>
				<time>2016-07-02T09:32:33</time>
			</trkpt>
			<trkpt lat="48.99723993614316" lon="3.0831598676741123">
				<ele>137.0</ele>
				<time>2016-07-02T09:33:17</time>
			</trkpt>
			<trkpt lat="48.9967299811542" lon="3.0812499672174454">
				<ele>137.0</ele>
				<time>2016-07-02T09:33:40</time>
			</trkpt>
			<trkpt lat="48.99608985520899" lon="3.07734995149076">
				<ele>124.0</ele>
				<time>2016-07-02T09:34:26</time>
			</trkpt>
			<trkpt lat="48.99568995460868" lon="3.076009936630726">
				<ele>121.0</ele>
				<time>2016-07-02T09:34:43</time>
			</trkpt>
			<trkpt lat="48.99429989978671" lon="3.0727399047464132">
				<ele>113.0</ele>
				<time>2016-07-02T09:35:28</time>
			</trkpt>
			<trkpt lat="48.993769912049174" lon="3.0707198660820723">
				<ele>111.0</ele>
				<time>2016-07-02T09:35:53</time>
			</trkpt>
			<trkpt lat="48.993239840492606" lon="3.068239912390709">
				<ele>110.0</ele>
				<time>2016-07-02T09:36:22</time>
			</trkpt>
			<trkpt lat="48.992899954319" lon="3.0649798549711704">
				<ele>118.0</ele>
				<time>2016-07-02T09:37:00</time>
			</trkpt>
			<trkpt lat="48.99532995186746" lon="3.0634998623281717">
				<ele>117.0</ele>
				<time>2016-07-02T09:37:46</time>
			</trkpt>
			<trkpt lat="48.99611994624138" lon="3.0627698823809624">
				<ele>114.0</ele>
				<time>2016-07-02T09:38:02</time>
			</trkpt>
			<trkpt lat="48.9969199988991" lon="3.0623699817806482">
				<ele>112.0</ele>
				<time>2016-07-02T09:38:16</time>
			</trkpt>
			<trkpt lat="49.000349873676896" lon="3.0618198774755">
				<ele>109.0</ele>
				<time>2016-07-02T09:39:16</time>
			</trkpt>
			<trkpt lat="49.001079853624105" lon="3.061559870839119">
				<ele>110.0</ele>
				<time>2016-07-02T09:39:29</time>
			</trkpt>
			<trkpt lat="49.007819909602404" lon="3.0566099379211664">
				<ele>123.0</ele>
				<time>2016-07-02T09:41:40</time>
			</trkpt>
			<trkpt lat="49.00914994999766" lon="3.055449966341257">
				<ele>126.0</ele>
				<time>2016-07-02T09:42:06</time>
			</trkpt>
			<trkpt lat="49.01124995201826" lon="3.052709838375449">
				<ele>127.0</ele>
				<time>2016-07-02T09:42:54</time>
			</trkpt>
			<trkpt lat="49.0135099645704" lon="3.049169909209013">
				<ele>120.0</ele>
				<time>2016-07-02T09:43:51</time>
			</trkpt>
			<trkpt lat="49.017089959234" lon="3.045579856261611">
				<ele>109.0</ele>
				<time>2016-07-02T09:45:05</time>
			</trkpt>
			<trkpt lat="49.018949987366796" lon="3.0432398803532124">
				<ele>86.0</ele>
				<time>2016-07-02T09:45:47</time>
			</trkpt>
			<trkpt lat="49.02103993110359" lon="3.03740993142128">
				<ele>69.0</ele>
				<time>2016-07-02T09:47:03</time>
			</trkpt>
			<trkpt lat="49.022069899365306" lon="3.035469939932227">
				<ele>60.0</ele>
				<time>2016-07-02T09:47:32</time>
			</trkpt>
			<trkpt lat="49.02235605753958" lon="3.0352707859128714">
				<ele>60.62</ele>
				<time>2016-07-02T09:47:37</time>
			</trkpt>
			<trkpt lat="49.02252998203039" lon="3.0351499188691378">
				<ele>61.0</ele>
				<time>2016-07-02T09:47:40</time>
			</trkpt>
			<trkpt lat="49.02247994206846" lon="3.034529909491539">
				<ele>60.0</ele>
				<time>2016-07-02T09:47:48</time>
			</trkpt>
			<trkpt lat="49.02232990600169" lon="3.0344999860972166">
				<ele>61.0</ele>
				<time>2016-07-02T09:47:50</time>
			</trkpt>
			<trkpt lat="49.01807994581759" lon="3.0286298878490925">
				<ele>66.0</ele>
				<time>2016-07-02T09:49:30</time>
			</trkpt>
			<trkpt lat="49.017359940335155" lon="3.0297299288213253">
				<ele>69.0</ele>
				<time>2016-07-02T09:49:48</time>
			</trkpt>
			<trkpt lat="49.01721996255219" lon="3.030629977583885">
				<ele>72.0</ele>
				<time>2016-07-02T09:49:58</time>
			</trkpt>
			<trkpt lat="49.01683992706239" lon="3.031259961426258">
				<ele>72.0</ele>
				<time>2016-07-02T09:50:08</time>
			</trkpt>
			<trkpt lat="49.015609966591" lon="3.031849879771471">
				<ele>72.0</ele>
				<time>2016-07-02T09:50:30</time>
			</trkpt>
			<trkpt lat="49.014569940045476" lon="3.0331899784505367">
				<ele>72.0</ele>
				<time>2016-07-02T09:50:54</time>
			</trkpt>
			<trkpt lat="49.01340996846557" lon="3.0337499734014273">
				<ele>73.0</ele>
				<time>2016-07-02T09:51:15</time>
			</trkpt>
			<trkpt lat="49.012609999626875" lon="3.034509876742959">
				<ele>76.0</ele>
				<time>2016-07-02T09:51:32</time>
			</trkpt>
			<trkpt lat="49.01060990989208" lon="3.0358898732811213">
				<ele>90.0</ele>
				<time>2016-07-02T09:52:10</time>
			</trkpt>
			<trkpt lat="49.010139936581254" lon="3.0363999120891094">
				<ele>96.0</ele>
				<time>2016-07-02T09:52:20</time>
			</trkpt>
			<trkpt lat="49.008729849010706" lon="3.039379930123687">
				<ele>97.0</ele>
				<time>2016-07-02T09:53:02</time>
			</trkpt>
			<trkpt lat="49.00854988954961" lon="3.0412398744374514">
				<ele>96.0</ele>
				<time>2016-07-02T09:53:23</time>
			</trkpt>
			<trkpt lat="49.00707987137139" lon="3.0424299370497465">
				<ele>97.0</ele>
				<time>2016-07-02T09:53:52</time>
			</trkpt>
			<trkpt lat="49.0060499869287" lon="3.043679930269718">
				<ele>101.0</ele>
				<time>2016-07-02T09:54:15</time>
			</trkpt>
			<trkpt lat="49.005609937012196" lon="3.044269848614931">
				<ele>101.0</ele>
				<time>2016-07-02T09:54:25</time>
			</trkpt>
			<trkpt lat="49.004729837179184" lon="3.0462198983877897">
				<ele>98.0</ele>
				<time>2016-07-02T09:54:53</time>
			</trkpt>
			<trkpt lat="49.00443990714848" lon="3.046359959989786">
				<ele>96.0</ele>
				<time>2016-07-02T09:54:58</time>
			</trkpt>
			<trkpt lat="49.00149995461106" lon="3.0463698506355286">
				<ele>74.0</ele>
				<time>2016-07-02T09:55:49</time>
			</trkpt>
			<trkpt lat="49.00019992142916" lon="3.0466498900204897">
				<ele>72.0</ele>
				<time>2016-07-02T09:56:12</time>
			</trkpt>
			<trkpt lat="48.9999698381871" lon="3.0467998422682285">
				<ele>72.0</ele>
				<time>2016-07-02T09:56:16</time>
			</trkpt>
			<trkpt lat="48.999999929219484" lon="3.046979885548353">
				<ele>72.0</ele>
				<time>2016-07-02T09:56:18</time>
			</trkpt>
			<trkpt lat="48.9992599748075" lon="3.0474698916077614">
				<ele>71.0</ele>
				<time>2016-07-02T09:56:32</time>
			</trkpt>
			<trkpt lat="48.99826990440488" lon="3.04855995811522">
				<ele>69.0</ele>
				<time>2016-07-02T09:56:54</time>
			</trkpt>
			<trkpt lat="48.996369978412986" lon="3.050159979611635">
				<ele>73.0</ele>
				<time>2016-07-02T09:57:31</time>
			</trkpt>
			<trkpt lat="48.99491990916431" lon="3.050409844145179">
				<ele>81.0</ele>
				<time>2016-07-02T09:57:57</time>
			</trkpt>
			<trkpt lat="48.99360998533666" lon="3.0503898952156305">
				<ele>86.0</ele>
				<time>2016-07-02T09:58:20</time>
			</trkpt>
			<trkpt lat="48.992889896035194" lon="3.050949890166521">
				<ele>94.0</ele>
				<time>2016-07-02T09:58:34</time>
			</trkpt>
			<trkpt lat="48.992569874972105" lon="3.0510099045932293">
				<ele>97.0</ele>
				<time>2016-07-02T09:58:39</time>
			</trkpt>
			<trkpt lat="48.992609940469265" lon="3.052239865064621">
				<ele>99.0</ele>
				<time>2016-07-02T09:58:53</time>
			</trkpt>
			<trkpt lat="48.992369966581464" lon="3.052299879491329">
				<ele>101.0</ele>
				<time>2016-07-02T09:58:58</time>
			</trkpt>
			<trkpt lat="48.991939974948764" lon="3.052079938352108">
				<ele>103.0</ele>
				<time>2016-07-02T09:59:05</time>
			</trkpt>
			<trkpt lat="48.99166991002858" lon="3.051199922338128">
				<ele>100.0</ele>
				<time>2016-07-02T09:59:17</time>
			</trkpt>
			<trkpt lat="48.991539906710386" lon="3.0497799441218376">
				<ele>98.0</ele>
				<time>2016-07-02T09:59:33</time>
			</trkpt>
			<trkpt lat="48.991819862276316" lon="3.047159928828478">
				<ele>87.0</ele>
				<time>2016-07-02T10:00:03</time>
			</trkpt>
			<trkpt lat="48.9916998334229" lon="3.045859895646572">
				<ele>85.0</ele>
				<time>2016-07-02T10:00:18</time>
			</trkpt>
			<trkpt lat="48.991509983316064" lon="3.0456198379397392">
				<ele>83.0</ele>
				<time>2016-07-02T10:00:23</time>
			</trkpt>
			<trkpt lat="48.99076986126602" lon="3.04535991512239">
				<ele>80.0</ele>
				<time>2016-07-02T10:00:36</time>
			</trkpt>
			<trkpt lat="48.98920998908579" lon="3.0455499328672886">
				<ele>75.0</ele>
				<time>2016-07-02T10:01:03</time>
			</trkpt>
			<trkpt lat="48.986899852752686" lon="3.046299945563078">
				<ele>66.0</ele>
				<time>2016-07-02T10:01:44</time>
			</trkpt>
			<trkpt lat="48.984339935705066" lon="3.046579984948039">
				<ele>59.0</ele>
				<time>2016-07-02T10:02:29</time>
			</trkpt>
			<trkpt lat="48.982659950852394" lon="3.046479905024171">
				<ele>62.0</ele>
				<time>2016-07-02T10:02:58</time>
			</trkpt>
			<trkpt lat="48.97948991507292" lon="3.045409871265292">
				<ele>59.0</ele>
				<time>2016-07-02T10:03:55</time>
			</trkpt>
			<trkpt lat="48.976579969748855" lon="3.0437599774450064">
				<ele>51.0</ele>
				<time>2016-07-02T10:04:49</time>
			</trkpt>
			<trkpt lat="48.976389952003956" lon="3.0440199840813875">
				<ele>53.0</ele>
				<time>2016-07-02T10:04:53</time>
			</trkpt>
			<trkpt lat="48.97588997147977" lon="3.0468999221920967">
				<ele>58.0</ele>
				<time>2016-07-02T10:05:27</time>
			</trkpt>
			<trkpt lat="48.97570984438062" lon="3.0471199471503496">
				<ele>60.0</ele>
				<time>2016-07-02T10:05:31</time>
			</trkpt>
			<trkpt lat="48.975439947098494" lon="3.0470798816531897">
				<ele>66.0</ele>
				<time>2016-07-02T10:05:36</time>
			</trkpt>
			<trkpt lat="48.97518991492689" lon="3.0466298572719097">
				<ele>75.0</ele>
				<time>2016-07-02T10:05:43</time>
			</trkpt>
			<trkpt lat="48.97499989718199" lon="3.0449598468840122">
				<ele>83.0</ele>
				<time>2016-07-02T10:06:02</time>
			</trkpt>
			<trkpt lat="48.974409978836775" lon="3.0424299370497465">
				<ele>83.0</ele>
				<time>2016-07-02T10:06:33</time>
			</trkpt>
			<trkpt lat="48.973339945077896" lon="3.0402199644595385">
				<ele>90.0</ele>
				<time>2016-07-02T10:07:04</time>
			</trkpt>
			<trkpt lat="48.971469858661294" lon="3.037109859287739">
				<ele>90.0</ele>
				<time>2016-07-02T10:07:52</time>
			</trkpt>
			<trkpt lat="48.96842999383807" lon="3.034079885110259">
				<ele>92.0</ele>
				<time>2016-07-02T10:08:55</time>
			</trkpt>
			<trkpt lat="48.96687992848456" lon="3.0333298724144697">
				<ele>91.0</ele>
				<time>2016-07-02T10:09:24</time>
			</trkpt>
			<trkpt lat="48.96510983817279" lon="3.030609944835305">
				<ele>87.0</ele>
				<time>2016-07-02T10:10:07</time>
			</trkpt>
			<trkpt lat="48.96453995257616" lon="3.029449973255396">
				<ele>87.0</ele>
				<time>2016-07-02T10:10:24</time>
			</trkpt>
			<trkpt lat="48.96398984827101" lon="3.028829963877797">
				<ele>85.0</ele>
				<time>2016-07-02T10:10:36</time>
			</trkpt>
			<trkpt lat="48.96333991549909" lon="3.02859996445477">
				<ele>81.0</ele>
				<time>2016-07-02T10:10:47</time>
			</trkpt>
			<trkpt lat="48.961289869621396" lon="3.0284199211746454">
				<ele>71.0</ele>
				<time>2016-07-02T10:11:23</time>
			</trkpt>
			<trkpt lat="48.96070992574096" lon="3.0284399539232254">
				<ele>69.0</ele>
				<time>2016-07-02T10:11:33</time>
			</trkpt>
			<trkpt lat="48.959539979696274" lon="3.028849996626377">
				<ele>65.0</ele>
				<time>2016-07-02T10:11:54</time>
			</trkpt>
			<trkpt lat="48.95926991477609" lon="3.028569957241416">
				<ele>65.0</ele>
				<time>2016-07-02T10:12:00</time>
			</trkpt>
			<trkpt lat="48.958489978685975" lon="3.0265698675066233">
				<ele>59.0</ele>
				<time>2016-07-02T10:12:26</time>
			</trkpt>
			<trkpt lat="48.95790986716747" lon="3.022989956662059">
				<ele>56.0</ele>
				<time>2016-07-02T10:13:09</time>
			</trkpt>
			<trkpt lat="48.95710989832878" lon="3.020539926365018">
				<ele>57.0</ele>
				<time>2016-07-02T10:13:40</time>
			</trkpt>
			<trkpt lat="48.95682994276285" lon="3.018129961565137">
				<ele>55.0</ele>
				<time>2016-07-02T10:14:08</time>
			</trkpt>
			<trkpt lat="48.95553996786475" lon="3.018369935452938">
				<ele>53.0</ele>
				<time>2016-07-02T10:14:30</time>
			</trkpt>
			<trkpt lat="48.953959895297885" lon="3.01912983879447">
				<ele>53.0</ele>
				<time>2016-07-02T10:14:59</time>
			</trkpt>
			<trkpt lat="48.95315992645919" lon="3.0192099697887897">
				<ele>51.0</ele>
				<time>2016-07-02T10:15:13</time>
			</trkpt>
			<trkpt lat="48.95133996382356" lon="3.0189699959009886">
				<ele>56.0</ele>
				<time>2016-07-02T10:15:45</time>
			</trkpt>
			<trkpt lat="48.95046992227435" lon="3.019219860434532">
				<ele>66.0</ele>
				<time>2016-07-02T10:16:00</time>
			</trkpt>
			<trkpt lat="48.950179908424616" lon="3.018899839371443">
				<ele>74.0</ele>
				<time>2016-07-02T10:16:07</time>
			</trkpt>
			<trkpt lat="48.95006985403597" lon="3.018099870532751">
				<ele>75.0</ele>
				<time>2016-07-02T10:16:16</time>
			</trkpt>
			<trkpt lat="48.949849996715784" lon="3.0177699588239193">
				<ele>76.0</ele>
				<time>2016-07-02T10:16:21</time>
			</trkpt>
			<trkpt lat="48.94808988086879" lon="3.017239887267351">
				<ele>92.0</ele>
				<time>2016-07-02T10:16:53</time>
			</trkpt>
			<trkpt lat="48.94700995646417" lon="3.0171399749815464">
				<ele>110.0</ele>
				<time>2016-07-02T10:17:11</time>
			</trkpt>
			<trkpt lat="48.946759924292564" lon="3.016129955649376">
				<ele>105.0</ele>
				<time>2016-07-02T10:17:24</time>
			</trkpt>
			<trkpt lat="48.94528998993337" lon="3.014669995754957">
				<ele>116.0</ele>
				<time>2016-07-02T10:17:54</time>
			</trkpt>
			<trkpt lat="48.94457987509668" lon="3.014299850910902">
				<ele>114.0</ele>
				<time>2016-07-02T10:18:07</time>
			</trkpt>
			<trkpt lat="48.94420989789069" lon="3.012439990416169">
				<ele>124.0</ele>
				<time>2016-07-02T10:18:30</time>
			</trkpt>
			<trkpt lat="48.9438898768276" lon="3.012389950454235">
				<ele>128.0</ele>
				<time>2016-07-02T10:18:35</time>
			</trkpt>
			<trkpt lat="48.94323994405568" lon="3.0126798804849386">
				<ele>129.0</ele>
				<time>2016-07-02T10:18:47</time>
			</trkpt>
			<trkpt lat="48.94148988649249" lon="3.014489868655801">
				<ele>149.0</ele>
				<time>2016-07-02T10:19:24</time>
			</trkpt>
			<trkpt lat="48.94107992760837" lon="3.01482992246747">
				<ele>149.0</ele>
				<time>2016-07-02T10:19:32</time>
			</trkpt>
			<trkpt lat="48.94059997983277" lon="3.0148999113589525">
				<ele>148.0</ele>
				<time>2016-07-02T10:19:40</time>
			</trkpt>
			<trkpt lat="48.939759861677885" lon="3.0146899446845055">
				<ele>150.0</ele>
				<time>2016-07-02T10:19:55</time>
			</trkpt>
			<trkpt lat="48.93621984869242" lon="3.0130698904395103">
				<ele>159.0</ele>
				<time>2016-07-02T10:21:00</time>
			</trkpt>
			<trkpt lat="48.93349992111325" lon="3.0112899094820023">
				<ele>168.0</ele>
				<time>2016-07-02T10:21:51</time>
			</trkpt>
			<trkpt lat="48.93189998343587" lon="3.0093098524957895">
				<ele>174.0</ele>
				<time>2016-07-02T10:22:27</time>
			</trkpt>
			<trkpt lat="48.93076993525028" lon="3.009679913520813">
				<ele>170.0</ele>
				<time>2016-07-02T10:22:47</time>
			</trkpt>
			<trkpt lat="48.92719999887049" lon="3.004259839653969">
				<ele>162.0</ele>
				<time>2016-07-02T10:24:15</time>
			</trkpt>
			<trkpt lat="48.92579988576472" lon="3.001499930396676">
				<ele>167.0</ele>
				<time>2016-07-02T10:24:55</time>
			</trkpt>
			<trkpt lat="48.92468987032771" lon="3.0031199008226395">
				<ele>167.0</ele>
				<time>2016-07-02T10:25:21</time>
			</trkpt>
			<trkpt lat="48.923619920387864" lon="3.004309879615903">
				<ele>166.0</ele>
				<time>2016-07-02T10:25:45</time>
			</trkpt>
			<trkpt lat="48.92251996323466" lon="3.000849913805723">
				<ele>159.0</ele>
				<time>2016-07-02T10:26:28</time>
			</trkpt>
			<trkpt lat="48.92029984854162" lon="2.9927099961787462">
				<ele>163.0</ele>
				<time>2016-07-02T10:28:09</time>
			</trkpt>
			<trkpt lat="48.92014989629388" lon="2.9888798855245113">
				<ele>165.0</ele>
				<time>2016-07-02T10:28:53</time>
			</trkpt>
			<trkpt lat="48.919409941881895" lon="2.9841298609972">
				<ele>162.0</ele>
				<time>2016-07-02T10:29:49</time>
			</trkpt>
			<trkpt lat="48.91870988532901" lon="2.9809299018234015">
				<ele>154.0</ele>
				<time>2016-07-02T10:30:28</time>
			</trkpt>
			<trkpt lat="48.91885992139578" lon="2.9804598446935415">
				<ele>150.0</ele>
				<time>2016-07-02T10:30:34</time>
			</trkpt>
			<trkpt lat="48.920049984008074" lon="2.979479916393757">
				<ele>142.0</ele>
				<time>2016-07-02T10:30:57</time>
			</trkpt>
			<trkpt lat="48.920719949528575" lon="2.978679947555065">
				<ele>140.0</ele>
				<time>2016-07-02T10:31:12</time>
			</trkpt>
			<trkpt lat="48.921749917790294" lon="2.9762599244713783">
				<ele>141.0</ele>
				<time>2016-07-02T10:31:45</time>
			</trkpt>
			<trkpt lat="48.92108992673457" lon="2.971929833292961">
				<ele>158.0</ele>
				<time>2016-07-02T10:32:36</time>
			</trkpt>
			<trkpt lat="48.92108992673457" lon="2.9704799316823483">
				<ele>154.0</ele>
				<time>2016-07-02T10:32:52</time>
			</trkpt>
			<trkpt lat="48.92081986181438" lon="2.969749951735139">
				<ele>151.0</ele>
				<time>2016-07-02T10:33:02</time>
			</trkpt>
			<trkpt lat="48.919649915769696" lon="2.9684999585151672">
				<ele>153.0</ele>
				<time>2016-07-02T10:33:27</time>
			</trkpt>
			<trkpt lat="48.915309850126505" lon="2.966439938172698">
				<ele>169.0</ele>
				<time>2016-07-02T10:34:46</time>
			</trkpt>
			<trkpt lat="48.914879858493805" lon="2.9660798516124487">
				<ele>170.0</ele>
				<time>2016-07-02T10:34:54</time>
			</trkpt>
			<trkpt lat="48.91397989355028" lon="2.96506991609931">
				<ele>167.0</ele>
				<time>2016-07-02T10:35:14</time>
			</trkpt>
			<trkpt lat="48.9135399274528" lon="2.962389886379242">
				<ele>165.0</ele>
				<time>2016-07-02T10:35:45</time>
			</trkpt>
			<trkpt lat="48.913179924711585" lon="2.961969953030348">
				<ele>166.0</ele>
				<time>2016-07-02T10:35:53</time>
			</trkpt>
			<trkpt lat="48.91060994938016" lon="2.9625499807298183">
				<ele>169.0</ele>
				<time>2016-07-02T10:36:39</time>
			</trkpt>
			<trkpt lat="48.90906994231045" lon="2.96201990917325">
				<ele>168.0</ele>
				<time>2016-07-02T10:37:06</time>
			</trkpt>
			<trkpt lat="48.90787996351719" lon="2.961799968034029">
				<ele>170.0</ele>
				<time>2016-07-02T10:37:27</time>
			</trkpt>
			<trkpt lat="48.906409945338964" lon="2.961129918694496">
				<ele>165.0</ele>
				<time>2016-07-02T10:37:54</time>
			</trkpt>
			<trkpt lat="48.90161985531449" lon="2.9602799098938704">
				<ele>147.0</ele>
				<time>2016-07-02T10:39:18</time>
			</trkpt>
			<trkpt lat="48.9011499658227" lon="2.9582398384809494">
				<ele>145.0</ele>
				<time>2016-07-02T10:39:42</time>
			</trkpt>
			<trkpt lat="48.8998599909246" lon="2.9544998332858086">
				<ele>152.0</ele>
				<time>2016-07-02T10:40:31</time>
			</trkpt>
			<trkpt lat="48.89915985055268" lon="2.954079983755946">
				<ele>152.0</ele>
				<time>2016-07-02T10:40:44</time>
			</trkpt>
			<trkpt lat="48.89859985560179" lon="2.9531498439610004">
				<ele>153.0</ele>
				<time>2016-07-02T10:40:58</time>
			</trkpt>
			<trkpt lat="48.89763996005058" lon="2.95221995562315">
				<ele>155.0</ele>
				<time>2016-07-02T10:41:18</time>
			</trkpt>
			<trkpt lat="48.89621998183429" lon="2.95221995562315">
				<ele>159.0</ele>
				<time>2016-07-02T10:41:43</time>
			</trkpt>
			<trkpt lat="48.89556988142431" lon="2.952399915084243">
				<ele>161.0</ele>
				<time>2016-07-02T10:41:54</time>
			</trkpt>
			<trkpt lat="48.8954599108547" lon="2.9512199945747852">
				<ele>159.0</ele>
				<time>2016-07-02T10:42:08</time>
			</trkpt>
			<trkpt lat="48.895689994096756" lon="2.9494499042630196">
				<ele>158.0</ele>
				<time>2016-07-02T10:42:28</time>
			</trkpt>
			<trkpt lat="48.89625987969339" lon="2.9485899209976196">
				<ele>159.0</ele>
				<time>2016-07-02T10:42:42</time>
			</trkpt>
			<trkpt lat="48.896369850263" lon="2.9480999149382114">
				<ele>160.0</ele>
				<time>2016-07-02T10:42:48</time>
			</trkpt>
			<trkpt lat="48.89575989916921" lon="2.943569915369153">
				<ele>158.0</ele>
				<time>2016-07-02T10:43:41</time>
			</trkpt>
			<trkpt lat="48.89587984420359" lon="2.940499959513545">
				<ele>157.0</ele>
				<time>2016-07-02T10:44:16</time>
			</trkpt>
			<trkpt lat="48.89538983814418" lon="2.940839845687151">
				<ele>157.0</ele>
				<time>2016-07-02T10:44:26</time>
			</trkpt>
			<trkpt lat="48.89401998370886" lon="2.938979985192418">
				<ele>153.0</ele>
				<time>2016-07-02T10:44:58</time>
			</trkpt>
			<trkpt lat="48.8923099078238" lon="2.9354599211364985">
				<ele>156.0</ele>
				<time>2016-07-02T10:45:48</time>
			</trkpt>
			<trkpt lat="48.89153994619846" lon="2.9348198790103197">
				<ele>155.0</ele>
				<time>2016-07-02T10:46:03</time>
			</trkpt>
			<trkpt lat="48.8910199329257" lon="2.934669842943549">
				<ele>152.0</ele>
				<time>2016-07-02T10:46:12</time>
			</trkpt>
			<trkpt lat="48.8911599945277" lon="2.932479903101921">
				<ele>153.0</ele>
				<time>2016-07-02T10:46:38</time>
			</trkpt>
			<trkpt lat="48.89107986353338" lon="2.9321699403226376">
				<ele>153.0</ele>
				<time>2016-07-02T10:46:41</time>
			</trkpt>
			<trkpt lat="48.890359941869974" lon="2.931549930945039">
				<ele>153.0</ele>
				<time>2016-07-02T10:46:56</time>
			</trkpt>
			<trkpt lat="48.891179859638214" lon="2.9282698407769203">
				<ele>154.0</ele>
				<time>2016-07-02T10:47:36</time>
			</trkpt>
			<trkpt lat="48.884649854153395" lon="2.9099999740719795">
				<ele>107.0</ele>
				<time>2016-07-02T10:51:34</time>
			</trkpt>
			<trkpt lat="48.88265999034047" lon="2.907239980995655">
				<ele>99.0</ele>
				<time>2016-07-02T10:52:21</time>
			</trkpt>
			<trkpt lat="48.88113984838128" lon="2.9059498384594917">
				<ele>95.0</ele>
				<time>2016-07-02T10:52:51</time>
			</trkpt>
			<trkpt lat="48.8806398678571" lon="2.9057399556040764">
				<ele>93.0</ele>
				<time>2016-07-02T10:53:00</time>
			</trkpt>
			<trkpt lat="48.879509987309575" lon="2.905679941177368">
				<ele>91.0</ele>
				<time>2016-07-02T10:53:20</time>
			</trkpt>
			<trkpt lat="48.87817986309528" lon="2.90602988563478">
				<ele>93.0</ele>
				<time>2016-07-02T10:53:43</time>
			</trkpt>
			<trkpt lat="48.87653994373977" lon="2.904059886932373">
				<ele>103.0</ele>
				<time>2016-07-02T10:54:20</time>
			</trkpt>
			<trkpt lat="48.873777939006686" lon="2.902669496834278">
				<ele>114.27</ele>
				<time>2016-07-02T10:55:10</time>
			</trkpt>
			<trkpt lat="48.873599991202354" lon="2.902579978108406">
				<ele>115.0</ele>
				<time>2016-07-02T10:55:14</time>
			</trkpt>
			<trkpt lat="48.87173996306956" lon="2.902949955314398">
				<ele>121.0</ele>
				<time>2016-07-02T10:55:46</time>
			</trkpt>
			<trkpt lat="48.86774984188378" lon="2.902939897030592">
				<ele>118.0</ele>
				<time>2016-07-02T10:56:56</time>
			</trkpt>
			<trkpt lat="48.8660098426044" lon="2.90432995185256">
				<ele>105.0</ele>
				<time>2016-07-02T10:57:30</time>
			</trkpt>
			<trkpt lat="48.86546988040209" lon="2.9044299479573965">
				<ele>101.0</ele>
				<time>2016-07-02T10:57:39</time>
			</trkpt>
			<trkpt lat="48.86446983553469" lon="2.9043398424983025">
				<ele>92.0</ele>
				<time>2016-07-02T10:57:57</time>
			</trkpt>
			<trkpt lat="48.86398988775909" lon="2.9033599980175495">
				<ele>89.0</ele>
				<time>2016-07-02T10:58:11</time>
			</trkpt>
			<trkpt lat="48.86353986337781" lon="2.903189929202199">
				<ele>82.0</ele>
				<time>2016-07-02T10:58:19</time>
			</trkpt>
			<trkpt lat="48.86325990781188" lon="2.90344993583858">
				<ele>78.0</ele>
				<time>2016-07-02T10:58:24</time>
			</trkpt>
			<trkpt lat="48.86259991675615" lon="2.904889862984419">
				<ele>69.0</ele>
				<time>2016-07-02T10:58:45</time>
			</trkpt>
			<trkpt lat="48.86192995123565" lon="2.9056698828935623">
				<ele>64.0</ele>
				<time>2016-07-02T10:58:59</time>
			</trkpt>
			<trkpt lat="48.85987998917699" lon="2.90692993439734">
				<ele>53.0</ele>
				<time>2016-07-02T10:59:38</time>
			</trkpt>
			<trkpt lat="48.85823990218341" lon="2.907229922711849">
				<ele>51.0</ele>
				<time>2016-07-02T11:00:07</time>
			</trkpt>
			<trkpt lat="48.85824987664819" lon="2.9070798866450787">
				<ele>51.0</ele>
				<time>2016-07-02T11:00:08</time>
			</trkpt>
			<trkpt lat="48.85807025246322" lon="2.9069794714450836">
				<ele>50.47</ele>
				<time>2016-07-02T11:00:12</time>
			</trkpt>
		</trkseg>
	</trk>
</gpx>
