<?xml version="1.0" encoding="UTF-8"?>
<gpx creator="Garmin Connect" version="1.1" xsi:schemaLocation="http://www.topografix.com/GPX/1/1 http://www.topografix.com/GPX/11.xsd" xmlns:ns3="http://www.garmin.com/xmlschemas/TrackPointExtension/v1" xmlns="http://www.topografix.com/GPX/1/1" xmlns:xsi="http://www.w3.org/2001/XMLSchema-instance" xmlns:ns2="http://www.garmin.com/xmlschemas/GpxExtensions/v3">
	<metadata>
		<name>004-G3-69 km-D 693 m-La Breïzhounec</name>
		<link href="connect.garmin.com">
			<text>Garmin Connect</text>
		</link>
		<time>2021-02-24T08:00:00</time>
	</metadata>
	<trk>
		<name>004-G3-69 km-D 693 m-La Breïzhounec</name>
		<trkseg>
			<trkpt lat="48.857919964939356" lon="2.90688986890018">
				<ele>50.0</ele>
				<time>2021-02-24T08:00:00</time>
			</trkpt>
			<trkpt lat="48.85824996046722" lon="2.9070799704641104">
				<ele>51.0</ele>
				<time>2021-02-24T08:00:06</time>
			</trkpt>
			<trkpt lat="48.858239986002445" lon="2.907229922711849">
				<ele>51.0</ele>
				<time>2021-02-24T08:00:08</time>
			</trkpt>
			<trkpt lat="48.8581299316138" lon="2.9072999954223633">
				<ele>51.0</ele>
				<time>2021-02-24T08:00:10</time>
			</trkpt>
			<trkpt lat="48.85779993608594" lon="2.907889997586608">
				<ele>51.0</ele>
				<time>2021-02-24T08:00:19</time>
			</trkpt>
			<trkpt lat="48.857529954984784" lon="2.9084699414670467">
				<ele>51.0</ele>
				<time>2021-02-24T08:00:27</time>
			</trkpt>
			<trkpt lat="48.856669971719384" lon="2.9099899996072054">
				<ele>50.0</ele>
				<time>2021-02-24T08:00:50</time>
			</trkpt>
			<trkpt lat="48.85648992843926" lon="2.9103899840265512">
				<ele>50.0</ele>
				<time>2021-02-24T08:00:55</time>
			</trkpt>
			<trkpt lat="48.85628993622959" lon="2.91098996065557">
				<ele>52.0</ele>
				<time>2021-02-24T08:01:03</time>
			</trkpt>
			<trkpt lat="48.8557399995625" lon="2.910359976813197">
				<ele>52.0</ele>
				<time>2021-02-24T08:01:15</time>
			</trkpt>
			<trkpt lat="48.855599937960505" lon="2.9099599923938513">
				<ele>51.0</ele>
				<time>2021-02-24T08:01:20</time>
			</trkpt>
			<trkpt lat="48.85549994185567" lon="2.9098299890756607">
				<ele>51.0</ele>
				<time>2021-02-24T08:01:23</time>
			</trkpt>
			<trkpt lat="48.85500993579626" lon="2.909879945218563">
				<ele>52.0</ele>
				<time>2021-02-24T08:01:31</time>
			</trkpt>
			<trkpt lat="48.854849925264716" lon="2.909849938005209">
				<ele>52.0</ele>
				<time>2021-02-24T08:01:34</time>
			</trkpt>
			<trkpt lat="48.85470994748175" lon="2.909929985180497">
				<ele>54.0</ele>
				<time>2021-02-24T08:01:37</time>
			</trkpt>
			<trkpt lat="48.85454993695021" lon="2.910249922424555">
				<ele>54.0</ele>
				<time>2021-02-24T08:01:41</time>
			</trkpt>
			<trkpt lat="48.854329995810986" lon="2.911699991673231">
				<ele>57.0</ele>
				<time>2021-02-24T08:01:58</time>
			</trkpt>
			<trkpt lat="48.854909939691424" lon="2.9146699514240026">
				<ele>50.0</ele>
				<time>2021-02-24T08:02:34</time>
			</trkpt>
			<trkpt lat="48.85517992079258" lon="2.9159499518573284">
				<ele>51.0</ele>
				<time>2021-02-24T08:02:49</time>
			</trkpt>
			<trkpt lat="48.85521998628974" lon="2.9163699690252542">
				<ele>51.0</ele>
				<time>2021-02-24T08:02:54</time>
			</trkpt>
			<trkpt lat="48.85515997186303" lon="2.921199956908822">
				<ele>51.0</ele>
				<time>2021-02-24T08:03:49</time>
			</trkpt>
			<trkpt lat="48.85506995022297" lon="2.9221799690276384">
				<ele>53.0</ele>
				<time>2021-02-24T08:04:01</time>
			</trkpt>
			<trkpt lat="48.85494992136955" lon="2.9226099606603384">
				<ele>53.0</ele>
				<time>2021-02-24T08:04:06</time>
			</trkpt>
			<trkpt lat="48.854589918628335" lon="2.9234899766743183">
				<ele>53.0</ele>
				<time>2021-02-24T08:04:18</time>
			</trkpt>
			<trkpt lat="48.854419933632016" lon="2.923629954457283">
				<ele>54.0</ele>
				<time>2021-02-24T08:04:21</time>
			</trkpt>
			<trkpt lat="48.85382993146777" lon="2.9236999433487654">
				<ele>58.0</ele>
				<time>2021-02-24T08:04:31</time>
			</trkpt>
			<trkpt lat="48.85091998614371" lon="2.9217699263244867">
				<ele>70.0</ele>
				<time>2021-02-24T08:05:27</time>
			</trkpt>
			<trkpt lat="48.84934997186065" lon="2.9206599947065115">
				<ele>72.0</ele>
				<time>2021-02-24T08:05:57</time>
			</trkpt>
			<trkpt lat="48.84843994863331" lon="2.9197299387305975">
				<ele>69.0</ele>
				<time>2021-02-24T08:06:16</time>
			</trkpt>
			<trkpt lat="48.84802998974919" lon="2.919419975951314">
				<ele>67.0</ele>
				<time>2021-02-24T08:06:24</time>
			</trkpt>
			<trkpt lat="48.847899986431" lon="2.919249990954995">
				<ele>67.0</ele>
				<time>2021-02-24T08:06:27</time>
			</trkpt>
			<trkpt lat="48.847349965944886" lon="2.917889943346381">
				<ele>64.0</ele>
				<time>2021-02-24T08:06:45</time>
			</trkpt>
			<trkpt lat="48.84713999927044" lon="2.91721997782588">
				<ele>61.0</ele>
				<time>2021-02-24T08:06:54</time>
			</trkpt>
			<trkpt lat="48.84669994935393" lon="2.914269967004657">
				<ele>59.0</ele>
				<time>2021-02-24T08:07:28</time>
			</trkpt>
			<trkpt lat="48.846419993788004" lon="2.9128999449312687">
				<ele>60.0</ele>
				<time>2021-02-24T08:07:45</time>
			</trkpt>
			<trkpt lat="48.84614992886782" lon="2.912159990519285">
				<ele>60.0</ele>
				<time>2021-02-24T08:07:54</time>
			</trkpt>
			<trkpt lat="48.844679994508624" lon="2.9095799569040537">
				<ele>53.0</ele>
				<time>2021-02-24T08:08:34</time>
			</trkpt>
			<trkpt lat="48.84428998455405" lon="2.909019961953163">
				<ele>51.0</ele>
				<time>2021-02-24T08:08:43</time>
			</trkpt>
			<trkpt lat="48.842899929732084" lon="2.9072599299252033">
				<ele>57.0</ele>
				<time>2021-02-24T08:09:14</time>
			</trkpt>
			<trkpt lat="48.84228997863829" lon="2.906789956614375">
				<ele>54.0</ele>
				<time>2021-02-24T08:09:26</time>
			</trkpt>
			<trkpt lat="48.84178999811411" lon="2.906559957191348">
				<ele>56.0</ele>
				<time>2021-02-24T08:09:35</time>
			</trkpt>
			<trkpt lat="48.83601997978985" lon="2.905219942331314">
				<ele>53.0</ele>
				<time>2021-02-24T08:11:17</time>
			</trkpt>
			<trkpt lat="48.833619989454746" lon="2.90387992747128">
				<ele>53.0</ele>
				<time>2021-02-24T08:12:01</time>
			</trkpt>
			<trkpt lat="48.83025993593037" lon="2.901669954881072">
				<ele>54.0</ele>
				<time>2021-02-24T08:13:05</time>
			</trkpt>
			<trkpt lat="48.82976992987096" lon="2.901409948244691">
				<ele>55.0</ele>
				<time>2021-02-24T08:13:14</time>
			</trkpt>
			<trkpt lat="48.82975995540619" lon="2.9015599843114614">
				<ele>54.0</ele>
				<time>2021-02-24T08:13:16</time>
			</trkpt>
			<trkpt lat="48.82988995872438" lon="2.902929922565818">
				<ele>53.0</ele>
				<time>2021-02-24T08:13:32</time>
			</trkpt>
			<trkpt lat="48.82982994429767" lon="2.9039799235761166">
				<ele>53.0</ele>
				<time>2021-02-24T08:13:44</time>
			</trkpt>
			<trkpt lat="48.829839918762445" lon="2.904529944062233">
				<ele>52.0</ele>
				<time>2021-02-24T08:13:50</time>
			</trkpt>
			<trkpt lat="48.82995994761586" lon="2.9055999778211117">
				<ele>52.0</ele>
				<time>2021-02-24T08:14:03</time>
			</trkpt>
			<trkpt lat="48.83033998310566" lon="2.9077299870550632">
				<ele>55.0</ele>
				<time>2021-02-24T08:14:28</time>
			</trkpt>
			<trkpt lat="48.8302999176085" lon="2.9080099426209927">
				<ele>56.0</ele>
				<time>2021-02-24T08:14:31</time>
			</trkpt>
			<trkpt lat="48.83022992871702" lon="2.9081899859011173">
				<ele>57.0</ele>
				<time>2021-02-24T08:14:34</time>
			</trkpt>
			<trkpt lat="48.82992994040251" lon="2.908779988065362">
				<ele>58.0</ele>
				<time>2021-02-24T08:14:42</time>
			</trkpt>
			<trkpt lat="48.82988995872438" lon="2.9090899508446455">
				<ele>60.0</ele>
				<time>2021-02-24T08:14:46</time>
			</trkpt>
			<trkpt lat="48.829919965937734" lon="2.9092799685895443">
				<ele>61.0</ele>
				<time>2021-02-24T08:14:48</time>
			</trkpt>
			<trkpt lat="48.82999992929399" lon="2.909429920837283">
				<ele>63.0</ele>
				<time>2021-02-24T08:14:50</time>
			</trkpt>
			<trkpt lat="48.83014996536076" lon="2.9095299169421196">
				<ele>63.0</ele>
				<time>2021-02-24T08:14:53</time>
			</trkpt>
			<trkpt lat="48.83125998079777" lon="2.909219954162836">
				<ele>65.0</ele>
				<time>2021-02-24T08:15:13</time>
			</trkpt>
			<trkpt lat="48.83143994025886" lon="2.9093099758028984">
				<ele>67.0</ele>
				<time>2021-02-24T08:15:16</time>
			</trkpt>
			<trkpt lat="48.83155996911228" lon="2.9095399752259254">
				<ele>69.0</ele>
				<time>2021-02-24T08:15:19</time>
			</trkpt>
			<trkpt lat="48.831579918041825" lon="2.9097299929708242">
				<ele>71.0</ele>
				<time>2021-02-24T08:15:22</time>
			</trkpt>
			<trkpt lat="48.83150992915034" lon="2.909929985180497">
				<ele>74.0</ele>
				<time>2021-02-24T08:15:24</time>
			</trkpt>
			<trkpt lat="48.83128998801112" lon="2.910099970176816">
				<ele>73.0</ele>
				<time>2021-02-24T08:15:28</time>
			</trkpt>
			<trkpt lat="48.83050996810198" lon="2.9104499984532595">
				<ele>78.0</ele>
				<time>2021-02-24T08:15:43</time>
			</trkpt>
			<trkpt lat="48.83039999753237" lon="2.9106099251657724">
				<ele>81.0</ele>
				<time>2021-02-24T08:15:45</time>
			</trkpt>
			<trkpt lat="48.830369990319014" lon="2.910819975659251">
				<ele>83.0</ele>
				<time>2021-02-24T08:15:48</time>
			</trkpt>
			<trkpt lat="48.830459928140044" lon="2.9110399167984724">
				<ele>85.0</ele>
				<time>2021-02-24T08:15:51</time>
			</trkpt>
			<trkpt lat="48.83055992424488" lon="2.9111099895089865">
				<ele>86.0</ele>
				<time>2021-02-24T08:15:53</time>
			</trkpt>
			<trkpt lat="48.83156994357705" lon="2.9113399889320135">
				<ele>88.0</ele>
				<time>2021-02-24T08:16:10</time>
			</trkpt>
			<trkpt lat="48.83173992857337" lon="2.9114899411797523">
				<ele>89.0</ele>
				<time>2021-02-24T08:16:14</time>
			</trkpt>
			<trkpt lat="48.831769935786724" lon="2.911609970033169">
				<ele>90.0</ele>
				<time>2021-02-24T08:16:15</time>
			</trkpt>
			<trkpt lat="48.83173992857337" lon="2.911889925599098">
				<ele>91.0</ele>
				<time>2021-02-24T08:16:19</time>
			</trkpt>
			<trkpt lat="48.83145997300744" lon="2.912549916654825">
				<ele>93.0</ele>
				<time>2021-02-24T08:16:28</time>
			</trkpt>
			<trkpt lat="48.83139995858073" lon="2.9128799960017204">
				<ele>96.0</ele>
				<time>2021-02-24T08:16:31</time>
			</trkpt>
			<trkpt lat="48.831449998542666" lon="2.9133099876344204">
				<ele>98.0</ele>
				<time>2021-02-24T08:16:36</time>
			</trkpt>
			<trkpt lat="48.831709921360016" lon="2.914539948105812">
				<ele>101.0</ele>
				<time>2021-02-24T08:16:51</time>
			</trkpt>
			<trkpt lat="48.83184998296201" lon="2.915389956906438">
				<ele>104.0</ele>
				<time>2021-02-24T08:17:01</time>
			</trkpt>
			<trkpt lat="48.83199993520975" lon="2.916939938440919">
				<ele>109.0</ele>
				<time>2021-02-24T08:17:19</time>
			</trkpt>
			<trkpt lat="48.8319799862802" lon="2.917419970035553">
				<ele>111.0</ele>
				<time>2021-02-24T08:17:25</time>
			</trkpt>
			<trkpt lat="48.831729954108596" lon="2.9188799299299717">
				<ele>117.0</ele>
				<time>2021-02-24T08:17:42</time>
			</trkpt>
			<trkpt lat="48.83150992915034" lon="2.922529997304082">
				<ele>116.0</ele>
				<time>2021-02-24T08:18:24</time>
			</trkpt>
			<trkpt lat="48.83151998743415" lon="2.92430997826159">
				<ele>116.0</ele>
				<time>2021-02-24T08:18:44</time>
			</trkpt>
			<trkpt lat="48.831619983538985" lon="2.925209943205118">
				<ele>117.0</ele>
				<time>2021-02-24T08:18:55</time>
			</trkpt>
			<trkpt lat="48.83173992857337" lon="2.9259299486875534">
				<ele>118.0</ele>
				<time>2021-02-24T08:19:03</time>
			</trkpt>
			<trkpt lat="48.83193992078304" lon="2.9265999980270863">
				<ele>119.0</ele>
				<time>2021-02-24T08:19:12</time>
			</trkpt>
			<trkpt lat="48.832049975171685" lon="2.927379934117198">
				<ele>118.0</ele>
				<time>2021-02-24T08:19:21</time>
			</trkpt>
			<trkpt lat="48.83194997906685" lon="2.929389998316765">
				<ele>124.0</ele>
				<time>2021-02-24T08:19:44</time>
			</trkpt>
			<trkpt lat="48.83199993520975" lon="2.9295599833130836">
				<ele>124.0</ele>
				<time>2021-02-24T08:19:46</time>
			</trkpt>
			<trkpt lat="48.83201996795833" lon="2.9300199821591377">
				<ele>124.0</ele>
				<time>2021-02-24T08:19:51</time>
			</trkpt>
			<trkpt lat="48.83201996795833" lon="2.9310299176722765">
				<ele>124.0</ele>
				<time>2021-02-24T08:20:03</time>
			</trkpt>
			<trkpt lat="48.83214997127652" lon="2.9312199354171753">
				<ele>124.0</ele>
				<time>2021-02-24T08:20:06</time>
			</trkpt>
			<trkpt lat="48.83257996290922" lon="2.9315099492669106">
				<ele>124.0</ele>
				<time>2021-02-24T08:20:14</time>
			</trkpt>
			<trkpt lat="48.83270996622741" lon="2.9317099414765835">
				<ele>123.0</ele>
				<time>2021-02-24T08:20:18</time>
			</trkpt>
			<trkpt lat="48.83324992842972" lon="2.9337699618190527">
				<ele>127.0</ele>
				<time>2021-02-24T08:20:43</time>
			</trkpt>
			<trkpt lat="48.833789974451065" lon="2.935179965570569">
				<ele>130.0</ele>
				<time>2021-02-24T08:21:02</time>
			</trkpt>
			<trkpt lat="48.83396993391216" lon="2.9358799383044243">
				<ele>132.0</ele>
				<time>2021-02-24T08:21:10</time>
			</trkpt>
			<trkpt lat="48.834029948338866" lon="2.93631998822093">
				<ele>133.0</ele>
				<time>2021-02-24T08:21:15</time>
			</trkpt>
			<trkpt lat="48.834089962765574" lon="2.93715993873775">
				<ele>135.0</ele>
				<time>2021-02-24T08:21:25</time>
			</trkpt>
			<trkpt lat="48.83401997387409" lon="2.938759960234165">
				<ele>137.0</ele>
				<time>2021-02-24T08:21:43</time>
			</trkpt>
			<trkpt lat="48.834029948338866" lon="2.9416599310934544">
				<ele>141.0</ele>
				<time>2021-02-24T08:22:17</time>
			</trkpt>
			<trkpt lat="48.833939926698804" lon="2.943359948694706">
				<ele>143.0</ele>
				<time>2021-02-24T08:22:36</time>
			</trkpt>
			<trkpt lat="48.83374999277294" lon="2.944189924746752">
				<ele>144.0</ele>
				<time>2021-02-24T08:22:46</time>
			</trkpt>
			<trkpt lat="48.833769941702485" lon="2.944329986348748">
				<ele>144.0</ele>
				<time>2021-02-24T08:22:48</time>
			</trkpt>
			<trkpt lat="48.833659971132874" lon="2.944469964131713">
				<ele>144.0</ele>
				<time>2021-02-24T08:22:50</time>
			</trkpt>
			<trkpt lat="48.833339950069785" lon="2.945169936865568">
				<ele>146.0</ele>
				<time>2021-02-24T08:23:00</time>
			</trkpt>
			<trkpt lat="48.83278992958367" lon="2.946039978414774">
				<ele>147.0</ele>
				<time>2021-02-24T08:23:14</time>
			</trkpt>
			<trkpt lat="48.83162995800376" lon="2.9477299377322197">
				<ele>146.0</ele>
				<time>2021-02-24T08:23:42</time>
			</trkpt>
			<trkpt lat="48.83130993694067" lon="2.9481399804353714">
				<ele>145.0</ele>
				<time>2021-02-24T08:23:49</time>
			</trkpt>
			<trkpt lat="48.83094993419945" lon="2.9484099615365267">
				<ele>144.0</ele>
				<time>2021-02-24T08:23:56</time>
			</trkpt>
			<trkpt lat="48.82982994429767" lon="2.948909942060709">
				<ele>137.0</ele>
				<time>2021-02-24T08:24:17</time>
			</trkpt>
			<trkpt lat="48.827729942277074" lon="2.9498999286442995">
				<ele>128.0</ele>
				<time>2021-02-24T08:24:55</time>
			</trkpt>
			<trkpt lat="48.82758996449411" lon="2.95002993196249">
				<ele>127.0</ele>
				<time>2021-02-24T08:24:58</time>
			</trkpt>
			<trkpt lat="48.82750991731882" lon="2.9502099752426147">
				<ele>126.0</ele>
				<time>2021-02-24T08:25:00</time>
			</trkpt>
			<trkpt lat="48.82748996838927" lon="2.9503599274903536">
				<ele>125.0</ele>
				<time>2021-02-24T08:25:02</time>
			</trkpt>
			<trkpt lat="48.827559957280755" lon="2.9506199341267347">
				<ele>124.0</ele>
				<time>2021-02-24T08:25:05</time>
			</trkpt>
			<trkpt lat="48.82804996334016" lon="2.951739924028516">
				<ele>121.0</ele>
				<time>2021-02-24T08:25:21</time>
			</trkpt>
			<trkpt lat="48.82832991890609" lon="2.9525799583643675">
				<ele>117.0</ele>
				<time>2021-02-24T08:25:31</time>
			</trkpt>
			<trkpt lat="48.82878991775215" lon="2.956649959087372">
				<ele>94.0</ele>
				<time>2021-02-24T08:26:19</time>
			</trkpt>
			<trkpt lat="48.82882998324931" lon="2.9572699684649706">
				<ele>94.0</ele>
				<time>2021-02-24T08:26:26</time>
			</trkpt>
			<trkpt lat="48.82877994328737" lon="2.957389997318387">
				<ele>93.0</ele>
				<time>2021-02-24T08:26:27</time>
			</trkpt>
			<trkpt lat="48.828699979931116" lon="2.957349931821227">
				<ele>92.0</ele>
				<time>2021-02-24T08:26:29</time>
			</trkpt>
			<trkpt lat="48.82859998382628" lon="2.9572099540382624">
				<ele>90.0</ele>
				<time>2021-02-24T08:26:31</time>
			</trkpt>
			<trkpt lat="48.827689960598946" lon="2.9554399475455284">
				<ele>76.0</ele>
				<time>2021-02-24T08:26:57</time>
			</trkpt>
			<trkpt lat="48.827299950644374" lon="2.9549699742347">
				<ele>74.0</ele>
				<time>2021-02-24T08:27:06</time>
			</trkpt>
			<trkpt lat="48.826889991760254" lon="2.954719942063093">
				<ele>71.0</ele>
				<time>2021-02-24T08:27:13</time>
			</trkpt>
			<trkpt lat="48.82606999017298" lon="2.954459935426712">
				<ele>65.0</ele>
				<time>2021-02-24T08:27:28</time>
			</trkpt>
			<trkpt lat="48.82588994689286" lon="2.954509975388646">
				<ele>63.0</ele>
				<time>2021-02-24T08:27:31</time>
			</trkpt>
			<trkpt lat="48.82577997632325" lon="2.9548199381679296">
				<ele>59.0</ele>
				<time>2021-02-24T08:27:35</time>
			</trkpt>
			<trkpt lat="48.82633997127414" lon="2.954919934272766">
				<ele>63.0</ele>
				<time>2021-02-24T08:27:45</time>
			</trkpt>
			<trkpt lat="48.82663995958865" lon="2.9550499375909567">
				<ele>65.0</ele>
				<time>2021-02-24T08:27:50</time>
			</trkpt>
			<trkpt lat="48.827019995078444" lon="2.9554999619722366">
				<ele>64.0</ele>
				<time>2021-02-24T08:27:59</time>
			</trkpt>
			<trkpt lat="48.827279917895794" lon="2.955989968031645">
				<ele>63.0</ele>
				<time>2021-02-24T08:28:06</time>
			</trkpt>
			<trkpt lat="48.82739994674921" lon="2.956309989094734">
				<ele>65.0</ele>
				<time>2021-02-24T08:28:10</time>
			</trkpt>
			<trkpt lat="48.82746993564069" lon="2.956739980727434">
				<ele>66.0</ele>
				<time>2021-02-24T08:28:15</time>
			</trkpt>
			<trkpt lat="48.82760999724269" lon="2.9584999289363623">
				<ele>59.0</ele>
				<time>2021-02-24T08:28:36</time>
			</trkpt>
			<trkpt lat="48.82760999724269" lon="2.959579937160015">
				<ele>61.0</ele>
				<time>2021-02-24T08:28:48</time>
			</trkpt>
			<trkpt lat="48.82750991731882" lon="2.960919952020049">
				<ele>61.0</ele>
				<time>2021-02-24T08:29:03</time>
			</trkpt>
			<trkpt lat="48.82750991731882" lon="2.9615899175405502">
				<ele>62.0</ele>
				<time>2021-02-24T08:29:11</time>
			</trkpt>
			<trkpt lat="48.82748996838927" lon="2.9628199618309736">
				<ele>64.0</ele>
				<time>2021-02-24T08:29:25</time>
			</trkpt>
			<trkpt lat="48.827669927850366" lon="2.963809948414564">
				<ele>68.0</ele>
				<time>2021-02-24T08:29:37</time>
			</trkpt>
			<trkpt lat="48.82773991674185" lon="2.964859949424863">
				<ele>71.0</ele>
				<time>2021-02-24T08:29:49</time>
			</trkpt>
			<trkpt lat="48.827859945595264" lon="2.9656399693340063">
				<ele>73.0</ele>
				<time>2021-02-24T08:29:58</time>
			</trkpt>
			<trkpt lat="48.827839996665716" lon="2.966039953753352">
				<ele>72.0</ele>
				<time>2021-02-24T08:30:03</time>
			</trkpt>
			<trkpt lat="48.82764997892082" lon="2.966859955340624">
				<ele>72.0</ele>
				<time>2021-02-24T08:30:13</time>
			</trkpt>
			<trkpt lat="48.827649895101786" lon="2.9668601229786873">
				<ele>72.0</ele>
				<time>2021-02-24T08:30:13</time>
			</trkpt>
			<trkpt lat="48.82760999724269" lon="2.9674399830400944">
				<ele>74.0</ele>
				<time>2021-02-24T08:30:19</time>
			</trkpt>
			<trkpt lat="48.827409921213984" lon="2.9687699396163225">
				<ele>78.0</ele>
				<time>2021-02-24T08:30:35</time>
			</trkpt>
			<trkpt lat="48.827129965648055" lon="2.9696199484169483">
				<ele>79.0</ele>
				<time>2021-02-24T08:30:46</time>
			</trkpt>
			<trkpt lat="48.826509956270456" lon="2.972019938752055">
				<ele>71.0</ele>
				<time>2021-02-24T08:31:16</time>
			</trkpt>
			<trkpt lat="48.82587997242808" lon="2.973109921440482">
				<ele>76.0</ele>
				<time>2021-02-24T08:31:32</time>
			</trkpt>
			<trkpt lat="48.825709987431765" lon="2.973519964143634">
				<ele>78.0</ele>
				<time>2021-02-24T08:31:38</time>
			</trkpt>
			<trkpt lat="48.82559993304312" lon="2.9741199407726526">
				<ele>80.0</ele>
				<time>2021-02-24T08:31:45</time>
			</trkpt>
			<trkpt lat="48.82560999132693" lon="2.9743399657309055">
				<ele>81.0</ele>
				<time>2021-02-24T08:31:47</time>
			</trkpt>
			<trkpt lat="48.82572993636131" lon="2.974609946832061">
				<ele>82.0</ele>
				<time>2021-02-24T08:31:51</time>
			</trkpt>
			<trkpt lat="48.826849926263094" lon="2.9758599400520325">
				<ele>91.0</ele>
				<time>2021-02-24T08:32:15</time>
			</trkpt>
			<trkpt lat="48.82821994833648" lon="2.9781199526041746">
				<ele>102.0</ele>
				<time>2021-02-24T08:32:51</time>
			</trkpt>
			<trkpt lat="48.82889997214079" lon="2.9789499286562204">
				<ele>109.0</ele>
				<time>2021-02-24T08:33:06</time>
			</trkpt>
			<trkpt lat="48.82907993160188" lon="2.979349996894598">
				<ele>112.0</ele>
				<time>2021-02-24T08:33:11</time>
			</trkpt>
			<trkpt lat="48.82922996766865" lon="2.979989955201745">
				<ele>115.0</ele>
				<time>2021-02-24T08:33:19</time>
			</trkpt>
			<trkpt lat="48.82934999652207" lon="2.980269994586706">
				<ele>116.0</ele>
				<time>2021-02-24T08:33:23</time>
			</trkpt>
			<trkpt lat="48.83022992871702" lon="2.9813699517399073">
				<ele>117.0</ele>
				<time>2021-02-24T08:33:43</time>
			</trkpt>
			<trkpt lat="48.830629996955395" lon="2.98201996833086">
				<ele>118.0</ele>
				<time>2021-02-24T08:33:53</time>
			</trkpt>
			<trkpt lat="48.830849938094616" lon="2.9825999960303307">
				<ele>122.0</ele>
				<time>2021-02-24T08:34:01</time>
			</trkpt>
			<trkpt lat="48.8315399363637" lon="2.9851899202913046">
				<ele>130.0</ele>
				<time>2021-02-24T08:34:33</time>
			</trkpt>
			<trkpt lat="48.83180991746485" lon="2.9871699772775173">
				<ele>130.0</ele>
				<time>2021-02-24T08:34:56</time>
			</trkpt>
			<trkpt lat="48.83199993520975" lon="2.988619962707162">
				<ele>131.0</ele>
				<time>2021-02-24T08:35:13</time>
			</trkpt>
			<trkpt lat="48.83198996074498" lon="2.9887499660253525">
				<ele>132.0</ele>
				<time>2021-02-24T08:35:14</time>
			</trkpt>
			<trkpt lat="48.83319997228682" lon="2.989789992570877">
				<ele>136.0</ele>
				<time>2021-02-24T08:35:38</time>
			</trkpt>
			<trkpt lat="48.83150992915034" lon="2.9914199374616146">
				<ele>134.0</ele>
				<time>2021-02-24T08:36:13</time>
			</trkpt>
			<trkpt lat="48.830049969255924" lon="2.9929999262094498">
				<ele>134.0</ele>
				<time>2021-02-24T08:36:44</time>
			</trkpt>
			<trkpt lat="48.829449992626905" lon="2.993709957227111">
				<ele>136.0</ele>
				<time>2021-02-24T08:36:58</time>
			</trkpt>
			<trkpt lat="48.828139984980226" lon="2.995529919862747">
				<ele>138.0</ele>
				<time>2021-02-24T08:37:29</time>
			</trkpt>
			<trkpt lat="48.82759993895888" lon="2.996369954198599">
				<ele>138.0</ele>
				<time>2021-02-24T08:37:42</time>
			</trkpt>
			<trkpt lat="48.82713994011283" lon="2.997309984639287">
				<ele>138.0</ele>
				<time>2021-02-24T08:37:55</time>
			</trkpt>
			<trkpt lat="48.82601995021105" lon="3.000229988247156">
				<ele>137.0</ele>
				<time>2021-02-24T08:38:34</time>
			</trkpt>
			<trkpt lat="48.82541997358203" lon="3.0020099692046642">
				<ele>137.0</ele>
				<time>2021-02-24T08:38:57</time>
			</trkpt>
			<trkpt lat="48.825089978054166" lon="3.002829970791936">
				<ele>136.0</ele>
				<time>2021-02-24T08:39:08</time>
			</trkpt>
			<trkpt lat="48.82489996030927" lon="3.0031999479979277">
				<ele>135.0</ele>
				<time>2021-02-24T08:39:13</time>
			</trkpt>
			<trkpt lat="48.823409993201494" lon="3.0056399200111628">
				<ele>130.0</ele>
				<time>2021-02-24T08:39:52</time>
			</trkpt>
			<trkpt lat="48.8221699744463" lon="3.007949972525239">
				<ele>123.0</ele>
				<time>2021-02-24T08:40:26</time>
			</trkpt>
			<trkpt lat="48.821069933474064" lon="3.01035993732512">
				<ele>111.0</ele>
				<time>2021-02-24T08:40:59</time>
			</trkpt>
			<trkpt lat="48.82090992294252" lon="3.010529922321439">
				<ele>108.0</ele>
				<time>2021-02-24T08:41:03</time>
			</trkpt>
			<trkpt lat="48.82079995237291" lon="3.0105499550700188">
				<ele>106.0</ele>
				<time>2021-02-24T08:41:05</time>
			</trkpt>
			<trkpt lat="48.818839928135276" lon="3.0102399922907352">
				<ele>87.0</ele>
				<time>2021-02-24T08:41:39</time>
			</trkpt>
			<trkpt lat="48.81866994313896" lon="3.0102699995040894">
				<ele>85.0</ele>
				<time>2021-02-24T08:41:42</time>
			</trkpt>
			<trkpt lat="48.818579921498895" lon="3.0103399883955717">
				<ele>84.0</ele>
				<time>2021-02-24T08:41:44</time>
			</trkpt>
			<trkpt lat="48.81841999478638" lon="3.010619943961501">
				<ele>82.0</ele>
				<time>2021-02-24T08:41:48</time>
			</trkpt>
			<trkpt lat="48.81875996477902" lon="3.0124299321323633">
				<ele>72.0</ele>
				<time>2021-02-24T08:42:10</time>
			</trkpt>
			<trkpt lat="48.81895995698869" lon="3.0135399475693703">
				<ele>67.0</ele>
				<time>2021-02-24T08:42:23</time>
			</trkpt>
			<trkpt lat="48.81886993534863" lon="3.0136399436742067">
				<ele>67.0</ele>
				<time>2021-02-24T08:42:25</time>
			</trkpt>
			<trkpt lat="48.81868997588754" lon="3.013519998639822">
				<ele>66.0</ele>
				<time>2021-02-24T08:42:28</time>
			</trkpt>
			<trkpt lat="48.81853993982077" lon="3.013489991426468">
				<ele>65.0</ele>
				<time>2021-02-24T08:42:31</time>
			</trkpt>
			<trkpt lat="48.818279933184385" lon="3.0135699547827244">
				<ele>64.0</ele>
				<time>2021-02-24T08:42:35</time>
			</trkpt>
			<trkpt lat="48.816409930586815" lon="3.0151799507439137">
				<ele>67.0</ele>
				<time>2021-02-24T08:43:13</time>
			</trkpt>
			<trkpt lat="48.816679995507" lon="3.0160599667578936">
				<ele>70.0</ele>
				<time>2021-02-24T08:43:24</time>
			</trkpt>
			<trkpt lat="48.81665996275842" lon="3.016169937327504">
				<ele>70.0</ele>
				<time>2021-02-24T08:43:25</time>
			</trkpt>
			<trkpt lat="48.816429963335395" lon="3.016399936750531">
				<ele>71.0</ele>
				<time>2021-02-24T08:43:30</time>
			</trkpt>
			<trkpt lat="48.81495994515717" lon="3.0175899993628263">
				<ele>70.0</ele>
				<time>2021-02-24T08:43:59</time>
			</trkpt>
			<trkpt lat="48.81220992654562" lon="3.0196599941700697">
				<ele>81.0</ele>
				<time>2021-02-24T08:44:52</time>
			</trkpt>
			<trkpt lat="48.81157994270325" lon="3.0200299713760614">
				<ele>89.0</ele>
				<time>2021-02-24T08:45:04</time>
			</trkpt>
			<trkpt lat="48.80992996506393" lon="3.020079927518964">
				<ele>95.0</ele>
				<time>2021-02-24T08:45:33</time>
			</trkpt>
			<trkpt lat="48.80879991687834" lon="3.020599940791726">
				<ele>96.0</ele>
				<time>2021-02-24T08:45:53</time>
			</trkpt>
			<trkpt lat="48.80763994529843" lon="3.0209299363195896">
				<ele>95.0</ele>
				<time>2021-02-24T08:46:14</time>
			</trkpt>
			<trkpt lat="48.80700996145606" lon="3.0209799762815237">
				<ele>92.0</ele>
				<time>2021-02-24T08:46:25</time>
			</trkpt>
			<trkpt lat="48.80575996823609" lon="3.0209399946033955">
				<ele>91.0</ele>
				<time>2021-02-24T08:46:47</time>
			</trkpt>
			<trkpt lat="48.8049599993974" lon="3.021009983494878">
				<ele>94.0</ele>
				<time>2021-02-24T08:47:01</time>
			</trkpt>
			<trkpt lat="48.804289950057864" lon="3.0208999291062355">
				<ele>87.0</ele>
				<time>2021-02-24T08:47:12</time>
			</trkpt>
			<trkpt lat="48.80335997790098" lon="3.0209799762815237">
				<ele>86.0</ele>
				<time>2021-02-24T08:47:29</time>
			</trkpt>
			<trkpt lat="48.80268992856145" lon="3.0207299441099167">
				<ele>85.0</ele>
				<time>2021-02-24T08:47:41</time>
			</trkpt>
			<trkpt lat="48.802399998530746" lon="3.0206999368965626">
				<ele>85.0</ele>
				<time>2021-02-24T08:47:46</time>
			</trkpt>
			<trkpt lat="48.80210998468101" lon="3.020819965749979">
				<ele>86.0</ele>
				<time>2021-02-24T08:47:51</time>
			</trkpt>
			<trkpt lat="48.798769963905215" lon="3.0235699843615294">
				<ele>102.0</ele>
				<time>2021-02-24T08:48:57</time>
			</trkpt>
			<trkpt lat="48.79828993231058" lon="3.0238199327141047">
				<ele>105.0</ele>
				<time>2021-02-24T08:49:06</time>
			</trkpt>
			<trkpt lat="48.79771996289492" lon="3.023919928818941">
				<ele>107.0</ele>
				<time>2021-02-24T08:49:16</time>
			</trkpt>
			<trkpt lat="48.79604995250702" lon="3.0240699648857117">
				<ele>116.0</ele>
				<time>2021-02-24T08:49:45</time>
			</trkpt>
			<trkpt lat="48.793699918314815" lon="3.0237899255007505">
				<ele>121.0</ele>
				<time>2021-02-24T08:50:26</time>
			</trkpt>
			<trkpt lat="48.79316993057728" lon="3.0240699648857117">
				<ele>119.0</ele>
				<time>2021-02-24T08:50:36</time>
			</trkpt>
			<trkpt lat="48.792799953371286" lon="3.024379927664995">
				<ele>119.0</ele>
				<time>2021-02-24T08:50:43</time>
			</trkpt>
			<trkpt lat="48.79174995236099" lon="3.024349920451641">
				<ele>121.0</ele>
				<time>2021-02-24T08:51:01</time>
			</trkpt>
			<trkpt lat="48.79162992350757" lon="3.024419993162155">
				<ele>121.0</ele>
				<time>2021-02-24T08:51:04</time>
			</trkpt>
			<trkpt lat="48.791229939088225" lon="3.025229936465621">
				<ele>123.0</ele>
				<time>2021-02-24T08:51:15</time>
			</trkpt>
			<trkpt lat="48.7907599657774" lon="3.0257699824869633">
				<ele>123.0</ele>
				<time>2021-02-24T08:51:25</time>
			</trkpt>
			<trkpt lat="48.79009997472167" lon="3.027469916269183">
				<ele>124.0</ele>
				<time>2021-02-24T08:51:48</time>
			</trkpt>
			<trkpt lat="48.78959999419749" lon="3.029249981045723">
				<ele>127.0</ele>
				<time>2021-02-24T08:52:10</time>
			</trkpt>
			<trkpt lat="48.78941995091736" lon="3.0296399910002947">
				<ele>126.0</ele>
				<time>2021-02-24T08:52:16</time>
			</trkpt>
			<trkpt lat="48.789139995351434" lon="3.0298199504613876">
				<ele>125.0</ele>
				<time>2021-02-24T08:52:21</time>
			</trkpt>
			<trkpt lat="48.78871997818351" lon="3.029859932139516">
				<ele>125.0</ele>
				<time>2021-02-24T08:52:28</time>
			</trkpt>
			<trkpt lat="48.7825399171561" lon="3.0297699943184853">
				<ele>124.0</ele>
				<time>2021-02-24T08:54:16</time>
			</trkpt>
			<trkpt lat="48.781989980489016" lon="3.029899997636676">
				<ele>125.0</ele>
				<time>2021-02-24T08:54:26</time>
			</trkpt>
			<trkpt lat="48.78061995841563" lon="3.031289968639612">
				<ele>126.0</ele>
				<time>2021-02-24T08:54:54</time>
			</trkpt>
			<trkpt lat="48.77988997846842" lon="3.032119944691658">
				<ele>124.0</ele>
				<time>2021-02-24T08:55:10</time>
			</trkpt>
			<trkpt lat="48.77958999015391" lon="3.0326499324291945">
				<ele>122.0</ele>
				<time>2021-02-24T08:55:18</time>
			</trkpt>
			<trkpt lat="48.77783993259072" lon="3.036539973691106">
				<ele>120.0</ele>
				<time>2021-02-24T08:56:12</time>
			</trkpt>
			<trkpt lat="48.777689980342984" lon="3.036809954792261">
				<ele>120.0</ele>
				<time>2021-02-24T08:56:16</time>
			</trkpt>
			<trkpt lat="48.77746995538473" lon="3.0370899941772223">
				<ele>120.0</ele>
				<time>2021-02-24T08:56:21</time>
			</trkpt>
			<trkpt lat="48.77692999318242" lon="3.0371499247848988">
				<ele>119.0</ele>
				<time>2021-02-24T08:56:31</time>
			</trkpt>
			<trkpt lat="48.77460996620357" lon="3.037219997495413">
				<ele>124.0</ele>
				<time>2021-02-24T08:57:11</time>
			</trkpt>
			<trkpt lat="48.77417997457087" lon="3.0371499247848988">
				<ele>125.0</ele>
				<time>2021-02-24T08:57:19</time>
			</trkpt>
			<trkpt lat="48.773569939658046" lon="3.0368799436837435">
				<ele>123.0</ele>
				<time>2021-02-24T08:57:30</time>
			</trkpt>
			<trkpt lat="48.77097993157804" lon="3.0353499948978424">
				<ele>116.0</ele>
				<time>2021-02-24T08:58:18</time>
			</trkpt>
			<trkpt lat="48.77077993936837" lon="3.035269947722554">
				<ele>116.0</ele>
				<time>2021-02-24T08:58:22</time>
			</trkpt>
			<trkpt lat="48.77036998048425" lon="3.0353299621492624">
				<ele>117.0</ele>
				<time>2021-02-24T08:58:29</time>
			</trkpt>
			<trkpt lat="48.77004995942116" lon="3.035629950463772">
				<ele>117.0</ele>
				<time>2021-02-24T08:58:35</time>
			</trkpt>
			<trkpt lat="48.76802992075682" lon="3.0386499501764774">
				<ele>117.0</ele>
				<time>2021-02-24T08:59:25</time>
			</trkpt>
			<trkpt lat="48.767809979617596" lon="3.0390899162739515">
				<ele>118.0</ele>
				<time>2021-02-24T08:59:31</time>
			</trkpt>
			<trkpt lat="48.767229951918125" lon="3.040959918871522">
				<ele>119.0</ele>
				<time>2021-02-24T08:59:55</time>
			</trkpt>
			<trkpt lat="48.76704999245703" lon="3.0413699615746737">
				<ele>121.0</ele>
				<time>2021-02-24T09:00:00</time>
			</trkpt>
			<trkpt lat="48.76689995639026" lon="3.0415799282491207">
				<ele>122.0</ele>
				<time>2021-02-24T09:00:04</time>
			</trkpt>
			<trkpt lat="48.76620995812118" lon="3.042149981483817">
				<ele>121.0</ele>
				<time>2021-02-24T09:00:18</time>
			</trkpt>
			<trkpt lat="48.7658999953419" lon="3.0423298571258783">
				<ele>121.0</ele>
				<time>2021-02-24T09:00:23</time>
			</trkpt>
			<trkpt lat="48.7658999953419" lon="3.04232994094491">
				<ele>121.0</ele>
				<time>2021-02-24T09:00:23</time>
			</trkpt>
			<trkpt lat="48.762749992311" lon="3.0446499679237604">
				<ele>124.0</ele>
				<time>2021-02-24T09:01:24</time>
			</trkpt>
			<trkpt lat="48.76104997470975" lon="3.045899961143732">
				<ele>121.0</ele>
				<time>2021-02-24T09:01:57</time>
			</trkpt>
			<trkpt lat="48.760459972545505" lon="3.0461999494582415">
				<ele>121.0</ele>
				<time>2021-02-24T09:02:08</time>
			</trkpt>
			<trkpt lat="48.75949999317527" lon="3.0464899633079767">
				<ele>121.0</ele>
				<time>2021-02-24T09:02:25</time>
			</trkpt>
			<trkpt lat="48.75923998653889" lon="3.0466799810528755">
				<ele>120.0</ele>
				<time>2021-02-24T09:02:30</time>
			</trkpt>
			<trkpt lat="48.75911995768547" lon="3.0468599405139685">
				<ele>118.0</ele>
				<time>2021-02-24T09:02:33</time>
			</trkpt>
			<trkpt lat="48.7589199654758" lon="3.0473399721086025">
				<ele>116.0</ele>
				<time>2021-02-24T09:02:40</time>
			</trkpt>
			<trkpt lat="48.758569937199354" lon="3.047859985381365">
				<ele>114.0</ele>
				<time>2021-02-24T09:02:48</time>
			</trkpt>
			<trkpt lat="48.75835997052491" lon="3.0492999963462353">
				<ele>112.0</ele>
				<time>2021-02-24T09:03:05</time>
			</trkpt>
			<trkpt lat="48.75830993056297" lon="3.04988999851048">
				<ele>112.0</ele>
				<time>2021-02-24T09:03:12</time>
			</trkpt>
			<trkpt lat="48.75831998884678" lon="3.0506699346005917">
				<ele>112.0</ele>
				<time>2021-02-24T09:03:21</time>
			</trkpt>
			<trkpt lat="48.75836994498968" lon="3.0511199589818716">
				<ele>111.0</ele>
				<time>2021-02-24T09:03:26</time>
			</trkpt>
			<trkpt lat="48.75862995162606" lon="3.0517099611461163">
				<ele>113.0</ele>
				<time>2021-02-24T09:03:34</time>
			</trkpt>
			<trkpt lat="48.75917997211218" lon="3.0540399625897408">
				<ele>115.0</ele>
				<time>2021-02-24T09:04:03</time>
			</trkpt>
			<trkpt lat="48.75986997038126" lon="3.0619399901479483">
				<ele>114.0</ele>
				<time>2021-02-24T09:05:34</time>
			</trkpt>
			<trkpt lat="48.75984993763268" lon="3.062749933451414">
				<ele>115.0</ele>
				<time>2021-02-24T09:05:43</time>
			</trkpt>
			<trkpt lat="48.759519942104816" lon="3.068459937348962">
				<ele>115.0</ele>
				<time>2021-02-24T09:06:49</time>
			</trkpt>
			<trkpt lat="48.75935993157327" lon="3.068959917873144">
				<ele>114.0</ele>
				<time>2021-02-24T09:06:55</time>
			</trkpt>
			<trkpt lat="48.75892993994057" lon="3.0695599783211946">
				<ele>114.0</ele>
				<time>2021-02-24T09:07:06</time>
			</trkpt>
			<trkpt lat="48.758679991588" lon="3.070119973272085">
				<ele>115.0</ele>
				<time>2021-02-24T09:07:13</time>
			</trkpt>
			<trkpt lat="48.75855996273458" lon="3.0705999210476875">
				<ele>116.0</ele>
				<time>2021-02-24T09:07:19</time>
			</trkpt>
			<trkpt lat="48.758529955521226" lon="3.071149941533804">
				<ele>115.0</ele>
				<time>2021-02-24T09:07:26</time>
			</trkpt>
			<trkpt lat="48.758549988269806" lon="3.0715199187397957">
				<ele>114.0</ele>
				<time>2021-02-24T09:07:30</time>
			</trkpt>
			<trkpt lat="48.75862995162606" lon="3.0719099286943674">
				<ele>115.0</ele>
				<time>2021-02-24T09:07:35</time>
			</trkpt>
			<trkpt lat="48.75885995104909" lon="3.072539996355772">
				<ele>117.0</ele>
				<time>2021-02-24T09:07:43</time>
			</trkpt>
			<trkpt lat="48.76153998076916" lon="3.0788899585604668">
				<ele>124.0</ele>
				<time>2021-02-24T09:09:09</time>
			</trkpt>
			<trkpt lat="48.7636099755764" lon="3.0838599242269993">
				<ele>123.0</ele>
				<time>2021-02-24T09:10:17</time>
			</trkpt>
			<trkpt lat="48.76367996446788" lon="3.0842299852520227">
				<ele>124.0</ele>
				<time>2021-02-24T09:10:21</time>
			</trkpt>
			<trkpt lat="48.763769986107945" lon="3.085389956831932">
				<ele>128.0</ele>
				<time>2021-02-24T09:10:35</time>
			</trkpt>
			<trkpt lat="48.76377996057272" lon="3.0865899939090014">
				<ele>128.0</ele>
				<time>2021-02-24T09:10:48</time>
			</trkpt>
			<trkpt lat="48.76324997283518" lon="3.0868399422615767">
				<ele>126.0</ele>
				<time>2021-02-24T09:10:58</time>
			</trkpt>
			<trkpt lat="48.76293992623687" lon="3.0874399188905954">
				<ele>125.0</ele>
				<time>2021-02-24T09:11:07</time>
			</trkpt>
			<trkpt lat="48.76283993013203" lon="3.087779972702265">
				<ele>125.0</ele>
				<time>2021-02-24T09:11:11</time>
			</trkpt>
			<trkpt lat="48.762779999524355" lon="3.0881499499082565">
				<ele>126.0</ele>
				<time>2021-02-24T09:11:15</time>
			</trkpt>
			<trkpt lat="48.7627999484539" lon="3.0894499830901623">
				<ele>129.0</ele>
				<time>2021-02-24T09:11:30</time>
			</trkpt>
			<trkpt lat="48.762779999524355" lon="3.08976992033422">
				<ele>129.0</ele>
				<time>2021-02-24T09:11:34</time>
			</trkpt>
			<trkpt lat="48.76268997788429" lon="3.0901899375021458">
				<ele>129.0</ele>
				<time>2021-02-24T09:11:39</time>
			</trkpt>
			<trkpt lat="48.761149970814586" lon="3.0938699282705784">
				<ele>136.0</ele>
				<time>2021-02-24T09:12:29</time>
			</trkpt>
			<trkpt lat="48.76093992032111" lon="3.1003799848258495">
				<ele>139.0</ele>
				<time>2021-02-24T09:13:44</time>
			</trkpt>
			<trkpt lat="48.76095995306969" lon="3.1010399758815765">
				<ele>137.0</ele>
				<time>2021-02-24T09:13:51</time>
			</trkpt>
			<trkpt lat="48.7610799819231" lon="3.101999955251813">
				<ele>138.0</ele>
				<time>2021-02-24T09:14:03</time>
			</trkpt>
			<trkpt lat="48.76152992248535" lon="3.1050799693912268">
				<ele>141.0</ele>
				<time>2021-02-24T09:14:39</time>
			</trkpt>
			<trkpt lat="48.76162991859019" lon="3.1054699793457985">
				<ele>141.0</ele>
				<time>2021-02-24T09:14:44</time>
			</trkpt>
			<trkpt lat="48.76233994960785" lon="3.107549948617816">
				<ele>144.0</ele>
				<time>2021-02-24T09:15:10</time>
			</trkpt>
			<trkpt lat="48.76239996403456" lon="3.1078699696809053">
				<ele>144.0</ele>
				<time>2021-02-24T09:15:14</time>
			</trkpt>
			<trkpt lat="48.76240993849933" lon="3.108229972422123">
				<ele>144.0</ele>
				<time>2021-02-24T09:15:18</time>
			</trkpt>
			<trkpt lat="48.762309942394495" lon="3.1094699911773205">
				<ele>145.0</ele>
				<time>2021-02-24T09:15:33</time>
			</trkpt>
			<trkpt lat="48.762199971824884" lon="3.110639937222004">
				<ele>147.0</ele>
				<time>2021-02-24T09:15:46</time>
			</trkpt>
			<trkpt lat="48.762009954079986" lon="3.111839974299073">
				<ele>146.0</ele>
				<time>2021-02-24T09:16:00</time>
			</trkpt>
			<trkpt lat="48.761899983510375" lon="3.1128299608826637">
				<ele>147.0</ele>
				<time>2021-02-24T09:16:12</time>
			</trkpt>
			<trkpt lat="48.76190995797515" lon="3.1138499546796083">
				<ele>148.0</ele>
				<time>2021-02-24T09:16:24</time>
			</trkpt>
			<trkpt lat="48.762179939076304" lon="3.115729931741953">
				<ele>149.0</ele>
				<time>2021-02-24T09:16:46</time>
			</trkpt>
			<trkpt lat="48.76221992075443" lon="3.1168199982494116">
				<ele>148.0</ele>
				<time>2021-02-24T09:16:58</time>
			</trkpt>
			<trkpt lat="48.762199971824884" lon="3.117519970983267">
				<ele>147.0</ele>
				<time>2021-02-24T09:17:06</time>
			</trkpt>
			<trkpt lat="48.7621299829334" lon="3.118209969252348">
				<ele>146.0</ele>
				<time>2021-02-24T09:17:14</time>
			</trkpt>
			<trkpt lat="48.76197994686663" lon="3.1191699486225843">
				<ele>146.0</ele>
				<time>2021-02-24T09:17:26</time>
			</trkpt>
			<trkpt lat="48.76188992522657" lon="3.1194899696856737">
				<ele>145.0</ele>
				<time>2021-02-24T09:17:30</time>
			</trkpt>
			<trkpt lat="48.762309942394495" lon="3.119779983535409">
				<ele>145.0</ele>
				<time>2021-02-24T09:17:38</time>
			</trkpt>
			<trkpt lat="48.76265997067094" lon="3.1200999207794666">
				<ele>146.0</ele>
				<time>2021-02-24T09:17:45</time>
			</trkpt>
			<trkpt lat="48.76349992118776" lon="3.1210599839687347">
				<ele>149.0</ele>
				<time>2021-02-24T09:18:03</time>
			</trkpt>
			<trkpt lat="48.76478997990489" lon="3.122609965503216">
				<ele>151.0</ele>
				<time>2021-02-24T09:18:32</time>
			</trkpt>
			<trkpt lat="48.765189964324236" lon="3.1229899171739817">
				<ele>149.0</ele>
				<time>2021-02-24T09:18:40</time>
			</trkpt>
			<trkpt lat="48.76862998120487" lon="3.1243399903178215">
				<ele>143.0</ele>
				<time>2021-02-24T09:19:42</time>
			</trkpt>
			<trkpt lat="48.770129922777414" lon="3.1247899308800697">
				<ele>146.0</ele>
				<time>2021-02-24T09:20:08</time>
			</trkpt>
			<trkpt lat="48.77729997038841" lon="3.1253799330443144">
				<ele>153.0</ele>
				<time>2021-02-24T09:22:13</time>
			</trkpt>
			<trkpt lat="48.78580994904041" lon="3.1242599431425333">
				<ele>142.0</ele>
				<time>2021-02-24T09:24:42</time>
			</trkpt>
			<trkpt lat="48.789269998669624" lon="3.1241099908947945">
				<ele>141.0</ele>
				<time>2021-02-24T09:25:42</time>
			</trkpt>
			<trkpt lat="48.789569986984134" lon="3.1240599509328604">
				<ele>142.0</ele>
				<time>2021-02-24T09:25:48</time>
			</trkpt>
			<trkpt lat="48.791399924084544" lon="3.1242799758911133">
				<ele>140.0</ele>
				<time>2021-02-24T09:26:19</time>
			</trkpt>
			<trkpt lat="48.794109961017966" lon="3.124389946460724">
				<ele>134.0</ele>
				<time>2021-02-24T09:27:07</time>
			</trkpt>
			<trkpt lat="48.79415991716087" lon="3.124819938093424">
				<ele>134.0</ele>
				<time>2021-02-24T09:27:12</time>
			</trkpt>
			<trkpt lat="48.794019939377904" lon="3.126189960166812">
				<ele>134.0</ele>
				<time>2021-02-24T09:27:28</time>
			</trkpt>
			<trkpt lat="48.79391994327307" lon="3.1267499551177025">
				<ele>134.0</ele>
				<time>2021-02-24T09:27:34</time>
			</trkpt>
			<trkpt lat="48.79380997270346" lon="3.1274299789220095">
				<ele>134.0</ele>
				<time>2021-02-24T09:27:42</time>
			</trkpt>
			<trkpt lat="48.79372992552817" lon="3.1284999288618565">
				<ele>134.0</ele>
				<time>2021-02-24T09:27:55</time>
			</trkpt>
			<trkpt lat="48.7937799654901" lon="3.128679972141981">
				<ele>134.0</ele>
				<time>2021-02-24T09:27:57</time>
			</trkpt>
			<trkpt lat="48.793959924951196" lon="3.1289699859917164">
				<ele>135.0</ele>
				<time>2021-02-24T09:28:01</time>
			</trkpt>
			<trkpt lat="48.793999990448356" lon="3.1292199343442917">
				<ele>134.0</ele>
				<time>2021-02-24T09:28:04</time>
			</trkpt>
			<trkpt lat="48.79333999939263" lon="3.132429951801896">
				<ele>143.0</ele>
				<time>2021-02-24T09:28:43</time>
			</trkpt>
			<trkpt lat="48.79307999275625" lon="3.136679995805025">
				<ele>140.0</ele>
				<time>2021-02-24T09:29:32</time>
			</trkpt>
			<trkpt lat="48.79308996722102" lon="3.1374299246817827">
				<ele>139.0</ele>
				<time>2021-02-24T09:29:40</time>
			</trkpt>
			<trkpt lat="48.79320999607444" lon="3.1378299929201603">
				<ele>137.0</ele>
				<time>2021-02-24T09:29:46</time>
			</trkpt>
			<trkpt lat="48.793659936636686" lon="3.1382899917662144">
				<ele>137.0</ele>
				<time>2021-02-24T09:29:55</time>
			</trkpt>
			<trkpt lat="48.79380997270346" lon="3.1386799179017544">
				<ele>137.0</ele>
				<time>2021-02-24T09:30:00</time>
			</trkpt>
			<trkpt lat="48.793829921633005" lon="3.1398799549788237">
				<ele>139.0</ele>
				<time>2021-02-24T09:30:14</time>
			</trkpt>
			<trkpt lat="48.793869987130165" lon="3.1401299871504307">
				<ele>139.0</ele>
				<time>2021-02-24T09:30:17</time>
			</trkpt>
			<trkpt lat="48.794260835275054" lon="3.141703438013792">
				<ele>141.99</ele>
				<time>2021-02-24T09:30:36</time>
			</trkpt>
			<trkpt lat="48.79425999708474" lon="3.14169991761446">
				<ele>142.0</ele>
				<time>2021-02-24T09:30:36</time>
			</trkpt>
			<trkpt lat="48.794409949332476" lon="3.142859973013401">
				<ele>142.0</ele>
				<time>2021-02-24T09:30:50</time>
			</trkpt>
			<trkpt lat="48.79464992322028" lon="3.1436399929225445">
				<ele>144.0</ele>
				<time>2021-02-24T09:31:00</time>
			</trkpt>
			<trkpt lat="48.79536992870271" lon="3.145479988306761">
				<ele>147.0</ele>
				<time>2021-02-24T09:31:24</time>
			</trkpt>
			<trkpt lat="48.79619998857379" lon="3.1467099487781525">
				<ele>150.0</ele>
				<time>2021-02-24T09:31:44</time>
			</trkpt>
			<trkpt lat="48.79637994803488" lon="3.147029969841242">
				<ele>151.0</ele>
				<time>2021-02-24T09:31:49</time>
			</trkpt>
			<trkpt lat="48.797759944573045" lon="3.149009943008423">
				<ele>151.0</ele>
				<time>2021-02-24T09:32:22</time>
			</trkpt>
			<trkpt lat="48.79847995005548" lon="3.1495999451726675">
				<ele>148.0</ele>
				<time>2021-02-24T09:32:36</time>
			</trkpt>
			<trkpt lat="48.79869997501373" lon="3.1499099917709827">
				<ele>148.0</ele>
				<time>2021-02-24T09:32:42</time>
			</trkpt>
			<trkpt lat="48.79901999607682" lon="3.1504799611866474">
				<ele>147.0</ele>
				<time>2021-02-24T09:32:50</time>
			</trkpt>
			<trkpt lat="48.8005599193275" lon="3.1516399327665567">
				<ele>146.0</ele>
				<time>2021-02-24T09:33:20</time>
			</trkpt>
			<trkpt lat="48.80105998367071" lon="3.1524799671024084">
				<ele>145.0</ele>
				<time>2021-02-24T09:33:33</time>
			</trkpt>
			<trkpt lat="48.80175995640457" lon="3.1533099431544542">
				<ele>144.0</ele>
				<time>2021-02-24T09:33:49</time>
			</trkpt>
			<trkpt lat="48.80188995972276" lon="3.1535699497908354">
				<ele>144.0</ele>
				<time>2021-02-24T09:33:52</time>
			</trkpt>
			<trkpt lat="48.80203999578953" lon="3.1538799963891506">
				<ele>145.0</ele>
				<time>2021-02-24T09:33:57</time>
			</trkpt>
			<trkpt lat="48.802849939092994" lon="3.156609982252121">
				<ele>142.0</ele>
				<time>2021-02-24T09:34:31</time>
			</trkpt>
			<trkpt lat="48.80294993519783" lon="3.156849956139922">
				<ele>142.0</ele>
				<time>2021-02-24T09:34:34</time>
			</trkpt>
			<trkpt lat="48.802959993481636" lon="3.1571699772030115">
				<ele>142.0</ele>
				<time>2021-02-24T09:34:38</time>
			</trkpt>
			<trkpt lat="48.80275991745293" lon="3.1579699460417032">
				<ele>142.0</ele>
				<time>2021-02-24T09:34:48</time>
			</trkpt>
			<trkpt lat="48.802529918029904" lon="3.159259920939803">
				<ele>140.0</ele>
				<time>2021-02-24T09:35:03</time>
			</trkpt>
			<trkpt lat="48.80236999131739" lon="3.160159969702363">
				<ele>137.0</ele>
				<time>2021-02-24T09:35:14</time>
			</trkpt>
			<trkpt lat="48.80229991860688" lon="3.16079992800951">
				<ele>136.0</ele>
				<time>2021-02-24T09:35:21</time>
			</trkpt>
			<trkpt lat="48.802399998530746" lon="3.1617999728769064">
				<ele>137.0</ele>
				<time>2021-02-24T09:35:33</time>
			</trkpt>
			<trkpt lat="48.802829990163445" lon="3.1638399604707956">
				<ele>136.0</ele>
				<time>2021-02-24T09:35:57</time>
			</trkpt>
			<trkpt lat="48.80373992957175" lon="3.1662699580192566">
				<ele>136.0</ele>
				<time>2021-02-24T09:36:29</time>
			</trkpt>
			<trkpt lat="48.80388996563852" lon="3.166589979082346">
				<ele>137.0</ele>
				<time>2021-02-24T09:36:34</time>
			</trkpt>
			<trkpt lat="48.80408995784819" lon="3.166759964078665">
				<ele>137.0</ele>
				<time>2021-02-24T09:36:38</time>
			</trkpt>
			<trkpt lat="48.80429992452264" lon="3.166849985718727">
				<ele>138.0</ele>
				<time>2021-02-24T09:36:42</time>
			</trkpt>
			<trkpt lat="48.80461994558573" lon="3.1667799968272448">
				<ele>138.0</ele>
				<time>2021-02-24T09:36:47</time>
			</trkpt>
			<trkpt lat="48.80530994385481" lon="3.166309939697385">
				<ele>135.0</ele>
				<time>2021-02-24T09:37:01</time>
			</trkpt>
			<trkpt lat="48.80551999434829" lon="3.1662799324840307">
				<ele>135.0</ele>
				<time>2021-02-24T09:37:04</time>
			</trkpt>
			<trkpt lat="48.80565997213125" lon="3.166349921375513">
				<ele>135.0</ele>
				<time>2021-02-24T09:37:07</time>
			</trkpt>
			<trkpt lat="48.806139919906855" lon="3.166799945756793">
				<ele>133.0</ele>
				<time>2021-02-24T09:37:17</time>
			</trkpt>
			<trkpt lat="48.80649992264807" lon="3.1670499779284">
				<ele>131.0</ele>
				<time>2021-02-24T09:37:23</time>
			</trkpt>
			<trkpt lat="48.80766995251179" lon="3.166799945756793">
				<ele>126.0</ele>
				<time>2021-02-24T09:37:44</time>
			</trkpt>
			<trkpt lat="48.80792995914817" lon="3.166799945756793">
				<ele>126.0</ele>
				<time>2021-02-24T09:37:49</time>
			</trkpt>
			<trkpt lat="48.80857997573912" lon="3.167279977351427">
				<ele>123.0</ele>
				<time>2021-02-24T09:38:01</time>
			</trkpt>
			<trkpt lat="48.80897996015847" lon="3.1673799734562635">
				<ele>120.0</ele>
				<time>2021-02-24T09:38:08</time>
			</trkpt>
			<trkpt lat="48.809789987280965" lon="3.1682799383997917">
				<ele>119.0</ele>
				<time>2021-02-24T09:38:26</time>
			</trkpt>
			<trkpt lat="48.810459952801466" lon="3.1684399489313364">
				<ele>116.0</ele>
				<time>2021-02-24T09:38:37</time>
			</trkpt>
			<trkpt lat="48.81091995164752" lon="3.1684099417179823">
				<ele>114.0</ele>
				<time>2021-02-24T09:38:45</time>
			</trkpt>
			<trkpt lat="48.811829974874854" lon="3.1677899323403835">
				<ele>108.0</ele>
				<time>2021-02-24T09:39:03</time>
			</trkpt>
			<trkpt lat="48.812329955399036" lon="3.1675699912011623">
				<ele>108.0</ele>
				<time>2021-02-24T09:39:12</time>
			</trkpt>
			<trkpt lat="48.81276992149651" lon="3.1675599329173565">
				<ele>106.0</ele>
				<time>2021-02-24T09:39:20</time>
			</trkpt>
			<trkpt lat="48.81447999738157" lon="3.1677899323403835">
				<ele>98.0</ele>
				<time>2021-02-24T09:39:49</time>
			</trkpt>
			<trkpt lat="48.81472994573414" lon="3.1677499506622553">
				<ele>97.0</ele>
				<time>2021-02-24T09:39:54</time>
			</trkpt>
			<trkpt lat="48.81495994515717" lon="3.1680199317634106">
				<ele>95.0</ele>
				<time>2021-02-24T09:39:59</time>
			</trkpt>
			<trkpt lat="48.81507997401059" lon="3.168349927291274">
				<ele>93.0</ele>
				<time>2021-02-24T09:40:03</time>
			</trkpt>
			<trkpt lat="48.81505994126201" lon="3.1704499293118715">
				<ele>87.0</ele>
				<time>2021-02-24T09:40:27</time>
			</trkpt>
			<trkpt lat="48.81506999954581" lon="3.170829964801669">
				<ele>83.0</ele>
				<time>2021-02-24T09:40:32</time>
			</trkpt>
			<trkpt lat="48.81514996290207" lon="3.171079996973276">
				<ele>82.0</ele>
				<time>2021-02-24T09:40:35</time>
			</trkpt>
			<trkpt lat="48.815309973433614" lon="3.1713199708610773">
				<ele>82.0</ele>
				<time>2021-02-24T09:40:39</time>
			</trkpt>
			<trkpt lat="48.81558992899954" lon="3.1715999264270067">
				<ele>79.0</ele>
				<time>2021-02-24T09:40:45</time>
			</trkpt>
			<trkpt lat="48.81636994890869" lon="3.171719955280423">
				<ele>78.0</ele>
				<time>2021-02-24T09:40:58</time>
			</trkpt>
			<trkpt lat="48.816599948331714" lon="3.1718399841338396">
				<ele>78.0</ele>
				<time>2021-02-24T09:41:02</time>
			</trkpt>
			<trkpt lat="48.816709918901324" lon="3.1720799580216408">
				<ele>79.0</ele>
				<time>2021-02-24T09:41:06</time>
			</trkpt>
			<trkpt lat="48.81679994054139" lon="3.1729599740356207">
				<ele>82.0</ele>
				<time>2021-02-24T09:41:16</time>
			</trkpt>
			<trkpt lat="48.8160599861294" lon="3.174199992790818">
				<ele>82.0</ele>
				<time>2021-02-24T09:41:35</time>
			</trkpt>
			<trkpt lat="48.815419944003224" lon="3.1749599799513817">
				<ele>83.0</ele>
				<time>2021-02-24T09:41:49</time>
			</trkpt>
			<trkpt lat="48.81196995265782" lon="3.17862999625504">
				<ele>84.0</ele>
				<time>2021-02-24T09:43:03</time>
			</trkpt>
			<trkpt lat="48.811749927699566" lon="3.178969966247678">
				<ele>84.0</ele>
				<time>2021-02-24T09:43:08</time>
			</trkpt>
			<trkpt lat="48.81151992827654" lon="3.17948997952044">
				<ele>85.0</ele>
				<time>2021-02-24T09:43:15</time>
			</trkpt>
			<trkpt lat="48.8113699760288" lon="3.1801999267190695">
				<ele>87.0</ele>
				<time>2021-02-24T09:43:24</time>
			</trkpt>
			<trkpt lat="48.81128992885351" lon="3.1809399649500847">
				<ele>90.0</ele>
				<time>2021-02-24T09:43:32</time>
			</trkpt>
			<trkpt lat="48.812469933182" lon="3.181609930470586">
				<ele>99.0</ele>
				<time>2021-02-24T09:43:54</time>
			</trkpt>
			<trkpt lat="48.81274997256696" lon="3.1820299476385117">
				<ele>99.0</ele>
				<time>2021-02-24T09:44:01</time>
			</trkpt>
			<trkpt lat="48.813119949772954" lon="3.182269921526313">
				<ele>101.0</ele>
				<time>2021-02-24T09:44:08</time>
			</trkpt>
			<trkpt lat="48.81398999132216" lon="3.182759927585721">
				<ele>106.0</ele>
				<time>2021-02-24T09:44:24</time>
			</trkpt>
			<trkpt lat="48.81430992856622" lon="3.1828599236905575">
				<ele>107.0</ele>
				<time>2021-02-24T09:44:30</time>
			</trkpt>
			<trkpt lat="48.81452995352447" lon="3.1828499492257833">
				<ele>108.0</ele>
				<time>2021-02-24T09:44:34</time>
			</trkpt>
			<trkpt lat="48.81531994789839" lon="3.1826199498027563">
				<ele>112.0</ele>
				<time>2021-02-24T09:44:48</time>
			</trkpt>
			<trkpt lat="48.81563996896148" lon="3.1826499570161104">
				<ele>115.0</ele>
				<time>2021-02-24T09:44:53</time>
			</trkpt>
			<trkpt lat="48.81588991731405" lon="3.182749953120947">
				<ele>117.0</ele>
				<time>2021-02-24T09:44:58</time>
			</trkpt>
			<trkpt lat="48.82019997574389" lon="3.1861699372529984">
				<ele>127.0</ele>
				<time>2021-02-24T09:46:23</time>
			</trkpt>
			<trkpt lat="48.821669993922114" lon="3.1880499981343746">
				<ele>133.0</ele>
				<time>2021-02-24T09:46:56</time>
			</trkpt>
			<trkpt lat="48.822079952806234" lon="3.188579985871911">
				<ele>133.0</ele>
				<time>2021-02-24T09:47:05</time>
			</trkpt>
			<trkpt lat="48.82242998108268" lon="3.1888299342244864">
				<ele>133.0</ele>
				<time>2021-02-24T09:47:12</time>
			</trkpt>
			<trkpt lat="48.82290992885828" lon="3.1893499474972486">
				<ele>132.0</ele>
				<time>2021-02-24T09:47:22</time>
			</trkpt>
			<trkpt lat="48.82360998541117" lon="3.189889993518591">
				<ele>131.0</ele>
				<time>2021-02-24T09:47:36</time>
			</trkpt>
			<trkpt lat="48.824639953672886" lon="3.190529951825738">
				<ele>129.0</ele>
				<time>2021-02-24T09:47:55</time>
			</trkpt>
			<trkpt lat="48.82483994588256" lon="3.190739918500185">
				<ele>130.0</ele>
				<time>2021-02-24T09:48:00</time>
			</trkpt>
			<trkpt lat="48.82515996694565" lon="3.191239982843399">
				<ele>127.0</ele>
				<time>2021-02-24T09:48:08</time>
			</trkpt>
			<trkpt lat="48.82528997026384" lon="3.191419942304492">
				<ele>126.0</ele>
				<time>2021-02-24T09:48:11</time>
			</trkpt>
			<trkpt lat="48.825559951364994" lon="3.191649941727519">
				<ele>125.0</ele>
				<time>2021-02-24T09:48:16</time>
			</trkpt>
			<trkpt lat="48.82578995078802" lon="3.1917499378323555">
				<ele>125.0</ele>
				<time>2021-02-24T09:48:20</time>
			</trkpt>
			<trkpt lat="48.82601995021105" lon="3.1917299889028072">
				<ele>126.0</ele>
				<time>2021-02-24T09:48:24</time>
			</trkpt>
			<trkpt lat="48.82617996074259" lon="3.191659916192293">
				<ele>128.0</ele>
				<time>2021-02-24T09:48:27</time>
			</trkpt>
			<trkpt lat="48.826959980651736" lon="3.1910699978470802">
				<ele>128.0</ele>
				<time>2021-02-24T09:48:42</time>
			</trkpt>
			<trkpt lat="48.82767998613417" lon="3.1906199734658003">
				<ele>127.0</ele>
				<time>2021-02-24T09:48:56</time>
			</trkpt>
			<trkpt lat="48.82789992727339" lon="3.1903999485075474">
				<ele>128.0</ele>
				<time>2021-02-24T09:49:00</time>
			</trkpt>
			<trkpt lat="48.82807997055352" lon="3.190079927444458">
				<ele>131.0</ele>
				<time>2021-02-24T09:49:05</time>
			</trkpt>
			<trkpt lat="48.82820997387171" lon="3.1899799313396215">
				<ele>131.0</ele>
				<time>2021-02-24T09:49:08</time>
			</trkpt>
			<trkpt lat="48.82831994444132" lon="3.1899599824100733">
				<ele>131.0</ele>
				<time>2021-02-24T09:49:10</time>
			</trkpt>
			<trkpt lat="48.829019917175174" lon="3.190119992941618">
				<ele>130.0</ele>
				<time>2021-02-24T09:49:22</time>
			</trkpt>
			<trkpt lat="48.82951998151839" lon="3.190329959616065">
				<ele>127.0</ele>
				<time>2021-02-24T09:49:31</time>
			</trkpt>
			<trkpt lat="48.82979993708432" lon="3.190509919077158">
				<ele>126.0</ele>
				<time>2021-02-24T09:49:36</time>
			</trkpt>
			<trkpt lat="48.83003999479115" lon="3.190759951248765">
				<ele>127.0</ele>
				<time>2021-02-24T09:49:41</time>
			</trkpt>
			<trkpt lat="48.83020997978747" lon="3.191009983420372">
				<ele>127.0</ele>
				<time>2021-02-24T09:49:46</time>
			</trkpt>
			<trkpt lat="48.830419946461916" lon="3.1912899389863014">
				<ele>128.0</ele>
				<time>2021-02-24T09:49:50</time>
			</trkpt>
			<trkpt lat="48.83057995699346" lon="3.1916299927979708">
				<ele>128.0</ele>
				<time>2021-02-24T09:49:55</time>
			</trkpt>
			<trkpt lat="48.831189991906285" lon="3.1921799294650555">
				<ele>129.0</ele>
				<time>2021-02-24T09:50:08</time>
			</trkpt>
			<trkpt lat="48.83156994357705" lon="3.1926099210977554">
				<ele>131.0</ele>
				<time>2021-02-24T09:50:16</time>
			</trkpt>
			<trkpt lat="48.83209993131459" lon="3.1927199754863977">
				<ele>130.0</ele>
				<time>2021-02-24T09:50:25</time>
			</trkpt>
			<trkpt lat="48.8323999196291" lon="3.193009989336133">
				<ele>129.0</ele>
				<time>2021-02-24T09:50:31</time>
			</trkpt>
			<trkpt lat="48.833229979500175" lon="3.1933499593287706">
				<ele>128.0</ele>
				<time>2021-02-24T09:50:46</time>
			</trkpt>
			<trkpt lat="48.833469953387976" lon="3.1933499593287706">
				<ele>128.0</ele>
				<time>2021-02-24T09:50:50</time>
			</trkpt>
			<trkpt lat="48.83377999998629" lon="3.193269995972514">
				<ele>128.0</ele>
				<time>2021-02-24T09:50:56</time>
			</trkpt>
			<trkpt lat="48.834539987146854" lon="3.1928999349474907">
				<ele>130.0</ele>
				<time>2021-02-24T09:51:10</time>
			</trkpt>
			<trkpt lat="48.83467996492982" lon="3.192729949951172">
				<ele>131.0</ele>
				<time>2021-02-24T09:51:13</time>
			</trkpt>
			<trkpt lat="48.83486998267472" lon="3.192319991067052">
				<ele>132.0</ele>
				<time>2021-02-24T09:51:19</time>
			</trkpt>
			<trkpt lat="48.83501993492246" lon="3.192119998857379">
				<ele>133.0</ele>
				<time>2021-02-24T09:51:22</time>
			</trkpt>
			<trkpt lat="48.83527994155884" lon="3.192069958895445">
				<ele>134.0</ele>
				<time>2021-02-24T09:51:27</time>
			</trkpt>
			<trkpt lat="48.836219971999526" lon="3.1922399438917637">
				<ele>137.0</ele>
				<time>2021-02-24T09:51:43</time>
			</trkpt>
			<trkpt lat="48.837059922516346" lon="3.1922099366784096">
				<ele>136.0</ele>
				<time>2021-02-24T09:51:58</time>
			</trkpt>
			<trkpt lat="48.837119936943054" lon="3.1922399438917637">
				<ele>136.0</ele>
				<time>2021-02-24T09:51:59</time>
			</trkpt>
			<trkpt lat="48.83720995858312" lon="3.1923899799585342">
				<ele>136.0</ele>
				<time>2021-02-24T09:52:01</time>
			</trkpt>
			<trkpt lat="48.83736996911466" lon="3.1929199676960707">
				<ele>136.0</ele>
				<time>2021-02-24T09:52:08</time>
			</trkpt>
			<trkpt lat="48.837509946897626" lon="3.1930499710142612">
				<ele>137.0</ele>
				<time>2021-02-24T09:52:11</time>
			</trkpt>
			<trkpt lat="48.83788998238742" lon="3.192309932783246">
				<ele>140.0</ele>
				<time>2021-02-24T09:52:22</time>
			</trkpt>
			<trkpt lat="48.838689951226115" lon="3.1915699783712626">
				<ele>143.0</ele>
				<time>2021-02-24T09:52:38</time>
			</trkpt>
			<trkpt lat="48.83947994560003" lon="3.1910599395632744">
				<ele>144.0</ele>
				<time>2021-02-24T09:52:53</time>
			</trkpt>
			<trkpt lat="48.83995997719467" lon="3.1906499806791544">
				<ele>146.0</ele>
				<time>2021-02-24T09:53:02</time>
			</trkpt>
			<trkpt lat="48.84124995209277" lon="3.1895299907773733">
				<ele>151.0</ele>
				<time>2021-02-24T09:53:28</time>
			</trkpt>
			<trkpt lat="48.843459924682975" lon="3.1880199909210205">
				<ele>156.0</ele>
				<time>2021-02-24T09:54:10</time>
			</trkpt>
			<trkpt lat="48.84470991790295" lon="3.1868799682706594">
				<ele>155.0</ele>
				<time>2021-02-24T09:54:36</time>
			</trkpt>
			<trkpt lat="48.846359979361296" lon="3.1855399534106255">
				<ele>158.0</ele>
				<time>2021-02-24T09:55:08</time>
			</trkpt>
			<trkpt lat="48.847539983689785" lon="3.184339916333556">
				<ele>159.0</ele>
				<time>2021-02-24T09:55:33</time>
			</trkpt>
			<trkpt lat="48.848809925839305" lon="3.1832799408584833">
				<ele>159.0</ele>
				<time>2021-02-24T09:55:58</time>
			</trkpt>
			<trkpt lat="48.84892995469272" lon="3.1831599958240986">
				<ele>159.0</ele>
				<time>2021-02-24T09:56:01</time>
			</trkpt>
			<trkpt lat="48.84932993911207" lon="3.1825099792331457">
				<ele>159.0</ele>
				<time>2021-02-24T09:56:11</time>
			</trkpt>
			<trkpt lat="48.84947997517884" lon="3.1821099948138">
				<ele>159.0</ele>
				<time>2021-02-24T09:56:16</time>
			</trkpt>
			<trkpt lat="48.849579971283674" lon="3.1815699487924576">
				<ele>160.0</ele>
				<time>2021-02-24T09:56:23</time>
			</trkpt>
			<trkpt lat="48.84963998571038" lon="3.1809099577367306">
				<ele>158.0</ele>
				<time>2021-02-24T09:56:30</time>
			</trkpt>
			<trkpt lat="48.84972992353141" lon="3.180589936673641">
				<ele>158.0</ele>
				<time>2021-02-24T09:56:34</time>
			</trkpt>
			<trkpt lat="48.84984995238483" lon="3.18034996278584">
				<ele>159.0</ele>
				<time>2021-02-24T09:56:38</time>
			</trkpt>
			<trkpt lat="48.85093993507326" lon="3.179249921813607">
				<ele>157.0</ele>
				<time>2021-02-24T09:57:00</time>
			</trkpt>
			<trkpt lat="48.85046996176243" lon="3.178529916331172">
				<ele>158.0</ele>
				<time>2021-02-24T09:57:12</time>
			</trkpt>
			<trkpt lat="48.84990996681154" lon="3.177949972450733">
				<ele>157.0</ele>
				<time>2021-02-24T09:57:24</time>
			</trkpt>
			<trkpt lat="48.84857992641628" lon="3.176059937104583">
				<ele>162.0</ele>
				<time>2021-02-24T09:57:56</time>
			</trkpt>
			<trkpt lat="48.84776998311281" lon="3.1751299649477005">
				<ele>160.0</ele>
				<time>2021-02-24T09:58:13</time>
			</trkpt>
			<trkpt lat="48.84765992872417" lon="3.174779936671257">
				<ele>159.0</ele>
				<time>2021-02-24T09:58:18</time>
			</trkpt>
			<trkpt lat="48.84765992872417" lon="3.1740799639374018">
				<ele>160.0</ele>
				<time>2021-02-24T09:58:26</time>
			</trkpt>
			<trkpt lat="48.84778993204236" lon="3.1738099828362465">
				<ele>161.0</ele>
				<time>2021-02-24T09:58:30</time>
			</trkpt>
			<trkpt lat="48.8483199197799" lon="3.173009930178523">
				<ele>160.0</ele>
				<time>2021-02-24T09:58:43</time>
			</trkpt>
			<trkpt lat="48.84843994863331" lon="3.172769956290722">
				<ele>160.0</ele>
				<time>2021-02-24T09:58:46</time>
			</trkpt>
			<trkpt lat="48.849069932475686" lon="3.171239923685789">
				<ele>158.0</ele>
				<time>2021-02-24T09:59:07</time>
			</trkpt>
			<trkpt lat="48.849109997972846" lon="3.1709299609065056">
				<ele>158.0</ele>
				<time>2021-02-24T09:59:10</time>
			</trkpt>
			<trkpt lat="48.84883993305266" lon="3.1698399782180786">
				<ele>158.0</ele>
				<time>2021-02-24T09:59:24</time>
			</trkpt>
			<trkpt lat="48.848419999703765" lon="3.168399967253208">
				<ele>156.0</ele>
				<time>2021-02-24T09:59:42</time>
			</trkpt>
			<trkpt lat="48.84833995252848" lon="3.1676399800926447">
				<ele>156.0</ele>
				<time>2021-02-24T09:59:50</time>
			</trkpt>
			<trkpt lat="48.84834992699325" lon="3.166759964078665">
				<ele>154.0</ele>
				<time>2021-02-24T10:00:01</time>
			</trkpt>
			<trkpt lat="48.8483199197799" lon="3.166379928588867">
				<ele>153.0</ele>
				<time>2021-02-24T10:00:05</time>
			</trkpt>
			<trkpt lat="48.846836322918534" lon="3.1595033314079046">
				<ele>146.0</ele>
				<time>2021-02-24T10:01:28</time>
			</trkpt>
			<trkpt lat="48.8468399271369" lon="3.1595199275761843">
				<ele>146.0</ele>
				<time>2021-02-24T10:01:28</time>
			</trkpt>
			<trkpt lat="48.84643994271755" lon="3.158189970999956">
				<ele>143.0</ele>
				<time>2021-02-24T10:01:45</time>
			</trkpt>
			<trkpt lat="48.846399961039424" lon="3.157919989898801">
				<ele>142.0</ele>
				<time>2021-02-24T10:01:48</time>
			</trkpt>
			<trkpt lat="48.84645997546613" lon="3.157079955562949">
				<ele>142.0</ele>
				<time>2021-02-24T10:01:58</time>
			</trkpt>
			<trkpt lat="48.84658997878432" lon="3.1514099333435297">
				<ele>134.0</ele>
				<time>2021-02-24T10:03:03</time>
			</trkpt>
			<trkpt lat="48.84657992050052" lon="3.1503199506551027">
				<ele>134.0</ele>
				<time>2021-02-24T10:03:15</time>
			</trkpt>
			<trkpt lat="48.84662996046245" lon="3.1500799767673016">
				<ele>134.0</ele>
				<time>2021-02-24T10:03:18</time>
			</trkpt>
			<trkpt lat="48.84752992540598" lon="3.1487599946558475">
				<ele>130.0</ele>
				<time>2021-02-24T10:03:40</time>
			</trkpt>
			<trkpt lat="48.84978993795812" lon="3.1455399189144373">
				<ele>120.0</ele>
				<time>2021-02-24T10:04:34</time>
			</trkpt>
			<trkpt lat="48.84982991963625" lon="3.145289970561862">
				<ele>121.0</ele>
				<time>2021-02-24T10:04:37</time>
			</trkpt>
			<trkpt lat="48.85019998066127" lon="3.1442199368029833">
				<ele>124.0</ele>
				<time>2021-02-24T10:04:50</time>
			</trkpt>
			<trkpt lat="48.850329983979464" lon="3.1440599262714386">
				<ele>125.0</ele>
				<time>2021-02-24T10:04:53</time>
			</trkpt>
			<trkpt lat="48.85035999119282" lon="3.143259957432747">
				<ele>127.0</ele>
				<time>2021-02-24T10:05:03</time>
			</trkpt>
			<trkpt lat="48.85059996508062" lon="3.141229944303632">
				<ele>125.0</ele>
				<time>2021-02-24T10:05:26</time>
			</trkpt>
			<trkpt lat="48.85074991732836" lon="3.14040994271636">
				<ele>127.0</ele>
				<time>2021-02-24T10:05:36</time>
			</trkpt>
			<trkpt lat="48.85093993507326" lon="3.1398799549788237">
				<ele>129.0</ele>
				<time>2021-02-24T10:05:43</time>
			</trkpt>
			<trkpt lat="48.850699961185455" lon="3.1382499262690544">
				<ele>129.0</ele>
				<time>2021-02-24T10:06:02</time>
			</trkpt>
			<trkpt lat="48.850459987297654" lon="3.1378099601715803">
				<ele>129.0</ele>
				<time>2021-02-24T10:06:08</time>
			</trkpt>
			<trkpt lat="48.850379940122366" lon="3.137489939108491">
				<ele>130.0</ele>
				<time>2021-02-24T10:06:12</time>
			</trkpt>
			<trkpt lat="48.850419921800494" lon="3.1365199852734804">
				<ele>133.0</ele>
				<time>2021-02-24T10:06:24</time>
			</trkpt>
			<trkpt lat="48.850399972870946" lon="3.136399956420064">
				<ele>133.0</ele>
				<time>2021-02-24T10:06:25</time>
			</trkpt>
			<trkpt lat="48.850269969552755" lon="3.136209938675165">
				<ele>133.0</ele>
				<time>2021-02-24T10:06:28</time>
			</trkpt>
			<trkpt lat="48.849899992346764" lon="3.135889917612076">
				<ele>134.0</ele>
				<time>2021-02-24T10:06:35</time>
			</trkpt>
			<trkpt lat="48.849579971283674" lon="3.1353999953716993">
				<ele>135.0</ele>
				<time>2021-02-24T10:06:43</time>
			</trkpt>
			<trkpt lat="48.84919993579388" lon="3.1349999271333218">
				<ele>136.0</ele>
				<time>2021-02-24T10:06:51</time>
			</trkpt>
			<trkpt lat="48.84903992526233" lon="3.134879982098937">
				<ele>137.0</ele>
				<time>2021-02-24T10:06:55</time>
			</trkpt>
			<trkpt lat="48.848189916461706" lon="3.1345399282872677">
				<ele>137.0</ele>
				<time>2021-02-24T10:07:10</time>
			</trkpt>
			<trkpt lat="48.84780996479094" lon="3.1342699471861124">
				<ele>135.0</ele>
				<time>2021-02-24T10:07:17</time>
			</trkpt>
			<trkpt lat="48.84747996926308" lon="3.1338999699801207">
				<ele>134.0</ele>
				<time>2021-02-24T10:07:24</time>
			</trkpt>
			<trkpt lat="48.84711996652186" lon="3.1333499494940042">
				<ele>134.0</ele>
				<time>2021-02-24T10:07:33</time>
			</trkpt>
			<trkpt lat="48.84696993045509" lon="3.1330399867147207">
				<ele>135.0</ele>
				<time>2021-02-24T10:07:38</time>
			</trkpt>
			<trkpt lat="48.84611992165446" lon="3.130829930305481">
				<ele>136.0</ele>
				<time>2021-02-24T10:08:07</time>
			</trkpt>
			<trkpt lat="48.84574994444847" lon="3.1300999503582716">
				<ele>138.0</ele>
				<time>2021-02-24T10:08:17</time>
			</trkpt>
			<trkpt lat="48.84542992338538" lon="3.1294599920511246">
				<ele>138.0</ele>
				<time>2021-02-24T10:08:27</time>
			</trkpt>
			<trkpt lat="48.84488996118307" lon="3.1280499882996082">
				<ele>138.0</ele>
				<time>2021-02-24T10:08:45</time>
			</trkpt>
			<trkpt lat="48.8447399251163" lon="3.1276199966669083">
				<ele>139.0</ele>
				<time>2021-02-24T10:08:51</time>
			</trkpt>
			<trkpt lat="48.84469994343817" lon="3.127289917320013">
				<ele>139.0</ele>
				<time>2021-02-24T10:08:55</time>
			</trkpt>
			<trkpt lat="48.8447399251163" lon="3.1267399806529284">
				<ele>140.0</ele>
				<time>2021-02-24T10:09:01</time>
			</trkpt>
			<trkpt lat="48.844789965078235" lon="3.1265799701213837">
				<ele>140.0</ele>
				<time>2021-02-24T10:09:03</time>
			</trkpt>
			<trkpt lat="48.84533998556435" lon="3.125339951366186">
				<ele>140.0</ele>
				<time>2021-02-24T10:09:20</time>
			</trkpt>
			<trkpt lat="48.84541994892061" lon="3.124619945883751">
				<ele>142.0</ele>
				<time>2021-02-24T10:09:29</time>
			</trkpt>
			<trkpt lat="48.84548993781209" lon="3.1243099831044674">
				<ele>142.0</ele>
				<time>2021-02-24T10:09:32</time>
			</trkpt>
			<trkpt lat="48.84469994343817" lon="3.1220999266952276">
				<ele>139.0</ele>
				<time>2021-02-24T10:10:01</time>
			</trkpt>
			<trkpt lat="48.84442996233702" lon="3.121159980073571">
				<ele>137.0</ele>
				<time>2021-02-24T10:10:13</time>
			</trkpt>
			<trkpt lat="48.8444499950856" lon="3.1209799367934465">
				<ele>137.0</ele>
				<time>2021-02-24T10:10:15</time>
			</trkpt>
			<trkpt lat="48.84453993290663" lon="3.1207399629056454">
				<ele>137.0</ele>
				<time>2021-02-24T10:10:18</time>
			</trkpt>
			<trkpt lat="48.84475995786488" lon="3.120499989017844">
				<ele>137.0</ele>
				<time>2021-02-24T10:10:23</time>
			</trkpt>
			<trkpt lat="48.84493991732597" lon="3.120179967954755">
				<ele>137.0</ele>
				<time>2021-02-24T10:10:28</time>
			</trkpt>
			<trkpt lat="48.845089953392744" lon="3.119559958577156">
				<ele>135.0</ele>
				<time>2021-02-24T10:10:35</time>
			</trkpt>
			<trkpt lat="48.845069920644164" lon="3.119049919769168">
				<ele>135.0</ele>
				<time>2021-02-24T10:10:41</time>
			</trkpt>
			<trkpt lat="48.84481997229159" lon="3.1179399881511927">
				<ele>133.0</ele>
				<time>2021-02-24T10:10:55</time>
			</trkpt>
			<trkpt lat="48.844679994508624" lon="3.1170599721372128">
				<ele>131.0</ele>
				<time>2021-02-24T10:11:05</time>
			</trkpt>
			<trkpt lat="48.84450992569327" lon="3.115499932318926">
				<ele>129.0</ele>
				<time>2021-02-24T10:11:23</time>
			</trkpt>
			<trkpt lat="48.844469944015145" lon="3.1147999595850706">
				<ele>126.0</ele>
				<time>2021-02-24T10:11:31</time>
			</trkpt>
			<trkpt lat="48.84447991847992" lon="3.1143499352037907">
				<ele>126.0</ele>
				<time>2021-02-24T10:11:36</time>
			</trkpt>
			<trkpt lat="48.84477999061346" lon="3.112629968672991">
				<ele>127.0</ele>
				<time>2021-02-24T10:11:57</time>
			</trkpt>
			<trkpt lat="48.84501996450126" lon="3.111099936068058">
				<ele>131.0</ele>
				<time>2021-02-24T10:12:15</time>
			</trkpt>
			<trkpt lat="48.845199923962355" lon="3.1105999555438757">
				<ele>132.0</ele>
				<time>2021-02-24T10:12:21</time>
			</trkpt>
			<trkpt lat="48.845539977774024" lon="3.1100899167358875">
				<ele>132.0</ele>
				<time>2021-02-24T10:12:29</time>
			</trkpt>
			<trkpt lat="48.84568993002176" lon="3.1096599251031876">
				<ele>135.0</ele>
				<time>2021-02-24T10:12:35</time>
			</trkpt>
			<trkpt lat="48.84568993002176" lon="3.109089955687523">
				<ele>136.0</ele>
				<time>2021-02-24T10:12:42</time>
			</trkpt>
			<trkpt lat="48.84561994113028" lon="3.108219997957349">
				<ele>134.0</ele>
				<time>2021-02-24T10:12:52</time>
			</trkpt>
			<trkpt lat="48.84550997056067" lon="3.1075299996882677">
				<ele>135.0</ele>
				<time>2021-02-24T10:13:00</time>
			</trkpt>
			<trkpt lat="48.845029938966036" lon="3.106679990887642">
				<ele>135.0</ele>
				<time>2021-02-24T10:13:13</time>
			</trkpt>
			<trkpt lat="48.84495995007455" lon="3.1064199842512608">
				<ele>135.0</ele>
				<time>2021-02-24T10:13:16</time>
			</trkpt>
			<trkpt lat="48.844789965078235" lon="3.104449985548854">
				<ele>137.0</ele>
				<time>2021-02-24T10:13:39</time>
			</trkpt>
			<trkpt lat="48.844809997826815" lon="3.1034699734300375">
				<ele>138.0</ele>
				<time>2021-02-24T10:13:50</time>
			</trkpt>
			<trkpt lat="48.84477999061346" lon="3.1030699890106916">
				<ele>138.0</ele>
				<time>2021-02-24T10:13:54</time>
			</trkpt>
			<trkpt lat="48.844639929011464" lon="3.102689953520894">
				<ele>138.0</ele>
				<time>2021-02-24T10:13:59</time>
			</trkpt>
			<trkpt lat="48.844169955700636" lon="3.1020899768918753">
				<ele>135.0</ele>
				<time>2021-02-24T10:14:10</time>
			</trkpt>
			<trkpt lat="48.84404992684722" lon="3.101829970255494">
				<ele>135.0</ele>
				<time>2021-02-24T10:14:14</time>
			</trkpt>
			<trkpt lat="48.843309972435236" lon="3.0972199235111475">
				<ele>137.0</ele>
				<time>2021-02-24T10:15:08</time>
			</trkpt>
			<trkpt lat="48.843199918046594" lon="3.096419954672456">
				<ele>140.0</ele>
				<time>2021-02-24T10:15:17</time>
			</trkpt>
			<trkpt lat="48.84314996190369" lon="3.0957099236547947">
				<ele>139.0</ele>
				<time>2021-02-24T10:15:26</time>
			</trkpt>
			<trkpt lat="48.8432099763304" lon="3.095379928126931">
				<ele>139.0</ele>
				<time>2021-02-24T10:15:30</time>
			</trkpt>
			<trkpt lat="48.843689924106" lon="3.0936399288475513">
				<ele>138.0</ele>
				<time>2021-02-24T10:15:51</time>
			</trkpt>
			<trkpt lat="48.84295994415879" lon="3.0908099468797445">
				<ele>129.0</ele>
				<time>2021-02-24T10:16:26</time>
			</trkpt>
			<trkpt lat="48.842899929732084" lon="3.0904099624603987">
				<ele>128.0</ele>
				<time>2021-02-24T10:16:31</time>
			</trkpt>
			<trkpt lat="48.843159936368465" lon="3.0892299581319094">
				<ele>122.0</ele>
				<time>2021-02-24T10:16:45</time>
			</trkpt>
			<trkpt lat="48.84351993910968" lon="3.0883199349045753">
				<ele>127.0</ele>
				<time>2021-02-24T10:16:57</time>
			</trkpt>
			<trkpt lat="48.843589928001165" lon="3.08804995380342">
				<ele>127.0</ele>
				<time>2021-02-24T10:17:00</time>
			</trkpt>
			<trkpt lat="48.84421999566257" lon="3.0863399617373943">
				<ele>123.0</ele>
				<time>2021-02-24T10:17:23</time>
			</trkpt>
			<trkpt lat="48.84460992179811" lon="3.0855099856853485">
				<ele>126.0</ele>
				<time>2021-02-24T10:17:35</time>
			</trkpt>
			<trkpt lat="48.845109986141324" lon="3.0841999780386686">
				<ele>129.0</ele>
				<time>2021-02-24T10:17:52</time>
			</trkpt>
			<trkpt lat="48.84527997113764" lon="3.0833099875599146">
				<ele>127.0</ele>
				<time>2021-02-24T10:18:02</time>
			</trkpt>
			<trkpt lat="48.84572999551892" lon="3.0803099367767572">
				<ele>126.0</ele>
				<time>2021-02-24T10:18:38</time>
			</trkpt>
			<trkpt lat="48.845799984410405" lon="3.08009997010231">
				<ele>126.0</ele>
				<time>2021-02-24T10:18:40</time>
			</trkpt>
			<trkpt lat="48.84656994603574" lon="3.0796999856829643">
				<ele>125.0</ele>
				<time>2021-02-24T10:18:55</time>
			</trkpt>
			<trkpt lat="48.84686993435025" lon="3.079399997368455">
				<ele>126.0</ele>
				<time>2021-02-24T10:19:01</time>
			</trkpt>
			<trkpt lat="48.84711996652186" lon="3.0792199540883303">
				<ele>127.0</ele>
				<time>2021-02-24T10:19:06</time>
			</trkpt>
			<trkpt lat="48.847409980371594" lon="3.079119957983494">
				<ele>128.0</ele>
				<time>2021-02-24T10:19:11</time>
			</trkpt>
			<trkpt lat="48.84780996479094" lon="3.079129932448268">
				<ele>132.0</ele>
				<time>2021-02-24T10:19:18</time>
			</trkpt>
			<trkpt lat="48.84793996810913" lon="3.0790799763053656">
				<ele>133.0</ele>
				<time>2021-02-24T10:19:20</time>
			</trkpt>
			<trkpt lat="48.8489499874413" lon="3.077789917588234">
				<ele>128.0</ele>
				<time>2021-02-24T10:19:43</time>
			</trkpt>
			<trkpt lat="48.849859926849604" lon="3.0766199715435505">
				<ele>132.0</ele>
				<time>2021-02-24T10:20:04</time>
			</trkpt>
			<trkpt lat="48.85014994069934" lon="3.0763699393719435">
				<ele>135.0</ele>
				<time>2021-02-24T10:20:10</time>
			</trkpt>
			<trkpt lat="48.85074991732836" lon="3.0754899233579636">
				<ele>134.0</ele>
				<time>2021-02-24T10:20:24</time>
			</trkpt>
			<trkpt lat="48.85091998614371" lon="3.07517996057868">
				<ele>133.0</ele>
				<time>2021-02-24T10:20:29</time>
			</trkpt>
			<trkpt lat="48.85098997503519" lon="3.074739994481206">
				<ele>132.0</ele>
				<time>2021-02-24T10:20:34</time>
			</trkpt>
			<trkpt lat="48.850979916751385" lon="3.074279995635152">
				<ele>133.0</ele>
				<time>2021-02-24T10:20:39</time>
			</trkpt>
			<trkpt lat="48.85083993896842" lon="3.073179954662919">
				<ele>135.0</ele>
				<time>2021-02-24T10:20:52</time>
			</trkpt>
			<trkpt lat="48.850869946181774" lon="3.072549970820546">
				<ele>137.0</ele>
				<time>2021-02-24T10:20:59</time>
			</trkpt>
			<trkpt lat="48.85098997503519" lon="3.071689987555146">
				<ele>137.0</ele>
				<time>2021-02-24T10:21:09</time>
			</trkpt>
			<trkpt lat="48.850979916751385" lon="3.071199981495738">
				<ele>137.0</ele>
				<time>2021-02-24T10:21:15</time>
			</trkpt>
			<trkpt lat="48.850849997252226" lon="3.069349927827716">
				<ele>138.0</ele>
				<time>2021-02-24T10:21:36</time>
			</trkpt>
			<trkpt lat="48.85064992122352" lon="3.0684199556708336">
				<ele>139.0</ele>
				<time>2021-02-24T10:21:47</time>
			</trkpt>
			<trkpt lat="48.850549925118685" lon="3.0676699429750443">
				<ele>139.0</ele>
				<time>2021-02-24T10:21:56</time>
			</trkpt>
			<trkpt lat="48.85055998340249" lon="3.0670399591326714">
				<ele>139.0</ele>
				<time>2021-02-24T10:22:03</time>
			</trkpt>
			<trkpt lat="48.85068998672068" lon="3.0658999364823103">
				<ele>142.0</ele>
				<time>2021-02-24T10:22:17</time>
			</trkpt>
			<trkpt lat="48.850739942863584" lon="3.064769972115755">
				<ele>139.0</ele>
				<time>2021-02-24T10:22:30</time>
			</trkpt>
			<trkpt lat="48.850719993934035" lon="3.0628399550914764">
				<ele>142.0</ele>
				<time>2021-02-24T10:22:52</time>
			</trkpt>
			<trkpt lat="48.85034993290901" lon="3.060729978606105">
				<ele>142.0</ele>
				<time>2021-02-24T10:23:17</time>
			</trkpt>
			<trkpt lat="48.85033995844424" lon="3.060329994186759">
				<ele>142.0</ele>
				<time>2021-02-24T10:23:21</time>
			</trkpt>
			<trkpt lat="48.85038999840617" lon="3.059909977018833">
				<ele>142.0</ele>
				<time>2021-02-24T10:23:26</time>
			</trkpt>
			<trkpt lat="48.85046996176243" lon="3.0595799814909697">
				<ele>141.0</ele>
				<time>2021-02-24T10:23:30</time>
			</trkpt>
			<trkpt lat="48.85091998614371" lon="3.058509947732091">
				<ele>140.0</ele>
				<time>2021-02-24T10:23:45</time>
			</trkpt>
			<trkpt lat="48.851149985566735" lon="3.057829923927784">
				<ele>142.0</ele>
				<time>2021-02-24T10:23:54</time>
			</trkpt>
			<trkpt lat="48.851279988884926" lon="3.057159958407283">
				<ele>142.0</ele>
				<time>2021-02-24T10:24:02</time>
			</trkpt>
			<trkpt lat="48.85156991891563" lon="3.055169926956296">
				<ele>140.0</ele>
				<time>2021-02-24T10:24:25</time>
			</trkpt>
			<trkpt lat="48.851709980517626" lon="3.054559975862503">
				<ele>141.0</ele>
				<time>2021-02-24T10:24:32</time>
			</trkpt>
			<trkpt lat="48.85194995440543" lon="3.0537299998104572">
				<ele>141.0</ele>
				<time>2021-02-24T10:24:43</time>
			</trkpt>
			<trkpt lat="48.85240995325148" lon="3.0523799266666174">
				<ele>141.0</ele>
				<time>2021-02-24T10:25:00</time>
			</trkpt>
			<trkpt lat="48.85279996320605" lon="3.0508999340236187">
				<ele>142.0</ele>
				<time>2021-02-24T10:25:18</time>
			</trkpt>
			<trkpt lat="48.85290993377566" lon="3.0501899868249893">
				<ele>142.0</ele>
				<time>2021-02-24T10:25:27</time>
			</trkpt>
			<trkpt lat="48.852999955415726" lon="3.049019956961274">
				<ele>143.0</ele>
				<time>2021-02-24T10:25:40</time>
			</trkpt>
			<trkpt lat="48.853039937093854" lon="3.045269977301359">
				<ele>145.0</ele>
				<time>2021-02-24T10:26:23</time>
			</trkpt>
			<trkpt lat="48.85308997705579" lon="3.0444399174302816">
				<ele>145.0</ele>
				<time>2021-02-24T10:26:33</time>
			</trkpt>
			<trkpt lat="48.85325996205211" lon="3.043699963018298">
				<ele>146.0</ele>
				<time>2021-02-24T10:26:42</time>
			</trkpt>
			<trkpt lat="48.853489961475134" lon="3.0429399758577347">
				<ele>147.0</ele>
				<time>2021-02-24T10:26:51</time>
			</trkpt>
			<trkpt lat="48.85380998253822" lon="3.042339999228716">
				<ele>147.0</ele>
				<time>2021-02-24T10:27:00</time>
			</trkpt>
			<trkpt lat="48.853859938681126" lon="3.042179988697171">
				<ele>147.0</ele>
				<time>2021-02-24T10:27:02</time>
			</trkpt>
			<trkpt lat="48.85285997763276" lon="3.0417999532073736">
				<ele>146.0</ele>
				<time>2021-02-24T10:27:20</time>
			</trkpt>
			<trkpt lat="48.852549931034446" lon="3.0415699537843466">
				<ele>146.0</ele>
				<time>2021-02-24T10:27:26</time>
			</trkpt>
			<trkpt lat="48.85216997936368" lon="3.0411499366164207">
				<ele>147.0</ele>
				<time>2021-02-24T10:27:34</time>
			</trkpt>
			<trkpt lat="48.849069932475686" lon="3.037379924207926">
				<ele>146.0</ele>
				<time>2021-02-24T10:28:43</time>
			</trkpt>
			<trkpt lat="48.84376997128129" lon="3.031279994174838">
				<ele>133.0</ele>
				<time>2021-02-24T10:30:39</time>
			</trkpt>
			<trkpt lat="48.84185998700559" lon="3.028589989989996">
				<ele>133.0</ele>
				<time>2021-02-24T10:31:24</time>
			</trkpt>
			<trkpt lat="48.84165999479592" lon="3.0284599866718054">
				<ele>135.0</ele>
				<time>2021-02-24T10:31:28</time>
			</trkpt>
			<trkpt lat="48.84186023846269" lon="3.027708800509572">
				<ele>133.0</ele>
				<time>2021-02-24T10:31:37</time>
			</trkpt>
			<trkpt lat="48.84185998700559" lon="3.027709973976016">
				<ele>133.0</ele>
				<time>2021-02-24T10:31:38</time>
			</trkpt>
			<trkpt lat="48.84187993593514" lon="3.0273799784481525">
				<ele>134.0</ele>
				<time>2021-02-24T10:31:41</time>
			</trkpt>
			<trkpt lat="48.841849928721786" lon="3.0272699240595102">
				<ele>134.0</ele>
				<time>2021-02-24T10:31:43</time>
			</trkpt>
			<trkpt lat="48.841759990900755" lon="3.026989968493581">
				<ele>134.0</ele>
				<time>2021-02-24T10:31:46</time>
			</trkpt>
			<trkpt lat="48.84150995872915" lon="3.0265299696475267">
				<ele>134.0</ele>
				<time>2021-02-24T10:31:53</time>
			</trkpt>
			<trkpt lat="48.84150995872915" lon="3.0262399557977915">
				<ele>133.0</ele>
				<time>2021-02-24T10:31:56</time>
			</trkpt>
			<trkpt lat="48.84267998859286" lon="3.0240899976342916">
				<ele>138.0</ele>
				<time>2021-02-24T10:32:28</time>
			</trkpt>
			<trkpt lat="48.84283999912441" lon="3.023709962144494">
				<ele>138.0</ele>
				<time>2021-02-24T10:32:34</time>
			</trkpt>
			<trkpt lat="48.84298995137215" lon="3.0227499827742577">
				<ele>139.0</ele>
				<time>2021-02-24T10:32:45</time>
			</trkpt>
			<trkpt lat="48.84346998296678" lon="3.0202199891209602">
				<ele>140.0</ele>
				<time>2021-02-24T10:33:15</time>
			</trkpt>
			<trkpt lat="48.84352999739349" lon="3.019229918718338">
				<ele>136.0</ele>
				<time>2021-02-24T10:33:26</time>
			</trkpt>
			<trkpt lat="48.84361993521452" lon="3.019009977579117">
				<ele>135.0</ele>
				<time>2021-02-24T10:33:29</time>
			</trkpt>
			<trkpt lat="48.84374993853271" lon="3.0189399886876345">
				<ele>135.0</ele>
				<time>2021-02-24T10:33:32</time>
			</trkpt>
			<trkpt lat="48.84417993016541" lon="3.0188999231904745">
				<ele>135.0</ele>
				<time>2021-02-24T10:33:39</time>
			</trkpt>
			<trkpt lat="48.854309963062406" lon="3.018419975414872">
				<ele>142.0</ele>
				<time>2021-02-24T10:36:36</time>
			</trkpt>
			<trkpt lat="48.85459997691214" lon="3.018369935452938">
				<ele>144.0</ele>
				<time>2021-02-24T10:36:41</time>
			</trkpt>
			<trkpt lat="48.854739954695106" lon="3.0182899720966816">
				<ele>145.0</ele>
				<time>2021-02-24T10:36:43</time>
			</trkpt>
			<trkpt lat="48.855039943009615" lon="3.017939943820238">
				<ele>148.0</ele>
				<time>2021-02-24T10:36:50</time>
			</trkpt>
			<trkpt lat="48.85744999162853" lon="3.0136399436742067">
				<ele>152.0</ele>
				<time>2021-02-24T10:37:55</time>
			</trkpt>
			<trkpt lat="48.864189963787794" lon="3.00199999473989">
				<ele>148.0</ele>
				<time>2021-02-24T10:40:52</time>
			</trkpt>
			<trkpt lat="48.86417998932302" lon="3.0005399510264397">
				<ele>146.0</ele>
				<time>2021-02-24T10:41:09</time>
			</trkpt>
			<trkpt lat="48.864129949361086" lon="3.0003299843519926">
				<ele>146.0</ele>
				<time>2021-02-24T10:41:11</time>
			</trkpt>
			<trkpt lat="48.86376994661987" lon="2.9997899383306503">
				<ele>145.0</ele>
				<time>2021-02-24T10:41:20</time>
			</trkpt>
			<trkpt lat="48.86346995830536" lon="2.9996099788695574">
				<ele>144.0</ele>
				<time>2021-02-24T10:41:26</time>
			</trkpt>
			<trkpt lat="48.86309998109937" lon="2.9994099866598845">
				<ele>144.0</ele>
				<time>2021-02-24T10:41:33</time>
			</trkpt>
			<trkpt lat="48.86299998499453" lon="2.999299932271242">
				<ele>145.0</ele>
				<time>2021-02-24T10:41:35</time>
			</trkpt>
			<trkpt lat="48.862469997256994" lon="2.998399967327714">
				<ele>147.0</ele>
				<time>2021-02-24T10:41:49</time>
			</trkpt>
			<trkpt lat="48.86269999668002" lon="2.997719943523407">
				<ele>148.0</ele>
				<time>2021-02-24T10:41:57</time>
			</trkpt>
			<trkpt lat="48.86273997835815" lon="2.9973999224603176">
				<ele>148.0</ele>
				<time>2021-02-24T10:42:01</time>
			</trkpt>
			<trkpt lat="48.86271994560957" lon="2.991249952465296">
				<ele>142.0</ele>
				<time>2021-02-24T10:43:12</time>
			</trkpt>
			<trkpt lat="48.86256999336183" lon="2.9907199647277594">
				<ele>140.0</ele>
				<time>2021-02-24T10:43:18</time>
			</trkpt>
			<trkpt lat="48.86243999004364" lon="2.990449983626604">
				<ele>138.0</ele>
				<time>2021-02-24T10:43:22</time>
			</trkpt>
			<trkpt lat="48.862409982830286" lon="2.98998998478055">
				<ele>137.0</ele>
				<time>2021-02-24T10:43:27</time>
			</trkpt>
			<trkpt lat="48.86239992454648" lon="2.9895799420773983">
				<ele>137.0</ele>
				<time>2021-02-24T10:43:32</time>
			</trkpt>
			<trkpt lat="48.86250997893512" lon="2.988399937748909">
				<ele>141.0</ele>
				<time>2021-02-24T10:43:46</time>
			</trkpt>
			<trkpt lat="48.862469997256994" lon="2.9864899534732103">
				<ele>144.0</ele>
				<time>2021-02-24T10:44:07</time>
			</trkpt>
			<trkpt lat="48.8625199533999" lon="2.9843299370259047">
				<ele>142.0</ele>
				<time>2021-02-24T10:44:32</time>
			</trkpt>
			<trkpt lat="48.86278993450105" lon="2.9822699166834354">
				<ele>142.0</ele>
				<time>2021-02-24T10:44:56</time>
			</trkpt>
			<trkpt lat="48.86307994835079" lon="2.981019923463464">
				<ele>144.0</ele>
				<time>2021-02-24T10:45:11</time>
			</trkpt>
			<trkpt lat="48.86333995498717" lon="2.979589970782399">
				<ele>145.0</ele>
				<time>2021-02-24T10:45:28</time>
			</trkpt>
			<trkpt lat="48.864129949361086" lon="2.9696299228817225">
				<ele>151.0</ele>
				<time>2021-02-24T10:47:23</time>
			</trkpt>
			<trkpt lat="48.86684996075928" lon="2.964029973372817">
				<ele>146.0</ele>
				<time>2021-02-24T10:48:43</time>
			</trkpt>
			<trkpt lat="48.86727995239198" lon="2.962889950722456">
				<ele>145.0</ele>
				<time>2021-02-24T10:48:58</time>
			</trkpt>
			<trkpt lat="48.868229957297444" lon="2.9601699393242598">
				<ele>148.0</ele>
				<time>2021-02-24T10:49:33</time>
			</trkpt>
			<trkpt lat="48.86608997359872" lon="2.9550399631261826">
				<ele>150.0</ele>
				<time>2021-02-24T10:50:43</time>
			</trkpt>
			<trkpt lat="48.865999951958656" lon="2.954689934849739">
				<ele>150.0</ele>
				<time>2021-02-24T10:50:47</time>
			</trkpt>
			<trkpt lat="48.86585997417569" lon="2.9539199732244015">
				<ele>150.0</ele>
				<time>2021-02-24T10:50:56</time>
			</trkpt>
			<trkpt lat="48.86544993147254" lon="2.95090994797647">
				<ele>139.0</ele>
				<time>2021-02-24T10:51:31</time>
			</trkpt>
			<trkpt lat="48.86535999365151" lon="2.9488099459558725">
				<ele>135.0</ele>
				<time>2021-02-24T10:51:56</time>
			</trkpt>
			<trkpt lat="48.8644899521023" lon="2.942989971488714">
				<ele>104.0</ele>
				<time>2021-02-24T10:53:04</time>
			</trkpt>
			<trkpt lat="48.864279985427856" lon="2.9419099632650614">
				<ele>103.0</ele>
				<time>2021-02-24T10:53:17</time>
			</trkpt>
			<trkpt lat="48.86397999711335" lon="2.940719984471798">
				<ele>98.0</ele>
				<time>2021-02-24T10:53:31</time>
			</trkpt>
			<trkpt lat="48.863609936088324" lon="2.9394799657166004">
				<ele>98.0</ele>
				<time>2021-02-24T10:53:47</time>
			</trkpt>
			<trkpt lat="48.862429931759834" lon="2.9359299782663584">
				<ele>94.0</ele>
				<time>2021-02-24T10:54:33</time>
			</trkpt>
			<trkpt lat="48.86168997734785" lon="2.933579944074154">
				<ele>94.0</ele>
				<time>2021-02-24T10:55:02</time>
			</trkpt>
			<trkpt lat="48.86082999408245" lon="2.927659973502159">
				<ele>83.0</ele>
				<time>2021-02-24T10:56:12</time>
			</trkpt>
			<trkpt lat="48.86076997965574" lon="2.926139999181032">
				<ele>80.0</ele>
				<time>2021-02-24T10:56:29</time>
			</trkpt>
			<trkpt lat="48.86063997633755" lon="2.925229975953698">
				<ele>79.0</ele>
				<time>2021-02-24T10:56:40</time>
			</trkpt>
			<trkpt lat="48.86044995859265" lon="2.9246999882161617">
				<ele>78.0</ele>
				<time>2021-02-24T10:56:47</time>
			</trkpt>
			<trkpt lat="48.85973992757499" lon="2.9237699322402477">
				<ele>73.0</ele>
				<time>2021-02-24T10:57:03</time>
			</trkpt>
			<trkpt lat="48.859399957582355" lon="2.923199962824583">
				<ele>73.0</ele>
				<time>2021-02-24T10:57:12</time>
			</trkpt>
			<trkpt lat="48.85905998758972" lon="2.9222199507057667">
				<ele>65.0</ele>
				<time>2021-02-24T10:57:25</time>
			</trkpt>
			<trkpt lat="48.85897994041443" lon="2.921679988503456">
				<ele>63.0</ele>
				<time>2021-02-24T10:57:31</time>
			</trkpt>
			<trkpt lat="48.8589399587363" lon="2.9204299952834845">
				<ele>57.0</ele>
				<time>2021-02-24T10:57:45</time>
			</trkpt>
			<trkpt lat="48.858949933201075" lon="2.919619968160987">
				<ele>56.0</ele>
				<time>2021-02-24T10:57:55</time>
			</trkpt>
			<trkpt lat="48.859079936519265" lon="2.918549934402108">
				<ele>57.0</ele>
				<time>2021-02-24T10:58:07</time>
			</trkpt>
			<trkpt lat="48.85908999480307" lon="2.9181899316608906">
				<ele>56.0</ele>
				<time>2021-02-24T10:58:11</time>
			</trkpt>
			<trkpt lat="48.85904992930591" lon="2.9180199466645718">
				<ele>56.0</ele>
				<time>2021-02-24T10:58:13</time>
			</trkpt>
			<trkpt lat="48.85940993204713" lon="2.9159699846059084">
				<ele>58.0</ele>
				<time>2021-02-24T10:58:37</time>
			</trkpt>
			<trkpt lat="48.85949995368719" lon="2.9150799941271544">
				<ele>56.0</ele>
				<time>2021-02-24T10:58:48</time>
			</trkpt>
			<trkpt lat="48.85871993377805" lon="2.9142099525779486">
				<ele>52.0</ele>
				<time>2021-02-24T10:59:05</time>
			</trkpt>
			<trkpt lat="48.858239986002445" lon="2.9137199465185404">
				<ele>52.0</ele>
				<time>2021-02-24T10:59:15</time>
			</trkpt>
			<trkpt lat="48.858049968257546" lon="2.91360997594893">
				<ele>53.0</ele>
				<time>2021-02-24T10:59:18</time>
			</trkpt>
			<trkpt lat="48.85786992497742" lon="2.909449953585863">
				<ele>53.0</ele>
				<time>2021-02-24T11:00:06</time>
			</trkpt>
			<trkpt lat="48.85774997994304" lon="2.9083999525755644">
				<ele>51.0</ele>
				<time>2021-02-24T11:00:18</time>
			</trkpt>
			<trkpt lat="48.85768996551633" lon="2.908159978687763">
				<ele>51.0</ele>
				<time>2021-02-24T11:00:21</time>
			</trkpt>
			<trkpt lat="48.85779993608594" lon="2.907889997586608">
				<ele>51.0</ele>
				<time>2021-02-24T11:00:25</time>
			</trkpt>
			<trkpt lat="48.8581299316138" lon="2.9072999954223633">
				<ele>51.0</ele>
				<time>2021-02-24T11:00:34</time>
			</trkpt>
			<trkpt lat="48.858239986002445" lon="2.907229922711849">
				<ele>51.0</ele>
				<time>2021-02-24T11:00:36</time>
			</trkpt>
			<trkpt lat="48.85824996046722" lon="2.9070799704641104">
				<ele>51.0</ele>
				<time>2021-02-24T11:00:37</time>
			</trkpt>
			<trkpt lat="48.857919881120324" lon="2.90688986890018">
				<ele>50.0</ele>
				<time>2021-02-24T11:00:44</time>
			</trkpt>
		</trkseg>
	</trk>
</gpx>
