<?xml version="1.0" encoding="UTF-8"?>
<gpx creator="Garmin Connect" version="1.1" xsi:schemaLocation="http://www.topografix.com/GPX/1/1 http://www.topografix.com/GPX/11.xsd" xmlns:ns3="http://www.garmin.com/xmlschemas/TrackPointExtension/v1" xmlns="http://www.topografix.com/GPX/1/1" xmlns:xsi="http://www.w3.org/2001/XMLSchema-instance" xmlns:ns2="http://www.garmin.com/xmlschemas/GpxExtensions/v3">
	<metadata>
		<name>005-G3-69 km-D 458 m-La Croix en Brie</name>
		<link href="connect.garmin.com">
			<text>Garmin Connect</text>
		</link>
		<time>2020-07-03T08:00:00</time>
	</metadata>
	<trk>
		<name>005-G3-69 km-D 458 m-La Croix en Brie</name>
		<trkseg>
			<trkpt lat="48.85770999826491" lon="2.9068298544734716">
				<ele>49.0</ele>
				<time>2020-07-03T08:00:00</time>
			</trkpt>
			<trkpt lat="48.858069917187095" lon="2.90694996714592">
				<ele>49.0</ele>
				<time>2020-07-03T08:00:06</time>
			</trkpt>
			<trkpt lat="48.85824996046722" lon="2.9070799704641104">
				<ele>49.0</ele>
				<time>2020-07-03T08:00:10</time>
			</trkpt>
			<trkpt lat="48.858239986002445" lon="2.907229922711849">
				<ele>49.0</ele>
				<time>2020-07-03T08:00:12</time>
			</trkpt>
			<trkpt lat="48.8581299316138" lon="2.9072999954223633">
				<ele>49.0</ele>
				<time>2020-07-03T08:00:14</time>
			</trkpt>
			<trkpt lat="48.85779993608594" lon="2.907889997586608">
				<ele>51.0</ele>
				<time>2020-07-03T08:00:23</time>
			</trkpt>
			<trkpt lat="48.857529954984784" lon="2.9084699414670467">
				<ele>51.0</ele>
				<time>2020-07-03T08:00:31</time>
			</trkpt>
			<trkpt lat="48.856669971719384" lon="2.9099899996072054">
				<ele>50.0</ele>
				<time>2020-07-03T08:00:54</time>
			</trkpt>
			<trkpt lat="48.85648992843926" lon="2.9103899840265512">
				<ele>50.0</ele>
				<time>2020-07-03T08:00:59</time>
			</trkpt>
			<trkpt lat="48.85628993622959" lon="2.91098996065557">
				<ele>51.0</ele>
				<time>2020-07-03T08:01:07</time>
			</trkpt>
			<trkpt lat="48.8557399995625" lon="2.910359976813197">
				<ele>51.0</ele>
				<time>2020-07-03T08:01:19</time>
			</trkpt>
			<trkpt lat="48.855599937960505" lon="2.9099599923938513">
				<ele>51.0</ele>
				<time>2020-07-03T08:01:24</time>
			</trkpt>
			<trkpt lat="48.85549994185567" lon="2.9098299890756607">
				<ele>51.0</ele>
				<time>2020-07-03T08:01:26</time>
			</trkpt>
			<trkpt lat="48.85500993579626" lon="2.909879945218563">
				<ele>54.0</ele>
				<time>2020-07-03T08:01:35</time>
			</trkpt>
			<trkpt lat="48.854849925264716" lon="2.909849938005209">
				<ele>56.0</ele>
				<time>2020-07-03T08:01:38</time>
			</trkpt>
			<trkpt lat="48.85470994748175" lon="2.909929985180497">
				<ele>57.0</ele>
				<time>2020-07-03T08:01:40</time>
			</trkpt>
			<trkpt lat="48.85454993695021" lon="2.910249922424555">
				<ele>59.0</ele>
				<time>2020-07-03T08:01:45</time>
			</trkpt>
			<trkpt lat="48.854329995810986" lon="2.911699991673231">
				<ele>61.0</ele>
				<time>2020-07-03T08:02:02</time>
			</trkpt>
			<trkpt lat="48.855209928005934" lon="2.9161899257451296">
				<ele>51.0</ele>
				<time>2020-07-03T08:02:56</time>
			</trkpt>
			<trkpt lat="48.85513993911445" lon="2.9215599596500397">
				<ele>52.0</ele>
				<time>2020-07-03T08:03:57</time>
			</trkpt>
			<trkpt lat="48.85502996854484" lon="2.9223899357020855">
				<ele>53.0</ele>
				<time>2020-07-03T08:04:07</time>
			</trkpt>
			<trkpt lat="48.854589918628335" lon="2.9234899766743183">
				<ele>54.0</ele>
				<time>2020-07-03T08:04:22</time>
			</trkpt>
			<trkpt lat="48.854419933632016" lon="2.923629954457283">
				<ele>55.0</ele>
				<time>2020-07-03T08:04:25</time>
			</trkpt>
			<trkpt lat="48.85382993146777" lon="2.9236999433487654">
				<ele>56.0</ele>
				<time>2020-07-03T08:04:35</time>
			</trkpt>
			<trkpt lat="48.85091998614371" lon="2.9217699263244867">
				<ele>69.0</ele>
				<time>2020-07-03T08:05:30</time>
			</trkpt>
			<trkpt lat="48.84934997186065" lon="2.9206599947065115">
				<ele>70.0</ele>
				<time>2020-07-03T08:06:01</time>
			</trkpt>
			<trkpt lat="48.84843994863331" lon="2.9197299387305975">
				<ele>66.0</ele>
				<time>2020-07-03T08:06:20</time>
			</trkpt>
			<trkpt lat="48.84793996810913" lon="2.9193099215626717">
				<ele>63.0</ele>
				<time>2020-07-03T08:06:30</time>
			</trkpt>
			<trkpt lat="48.847839972004294" lon="2.919139936566353">
				<ele>62.0</ele>
				<time>2020-07-03T08:06:32</time>
			</trkpt>
			<trkpt lat="48.847349965944886" lon="2.917889943346381">
				<ele>60.0</ele>
				<time>2020-07-03T08:06:49</time>
			</trkpt>
			<trkpt lat="48.84713999927044" lon="2.91721997782588">
				<ele>58.0</ele>
				<time>2020-07-03T08:06:57</time>
			</trkpt>
			<trkpt lat="48.84669994935393" lon="2.914269967004657">
				<ele>59.0</ele>
				<time>2020-07-03T08:07:32</time>
			</trkpt>
			<trkpt lat="48.846419993788004" lon="2.9128999449312687">
				<ele>60.0</ele>
				<time>2020-07-03T08:07:48</time>
			</trkpt>
			<trkpt lat="48.84614992886782" lon="2.912159990519285">
				<ele>58.0</ele>
				<time>2020-07-03T08:07:58</time>
			</trkpt>
			<trkpt lat="48.84503999724984" lon="2.9101799335330725">
				<ele>54.0</ele>
				<time>2020-07-03T08:08:28</time>
			</trkpt>
			<trkpt lat="48.8444999512285" lon="2.9093099758028984">
				<ele>51.0</ele>
				<time>2020-07-03T08:08:42</time>
			</trkpt>
			<trkpt lat="48.843049965798855" lon="2.907439973205328">
				<ele>55.0</ele>
				<time>2020-07-03T08:09:15</time>
			</trkpt>
			<trkpt lat="48.84255995973945" lon="2.9069699998945">
				<ele>55.0</ele>
				<time>2020-07-03T08:09:25</time>
			</trkpt>
			<trkpt lat="48.842149917036295" lon="2.9067099932581186">
				<ele>55.0</ele>
				<time>2020-07-03T08:09:33</time>
			</trkpt>
			<trkpt lat="48.84178999811411" lon="2.906559957191348">
				<ele>54.0</ele>
				<time>2020-07-03T08:09:39</time>
			</trkpt>
			<trkpt lat="48.83601997978985" lon="2.905219942331314">
				<ele>52.0</ele>
				<time>2020-07-03T08:11:21</time>
			</trkpt>
			<trkpt lat="48.833619989454746" lon="2.90387992747128">
				<ele>52.0</ele>
				<time>2020-07-03T08:12:05</time>
			</trkpt>
			<trkpt lat="48.82982994429767" lon="2.901419922709465">
				<ele>56.0</ele>
				<time>2020-07-03T08:13:17</time>
			</trkpt>
			<trkpt lat="48.82928998209536" lon="2.9012899193912745">
				<ele>57.0</ele>
				<time>2020-07-03T08:13:26</time>
			</trkpt>
			<trkpt lat="48.82904992438853" lon="2.9012799449265003">
				<ele>59.0</ele>
				<time>2020-07-03T08:13:31</time>
			</trkpt>
			<trkpt lat="48.82704991847277" lon="2.901719994843006">
				<ele>59.0</ele>
				<time>2020-07-03T08:14:06</time>
			</trkpt>
			<trkpt lat="48.82563999854028" lon="2.901669954881072">
				<ele>65.0</ele>
				<time>2020-07-03T08:14:30</time>
			</trkpt>
			<trkpt lat="48.82485997863114" lon="2.9017799254506826">
				<ele>67.0</ele>
				<time>2020-07-03T08:14:44</time>
			</trkpt>
			<trkpt lat="48.82449997588992" lon="2.9020499903708696">
				<ele>64.0</ele>
				<time>2020-07-03T08:14:51</time>
			</trkpt>
			<trkpt lat="48.824189929291606" lon="2.9023899603635073">
				<ele>60.0</ele>
				<time>2020-07-03T08:14:58</time>
			</trkpt>
			<trkpt lat="48.82356991991401" lon="2.9024299420416355">
				<ele>60.0</ele>
				<time>2020-07-03T08:15:08</time>
			</trkpt>
			<trkpt lat="48.823259957134724" lon="2.902499930933118">
				<ele>62.0</ele>
				<time>2020-07-03T08:15:14</time>
			</trkpt>
			<trkpt lat="48.82279995828867" lon="2.9027199558913708">
				<ele>64.0</ele>
				<time>2020-07-03T08:15:22</time>
			</trkpt>
			<trkpt lat="48.82051999680698" lon="2.9050699900835752">
				<ele>62.0</ele>
				<time>2020-07-03T08:16:10</time>
			</trkpt>
			<trkpt lat="48.8203099463135" lon="2.9053699783980846">
				<ele>60.0</ele>
				<time>2020-07-03T08:16:15</time>
			</trkpt>
			<trkpt lat="48.82017994299531" lon="2.905679941177368">
				<ele>58.0</ele>
				<time>2020-07-03T08:16:19</time>
			</trkpt>
			<trkpt lat="48.82008992135525" lon="2.906099958345294">
				<ele>57.0</ele>
				<time>2020-07-03T08:16:25</time>
			</trkpt>
			<trkpt lat="48.81980996578932" lon="2.9090299364179373">
				<ele>53.0</ele>
				<time>2020-07-03T08:16:58</time>
			</trkpt>
			<trkpt lat="48.81962992250919" lon="2.909839963540435">
				<ele>56.0</ele>
				<time>2020-07-03T08:17:08</time>
			</trkpt>
			<trkpt lat="48.81501995958388" lon="2.920979931950569">
				<ele>79.0</ele>
				<time>2020-07-03T08:19:39</time>
			</trkpt>
			<trkpt lat="48.81482994183898" lon="2.921379916369915">
				<ele>82.0</ele>
				<time>2020-07-03T08:19:45</time>
			</trkpt>
			<trkpt lat="48.81447999738157" lon="2.921839999035001">
				<ele>84.0</ele>
				<time>2020-07-03T08:19:53</time>
			</trkpt>
			<trkpt lat="48.80651995539665" lon="2.929569957777858">
				<ele>125.0</ele>
				<time>2020-07-03T08:22:37</time>
			</trkpt>
			<trkpt lat="48.80552996881306" lon="2.930459948256612">
				<ele>129.0</ele>
				<time>2020-07-03T08:22:57</time>
			</trkpt>
			<trkpt lat="48.80474994890392" lon="2.9307999182492495">
				<ele>131.0</ele>
				<time>2020-07-03T08:23:11</time>
			</trkpt>
			<trkpt lat="48.797089979052544" lon="2.933379951864481">
				<ele>134.0</ele>
				<time>2020-07-03T08:25:28</time>
			</trkpt>
			<trkpt lat="48.792559979483485" lon="2.9348799772560596">
				<ele>136.0</ele>
				<time>2020-07-03T08:26:49</time>
			</trkpt>
			<trkpt lat="48.781462255865335" lon="2.936409590765834">
				<ele>123.0</ele>
				<time>2020-07-03T08:30:03</time>
			</trkpt>
			<trkpt lat="48.78146041184664" lon="2.9364097584038973">
				<ele>123.0</ele>
				<time>2020-07-03T08:30:03</time>
			</trkpt>
			<trkpt lat="48.78146041184664" lon="2.936409842222929">
				<ele>123.0</ele>
				<time>2020-07-03T08:30:03</time>
			</trkpt>
			<trkpt lat="48.78145999275148" lon="2.9364099260419607">
				<ele>123.0</ele>
				<time>2020-07-03T08:30:03</time>
			</trkpt>
			<trkpt lat="48.77986994571984" lon="2.9361799266189337">
				<ele>127.0</ele>
				<time>2020-07-03T08:30:30</time>
			</trkpt>
			<trkpt lat="48.77726996317506" lon="2.9357099533081055">
				<ele>125.0</ele>
				<time>2020-07-03T08:31:16</time>
			</trkpt>
			<trkpt lat="48.77677995711565" lon="2.9356899205595255">
				<ele>124.0</ele>
				<time>2020-07-03T08:31:24</time>
			</trkpt>
			<trkpt lat="48.760159984230995" lon="2.941169925034046">
				<ele>115.0</ele>
				<time>2020-07-03T08:36:20</time>
			</trkpt>
			<trkpt lat="48.761149970814586" lon="2.945369929075241">
				<ele>119.0</ele>
				<time>2020-07-03T08:37:12</time>
			</trkpt>
			<trkpt lat="48.76220994628966" lon="2.949839998036623">
				<ele>118.0</ele>
				<time>2020-07-03T08:38:06</time>
			</trkpt>
			<trkpt lat="48.76310999505222" lon="2.953629959374666">
				<ele>117.0</ele>
				<time>2020-07-03T08:38:52</time>
			</trkpt>
			<trkpt lat="48.76334996894002" lon="2.9547899309545755">
				<ele>118.0</ele>
				<time>2020-07-03T08:39:06</time>
			</trkpt>
			<trkpt lat="48.76351995393634" lon="2.955969935283065">
				<ele>118.0</ele>
				<time>2020-07-03T08:39:20</time>
			</trkpt>
			<trkpt lat="48.76370997168124" lon="2.956939972937107">
				<ele>117.0</ele>
				<time>2020-07-03T08:39:32</time>
			</trkpt>
			<trkpt lat="48.76463994383812" lon="2.960509993135929">
				<ele>114.0</ele>
				<time>2020-07-03T08:40:16</time>
			</trkpt>
			<trkpt lat="48.76644993200898" lon="2.966489978134632">
				<ele>116.0</ele>
				<time>2020-07-03T08:41:31</time>
			</trkpt>
			<trkpt lat="48.765769992023706" lon="2.9670099914073944">
				<ele>116.0</ele>
				<time>2020-07-03T08:41:45</time>
			</trkpt>
			<trkpt lat="48.76272995956242" lon="2.969039920717478">
				<ele>115.0</ele>
				<time>2020-07-03T08:42:42</time>
			</trkpt>
			<trkpt lat="48.755409959703684" lon="2.9742999840527773">
				<ele>112.0</ele>
				<time>2020-07-03T08:45:03</time>
			</trkpt>
			<trkpt lat="48.753498466685414" lon="2.9753033816814423">
				<ele>113.35</ele>
				<time>2020-07-03T08:45:39</time>
			</trkpt>
			<trkpt lat="48.747999938204885" lon="2.978189941495657">
				<ele>110.0</ele>
				<time>2020-07-03T08:47:20</time>
			</trkpt>
			<trkpt lat="48.746689930558205" lon="2.9789799358695745">
				<ele>109.0</ele>
				<time>2020-07-03T08:47:44</time>
			</trkpt>
			<trkpt lat="48.74439999461174" lon="2.980429921299219">
				<ele>108.0</ele>
				<time>2020-07-03T08:48:28</time>
			</trkpt>
			<trkpt lat="48.740159925073385" lon="2.983929952606559">
				<ele>109.0</ele>
				<time>2020-07-03T08:49:52</time>
			</trkpt>
			<trkpt lat="48.73927999287844" lon="2.985109956935048">
				<ele>111.0</ele>
				<time>2020-07-03T08:50:12</time>
			</trkpt>
			<trkpt lat="48.73894999735057" lon="2.9856599774211645">
				<ele>111.0</ele>
				<time>2020-07-03T08:50:21</time>
			</trkpt>
			<trkpt lat="48.738869950175285" lon="2.9859199840575457">
				<ele>111.0</ele>
				<time>2020-07-03T08:50:24</time>
			</trkpt>
			<trkpt lat="48.73878998681903" lon="2.986619956791401">
				<ele>110.0</ele>
				<time>2020-07-03T08:50:32</time>
			</trkpt>
			<trkpt lat="48.73871999792755" lon="2.986799916252494">
				<ele>110.0</ele>
				<time>2020-07-03T08:50:34</time>
			</trkpt>
			<trkpt lat="48.73865998350084" lon="2.986859930679202">
				<ele>109.0</ele>
				<time>2020-07-03T08:50:36</time>
			</trkpt>
			<trkpt lat="48.738479940220714" lon="2.9869399778544903">
				<ele>109.0</ele>
				<time>2020-07-03T08:50:39</time>
			</trkpt>
			<trkpt lat="48.73769992031157" lon="2.987089930102229">
				<ele>108.0</ele>
				<time>2020-07-03T08:50:53</time>
			</trkpt>
			<trkpt lat="48.73692995868623" lon="2.987309955060482">
				<ele>108.0</ele>
				<time>2020-07-03T08:51:06</time>
			</trkpt>
			<trkpt lat="48.736739940941334" lon="2.987309955060482">
				<ele>108.0</ele>
				<time>2020-07-03T08:51:10</time>
			</trkpt>
			<trkpt lat="48.73648999258876" lon="2.9874199256300926">
				<ele>109.0</ele>
				<time>2020-07-03T08:51:14</time>
			</trkpt>
			<trkpt lat="48.736329982057214" lon="2.987539954483509">
				<ele>110.0</ele>
				<time>2020-07-03T08:51:17</time>
			</trkpt>
			<trkpt lat="48.73599998652935" lon="2.988399937748909">
				<ele>110.0</ele>
				<time>2020-07-03T08:51:29</time>
			</trkpt>
			<trkpt lat="48.735839975997806" lon="2.988629937171936">
				<ele>111.0</ele>
				<time>2020-07-03T08:51:32</time>
			</trkpt>
			<trkpt lat="48.735539987683296" lon="2.988819954916835">
				<ele>111.0</ele>
				<time>2020-07-03T08:51:38</time>
			</trkpt>
			<trkpt lat="48.73529992997646" lon="2.9887399915605783">
				<ele>111.0</ele>
				<time>2020-07-03T08:51:42</time>
			</trkpt>
			<trkpt lat="48.7351599521935" lon="2.988599929958582">
				<ele>111.0</ele>
				<time>2020-07-03T08:51:45</time>
			</trkpt>
			<trkpt lat="48.7353499699384" lon="3.002869952470064">
				<ele>109.0</ele>
				<time>2020-07-03T08:54:29</time>
			</trkpt>
			<trkpt lat="48.735369918867946" lon="3.004609951749444">
				<ele>110.0</ele>
				<time>2020-07-03T08:54:49</time>
			</trkpt>
			<trkpt lat="48.735449966043234" lon="3.0086899269372225">
				<ele>114.0</ele>
				<time>2020-07-03T08:55:36</time>
			</trkpt>
			<trkpt lat="48.73543999157846" lon="3.009039955213666">
				<ele>115.0</ele>
				<time>2020-07-03T08:55:40</time>
			</trkpt>
			<trkpt lat="48.73529992997646" lon="3.010139996185899">
				<ele>113.0</ele>
				<time>2020-07-03T08:55:53</time>
			</trkpt>
			<trkpt lat="48.73529992997646" lon="3.011299967765808">
				<ele>113.0</ele>
				<time>2020-07-03T08:56:06</time>
			</trkpt>
			<trkpt lat="48.7353999260813" lon="3.0121099948883057">
				<ele>114.0</ele>
				<time>2020-07-03T08:56:16</time>
			</trkpt>
			<trkpt lat="48.73537997715175" lon="3.012389950454235">
				<ele>113.0</ele>
				<time>2020-07-03T08:56:19</time>
			</trkpt>
			<trkpt lat="48.73524997383356" lon="3.0127499531954527">
				<ele>113.0</ele>
				<time>2020-07-03T08:56:24</time>
			</trkpt>
			<trkpt lat="48.73487999662757" lon="3.013029992580414">
				<ele>111.0</ele>
				<time>2020-07-03T08:56:31</time>
			</trkpt>
			<trkpt lat="48.73487999662757" lon="3.013249933719635">
				<ele>112.0</ele>
				<time>2020-07-03T08:56:33</time>
			</trkpt>
			<trkpt lat="48.734549917280674" lon="3.013949990272522">
				<ele>110.0</ele>
				<time>2020-07-03T08:56:43</time>
			</trkpt>
			<trkpt lat="48.73423995450139" lon="3.0149699840694666">
				<ele>107.0</ele>
				<time>2020-07-03T08:56:56</time>
			</trkpt>
			<trkpt lat="48.734119925647974" lon="3.01570993848145">
				<ele>105.0</ele>
				<time>2020-07-03T08:57:05</time>
			</trkpt>
			<trkpt lat="48.73392999172211" lon="3.0165199656039476">
				<ele>105.0</ele>
				<time>2020-07-03T08:57:15</time>
			</trkpt>
			<trkpt lat="48.73350997455418" lon="3.0187399964779615">
				<ele>101.0</ele>
				<time>2020-07-03T08:57:41</time>
			</trkpt>
			<trkpt lat="48.73335993848741" lon="3.019689917564392">
				<ele>102.0</ele>
				<time>2020-07-03T08:57:52</time>
			</trkpt>
			<trkpt lat="48.73302994295955" lon="3.0209499690681696">
				<ele>101.0</ele>
				<time>2020-07-03T08:58:08</time>
			</trkpt>
			<trkpt lat="48.73298996128142" lon="3.021239982917905">
				<ele>101.0</ele>
				<time>2020-07-03T08:58:11</time>
			</trkpt>
			<trkpt lat="48.73296992853284" lon="3.0220399517565966">
				<ele>97.0</ele>
				<time>2020-07-03T08:58:21</time>
			</trkpt>
			<trkpt lat="48.7330599501729" lon="3.0238099582493305">
				<ele>96.0</ele>
				<time>2020-07-03T08:58:41</time>
			</trkpt>
			<trkpt lat="48.73248998075724" lon="3.0245299637317657">
				<ele>96.0</ele>
				<time>2020-07-03T08:58:54</time>
			</trkpt>
			<trkpt lat="48.732099970802665" lon="3.0251399986445904">
				<ele>96.0</ele>
				<time>2020-07-03T08:59:04</time>
			</trkpt>
			<trkpt lat="48.73142992146313" lon="3.026319919154048">
				<ele>95.0</ele>
				<time>2020-07-03T08:59:21</time>
			</trkpt>
			<trkpt lat="48.73090948909521" lon="3.027350641787052">
				<ele>96.97</ele>
				<time>2020-07-03T08:59:36</time>
			</trkpt>
			<trkpt lat="48.73090957291424" lon="3.027350641787052">
				<ele>96.98</ele>
				<time>2020-07-03T08:59:36</time>
			</trkpt>
			<trkpt lat="48.73090957291424" lon="3.027350725606084">
				<ele>96.99</ele>
				<time>2020-07-03T08:59:36</time>
			</trkpt>
			<trkpt lat="48.7309099920094" lon="3.0273499712347984">
				<ele>97.0</ele>
				<time>2020-07-03T08:59:36</time>
			</trkpt>
			<trkpt lat="48.73081997036934" lon="3.0274399928748608">
				<ele>97.0</ele>
				<time>2020-07-03T08:59:38</time>
			</trkpt>
			<trkpt lat="48.73037992045283" lon="3.0276099778711796">
				<ele>98.0</ele>
				<time>2020-07-03T08:59:46</time>
			</trkpt>
			<trkpt lat="48.73029995709658" lon="3.027699999511242">
				<ele>98.0</ele>
				<time>2020-07-03T08:59:48</time>
			</trkpt>
			<trkpt lat="48.730079932138324" lon="3.028369965031743">
				<ele>96.0</ele>
				<time>2020-07-03T08:59:56</time>
			</trkpt>
			<trkpt lat="48.729929979890585" lon="3.0288699455559254">
				<ele>94.0</ele>
				<time>2020-07-03T09:00:03</time>
			</trkpt>
			<trkpt lat="48.72968992218375" lon="3.029429940506816">
				<ele>95.0</ele>
				<time>2020-07-03T09:00:10</time>
			</trkpt>
			<trkpt lat="48.72955991886556" lon="3.0298399832099676">
				<ele>96.0</ele>
				<time>2020-07-03T09:00:16</time>
			</trkpt>
			<trkpt lat="48.72953996993601" lon="3.0312999431043863">
				<ele>99.0</ele>
				<time>2020-07-03T09:00:32</time>
			</trkpt>
			<trkpt lat="48.729589926078916" lon="3.0318499635905027">
				<ele>101.0</ele>
				<time>2020-07-03T09:00:39</time>
			</trkpt>
			<trkpt lat="48.730019917711616" lon="3.0330499168485403">
				<ele>103.0</ele>
				<time>2020-07-03T09:00:54</time>
			</trkpt>
			<trkpt lat="48.730099964886904" lon="3.034199997782707">
				<ele>104.0</ele>
				<time>2020-07-03T09:01:08</time>
			</trkpt>
			<trkpt lat="48.72924995608628" lon="3.034319942817092">
				<ele>108.0</ele>
				<time>2020-07-03T09:01:23</time>
			</trkpt>
			<trkpt lat="48.727629985660315" lon="3.0344799533486366">
				<ele>109.0</ele>
				<time>2020-07-03T09:01:51</time>
			</trkpt>
			<trkpt lat="48.72692992910743" lon="3.0347399599850178">
				<ele>109.0</ele>
				<time>2020-07-03T09:02:03</time>
			</trkpt>
			<trkpt lat="48.72662994079292" lon="3.0347099527716637">
				<ele>109.0</ele>
				<time>2020-07-03T09:02:09</time>
			</trkpt>
			<trkpt lat="48.7252199370414" lon="3.034309968352318">
				<ele>108.0</ele>
				<time>2020-07-03T09:02:34</time>
			</trkpt>
			<trkpt lat="48.7241199798882" lon="3.0345099605619907">
				<ele>109.0</ele>
				<time>2020-07-03T09:02:53</time>
			</trkpt>
			<trkpt lat="48.723139967769384" lon="3.0345099605619907">
				<ele>110.0</ele>
				<time>2020-07-03T09:03:10</time>
			</trkpt>
			<trkpt lat="48.72277996502817" lon="3.034349950030446">
				<ele>111.0</ele>
				<time>2020-07-03T09:03:16</time>
			</trkpt>
			<trkpt lat="48.72258994728327" lon="3.034199997782707">
				<ele>111.0</ele>
				<time>2020-07-03T09:03:20</time>
			</trkpt>
			<trkpt lat="48.72245994396508" lon="3.0341599322855473">
				<ele>111.0</ele>
				<time>2020-07-03T09:03:23</time>
			</trkpt>
			<trkpt lat="48.72190992347896" lon="3.0341899394989014">
				<ele>112.0</ele>
				<time>2020-07-03T09:03:32</time>
			</trkpt>
			<trkpt lat="48.720539985224605" lon="3.0339899472892284">
				<ele>112.0</ele>
				<time>2020-07-03T09:03:56</time>
			</trkpt>
			<trkpt lat="48.71940993703902" lon="3.0338199622929096">
				<ele>110.0</ele>
				<time>2020-07-03T09:04:16</time>
			</trkpt>
			<trkpt lat="48.7188599165529" lon="3.0337499734014273">
				<ele>111.0</ele>
				<time>2020-07-03T09:04:25</time>
			</trkpt>
			<trkpt lat="48.71835993602872" lon="3.033489966765046">
				<ele>112.0</ele>
				<time>2020-07-03T09:04:35</time>
			</trkpt>
			<trkpt lat="48.7181399948895" lon="3.0331099312752485">
				<ele>112.0</ele>
				<time>2020-07-03T09:04:40</time>
			</trkpt>
			<trkpt lat="48.717899937182665" lon="3.0324099585413933">
				<ele>112.0</ele>
				<time>2020-07-03T09:04:49</time>
			</trkpt>
			<trkpt lat="48.71728998608887" lon="3.0315199680626392">
				<ele>112.0</ele>
				<time>2020-07-03T09:05:04</time>
			</trkpt>
			<trkpt lat="48.71601996012032" lon="3.030129997059703">
				<ele>111.0</ele>
				<time>2020-07-03T09:05:31</time>
			</trkpt>
			<trkpt lat="48.715599942952394" lon="3.0298399832099676">
				<ele>111.0</ele>
				<time>2020-07-03T09:05:40</time>
			</trkpt>
			<trkpt lat="48.71550992131233" lon="3.0297299288213253">
				<ele>111.0</ele>
				<time>2020-07-03T09:05:42</time>
			</trkpt>
			<trkpt lat="48.71536994352937" lon="3.029399933293462">
				<ele>111.0</ele>
				<time>2020-07-03T09:05:46</time>
			</trkpt>
			<trkpt lat="48.714849930256605" lon="3.0278399772942066">
				<ele>110.0</ele>
				<time>2020-07-03T09:06:06</time>
			</trkpt>
			<trkpt lat="48.71434994973242" lon="3.0257799569517374">
				<ele>109.0</ele>
				<time>2020-07-03T09:06:31</time>
			</trkpt>
			<trkpt lat="48.71409958228469" lon="3.0249968357384205">
				<ele>110.0</ele>
				<time>2020-07-03T09:06:41</time>
			</trkpt>
			<trkpt lat="48.7140956427902" lon="3.02498459815979">
				<ele>115.76</ele>
				<time>2020-07-03T09:06:41</time>
			</trkpt>
			<trkpt lat="48.71410243213177" lon="3.0249800719320774">
				<ele>111.0</ele>
				<time>2020-07-03T09:06:42</time>
			</trkpt>
			<trkpt lat="48.71404409408569" lon="3.024780750274658">
				<ele>111.0</ele>
				<time>2020-07-03T09:06:44</time>
			</trkpt>
			<trkpt lat="48.7138295173645" lon="3.0242013931274414">
				<ele>110.6</ele>
				<time>2020-07-03T09:06:52</time>
			</trkpt>
			<trkpt lat="48.71356129646301" lon="3.023664951324463">
				<ele>110.33</ele>
				<time>2020-07-03T09:06:59</time>
			</trkpt>
			<trkpt lat="48.712799632921815" lon="3.0222702026367188">
				<ele>111.0</ele>
				<time>2020-07-03T09:07:20</time>
			</trkpt>
			<trkpt lat="48.71279954910278" lon="3.0222702026367188">
				<ele>111.0</ele>
				<time>2020-07-03T09:07:20</time>
			</trkpt>
			<trkpt lat="48.712016344070435" lon="3.020467758178711">
				<ele>110.11</ele>
				<time>2020-07-03T09:07:45</time>
			</trkpt>
			<trkpt lat="48.71121168136597" lon="3.019073009490967">
				<ele>109.14</ele>
				<time>2020-07-03T09:08:06</time>
			</trkpt>
			<trkpt lat="48.710728883743286" lon="3.0180752277374268">
				<ele>109.0</ele>
				<time>2020-07-03T09:08:21</time>
			</trkpt>
			<trkpt lat="48.71064305305481" lon="3.017871379852295">
				<ele>109.0</ele>
				<time>2020-07-03T09:08:23</time>
			</trkpt>
			<trkpt lat="48.71038556098938" lon="3.0175065994262695">
				<ele>109.82</ele>
				<time>2020-07-03T09:08:29</time>
			</trkpt>
			<trkpt lat="48.710267543792725" lon="3.0173885822296143">
				<ele>110.25</ele>
				<time>2020-07-03T09:08:32</time>
			</trkpt>
			<trkpt lat="48.709484338760376" lon="3.0166375637054443">
				<ele>111.0</ele>
				<time>2020-07-03T09:08:48</time>
			</trkpt>
			<trkpt lat="48.70858311653137" lon="3.0159080028533936">
				<ele>112.0</ele>
				<time>2020-07-03T09:09:06</time>
			</trkpt>
			<trkpt lat="48.707263469696045" lon="3.0148887634277344">
				<ele>111.0</ele>
				<time>2020-07-03T09:09:32</time>
			</trkpt>
			<trkpt lat="48.70697379112244" lon="3.0145883560180664">
				<ele>111.1</ele>
				<time>2020-07-03T09:09:38</time>
			</trkpt>
			<trkpt lat="48.706512451171875" lon="3.013923168182373">
				<ele>111.37</ele>
				<time>2020-07-03T09:09:49</time>
			</trkpt>
			<trkpt lat="48.70584726333618" lon="3.013129234313965">
				<ele>112.15</ele>
				<time>2020-07-03T09:10:04</time>
			</trkpt>
			<trkpt lat="48.70468854904175" lon="3.0118417739868164">
				<ele>112.67</ele>
				<time>2020-07-03T09:10:29</time>
			</trkpt>
			<trkpt lat="48.70361566543579" lon="3.010833263397217">
				<ele>112.3</ele>
				<time>2020-07-03T09:10:50</time>
			</trkpt>
			<trkpt lat="48.70307922363281" lon="3.010232448577881">
				<ele>110.88</ele>
				<time>2020-07-03T09:11:02</time>
			</trkpt>
			<trkpt lat="48.70293974876404" lon="3.0101466178894043">
				<ele>110.37</ele>
				<time>2020-07-03T09:11:05</time>
			</trkpt>
			<trkpt lat="48.70270371437073" lon="3.010103702545166">
				<ele>109.53</ele>
				<time>2020-07-03T09:11:09</time>
			</trkpt>
			<trkpt lat="48.70270379818976" lon="3.010103702545166">
				<ele>109.53</ele>
				<time>2020-07-03T09:11:09</time>
			</trkpt>
			<trkpt lat="48.70215662755072" lon="3.0100178718566895">
				<ele>109.0</ele>
				<time>2020-07-03T09:11:18</time>
			</trkpt>
			<trkpt lat="48.701834762468934" lon="3.0094492435455322">
				<ele>108.3</ele>
				<time>2020-07-03T09:11:27</time>
			</trkpt>
			<trkpt lat="48.70145916938782" lon="3.0090200901031494">
				<ele>107.08</ele>
				<time>2020-07-03T09:11:35</time>
			</trkpt>
			<trkpt lat="48.701244592666626" lon="3.0086445808410645">
				<ele>106.22</ele>
				<time>2020-07-03T09:11:41</time>
			</trkpt>
			<trkpt lat="48.70115876197815" lon="3.0085158348083496">
				<ele>105.8</ele>
				<time>2020-07-03T09:11:43</time>
			</trkpt>
			<trkpt lat="48.701051473617554" lon="3.008451461791992">
				<ele>105.23</ele>
				<time>2020-07-03T09:11:45</time>
			</trkpt>
			<trkpt lat="48.7009334564209" lon="3.0084407329559326">
				<ele>104.45</ele>
				<time>2020-07-03T09:11:47</time>
			</trkpt>
			<trkpt lat="48.700783252716064" lon="3.00850510597229">
				<ele>103.5</ele>
				<time>2020-07-03T09:11:50</time>
			</trkpt>
			<trkpt lat="48.7004292011261" lon="3.008805513381958">
				<ele>100.49</ele>
				<time>2020-07-03T09:11:57</time>
			</trkpt>
			<trkpt lat="48.69945287704468" lon="3.0095458030700684">
				<ele>92.97</ele>
				<time>2020-07-03T09:12:16</time>
			</trkpt>
			<trkpt lat="48.69883982464671" lon="3.0100607872009277">
				<ele>91.0</ele>
				<time>2020-07-03T09:12:28</time>
			</trkpt>
			<trkpt lat="48.69864821434021" lon="3.0102217197418213">
				<ele>91.0</ele>
				<time>2020-07-03T09:12:32</time>
			</trkpt>
			<trkpt lat="48.69864829815924" lon="3.0102217197418213">
				<ele>91.0</ele>
				<time>2020-07-03T09:12:32</time>
			</trkpt>
			<trkpt lat="48.69849809445441" lon="3.010350465774536">
				<ele>91.0</ele>
				<time>2020-07-03T09:12:35</time>
			</trkpt>
			<trkpt lat="48.69761824607849" lon="3.0110907554626465">
				<ele>92.77</ele>
				<time>2020-07-03T09:12:52</time>
			</trkpt>
			<trkpt lat="48.69732856750488" lon="3.011305332183838">
				<ele>93.63</ele>
				<time>2020-07-03T09:12:58</time>
			</trkpt>
			<trkpt lat="48.69707107543945" lon="3.0114448070526123">
				<ele>93.74</ele>
				<time>2020-07-03T09:13:03</time>
			</trkpt>
			<trkpt lat="48.69681358337402" lon="3.0115091800689697">
				<ele>94.73</ele>
				<time>2020-07-03T09:13:07</time>
			</trkpt>
			<trkpt lat="48.69485020637512" lon="3.0115628242492676">
				<ele>103.84</ele>
				<time>2020-07-03T09:13:42</time>
			</trkpt>
			<trkpt lat="48.694560527801514" lon="3.0114662647247314">
				<ele>105.54</ele>
				<time>2020-07-03T09:13:47</time>
			</trkpt>
			<trkpt lat="48.69433522224426" lon="3.011326789855957">
				<ele>107.75</ele>
				<time>2020-07-03T09:13:51</time>
			</trkpt>
			<trkpt lat="48.69420647621155" lon="3.0112838745117188">
				<ele>109.1</ele>
				<time>2020-07-03T09:13:53</time>
			</trkpt>
			<trkpt lat="48.69294055737555" lon="3.0116701126098633">
				<ele>115.6</ele>
				<time>2020-07-03T09:14:16</time>
			</trkpt>
			<trkpt lat="48.691760301589966" lon="3.0120456218719482">
				<ele>113.0</ele>
				<time>2020-07-03T09:14:37</time>
			</trkpt>
			<trkpt lat="48.69164228439331" lon="3.012099266052246">
				<ele>113.0</ele>
				<time>2020-07-03T09:14:39</time>
			</trkpt>
			<trkpt lat="48.691534996032715" lon="3.012206554412842">
				<ele>113.0</ele>
				<time>2020-07-03T09:14:41</time>
			</trkpt>
			<trkpt lat="48.69144916534424" lon="3.012356758117676">
				<ele>113.0</ele>
				<time>2020-07-03T09:14:43</time>
			</trkpt>
			<trkpt lat="48.69141697883606" lon="3.0125176906585693">
				<ele>112.53</ele>
				<time>2020-07-03T09:14:45</time>
			</trkpt>
			<trkpt lat="48.69140625" lon="3.012721538543701">
				<ele>112.12</ele>
				<time>2020-07-03T09:14:48</time>
			</trkpt>
			<trkpt lat="48.69143843650818" lon="3.013021945953369">
				<ele>112.01</ele>
				<time>2020-07-03T09:14:51</time>
			</trkpt>
			<trkpt lat="48.691502809524536" lon="3.0133330821990967">
				<ele>112.48</ele>
				<time>2020-07-03T09:14:55</time>
			</trkpt>
			<trkpt lat="48.69159936904907" lon="3.013719320297241">
				<ele>113.0</ele>
				<time>2020-07-03T09:15:00</time>
			</trkpt>
			<trkpt lat="48.692007064819336" lon="3.01499605178833">
				<ele>113.48</ele>
				<time>2020-07-03T09:15:16</time>
			</trkpt>
			<trkpt lat="48.69214653968811" lon="3.0154895782470703">
				<ele>112.46</ele>
				<time>2020-07-03T09:15:22</time>
			</trkpt>
			<trkpt lat="48.69247913360596" lon="3.01699161529541">
				<ele>111.92</ele>
				<time>2020-07-03T09:15:40</time>
			</trkpt>
			<trkpt lat="48.693015575408936" lon="3.0206501483917236">
				<ele>105.51</ele>
				<time>2020-07-03T09:16:23</time>
			</trkpt>
			<trkpt lat="48.693037033081055" lon="3.0208754539489746">
				<ele>104.62</ele>
				<time>2020-07-03T09:16:26</time>
			</trkpt>
			<trkpt lat="48.69302638806403" lon="3.021218776702881">
				<ele>104.29</ele>
				<time>2020-07-03T09:16:30</time>
			</trkpt>
			<trkpt lat="48.69297274388373" lon="3.021562099456787">
				<ele>104.0</ele>
				<time>2020-07-03T09:16:34</time>
			</trkpt>
			<trkpt lat="48.69283318519592" lon="3.0224311351776123">
				<ele>107.45</ele>
				<time>2020-07-03T09:16:44</time>
			</trkpt>
			<trkpt lat="48.692768812179565" lon="3.023042678833008">
				<ele>111.65</ele>
				<time>2020-07-03T09:16:51</time>
			</trkpt>
			<trkpt lat="48.69272589683533" lon="3.0231821537017822">
				<ele>112.0</ele>
				<time>2020-07-03T09:16:53</time>
			</trkpt>
			<trkpt lat="48.69262933731079" lon="3.023364543914795">
				<ele>111.72</ele>
				<time>2020-07-03T09:16:56</time>
			</trkpt>
			<trkpt lat="48.692747354507446" lon="3.02348256111145">
				<ele>111.29</ele>
				<time>2020-07-03T09:16:58</time>
			</trkpt>
			<trkpt lat="48.692790269851685" lon="3.0242228507995605">
				<ele>111.0</ele>
				<time>2020-07-03T09:17:07</time>
			</trkpt>
			<trkpt lat="48.69282245635986" lon="3.024609088897705">
				<ele>110.89</ele>
				<time>2020-07-03T09:17:11</time>
			</trkpt>
			<trkpt lat="48.69295120239258" lon="3.025263547897339">
				<ele>110.0</ele>
				<time>2020-07-03T09:17:19</time>
			</trkpt>
			<trkpt lat="48.693294525146484" lon="3.026529550552368">
				<ele>108.0</ele>
				<time>2020-07-03T09:17:35</time>
			</trkpt>
			<trkpt lat="48.69334816932678" lon="3.0268192291259766">
				<ele>107.83</ele>
				<time>2020-07-03T09:17:38</time>
			</trkpt>
			<trkpt lat="48.6933696269989" lon="3.0270767211914062">
				<ele>107.0</ele>
				<time>2020-07-03T09:17:41</time>
			</trkpt>
			<trkpt lat="48.6933696269989" lon="3.0273234844207764">
				<ele>107.0</ele>
				<time>2020-07-03T09:17:44</time>
			</trkpt>
			<trkpt lat="48.69321942329407" lon="3.028750419616699">
				<ele>106.6</ele>
				<time>2020-07-03T09:18:01</time>
			</trkpt>
			<trkpt lat="48.69313359260559" lon="3.0299949645996094">
				<ele>108.81</ele>
				<time>2020-07-03T09:18:15</time>
			</trkpt>
			<trkpt lat="48.693026304244995" lon="3.032097816467285">
				<ele>108.98</ele>
				<time>2020-07-03T09:18:39</time>
			</trkpt>
			<trkpt lat="48.6928653717041" lon="3.033696413040161">
				<ele>108.11</ele>
				<time>2020-07-03T09:18:58</time>
			</trkpt>
			<trkpt lat="48.69284391403198" lon="3.034951686859131">
				<ele>107.29</ele>
				<time>2020-07-03T09:19:12</time>
			</trkpt>
			<trkpt lat="48.693037033081055" lon="3.036990165710449">
				<ele>106.62</ele>
				<time>2020-07-03T09:19:36</time>
			</trkpt>
			<trkpt lat="48.69340189732611" lon="3.0421078205108643">
				<ele>118.0</ele>
				<time>2020-07-03T09:20:35</time>
			</trkpt>
			<trkpt lat="48.69340181350708" lon="3.0421078205108643">
				<ele>118.0</ele>
				<time>2020-07-03T09:20:35</time>
			</trkpt>
			<trkpt lat="48.69344481267035" lon="3.042740821838379">
				<ele>118.2</ele>
				<time>2020-07-03T09:20:42</time>
			</trkpt>
			<trkpt lat="48.693519830703735" lon="3.044081926345825">
				<ele>116.84</ele>
				<time>2020-07-03T09:20:58</time>
			</trkpt>
			<trkpt lat="48.693530559539795" lon="3.04445743560791">
				<ele>116.0</ele>
				<time>2020-07-03T09:21:02</time>
			</trkpt>
			<trkpt lat="48.693509101867676" lon="3.044607639312744">
				<ele>116.0</ele>
				<time>2020-07-03T09:21:04</time>
			</trkpt>
			<trkpt lat="48.69346618652344" lon="3.044811487197876">
				<ele>116.0</ele>
				<time>2020-07-03T09:21:06</time>
			</trkpt>
			<trkpt lat="48.69341262616217" lon="3.0449187755584717">
				<ele>116.0</ele>
				<time>2020-07-03T09:21:08</time>
			</trkpt>
			<trkpt lat="48.693283796310425" lon="3.04496169090271">
				<ele>116.37</ele>
				<time>2020-07-03T09:21:10</time>
			</trkpt>
			<trkpt lat="48.69320869445801" lon="3.04496169090271">
				<ele>116.64</ele>
				<time>2020-07-03T09:21:12</time>
			</trkpt>
			<trkpt lat="48.69288682937622" lon="3.044908046722412">
				<ele>116.07</ele>
				<time>2020-07-03T09:21:17</time>
			</trkpt>
			<trkpt lat="48.692586505785584" lon="3.0448222160339355">
				<ele>116.18</ele>
				<time>2020-07-03T09:21:23</time>
			</trkpt>
			<trkpt lat="48.6924147605896" lon="3.044832944869995">
				<ele>116.0</ele>
				<time>2020-07-03T09:21:26</time>
			</trkpt>
			<trkpt lat="48.69137406349182" lon="3.0449187755584717">
				<ele>117.0</ele>
				<time>2020-07-03T09:21:44</time>
			</trkpt>
			<trkpt lat="48.69118094444275" lon="3.0449724197387695">
				<ele>117.0</ele>
				<time>2020-07-03T09:21:47</time>
			</trkpt>
			<trkpt lat="48.69098782539368" lon="3.045090436935425">
				<ele>117.0</ele>
				<time>2020-07-03T09:21:51</time>
			</trkpt>
			<trkpt lat="48.687050342559814" lon="3.0482661724090576">
				<ele>125.19</ele>
				<time>2020-07-03T09:23:08</time>
			</trkpt>
			<trkpt lat="48.68695378303528" lon="3.0483949184417725">
				<ele>125.15</ele>
				<time>2020-07-03T09:23:11</time>
			</trkpt>
			<trkpt lat="48.68692168034613" lon="3.0484914779663086">
				<ele>125.27</ele>
				<time>2020-07-03T09:23:12</time>
			</trkpt>
			<trkpt lat="48.68690013885498" lon="3.0486738681793213">
				<ele>125.32</ele>
				<time>2020-07-03T09:23:14</time>
			</trkpt>
			<trkpt lat="48.687071884050965" lon="3.0528151988983154">
				<ele>123.0</ele>
				<time>2020-07-03T09:24:02</time>
			</trkpt>
			<trkpt lat="48.68743658065796" lon="3.0591022968292236">
				<ele>114.0</ele>
				<time>2020-07-03T09:25:14</time>
			</trkpt>
			<trkpt lat="48.687522411346436" lon="3.0596923828125">
				<ele>113.56</ele>
				<time>2020-07-03T09:25:21</time>
			</trkpt>
			<trkpt lat="48.688115514814854" lon="3.0629683658480644">
				<ele>109.0</ele>
				<time>2020-07-03T09:26:00</time>
			</trkpt>
			<trkpt lat="48.68813739158213" lon="3.062959313392639">
				<ele>109.06</ele>
				<time>2020-07-03T09:26:01</time>
			</trkpt>
			<trkpt lat="48.68898999877274" lon="3.0676699429750443">
				<ele>104.0</ele>
				<time>2020-07-03T09:26:57</time>
			</trkpt>
			<trkpt lat="48.68937992490828" lon="3.0697899777442217">
				<ele>106.0</ele>
				<time>2020-07-03T09:27:22</time>
			</trkpt>
			<trkpt lat="48.68937992490828" lon="3.070539990440011">
				<ele>108.0</ele>
				<time>2020-07-03T09:27:31</time>
			</trkpt>
			<trkpt lat="48.68926995433867" lon="3.071189923211932">
				<ele>109.0</ele>
				<time>2020-07-03T09:27:38</time>
			</trkpt>
			<trkpt lat="48.68913995102048" lon="3.071689987555146">
				<ele>109.0</ele>
				<time>2020-07-03T09:27:44</time>
			</trkpt>
			<trkpt lat="48.688919926062226" lon="3.0728699918836355">
				<ele>110.0</ele>
				<time>2020-07-03T09:27:58</time>
			</trkpt>
			<trkpt lat="48.68860996328294" lon="3.073869952932">
				<ele>112.0</ele>
				<time>2020-07-03T09:28:11</time>
			</trkpt>
			<trkpt lat="48.688439978286624" lon="3.0746499728411436">
				<ele>113.0</ele>
				<time>2020-07-03T09:28:21</time>
			</trkpt>
			<trkpt lat="48.68834995664656" lon="3.075139978900552">
				<ele>112.0</ele>
				<time>2020-07-03T09:28:26</time>
			</trkpt>
			<trkpt lat="48.68823998607695" lon="3.076269943267107">
				<ele>111.0</ele>
				<time>2020-07-03T09:28:40</time>
			</trkpt>
			<trkpt lat="48.68745996616781" lon="3.076269943267107">
				<ele>111.0</ele>
				<time>2020-07-03T09:28:53</time>
			</trkpt>
			<trkpt lat="48.687109937891364" lon="3.0761999543756247">
				<ele>110.0</ele>
				<time>2020-07-03T09:28:59</time>
			</trkpt>
			<trkpt lat="48.6865399684757" lon="3.0757499299943447">
				<ele>110.0</ele>
				<time>2020-07-03T09:29:10</time>
			</trkpt>
			<trkpt lat="48.685839995741844" lon="3.0749999172985554">
				<ele>111.0</ele>
				<time>2020-07-03T09:29:25</time>
			</trkpt>
			<trkpt lat="48.685049917548895" lon="3.0743099190294743">
				<ele>112.0</ele>
				<time>2020-07-03T09:29:41</time>
			</trkpt>
			<trkpt lat="48.6841999925673" lon="3.07384992018342">
				<ele>110.0</ele>
				<time>2020-07-03T09:29:57</time>
			</trkpt>
			<trkpt lat="48.68320992216468" lon="3.0735899973660707">
				<ele>110.0</ele>
				<time>2020-07-03T09:30:14</time>
			</trkpt>
			<trkpt lat="48.681699922308326" lon="3.0730799585580826">
				<ele>109.0</ele>
				<time>2020-07-03T09:30:41</time>
			</trkpt>
			<trkpt lat="48.68150998838246" lon="3.0729099735617638">
				<ele>109.0</ele>
				<time>2020-07-03T09:30:45</time>
			</trkpt>
			<trkpt lat="48.68031992577016" lon="3.071169974282384">
				<ele>112.0</ele>
				<time>2020-07-03T09:31:14</time>
			</trkpt>
			<trkpt lat="48.68006997741759" lon="3.0709099676460028">
				<ele>112.0</ele>
				<time>2020-07-03T09:31:19</time>
			</trkpt>
			<trkpt lat="48.67920999415219" lon="3.0702499765902758">
				<ele>112.0</ele>
				<time>2020-07-03T09:31:36</time>
			</trkpt>
			<trkpt lat="48.678259989246726" lon="3.069369960576296">
				<ele>113.0</ele>
				<time>2020-07-03T09:31:55</time>
			</trkpt>
			<trkpt lat="48.67624179460108" lon="3.0682508926838636">
				<ele>116.97</ele>
				<time>2020-07-03T09:32:33</time>
			</trkpt>
			<trkpt lat="48.67624171078205" lon="3.0682508926838636">
				<ele>116.98</ele>
				<time>2020-07-03T09:32:33</time>
			</trkpt>
			<trkpt lat="48.67624053731561" lon="3.06825022213161">
				<ele>116.99</ele>
				<time>2020-07-03T09:32:33</time>
			</trkpt>
			<trkpt lat="48.676239950582385" lon="3.0682499706745148">
				<ele>117.0</ele>
				<time>2020-07-03T09:32:33</time>
			</trkpt>
			<trkpt lat="48.6761699616909" lon="3.068059952929616">
				<ele>117.0</ele>
				<time>2020-07-03T09:32:35</time>
			</trkpt>
			<trkpt lat="48.676259983330965" lon="3.067409936338663">
				<ele>118.0</ele>
				<time>2020-07-03T09:32:43</time>
			</trkpt>
			<trkpt lat="48.67605999112129" lon="3.0664699897170067">
				<ele>119.0</ele>
				<time>2020-07-03T09:32:54</time>
			</trkpt>
			<trkpt lat="48.676109947264194" lon="3.066069921478629">
				<ele>119.0</ele>
				<time>2020-07-03T09:32:59</time>
			</trkpt>
			<trkpt lat="48.67633994668722" lon="3.065389981493354">
				<ele>119.0</ele>
				<time>2020-07-03T09:33:08</time>
			</trkpt>
			<trkpt lat="48.67620994336903" lon="3.065119916573167">
				<ele>118.0</ele>
				<time>2020-07-03T09:33:12</time>
			</trkpt>
			<trkpt lat="48.67605999112129" lon="3.0649299826472998">
				<ele>118.0</ele>
				<time>2020-07-03T09:33:15</time>
			</trkpt>
			<trkpt lat="48.67558993399143" lon="3.064529998227954">
				<ele>117.0</ele>
				<time>2020-07-03T09:33:24</time>
			</trkpt>
			<trkpt lat="48.67531995289028" lon="3.064119955524802">
				<ele>117.0</ele>
				<time>2020-07-03T09:33:31</time>
			</trkpt>
			<trkpt lat="48.67514996789396" lon="3.063819967210293">
				<ele>117.0</ele>
				<time>2020-07-03T09:33:36</time>
			</trkpt>
			<trkpt lat="48.674689969047904" lon="3.062709951773286">
				<ele>118.0</ele>
				<time>2020-07-03T09:33:51</time>
			</trkpt>
			<trkpt lat="48.67446994408965" lon="3.0623999889940023">
				<ele>119.0</ele>
				<time>2020-07-03T09:33:56</time>
			</trkpt>
			<trkpt lat="48.66963995620608" lon="3.0583999771624804">
				<ele>120.0</ele>
				<time>2020-07-03T09:35:32</time>
			</trkpt>
			<trkpt lat="48.66951992735267" lon="3.0582399666309357">
				<ele>120.0</ele>
				<time>2020-07-03T09:35:35</time>
			</trkpt>
			<trkpt lat="48.669279953464866" lon="3.0566899850964546">
				<ele>123.0</ele>
				<time>2020-07-03T09:35:53</time>
			</trkpt>
			<trkpt lat="48.66928992792964" lon="3.0564699601382017">
				<ele>124.0</ele>
				<time>2020-07-03T09:35:55</time>
			</trkpt>
			<trkpt lat="48.66945999674499" lon="3.0559799540787935">
				<ele>125.0</ele>
				<time>2020-07-03T09:36:02</time>
			</trkpt>
			<trkpt lat="48.669429989531636" lon="3.0557599291205406">
				<ele>125.0</ele>
				<time>2020-07-03T09:36:04</time>
			</trkpt>
			<trkpt lat="48.66735999472439" lon="3.048159973695874">
				<ele>129.0</ele>
				<time>2020-07-03T09:37:39</time>
			</trkpt>
			<trkpt lat="48.667279947549105" lon="3.047669967636466">
				<ele>128.0</ele>
				<time>2020-07-03T09:37:45</time>
			</trkpt>
			<trkpt lat="48.6680899746716" lon="3.0415799282491207">
				<ele>131.0</ele>
				<time>2020-07-03T09:38:56</time>
			</trkpt>
			<trkpt lat="48.66812995634973" lon="3.040999984368682">
				<ele>133.0</ele>
				<time>2020-07-03T09:39:03</time>
			</trkpt>
			<trkpt lat="48.66829994134605" lon="3.0400499794632196">
				<ele>132.0</ele>
				<time>2020-07-03T09:39:14</time>
			</trkpt>
			<trkpt lat="48.668419970199466" lon="3.0391399562358856">
				<ele>132.0</ele>
				<time>2020-07-03T09:39:25</time>
			</trkpt>
			<trkpt lat="48.66948992013931" lon="3.0282999761402607">
				<ele>135.0</ele>
				<time>2020-07-03T09:41:31</time>
			</trkpt>
			<trkpt lat="48.67139998823404" lon="3.0282499361783266">
				<ele>124.0</ele>
				<time>2020-07-03T09:42:04</time>
			</trkpt>
			<trkpt lat="48.67383996024728" lon="3.02814994007349">
				<ele>121.0</ele>
				<time>2020-07-03T09:42:46</time>
			</trkpt>
			<trkpt lat="48.67450104095042" lon="3.0280357785522938">
				<ele>123.34</ele>
				<time>2020-07-03T09:42:58</time>
			</trkpt>
			<trkpt lat="48.677719943225384" lon="3.027479974552989">
				<ele>120.0</ele>
				<time>2020-07-03T09:43:54</time>
			</trkpt>
			<trkpt lat="48.67856995202601" lon="3.027049982920289">
				<ele>119.0</ele>
				<time>2020-07-03T09:44:10</time>
			</trkpt>
			<trkpt lat="48.67922994308174" lon="3.026549918577075">
				<ele>119.0</ele>
				<time>2020-07-03T09:44:23</time>
			</trkpt>
			<trkpt lat="48.67981994524598" lon="3.0261799413710833">
				<ele>119.0</ele>
				<time>2020-07-03T09:44:34</time>
			</trkpt>
			<trkpt lat="48.680619997903705" lon="3.0257999897003174">
				<ele>118.0</ele>
				<time>2020-07-03T09:44:49</time>
			</trkpt>
			<trkpt lat="48.68116993457079" lon="3.025459935888648">
				<ele>117.0</ele>
				<time>2020-07-03T09:44:59</time>
			</trkpt>
			<trkpt lat="48.68187996558845" lon="3.024829952046275">
				<ele>117.0</ele>
				<time>2020-07-03T09:45:13</time>
			</trkpt>
			<trkpt lat="48.68260994553566" lon="3.0238099582493305">
				<ele>118.0</ele>
				<time>2020-07-03T09:45:31</time>
			</trkpt>
			<trkpt lat="48.68307991884649" lon="3.0233899410814047">
				<ele>118.0</ele>
				<time>2020-07-03T09:45:40</time>
			</trkpt>
			<trkpt lat="48.683349983766675" lon="3.023279970511794">
				<ele>118.0</ele>
				<time>2020-07-03T09:45:45</time>
			</trkpt>
			<trkpt lat="48.686099918559194" lon="3.022599946707487">
				<ele>116.0</ele>
				<time>2020-07-03T09:46:33</time>
			</trkpt>
			<trkpt lat="48.68692997843027" lon="3.0224599689245224">
				<ele>113.0</ele>
				<time>2020-07-03T09:46:48</time>
			</trkpt>
			<trkpt lat="48.68756993673742" lon="3.0224799178540707">
				<ele>111.0</ele>
				<time>2020-07-03T09:46:59</time>
			</trkpt>
			<trkpt lat="48.69222993962467" lon="3.023419948294759">
				<ele>110.0</ele>
				<time>2020-07-03T09:48:21</time>
			</trkpt>
			<trkpt lat="48.69256999343634" lon="3.0233999993652105">
				<ele>110.0</ele>
				<time>2020-07-03T09:48:27</time>
			</trkpt>
			<trkpt lat="48.69265993125737" lon="3.0233299266546965">
				<ele>110.0</ele>
				<time>2020-07-03T09:48:29</time>
			</trkpt>
			<trkpt lat="48.692739978432655" lon="3.0231199599802494">
				<ele>109.0</ele>
				<time>2020-07-03T09:48:31</time>
			</trkpt>
			<trkpt lat="48.693019933998585" lon="3.0210999213159084">
				<ele>103.0</ele>
				<time>2020-07-03T09:48:55</time>
			</trkpt>
			<trkpt lat="48.69300995953381" lon="3.02064998075366">
				<ele>104.0</ele>
				<time>2020-07-03T09:49:00</time>
			</trkpt>
			<trkpt lat="48.692779960110784" lon="3.0190899409353733">
				<ele>106.0</ele>
				<time>2020-07-03T09:49:19</time>
			</trkpt>
			<trkpt lat="48.69252992793918" lon="3.017309959977865">
				<ele>109.0</ele>
				<time>2020-07-03T09:49:39</time>
			</trkpt>
			<trkpt lat="48.69223999790847" lon="3.015919988974929">
				<ele>110.0</ele>
				<time>2020-07-03T09:49:56</time>
			</trkpt>
			<trkpt lat="48.69201997295022" lon="3.015029998496175">
				<ele>111.0</ele>
				<time>2020-07-03T09:50:07</time>
			</trkpt>
			<trkpt lat="48.69162996299565" lon="3.0138399358838797">
				<ele>111.0</ele>
				<time>2020-07-03T09:50:22</time>
			</trkpt>
			<trkpt lat="48.691449919715524" lon="3.0131599958986044">
				<ele>111.0</ele>
				<time>2020-07-03T09:50:31</time>
			</trkpt>
			<trkpt lat="48.69139996357262" lon="3.0127699859440327">
				<ele>112.0</ele>
				<time>2020-07-03T09:50:35</time>
			</trkpt>
			<trkpt lat="48.691429970785975" lon="3.012369917705655">
				<ele>112.0</ele>
				<time>2020-07-03T09:50:40</time>
			</trkpt>
			<trkpt lat="48.691539941355586" lon="3.012179983779788">
				<ele>112.0</ele>
				<time>2020-07-03T09:50:43</time>
			</trkpt>
			<trkpt lat="48.69167991913855" lon="3.0120599549263716">
				<ele>112.0</ele>
				<time>2020-07-03T09:50:46</time>
			</trkpt>
			<trkpt lat="48.69422994554043" lon="3.0112399533391">
				<ele>107.0</ele>
				<time>2020-07-03T09:51:31</time>
			</trkpt>
			<trkpt lat="48.69304994121194" lon="3.0088799446821213">
				<ele>109.0</ele>
				<time>2020-07-03T09:52:05</time>
			</trkpt>
			<trkpt lat="48.692589942365885" lon="3.0078199692070484">
				<ele>109.0</ele>
				<time>2020-07-03T09:52:20</time>
			</trkpt>
			<trkpt lat="48.69244996458292" lon="3.007549988105893">
				<ele>109.0</ele>
				<time>2020-07-03T09:52:24</time>
			</trkpt>
			<trkpt lat="48.69203992187977" lon="3.007009942084551">
				<ele>110.0</ele>
				<time>2020-07-03T09:52:33</time>
			</trkpt>
			<trkpt lat="48.691879995167255" lon="3.0066899210214615">
				<ele>110.0</ele>
				<time>2020-07-03T09:52:38</time>
			</trkpt>
			<trkpt lat="48.69176994077861" lon="3.0062399804592133">
				<ele>110.0</ele>
				<time>2020-07-03T09:52:43</time>
			</trkpt>
			<trkpt lat="48.691709926351905" lon="3.0055999383330345">
				<ele>109.0</ele>
				<time>2020-07-03T09:52:51</time>
			</trkpt>
			<trkpt lat="48.69164999574423" lon="3.0053599644452333">
				<ele>109.0</ele>
				<time>2020-07-03T09:52:54</time>
			</trkpt>
			<trkpt lat="48.69147992692888" lon="3.0049699544906616">
				<ele>109.0</ele>
				<time>2020-07-03T09:52:59</time>
			</trkpt>
			<trkpt lat="48.69115998968482" lon="3.003069944679737">
				<ele>110.0</ele>
				<time>2020-07-03T09:53:21</time>
			</trkpt>
			<trkpt lat="48.69106996804476" lon="3.002549931406975">
				<ele>110.0</ele>
				<time>2020-07-03T09:53:28</time>
			</trkpt>
			<trkpt lat="48.69094993919134" lon="3.000659979879856">
				<ele>107.0</ele>
				<time>2020-07-03T09:53:49</time>
			</trkpt>
			<trkpt lat="48.69087995029986" lon="3.000139966607094">
				<ele>106.0</ele>
				<time>2020-07-03T09:53:56</time>
			</trkpt>
			<trkpt lat="48.69041576050222" lon="2.998489737510681">
				<ele>99.58</ele>
				<time>2020-07-03T09:54:16</time>
			</trkpt>
			<trkpt lat="48.69006992317736" lon="2.997259944677353">
				<ele>100.0</ele>
				<time>2020-07-03T09:54:32</time>
			</trkpt>
			<trkpt lat="48.69004997424781" lon="2.9969199746847153">
				<ele>100.0</ele>
				<time>2020-07-03T09:54:35</time>
			</trkpt>
			<trkpt lat="48.69014997035265" lon="2.9966699425131083">
				<ele>100.0</ele>
				<time>2020-07-03T09:54:39</time>
			</trkpt>
			<trkpt lat="48.690439984202385" lon="2.996379928663373">
				<ele>97.0</ele>
				<time>2020-07-03T09:54:45</time>
			</trkpt>
			<trkpt lat="48.690549954771996" lon="2.9961299803107977">
				<ele>95.0</ele>
				<time>2020-07-03T09:54:48</time>
			</trkpt>
			<trkpt lat="48.69059999473393" lon="2.9958699736744165">
				<ele>95.0</ele>
				<time>2020-07-03T09:54:51</time>
			</trkpt>
			<trkpt lat="48.69059999473393" lon="2.9956699814647436">
				<ele>94.0</ele>
				<time>2020-07-03T09:54:54</time>
			</trkpt>
			<trkpt lat="48.69042992591858" lon="2.9943199921399355">
				<ele>96.0</ele>
				<time>2020-07-03T09:55:10</time>
			</trkpt>
			<trkpt lat="48.69040997698903" lon="2.993729989975691">
				<ele>98.0</ele>
				<time>2020-07-03T09:55:16</time>
			</trkpt>
			<trkpt lat="48.69068993255496" lon="2.9915899224579334">
				<ele>100.0</ele>
				<time>2020-07-03T09:55:41</time>
			</trkpt>
			<trkpt lat="48.690719939768314" lon="2.9884899593889713">
				<ele>98.0</ele>
				<time>2020-07-03T09:56:17</time>
			</trkpt>
			<trkpt lat="48.69076997973025" lon="2.987729972228408">
				<ele>99.0</ele>
				<time>2020-07-03T09:56:26</time>
			</trkpt>
			<trkpt lat="48.69111992418766" lon="2.986219972372055">
				<ele>99.0</ele>
				<time>2020-07-03T09:56:44</time>
			</trkpt>
			<trkpt lat="48.69182995520532" lon="2.983959959819913">
				<ele>99.0</ele>
				<time>2020-07-03T09:57:13</time>
			</trkpt>
			<trkpt lat="48.69188996963203" lon="2.983159990981221">
				<ele>101.0</ele>
				<time>2020-07-03T09:57:22</time>
			</trkpt>
			<trkpt lat="48.6918499879539" lon="2.982669984921813">
				<ele>102.0</ele>
				<time>2020-07-03T09:57:28</time>
			</trkpt>
			<trkpt lat="48.69163993746042" lon="2.9816499911248684">
				<ele>102.0</ele>
				<time>2020-07-03T09:57:40</time>
			</trkpt>
			<trkpt lat="48.691489985212684" lon="2.9811199195683002">
				<ele>103.0</ele>
				<time>2020-07-03T09:57:47</time>
			</trkpt>
			<trkpt lat="48.690119963139296" lon="2.9776199720799923">
				<ele>105.0</ele>
				<time>2020-07-03T09:58:33</time>
			</trkpt>
			<trkpt lat="48.68991997092962" lon="2.9769999627023935">
				<ele>105.0</ele>
				<time>2020-07-03T09:58:41</time>
			</trkpt>
			<trkpt lat="48.689669938758016" lon="2.975949961692095">
				<ele>104.0</ele>
				<time>2020-07-03T09:58:54</time>
			</trkpt>
			<trkpt lat="48.688249960541725" lon="2.9692299384623766">
				<ele>103.0</ele>
				<time>2020-07-03T10:00:15</time>
			</trkpt>
			<trkpt lat="48.687969921156764" lon="2.968209944665432">
				<ele>103.0</ele>
				<time>2020-07-03T10:00:28</time>
			</trkpt>
			<trkpt lat="48.687969921156764" lon="2.9679199308156967">
				<ele>103.0</ele>
				<time>2020-07-03T10:00:31</time>
			</trkpt>
			<trkpt lat="48.6880199611187" lon="2.9676899313926697">
				<ele>103.0</ele>
				<time>2020-07-03T10:00:34</time>
			</trkpt>
			<trkpt lat="48.68821995332837" lon="2.967359935864806">
				<ele>104.0</ele>
				<time>2020-07-03T10:00:39</time>
			</trkpt>
			<trkpt lat="48.68832992389798" lon="2.9672799725085497">
				<ele>103.0</ele>
				<time>2020-07-03T10:00:41</time>
			</trkpt>
			<trkpt lat="48.68918999098241" lon="2.9669599514454603">
				<ele>103.0</ele>
				<time>2020-07-03T10:00:57</time>
			</trkpt>
			<trkpt lat="48.68945997208357" lon="2.966459970921278">
				<ele>104.0</ele>
				<time>2020-07-03T10:01:04</time>
			</trkpt>
			<trkpt lat="48.68956994265318" lon="2.9663599748164415">
				<ele>104.0</ele>
				<time>2020-07-03T10:01:06</time>
			</trkpt>
			<trkpt lat="48.68969994597137" lon="2.9659599903970957">
				<ele>105.0</ele>
				<time>2020-07-03T10:01:12</time>
			</trkpt>
			<trkpt lat="48.689819974824786" lon="2.9657599981874228">
				<ele>104.0</ele>
				<time>2020-07-03T10:01:15</time>
			</trkpt>
			<trkpt lat="48.69032992981374" lon="2.965289941057563">
				<ele>105.0</ele>
				<time>2020-07-03T10:01:25</time>
			</trkpt>
			<trkpt lat="48.690869975835085" lon="2.9650399927049875">
				<ele>103.0</ele>
				<time>2020-07-03T10:01:35</time>
			</trkpt>
			<trkpt lat="48.69162996299565" lon="2.9648099932819605">
				<ele>100.0</ele>
				<time>2020-07-03T10:01:48</time>
			</trkpt>
			<trkpt lat="48.699326226487756" lon="2.9631606861948967">
				<ele>87.0</ele>
				<time>2020-07-03T10:04:04</time>
			</trkpt>
			<trkpt lat="48.69932731613517" lon="2.9631604347378016">
				<ele>87.0</ele>
				<time>2020-07-03T10:04:04</time>
			</trkpt>
			<trkpt lat="48.69932756759226" lon="2.9631604347378016">
				<ele>87.0</ele>
				<time>2020-07-03T10:04:04</time>
			</trkpt>
			<trkpt lat="48.69932999834418" lon="2.9631599318236113">
				<ele>87.0</ele>
				<time>2020-07-03T10:04:04</time>
			</trkpt>
			<trkpt lat="48.70357995852828" lon="2.9622999485582113">
				<ele>105.0</ele>
				<time>2020-07-03T10:05:18</time>
			</trkpt>
			<trkpt lat="48.70394993573427" lon="2.9623099230229855">
				<ele>105.0</ele>
				<time>2020-07-03T10:05:25</time>
			</trkpt>
			<trkpt lat="48.704749988391995" lon="2.9625899624079466">
				<ele>105.0</ele>
				<time>2020-07-03T10:05:39</time>
			</trkpt>
			<trkpt lat="48.70518995448947" lon="2.9625699296593666">
				<ele>105.0</ele>
				<time>2020-07-03T10:05:47</time>
			</trkpt>
			<trkpt lat="48.70989999733865" lon="2.960449978709221">
				<ele>113.0</ele>
				<time>2020-07-03T10:07:12</time>
			</trkpt>
			<trkpt lat="48.71040995232761" lon="2.960269935429096">
				<ele>113.0</ele>
				<time>2020-07-03T10:07:21</time>
			</trkpt>
			<trkpt lat="48.71369993314147" lon="2.9602999426424503">
				<ele>112.0</ele>
				<time>2020-07-03T10:08:19</time>
			</trkpt>
			<trkpt lat="48.71402992866933" lon="2.9603699315339327">
				<ele>111.0</ele>
				<time>2020-07-03T10:08:24</time>
			</trkpt>
			<trkpt lat="48.714139983057976" lon="2.9604099970310926">
				<ele>110.0</ele>
				<time>2020-07-03T10:08:26</time>
			</trkpt>
			<trkpt lat="48.71423997916281" lon="2.9603499826043844">
				<ele>110.0</ele>
				<time>2020-07-03T10:08:28</time>
			</trkpt>
			<trkpt lat="48.7143599241972" lon="2.960009928792715">
				<ele>110.0</ele>
				<time>2020-07-03T10:08:33</time>
			</trkpt>
			<trkpt lat="48.71455991640687" lon="2.959769954904914">
				<ele>110.0</ele>
				<time>2020-07-03T10:08:37</time>
			</trkpt>
			<trkpt lat="48.714759992435575" lon="2.9596399515867233">
				<ele>110.0</ele>
				<time>2020-07-03T10:08:41</time>
			</trkpt>
			<trkpt lat="48.71534999459982" lon="2.9593899194151163">
				<ele>110.0</ele>
				<time>2020-07-03T10:08:52</time>
			</trkpt>
			<trkpt lat="48.72167087160051" lon="2.955498369410634">
				<ele>111.0</ele>
				<time>2020-07-03T10:10:50</time>
			</trkpt>
			<trkpt lat="48.72658995911479" lon="2.952469987794757">
				<ele>111.0</ele>
				<time>2020-07-03T10:12:23</time>
			</trkpt>
			<trkpt lat="48.72884997166693" lon="2.951099965721369">
				<ele>113.0</ele>
				<time>2020-07-03T10:13:05</time>
			</trkpt>
			<trkpt lat="48.72944994829595" lon="2.9507799446582794">
				<ele>114.0</ele>
				<time>2020-07-03T10:13:16</time>
			</trkpt>
			<trkpt lat="48.72957995161414" lon="2.950759995728731">
				<ele>114.0</ele>
				<time>2020-07-03T10:13:18</time>
			</trkpt>
			<trkpt lat="48.72999996878207" lon="2.950899973511696">
				<ele>114.0</ele>
				<time>2020-07-03T10:13:26</time>
			</trkpt>
			<trkpt lat="48.73056993819773" lon="2.9512499179691076">
				<ele>114.0</ele>
				<time>2020-07-03T10:13:37</time>
			</trkpt>
			<trkpt lat="48.730939999222755" lon="2.951329965144396">
				<ele>113.0</ele>
				<time>2020-07-03T10:13:43</time>
			</trkpt>
			<trkpt lat="48.73605991713703" lon="2.9508699662983418">
				<ele>117.0</ele>
				<time>2020-07-03T10:15:12</time>
			</trkpt>
			<trkpt lat="48.73627994209528" lon="2.9509999696165323">
				<ele>117.0</ele>
				<time>2020-07-03T10:15:17</time>
			</trkpt>
			<trkpt lat="48.73668998479843" lon="2.951419986784458">
				<ele>116.0</ele>
				<time>2020-07-03T10:15:25</time>
			</trkpt>
			<trkpt lat="48.73694999143481" lon="2.9519199673086405">
				<ele>116.0</ele>
				<time>2020-07-03T10:15:32</time>
			</trkpt>
			<trkpt lat="48.738069981336594" lon="2.950259931385517">
				<ele>114.0</ele>
				<time>2020-07-03T10:16:00</time>
			</trkpt>
			<trkpt lat="48.73949993401766" lon="2.948959982022643">
				<ele>113.0</ele>
				<time>2020-07-03T10:16:29</time>
			</trkpt>
			<trkpt lat="48.74018993228674" lon="2.948099998757243">
				<ele>112.0</ele>
				<time>2020-07-03T10:16:44</time>
			</trkpt>
			<trkpt lat="48.74068999662995" lon="2.9476999305188656">
				<ele>112.0</ele>
				<time>2020-07-03T10:16:54</time>
			</trkpt>
			<trkpt lat="48.74121998436749" lon="2.947389967739582">
				<ele>112.0</ele>
				<time>2020-07-03T10:17:04</time>
			</trkpt>
			<trkpt lat="48.743899930268526" lon="2.946499977260828">
				<ele>113.0</ele>
				<time>2020-07-03T10:17:52</time>
			</trkpt>
			<trkpt lat="48.75226993113756" lon="2.943759933114052">
				<ele>121.0</ele>
				<time>2020-07-03T10:20:21</time>
			</trkpt>
			<trkpt lat="48.752489956095815" lon="2.9439699836075306">
				<ele>120.0</ele>
				<time>2020-07-03T10:20:25</time>
			</trkpt>
			<trkpt lat="48.75269992277026" lon="2.944029998034239">
				<ele>120.0</ele>
				<time>2020-07-03T10:20:29</time>
			</trkpt>
			<trkpt lat="48.75303997658193" lon="2.943829922005534">
				<ele>118.0</ele>
				<time>2020-07-03T10:20:35</time>
			</trkpt>
			<trkpt lat="48.75327995046973" lon="2.943529933691025">
				<ele>116.0</ele>
				<time>2020-07-03T10:20:41</time>
			</trkpt>
			<trkpt lat="48.75348991714418" lon="2.94336992315948">
				<ele>115.0</ele>
				<time>2020-07-03T10:20:45</time>
			</trkpt>
			<trkpt lat="48.77677995711565" lon="2.9356899205595255">
				<ele>124.0</ele>
				<time>2020-07-03T10:27:40</time>
			</trkpt>
			<trkpt lat="48.77726996317506" lon="2.9357099533081055">
				<ele>125.0</ele>
				<time>2020-07-03T10:27:48</time>
			</trkpt>
			<trkpt lat="48.77986994571984" lon="2.9361799266189337">
				<ele>127.0</ele>
				<time>2020-07-03T10:28:34</time>
			</trkpt>
			<trkpt lat="48.78145999275148" lon="2.9364099260419607">
				<ele>123.0</ele>
				<time>2020-07-03T10:29:02</time>
			</trkpt>
			<trkpt lat="48.792559979483485" lon="2.9348799772560596">
				<ele>136.0</ele>
				<time>2020-07-03T10:32:16</time>
			</trkpt>
			<trkpt lat="48.802367225289345" lon="2.9316206742078066">
				<ele>133.0</ele>
				<time>2020-07-03T10:35:10</time>
			</trkpt>
			<trkpt lat="48.802367728203535" lon="2.931620506569743">
				<ele>133.0</ele>
				<time>2020-07-03T10:35:10</time>
			</trkpt>
			<trkpt lat="48.80236848257482" lon="2.9316203389316797">
				<ele>133.0</ele>
				<time>2020-07-03T10:35:10</time>
			</trkpt>
			<trkpt lat="48.80236999131739" lon="2.931619919836521">
				<ele>133.0</ele>
				<time>2020-07-03T10:35:10</time>
			</trkpt>
			<trkpt lat="48.805109951645136" lon="2.9306699987500906">
				<ele>130.0</ele>
				<time>2020-07-03T10:35:59</time>
			</trkpt>
			<trkpt lat="48.80552996881306" lon="2.930459948256612">
				<ele>129.0</ele>
				<time>2020-07-03T10:36:07</time>
			</trkpt>
			<trkpt lat="48.80651995539665" lon="2.929569957777858">
				<ele>125.0</ele>
				<time>2020-07-03T10:36:27</time>
			</trkpt>
			<trkpt lat="48.81447999738157" lon="2.921839999035001">
				<ele>84.0</ele>
				<time>2020-07-03T10:39:11</time>
			</trkpt>
			<trkpt lat="48.81476992741227" lon="2.9214699380099773">
				<ele>83.0</ele>
				<time>2020-07-03T10:39:18</time>
			</trkpt>
			<trkpt lat="48.81501995958388" lon="2.920979931950569">
				<ele>79.0</ele>
				<time>2020-07-03T10:39:25</time>
			</trkpt>
			<trkpt lat="48.81566997617483" lon="2.919449983164668">
				<ele>70.0</ele>
				<time>2020-07-03T10:39:46</time>
			</trkpt>
			<trkpt lat="48.81962992250919" lon="2.909839963540435">
				<ele>56.0</ele>
				<time>2020-07-03T10:41:56</time>
			</trkpt>
			<trkpt lat="48.81980996578932" lon="2.9090299364179373">
				<ele>53.0</ele>
				<time>2020-07-03T10:42:06</time>
			</trkpt>
			<trkpt lat="48.82008992135525" lon="2.906099958345294">
				<ele>57.0</ele>
				<time>2020-07-03T10:42:40</time>
			</trkpt>
			<trkpt lat="48.82017994299531" lon="2.905679941177368">
				<ele>58.0</ele>
				<time>2020-07-03T10:42:45</time>
			</trkpt>
			<trkpt lat="48.8203099463135" lon="2.9053699783980846">
				<ele>60.0</ele>
				<time>2020-07-03T10:42:49</time>
			</trkpt>
			<trkpt lat="48.82051999680698" lon="2.9050699900835752">
				<ele>62.0</ele>
				<time>2020-07-03T10:42:54</time>
			</trkpt>
			<trkpt lat="48.82279995828867" lon="2.9027199558913708">
				<ele>64.0</ele>
				<time>2020-07-03T10:43:42</time>
			</trkpt>
			<trkpt lat="48.823259957134724" lon="2.902499930933118">
				<ele>62.0</ele>
				<time>2020-07-03T10:43:50</time>
			</trkpt>
			<trkpt lat="48.82356991991401" lon="2.9024299420416355">
				<ele>60.0</ele>
				<time>2020-07-03T10:43:56</time>
			</trkpt>
			<trkpt lat="48.824189929291606" lon="2.9023899603635073">
				<ele>60.0</ele>
				<time>2020-07-03T10:44:07</time>
			</trkpt>
			<trkpt lat="48.82449997588992" lon="2.9020499903708696">
				<ele>64.0</ele>
				<time>2020-07-03T10:44:13</time>
			</trkpt>
			<trkpt lat="48.824939941987395" lon="2.9017499182373285">
				<ele>68.0</ele>
				<time>2020-07-03T10:44:22</time>
			</trkpt>
			<trkpt lat="48.82563999854028" lon="2.901669954881072">
				<ele>65.0</ele>
				<time>2020-07-03T10:44:34</time>
			</trkpt>
			<trkpt lat="48.82704991847277" lon="2.901719994843006">
				<ele>59.0</ele>
				<time>2020-07-03T10:44:58</time>
			</trkpt>
			<trkpt lat="48.82904992438853" lon="2.9012799449265003">
				<ele>59.0</ele>
				<time>2020-07-03T10:45:34</time>
			</trkpt>
			<trkpt lat="48.82928998209536" lon="2.9012899193912745">
				<ele>57.0</ele>
				<time>2020-07-03T10:45:38</time>
			</trkpt>
			<trkpt lat="48.82982994429767" lon="2.901419922709465">
				<ele>56.0</ele>
				<time>2020-07-03T10:45:47</time>
			</trkpt>
			<trkpt lat="48.833619989454746" lon="2.90387992747128">
				<ele>52.0</ele>
				<time>2020-07-03T10:46:59</time>
			</trkpt>
			<trkpt lat="48.83601997978985" lon="2.905219942331314">
				<ele>52.0</ele>
				<time>2020-07-03T10:47:43</time>
			</trkpt>
			<trkpt lat="48.84178999811411" lon="2.906559957191348">
				<ele>54.0</ele>
				<time>2020-07-03T10:49:25</time>
			</trkpt>
			<trkpt lat="48.842149917036295" lon="2.9067099932581186">
				<ele>55.0</ele>
				<time>2020-07-03T10:49:32</time>
			</trkpt>
			<trkpt lat="48.84255995973945" lon="2.9069699998945">
				<ele>55.0</ele>
				<time>2020-07-03T10:49:39</time>
			</trkpt>
			<trkpt lat="48.843049965798855" lon="2.907439973205328">
				<ele>55.0</ele>
				<time>2020-07-03T10:49:49</time>
			</trkpt>
			<trkpt lat="48.8444999512285" lon="2.9093099758028984">
				<ele>51.0</ele>
				<time>2020-07-03T10:50:22</time>
			</trkpt>
			<trkpt lat="48.84503999724984" lon="2.9101799335330725">
				<ele>54.0</ele>
				<time>2020-07-03T10:50:36</time>
			</trkpt>
			<trkpt lat="48.84614992886782" lon="2.912159990519285">
				<ele>58.0</ele>
				<time>2020-07-03T10:51:06</time>
			</trkpt>
			<trkpt lat="48.846419993788004" lon="2.9128999449312687">
				<ele>60.0</ele>
				<time>2020-07-03T10:51:16</time>
			</trkpt>
			<trkpt lat="48.84669994935393" lon="2.914269967004657">
				<ele>59.0</ele>
				<time>2020-07-03T10:51:32</time>
			</trkpt>
			<trkpt lat="48.84713999927044" lon="2.91721997782588">
				<ele>58.0</ele>
				<time>2020-07-03T10:52:07</time>
			</trkpt>
			<trkpt lat="48.847349965944886" lon="2.917889943346381">
				<ele>60.0</ele>
				<time>2020-07-03T10:52:15</time>
			</trkpt>
			<trkpt lat="48.847839972004294" lon="2.919139936566353">
				<ele>62.0</ele>
				<time>2020-07-03T10:52:32</time>
			</trkpt>
			<trkpt lat="48.84793996810913" lon="2.9193099215626717">
				<ele>63.0</ele>
				<time>2020-07-03T10:52:34</time>
			</trkpt>
			<trkpt lat="48.84843994863331" lon="2.9197299387305975">
				<ele>66.0</ele>
				<time>2020-07-03T10:52:44</time>
			</trkpt>
			<trkpt lat="48.84934997186065" lon="2.9206599947065115">
				<ele>70.0</ele>
				<time>2020-07-03T10:53:04</time>
			</trkpt>
			<trkpt lat="48.85091998614371" lon="2.9217699263244867">
				<ele>69.0</ele>
				<time>2020-07-03T10:53:34</time>
			</trkpt>
			<trkpt lat="48.85382993146777" lon="2.9236999433487654">
				<ele>56.0</ele>
				<time>2020-07-03T10:54:29</time>
			</trkpt>
			<trkpt lat="48.854419933632016" lon="2.923629954457283">
				<ele>55.0</ele>
				<time>2020-07-03T10:54:39</time>
			</trkpt>
			<trkpt lat="48.854589918628335" lon="2.9234899766743183">
				<ele>54.0</ele>
				<time>2020-07-03T10:54:43</time>
			</trkpt>
			<trkpt lat="48.85502996854484" lon="2.9223899357020855">
				<ele>53.0</ele>
				<time>2020-07-03T10:54:57</time>
			</trkpt>
			<trkpt lat="48.85513993911445" lon="2.9215599596500397">
				<ele>52.0</ele>
				<time>2020-07-03T10:55:07</time>
			</trkpt>
			<trkpt lat="48.855209928005934" lon="2.9161899257451296">
				<ele>51.0</ele>
				<time>2020-07-03T10:56:09</time>
			</trkpt>
			<trkpt lat="48.854329995810986" lon="2.911699991673231">
				<ele>61.0</ele>
				<time>2020-07-03T10:57:02</time>
			</trkpt>
			<trkpt lat="48.85454993695021" lon="2.910249922424555">
				<ele>59.0</ele>
				<time>2020-07-03T10:57:19</time>
			</trkpt>
			<trkpt lat="48.85470994748175" lon="2.909929985180497">
				<ele>57.0</ele>
				<time>2020-07-03T10:57:24</time>
			</trkpt>
			<trkpt lat="48.854849925264716" lon="2.909849938005209">
				<ele>56.0</ele>
				<time>2020-07-03T10:57:26</time>
			</trkpt>
			<trkpt lat="48.85500993579626" lon="2.909879945218563">
				<ele>54.0</ele>
				<time>2020-07-03T10:57:29</time>
			</trkpt>
			<trkpt lat="48.85549994185567" lon="2.9098299890756607">
				<ele>51.0</ele>
				<time>2020-07-03T10:57:38</time>
			</trkpt>
			<trkpt lat="48.855599937960505" lon="2.9099599923938513">
				<ele>51.0</ele>
				<time>2020-07-03T10:57:40</time>
			</trkpt>
			<trkpt lat="48.8557399995625" lon="2.910359976813197">
				<ele>51.0</ele>
				<time>2020-07-03T10:57:45</time>
			</trkpt>
			<trkpt lat="48.85628993622959" lon="2.91098996065557">
				<ele>51.0</ele>
				<time>2020-07-03T10:57:57</time>
			</trkpt>
			<trkpt lat="48.856649938970804" lon="2.9126299638301134">
				<ele>52.0</ele>
				<time>2020-07-03T10:58:17</time>
			</trkpt>
			<trkpt lat="48.85673996061087" lon="2.9128399305045605">
				<ele>52.0</ele>
				<time>2020-07-03T10:58:20</time>
			</trkpt>
			<trkpt lat="48.857249999418855" lon="2.913439990952611">
				<ele>52.0</ele>
				<time>2020-07-03T10:58:31</time>
			</trkpt>
			<trkpt lat="48.85736994445324" lon="2.9135099798440933">
				<ele>52.0</ele>
				<time>2020-07-03T10:58:33</time>
			</trkpt>
			<trkpt lat="48.858049968257546" lon="2.91360997594893">
				<ele>51.0</ele>
				<time>2020-07-03T10:58:45</time>
			</trkpt>
			<trkpt lat="48.85786992497742" lon="2.909449953585863">
				<ele>51.0</ele>
				<time>2020-07-03T10:59:33</time>
			</trkpt>
			<trkpt lat="48.85774997994304" lon="2.9083999525755644">
				<ele>51.0</ele>
				<time>2020-07-03T10:59:45</time>
			</trkpt>
			<trkpt lat="48.85768996551633" lon="2.908159978687763">
				<ele>51.0</ele>
				<time>2020-07-03T10:59:48</time>
			</trkpt>
			<trkpt lat="48.85779993608594" lon="2.907889997586608">
				<ele>51.0</ele>
				<time>2020-07-03T10:59:52</time>
			</trkpt>
			<trkpt lat="48.8581299316138" lon="2.9072999954223633">
				<ele>49.0</ele>
				<time>2020-07-03T11:00:01</time>
			</trkpt>
			<trkpt lat="48.858239986002445" lon="2.907229922711849">
				<ele>49.0</ele>
				<time>2020-07-03T11:00:03</time>
			</trkpt>
			<trkpt lat="48.85824996046722" lon="2.9070799704641104">
				<ele>49.0</ele>
				<time>2020-07-03T11:00:04</time>
			</trkpt>
			<trkpt lat="48.858069917187095" lon="2.90694996714592">
				<ele>49.0</ele>
				<time>2020-07-03T11:00:08</time>
			</trkpt>
			<trkpt lat="48.85771150700748" lon="2.906830357387662">
				<ele>49.0</ele>
				<time>2020-07-03T11:00:14</time>
			</trkpt>
		</trkseg>
	</trk>
</gpx>
