<?xml version="1.0" encoding="UTF-8"?>
<gpx creator="Garmin Connect" version="1.1" xsi:schemaLocation="http://www.topografix.com/GPX/1/1 http://www.topografix.com/GPX/11.xsd" xmlns:ns3="http://www.garmin.com/xmlschemas/TrackPointExtension/v1" xmlns="http://www.topografix.com/GPX/1/1" xmlns:xsi="http://www.w3.org/2001/XMLSchema-instance" xmlns:ns2="http://www.garmin.com/xmlschemas/GpxExtensions/v3">
	<metadata>
		<name>005-G2-102 km-D 576 m-La Croix en Brie</name>
		<link href="connect.garmin.com">
			<text>Garmin Connect</text>
		</link>
		<time>2013-07-12T08:00:00</time>
	</metadata>
	<trk>
		<name>005-G2-102 km-D 576 m-La Croix en Brie</name>
		<trkseg>
			<trkpt lat="48.85815021581948" lon="2.907145768404007">
				<ele>51.31</ele>
				<time>2013-07-12T08:00:00</time>
			</trkpt>
			<trkpt lat="48.8581109046936" lon="2.907257080078125">
				<ele>51.71</ele>
				<time>2013-07-12T08:00:01</time>
			</trkpt>
			<trkpt lat="48.858132446184754" lon="2.907278537750244">
				<ele>51.79</ele>
				<time>2013-07-12T08:00:02</time>
			</trkpt>
			<trkpt lat="48.8581109046936" lon="2.9073429107666016">
				<ele>51.97</ele>
				<time>2013-07-12T08:00:03</time>
			</trkpt>
			<trkpt lat="48.85803588666022" lon="2.9074931144714355">
				<ele>51.43</ele>
				<time>2013-07-12T08:00:04</time>
			</trkpt>
			<trkpt lat="48.8577139377594" lon="2.90812611579895">
				<ele>51.15</ele>
				<time>2013-07-12T08:00:13</time>
			</trkpt>
			<trkpt lat="48.857638919726014" lon="2.908276319503784">
				<ele>51.0</ele>
				<time>2013-07-12T08:00:15</time>
			</trkpt>
			<trkpt lat="48.85724195279181" lon="2.909005880355835">
				<ele>51.29</ele>
				<time>2013-07-12T08:00:25</time>
			</trkpt>
			<trkpt lat="48.85717757977545" lon="2.9090917110443115">
				<ele>51.83</ele>
				<time>2013-07-12T08:00:26</time>
			</trkpt>
			<trkpt lat="48.857102477923036" lon="2.9091989994049072">
				<ele>52.0</ele>
				<time>2013-07-12T08:00:28</time>
			</trkpt>
			<trkpt lat="48.85674834251404" lon="2.9098212718963623">
				<ele>51.06</ele>
				<time>2013-07-12T08:00:37</time>
			</trkpt>
			<trkpt lat="48.85666259564459" lon="2.9099714756011963">
				<ele>50.88</ele>
				<time>2013-07-12T08:00:39</time>
			</trkpt>
			<trkpt lat="48.85666251182556" lon="2.9099929332733154">
				<ele>50.8</ele>
				<time>2013-07-12T08:00:39</time>
			</trkpt>
			<trkpt lat="48.85654457844794" lon="2.910207509994507">
				<ele>50.79</ele>
				<time>2013-07-12T08:00:42</time>
			</trkpt>
			<trkpt lat="48.856544494628906" lon="2.910207509994507">
				<ele>50.79</ele>
				<time>2013-07-12T08:00:42</time>
			</trkpt>
			<trkpt lat="48.85646939277649" lon="2.910432815551758">
				<ele>51.21</ele>
				<time>2013-07-12T08:00:44</time>
			</trkpt>
			<trkpt lat="48.856297731399536" lon="2.9108834266662598">
				<ele>52.45</ele>
				<time>2013-07-12T08:00:50</time>
			</trkpt>
			<trkpt lat="48.8562548160553" lon="2.911055088043213">
				<ele>52.61</ele>
				<time>2013-07-12T08:00:52</time>
			</trkpt>
			<trkpt lat="48.85616613551974" lon="2.9109477158635855">
				<ele>52.84</ele>
				<time>2013-07-12T08:00:54</time>
			</trkpt>
			<trkpt lat="48.855847204104066" lon="2.9105615615844727">
				<ele>52.0</ele>
				<time>2013-07-12T08:01:00</time>
			</trkpt>
			<trkpt lat="48.85565400123596" lon="2.910325527191162">
				<ele>52.0</ele>
				<time>2013-07-12T08:01:04</time>
			</trkpt>
			<trkpt lat="48.855589712038636" lon="2.9100894927978516">
				<ele>51.91</ele>
				<time>2013-07-12T08:01:07</time>
			</trkpt>
			<trkpt lat="48.8554931525141" lon="2.9098963737487793">
				<ele>51.41</ele>
				<time>2013-07-12T08:01:09</time>
			</trkpt>
			<trkpt lat="48.85541796684265" lon="2.909853458404541">
				<ele>51.15</ele>
				<time>2013-07-12T08:01:11</time>
			</trkpt>
			<trkpt lat="48.855353677645326" lon="2.909853458404541">
				<ele>51.14</ele>
				<time>2013-07-12T08:01:12</time>
			</trkpt>
			<trkpt lat="48.855117643252015" lon="2.9098963737487793">
				<ele>52.14</ele>
				<time>2013-07-12T08:01:16</time>
			</trkpt>
			<trkpt lat="48.85511755943298" lon="2.9098963737487793">
				<ele>52.14</ele>
				<time>2013-07-12T08:01:16</time>
			</trkpt>
			<trkpt lat="48.854849338531494" lon="2.9099178314208984">
				<ele>53.18</ele>
				<time>2013-07-12T08:01:20</time>
			</trkpt>
			<trkpt lat="48.85477423667908" lon="2.90987491607666">
				<ele>53.47</ele>
				<time>2013-07-12T08:01:21</time>
			</trkpt>
			<trkpt lat="48.854559659957886" lon="2.9101645946502686">
				<ele>54.93</ele>
				<time>2013-07-12T08:01:26</time>
			</trkpt>
			<trkpt lat="48.85449528694153" lon="2.9103362560272217">
				<ele>55.67</ele>
				<time>2013-07-12T08:01:28</time>
			</trkpt>
			<trkpt lat="48.85443091392517" lon="2.911055088043213">
				<ele>54.42</ele>
				<time>2013-07-12T08:01:36</time>
			</trkpt>
			<trkpt lat="48.854334354400635" lon="2.911527156829834">
				<ele>57.3</ele>
				<time>2013-07-12T08:01:41</time>
			</trkpt>
			<trkpt lat="48.85431298054755" lon="2.911698818206787">
				<ele>57.96</ele>
				<time>2013-07-12T08:01:43</time>
			</trkpt>
			<trkpt lat="48.854323625564575" lon="2.9118382930755615">
				<ele>57.92</ele>
				<time>2013-07-12T08:01:44</time>
			</trkpt>
			<trkpt lat="48.85438799858093" lon="2.912203073501587">
				<ele>57.14</ele>
				<time>2013-07-12T08:01:48</time>
			</trkpt>
			<trkpt lat="48.85446318425238" lon="2.912546396255493">
				<ele>55.16</ele>
				<time>2013-07-12T08:01:52</time>
			</trkpt>
			<trkpt lat="48.855053186416626" lon="2.9155075550079346">
				<ele>51.0</ele>
				<time>2013-07-12T08:02:24</time>
			</trkpt>
			<trkpt lat="48.85505327023566" lon="2.9155075550079346">
				<ele>51.0</ele>
				<time>2013-07-12T08:02:24</time>
			</trkpt>
			<trkpt lat="48.85517120361328" lon="2.9161620140075684">
				<ele>51.5</ele>
				<time>2013-07-12T08:02:32</time>
			</trkpt>
			<trkpt lat="48.8551926612854" lon="2.9165267944335938">
				<ele>51.65</ele>
				<time>2013-07-12T08:02:35</time>
			</trkpt>
			<trkpt lat="48.85516055859625" lon="2.9191982746124268">
				<ele>51.47</ele>
				<time>2013-07-12T08:03:04</time>
			</trkpt>
			<trkpt lat="48.85511755943298" lon="2.9216551780700684">
				<ele>52.93</ele>
				<time>2013-07-12T08:03:29</time>
			</trkpt>
			<trkpt lat="48.855042457580566" lon="2.922288179397583">
				<ele>54.0</ele>
				<time>2013-07-12T08:03:36</time>
			</trkpt>
			<trkpt lat="48.85498881340027" lon="2.9224812984466553">
				<ele>53.48</ele>
				<time>2013-07-12T08:03:38</time>
			</trkpt>
			<trkpt lat="48.85492251254618" lon="2.922653714194894">
				<ele>53.63</ele>
				<time>2013-07-12T08:03:41</time>
			</trkpt>
			<trkpt lat="48.854613304138184" lon="2.923457622528076">
				<ele>53.25</ele>
				<time>2013-07-12T08:03:50</time>
			</trkpt>
			<trkpt lat="48.85452747344971" lon="2.9235541820526123">
				<ele>53.8</ele>
				<time>2013-07-12T08:03:52</time>
			</trkpt>
			<trkpt lat="48.85443091392517" lon="2.9236292839050293">
				<ele>54.6</ele>
				<time>2013-07-12T08:03:54</time>
			</trkpt>
			<trkpt lat="48.8544309977442" lon="2.9236292839050293">
				<ele>54.6</ele>
				<time>2013-07-12T08:03:54</time>
			</trkpt>
			<trkpt lat="48.854355812072754" lon="2.923661470413208">
				<ele>55.7</ele>
				<time>2013-07-12T08:03:55</time>
			</trkpt>
			<trkpt lat="48.85376572608948" lon="2.923736572265625">
				<ele>58.18</ele>
				<time>2013-07-12T08:04:05</time>
			</trkpt>
			<trkpt lat="48.853304386138916" lon="2.9234254360198975">
				<ele>59.18</ele>
				<time>2013-07-12T08:04:13</time>
			</trkpt>
			<trkpt lat="48.850890481844544" lon="2.9218053817749023">
				<ele>70.14</ele>
				<time>2013-07-12T08:04:55</time>
			</trkpt>
			<trkpt lat="48.849323987960815" lon="2.920668125152588">
				<ele>72.22</ele>
				<time>2013-07-12T08:05:23</time>
			</trkpt>
			<trkpt lat="48.849055767059326" lon="2.9204320907592773">
				<ele>71.37</ele>
				<time>2013-07-12T08:05:28</time>
			</trkpt>
			<trkpt lat="48.848605155944824" lon="2.919938564300537">
				<ele>69.9</ele>
				<time>2013-07-12T08:05:37</time>
			</trkpt>
			<trkpt lat="48.848605239763856" lon="2.919938564300537">
				<ele>69.9</ele>
				<time>2013-07-12T08:05:37</time>
			</trkpt>
			<trkpt lat="48.848412120714784" lon="2.9197347164154053">
				<ele>69.54</ele>
				<time>2013-07-12T08:05:40</time>
			</trkpt>
			<trkpt lat="48.84826191700995" lon="2.91961669921875">
				<ele>68.79</ele>
				<time>2013-07-12T08:05:43</time>
			</trkpt>
			<trkpt lat="48.84802579879761" lon="2.9194557666778564">
				<ele>67.32</ele>
				<time>2013-07-12T08:05:47</time>
			</trkpt>
			<trkpt lat="48.84791851043701" lon="2.9193270206451416">
				<ele>67.17</ele>
				<time>2013-07-12T08:05:49</time>
			</trkpt>
			<trkpt lat="48.847821950912476" lon="2.9191553592681885">
				<ele>66.48</ele>
				<time>2013-07-12T08:05:52</time>
			</trkpt>
			<trkpt lat="48.8472855091095" lon="2.917771339416504">
				<ele>63.5</ele>
				<time>2013-07-12T08:06:09</time>
			</trkpt>
			<trkpt lat="48.84715676307678" lon="2.9173529148101807">
				<ele>61.27</ele>
				<time>2013-07-12T08:06:14</time>
			</trkpt>
			<trkpt lat="48.847113847732544" lon="2.9171812534332275">
				<ele>60.68</ele>
				<time>2013-07-12T08:06:15</time>
			</trkpt>
			<trkpt lat="48.84688854217529" lon="2.915518283843994">
				<ele>59.19</ele>
				<time>2013-07-12T08:06:33</time>
			</trkpt>
			<trkpt lat="48.84674906730652" lon="2.9146170616149902">
				<ele>59.47</ele>
				<time>2013-07-12T08:06:43</time>
			</trkpt>
			<trkpt lat="48.84645938873291" lon="2.913072109222412">
				<ele>60.22</ele>
				<time>2013-07-12T08:07:00</time>
			</trkpt>
			<trkpt lat="48.84641647338867" lon="2.9129326343536377">
				<ele>60.47</ele>
				<time>2013-07-12T08:07:02</time>
			</trkpt>
			<trkpt lat="48.8461697101593" lon="2.912224531173706">
				<ele>60.11</ele>
				<time>2013-07-12T08:07:10</time>
			</trkpt>
			<trkpt lat="48.84590148925781" lon="2.9116880893707275">
				<ele>58.06</ele>
				<time>2013-07-12T08:07:17</time>
			</trkpt>
			<trkpt lat="48.84572982788086" lon="2.9113876819610596">
				<ele>56.93</ele>
				<time>2013-07-12T08:07:21</time>
			</trkpt>
			<trkpt lat="48.845601081848145" lon="2.911151647567749">
				<ele>56.71</ele>
				<time>2013-07-12T08:07:25</time>
			</trkpt>
			<trkpt lat="48.844581842422485" lon="2.9094350337982178">
				<ele>52.89</ele>
				<time>2013-07-12T08:07:49</time>
			</trkpt>
			<trkpt lat="48.84313344955444" lon="2.9075467586517334">
				<ele>56.68</ele>
				<time>2013-07-12T08:08:20</time>
			</trkpt>
			<trkpt lat="48.8426399230957" lon="2.9070210456848145">
				<ele>55.46</ele>
				<time>2013-07-12T08:08:29</time>
			</trkpt>
			<trkpt lat="48.842071294784546" lon="2.9066884517669678">
				<ele>55.42</ele>
				<time>2013-07-12T08:08:39</time>
			</trkpt>
			<trkpt lat="48.84170651435852" lon="2.906538248062134">
				<ele>56.4</ele>
				<time>2013-07-12T08:08:45</time>
			</trkpt>
			<trkpt lat="48.839067220687866" lon="2.9059267044067383">
				<ele>54.77</ele>
				<time>2013-07-12T08:09:28</time>
			</trkpt>
			<trkpt lat="48.8390673045069" lon="2.9059267044067383">
				<ele>54.77</ele>
				<time>2013-07-12T08:09:28</time>
			</trkpt>
			<trkpt lat="48.83614897727966" lon="2.9052507877349854">
				<ele>53.29</ele>
				<time>2013-07-12T08:10:15</time>
			</trkpt>
			<trkpt lat="48.836149061098695" lon="2.9052507877349854">
				<ele>53.29</ele>
				<time>2013-07-12T08:10:15</time>
			</trkpt>
			<trkpt lat="48.83578419685364" lon="2.9051220417022705">
				<ele>53.0</ele>
				<time>2013-07-12T08:10:21</time>
			</trkpt>
			<trkpt lat="48.83373498916626" lon="2.9039525985717773">
				<ele>53.17</ele>
				<time>2013-07-12T08:10:56</time>
			</trkpt>
			<trkpt lat="48.83041977882385" lon="2.901785373687744">
				<ele>54.64</ele>
				<time>2013-07-12T08:11:54</time>
			</trkpt>
			<trkpt lat="48.82975459098816" lon="2.90138840675354">
				<ele>55.8</ele>
				<time>2013-07-12T08:12:05</time>
			</trkpt>
			<trkpt lat="48.82950782775879" lon="2.9013240337371826">
				<ele>55.9</ele>
				<time>2013-07-12T08:12:09</time>
			</trkpt>
			<trkpt lat="48.82919669151306" lon="2.9012811183929443">
				<ele>56.8</ele>
				<time>2013-07-12T08:12:14</time>
			</trkpt>
			<trkpt lat="48.82882118225098" lon="2.9013025760650635">
				<ele>59.29</ele>
				<time>2013-07-12T08:12:20</time>
			</trkpt>
			<trkpt lat="48.82725477218628" lon="2.9016780853271484">
				<ele>59.59</ele>
				<time>2013-07-12T08:12:46</time>
			</trkpt>
			<trkpt lat="48.82693290710449" lon="2.9017210006713867">
				<ele>60.13</ele>
				<time>2013-07-12T08:12:51</time>
			</trkpt>
			<trkpt lat="48.82657893933356" lon="2.901710271835327">
				<ele>61.09</ele>
				<time>2013-07-12T08:12:57</time>
			</trkpt>
			<trkpt lat="48.82648229598999" lon="2.9016995429992676">
				<ele>60.85</ele>
				<time>2013-07-12T08:12:58</time>
			</trkpt>
			<trkpt lat="48.82648237980902" lon="2.9016995429992676">
				<ele>60.85</ele>
				<time>2013-07-12T08:12:58</time>
			</trkpt>
			<trkpt lat="48.8258171081543" lon="2.901667356491089">
				<ele>64.91</ele>
				<time>2013-07-12T08:13:09</time>
			</trkpt>
			<trkpt lat="48.82498025894165" lon="2.9017531871795654">
				<ele>69.89</ele>
				<time>2013-07-12T08:13:22</time>
			</trkpt>
			<trkpt lat="48.82469058036804" lon="2.9019033908843994">
				<ele>66.96</ele>
				<time>2013-07-12T08:13:27</time>
			</trkpt>
			<trkpt lat="48.82446535862982" lon="2.902085781097412">
				<ele>65.22</ele>
				<time>2013-07-12T08:13:31</time>
			</trkpt>
			<trkpt lat="48.82441163063049" lon="2.9021286964416504">
				<ele>64.25</ele>
				<time>2013-07-12T08:13:32</time>
			</trkpt>
			<trkpt lat="48.82421851158142" lon="2.9023540019989014">
				<ele>61.78</ele>
				<time>2013-07-12T08:13:36</time>
			</trkpt>
			<trkpt lat="48.82405766285956" lon="2.902407646179199">
				<ele>61.2</ele>
				<time>2013-07-12T08:13:39</time>
			</trkpt>
			<trkpt lat="48.823853731155396" lon="2.90238618850708">
				<ele>61.16</ele>
				<time>2013-07-12T08:13:42</time>
			</trkpt>
			<trkpt lat="48.8232421875" lon="2.902493476867676">
				<ele>63.0</ele>
				<time>2013-07-12T08:13:52</time>
			</trkpt>
			<trkpt lat="48.82292032241821" lon="2.90263295173645">
				<ele>64.18</ele>
				<time>2013-07-12T08:13:57</time>
			</trkpt>
			<trkpt lat="48.82266283035278" lon="2.902836799621582">
				<ele>64.52</ele>
				<time>2013-07-12T08:14:02</time>
			</trkpt>
			<trkpt lat="48.821879709139466" lon="2.9036521911621094">
				<ele>61.31</ele>
				<time>2013-07-12T08:14:17</time>
			</trkpt>
			<trkpt lat="48.82177242077887" lon="2.9037702083587646">
				<ele>60.7</ele>
				<time>2013-07-12T08:14:19</time>
			</trkpt>
			<trkpt lat="48.82130026817322" lon="2.9042422771453857">
				<ele>60.54</ele>
				<time>2013-07-12T08:14:28</time>
			</trkpt>
			<trkpt lat="48.82058151997626" lon="2.905014753341675">
				<ele>63.79</ele>
				<time>2013-07-12T08:14:42</time>
			</trkpt>
			<trkpt lat="48.82056006230414" lon="2.905036211013794">
				<ele>63.88</ele>
				<time>2013-07-12T08:14:43</time>
			</trkpt>
			<trkpt lat="48.82042050361633" lon="2.905186414718628">
				<ele>63.82</ele>
				<time>2013-07-12T08:14:45</time>
			</trkpt>
			<trkpt lat="48.82031321525574" lon="2.9053688049316406">
				<ele>62.42</ele>
				<time>2013-07-12T08:14:48</time>
			</trkpt>
			<trkpt lat="48.82019519805908" lon="2.9057013988494873">
				<ele>59.26</ele>
				<time>2013-07-12T08:14:52</time>
			</trkpt>
			<trkpt lat="48.820087909698486" lon="2.9060661792755127">
				<ele>57.57</ele>
				<time>2013-07-12T08:14:56</time>
			</trkpt>
			<trkpt lat="48.82003426551819" lon="2.9064738750457764">
				<ele>57.0</ele>
				<time>2013-07-12T08:15:01</time>
			</trkpt>
			<trkpt lat="48.819884061813354" lon="2.9081690311431885">
				<ele>53.26</ele>
				<time>2013-07-12T08:15:19</time>
			</trkpt>
			<trkpt lat="48.81979823112488" lon="2.9089415073394775">
				<ele>52.95</ele>
				<time>2013-07-12T08:15:27</time>
			</trkpt>
			<trkpt lat="48.81975539959967" lon="2.909274101257324">
				<ele>53.17</ele>
				<time>2013-07-12T08:15:30</time>
			</trkpt>
			<trkpt lat="48.819637298583984" lon="2.9097461700439453">
				<ele>55.3</ele>
				<time>2013-07-12T08:15:36</time>
			</trkpt>
			<trkpt lat="48.81955146789551" lon="2.9100143909454346">
				<ele>57.16</ele>
				<time>2013-07-12T08:15:39</time>
			</trkpt>
			<trkpt lat="48.81846793927252" lon="2.9126429557800293">
				<ele>57.1</ele>
				<time>2013-07-12T08:16:12</time>
			</trkpt>
			<trkpt lat="48.81827473640442" lon="2.9131150245666504">
				<ele>58.47</ele>
				<time>2013-07-12T08:16:18</time>
			</trkpt>
			<trkpt lat="48.81700881756842" lon="2.9161620140075684">
				<ele>63.0</ele>
				<time>2013-07-12T08:16:55</time>
			</trkpt>
			<trkpt lat="48.81595739163458" lon="2.9187262058258057">
				<ele>69.0</ele>
				<time>2013-07-12T08:17:27</time>
			</trkpt>
			<trkpt lat="48.815163457766175" lon="2.9206037521362305">
				<ele>76.75</ele>
				<time>2013-07-12T08:17:51</time>
			</trkpt>
			<trkpt lat="48.814862966537476" lon="2.921311855316162">
				<ele>81.48</ele>
				<time>2013-07-12T08:18:00</time>
			</trkpt>
			<trkpt lat="48.81449818611145" lon="2.921783924102783">
				<ele>84.11</ele>
				<time>2013-07-12T08:18:07</time>
			</trkpt>
			<trkpt lat="48.81449826993048" lon="2.921783924102783">
				<ele>84.11</ele>
				<time>2013-07-12T08:18:07</time>
			</trkpt>
			<trkpt lat="48.81346821784973" lon="2.922813892364502">
				<ele>91.53</ele>
				<time>2013-07-12T08:18:27</time>
			</trkpt>
			<trkpt lat="48.81332882679999" lon="2.9229533672332764">
				<ele>92.54</ele>
				<time>2013-07-12T08:18:30</time>
			</trkpt>
			<trkpt lat="48.813135623931885" lon="2.923135757446289">
				<ele>93.84</ele>
				<time>2013-07-12T08:18:33</time>
			</trkpt>
			<trkpt lat="48.81307125091553" lon="2.9232001304626465">
				<ele>94.09</ele>
				<time>2013-07-12T08:18:35</time>
			</trkpt>
			<trkpt lat="48.81307133473456" lon="2.9232001304626465">
				<ele>94.09</ele>
				<time>2013-07-12T08:18:35</time>
			</trkpt>
			<trkpt lat="48.81126880645752" lon="2.9249489307403564">
				<ele>94.39</ele>
				<time>2013-07-12T08:19:09</time>
			</trkpt>
			<trkpt lat="48.810657262802124" lon="2.925539016723633">
				<ele>97.45</ele>
				<time>2013-07-12T08:19:21</time>
			</trkpt>
			<trkpt lat="48.8105929736048" lon="2.9256033897399902">
				<ele>98.1</ele>
				<time>2013-07-12T08:19:22</time>
			</trkpt>
			<trkpt lat="48.810432041063905" lon="2.9257750511169434">
				<ele>98.75</ele>
				<time>2013-07-12T08:19:25</time>
			</trkpt>
			<trkpt lat="48.81028175354004" lon="2.9259145259857178">
				<ele>99.3</ele>
				<time>2013-07-12T08:19:28</time>
			</trkpt>
			<trkpt lat="48.81012090481818" lon="2.9260647296905518">
				<ele>100.16</ele>
				<time>2013-07-12T08:19:31</time>
			</trkpt>
			<trkpt lat="48.808447206392884" lon="2.9276955127716064">
				<ele>109.55</ele>
				<time>2013-07-12T08:20:03</time>
			</trkpt>
			<trkpt lat="48.808425748720765" lon="2.9277169704437256">
				<ele>109.7</ele>
				<time>2013-07-12T08:20:03</time>
			</trkpt>
			<trkpt lat="48.80763181485236" lon="2.9284894466400146">
				<ele>116.92</ele>
				<time>2013-07-12T08:20:18</time>
			</trkpt>
			<trkpt lat="48.807406509295106" lon="2.928704023361206">
				<ele>120.73</ele>
				<time>2013-07-12T08:20:22</time>
			</trkpt>
			<trkpt lat="48.80705245770514" lon="2.9290366172790527">
				<ele>124.02</ele>
				<time>2013-07-12T08:20:29</time>
			</trkpt>
			<trkpt lat="48.80648382939398" lon="2.9295945167541504">
				<ele>125.88</ele>
				<time>2013-07-12T08:20:40</time>
			</trkpt>
			<trkpt lat="48.80647301673889" lon="2.92960524559021">
				<ele>125.85</ele>
				<time>2013-07-12T08:20:40</time>
			</trkpt>
			<trkpt lat="48.80647310055792" lon="2.92960524559021">
				<ele>125.85</ele>
				<time>2013-07-12T08:20:40</time>
			</trkpt>
			<trkpt lat="48.805904388427734" lon="2.930173873901367">
				<ele>127.29</ele>
				<time>2013-07-12T08:20:51</time>
			</trkpt>
			<trkpt lat="48.80555033683777" lon="2.930452823638916">
				<ele>129.52</ele>
				<time>2013-07-12T08:20:57</time>
			</trkpt>
			<trkpt lat="48.805110454559326" lon="2.930678129196167">
				<ele>131.0</ele>
				<time>2013-07-12T08:21:05</time>
			</trkpt>
			<trkpt lat="48.80318999290466" lon="2.931321859359741">
				<ele>136.49</ele>
				<time>2013-07-12T08:21:36</time>
			</trkpt>
			<trkpt lat="48.796688402071595" lon="2.9335105419158936">
				<ele>135.0</ele>
				<time>2013-07-12T08:23:23</time>
			</trkpt>
			<trkpt lat="48.7925470713526" lon="2.9348838329315186">
				<ele>139.0</ele>
				<time>2013-07-12T08:24:31</time>
			</trkpt>
			<trkpt lat="48.788191163912416" lon="2.9355275630950928">
				<ele>132.2</ele>
				<time>2013-07-12T08:25:41</time>
			</trkpt>
			<trkpt lat="48.7837278842926" lon="2.9361391067504883">
				<ele>126.14</ele>
				<time>2013-07-12T08:26:53</time>
			</trkpt>
			<trkpt lat="48.78253698348999" lon="2.936267852783203">
				<ele>125.0</ele>
				<time>2013-07-12T08:27:12</time>
			</trkpt>
			<trkpt lat="48.78253706730902" lon="2.936267852783203">
				<ele>125.0</ele>
				<time>2013-07-12T08:27:12</time>
			</trkpt>
			<trkpt lat="48.78132470883429" lon="2.9364395141601562">
				<ele>123.25</ele>
				<time>2013-07-12T08:27:31</time>
			</trkpt>
			<trkpt lat="48.78039130009711" lon="2.9362785816192627">
				<ele>127.4</ele>
				<time>2013-07-12T08:27:46</time>
			</trkpt>
			<trkpt lat="48.77753734588623" lon="2.935817241668701">
				<ele>128.0</ele>
				<time>2013-07-12T08:28:32</time>
			</trkpt>
			<trkpt lat="48.7767219543457" lon="2.9357314109802246">
				<ele>126.0</ele>
				<time>2013-07-12T08:28:45</time>
			</trkpt>
			<trkpt lat="48.774919509887695" lon="2.9362571239471436">
				<ele>124.0</ele>
				<time>2013-07-12T08:29:15</time>
			</trkpt>
			<trkpt lat="48.77312779426575" lon="2.9369115829467773">
				<ele>122.98</ele>
				<time>2013-07-12T08:29:44</time>
			</trkpt>
			<trkpt lat="48.76489886082709" lon="2.9396045207977295">
				<ele>120.37</ele>
				<time>2013-07-12T08:31:59</time>
			</trkpt>
			<trkpt lat="48.764437437057495" lon="2.9397547245025635">
				<ele>119.96</ele>
				<time>2013-07-12T08:32:07</time>
			</trkpt>
			<trkpt lat="48.76443752087653" lon="2.9397547245025635">
				<ele>119.96</ele>
				<time>2013-07-12T08:32:07</time>
			</trkpt>
			<trkpt lat="48.76416225917637" lon="2.9398448299616575">
				<ele>121.0</ele>
				<time>2013-07-12T08:32:11</time>
			</trkpt>
			<trkpt lat="48.76416301354766" lon="2.939849942922592">
				<ele>121.0</ele>
				<time>2013-07-12T08:32:11</time>
			</trkpt>
			<trkpt lat="48.760159984230995" lon="2.941169925034046">
				<ele>115.0</ele>
				<time>2013-07-12T08:33:17</time>
			</trkpt>
			<trkpt lat="48.76310991123319" lon="2.953629959374666">
				<ele>117.0</ele>
				<time>2013-07-12T08:35:37</time>
			</trkpt>
			<trkpt lat="48.763709887862206" lon="2.956939972937107">
				<ele>117.0</ele>
				<time>2013-07-12T08:36:13</time>
			</trkpt>
			<trkpt lat="48.76644993200898" lon="2.9664898943156004">
				<ele>116.0</ele>
				<time>2013-07-12T08:38:03</time>
			</trkpt>
			<trkpt lat="48.755409959703684" lon="2.9742999840527773">
				<ele>112.0</ele>
				<time>2013-07-12T08:41:18</time>
			</trkpt>
			<trkpt lat="48.7477298732847" lon="2.9783399775624275">
				<ele>110.0</ele>
				<time>2013-07-12T08:43:28</time>
			</trkpt>
			<trkpt lat="48.74439991079271" lon="2.980429921299219">
				<ele>109.0</ele>
				<time>2013-07-12T08:44:26</time>
			</trkpt>
			<trkpt lat="48.74250560067594" lon="2.98199356533587">
				<ele>109.31</ele>
				<time>2013-07-12T08:45:00</time>
			</trkpt>
			<trkpt lat="48.740159925073385" lon="2.983929952606559">
				<ele>109.0</ele>
				<time>2013-07-12T08:45:43</time>
			</trkpt>
			<trkpt lat="48.73894999735057" lon="2.985659893602133">
				<ele>111.0</ele>
				<time>2013-07-12T08:46:10</time>
			</trkpt>
			<trkpt lat="48.73865989968181" lon="2.9868598468601704">
				<ele>109.0</ele>
				<time>2013-07-12T08:46:23</time>
			</trkpt>
			<trkpt lat="48.73648999258876" lon="2.987419841811061">
				<ele>110.0</ele>
				<time>2013-07-12T08:46:58</time>
			</trkpt>
			<trkpt lat="48.735839892178774" lon="2.988629937171936">
				<ele>111.0</ele>
				<time>2013-07-12T08:47:15</time>
			</trkpt>
			<trkpt lat="48.735539987683296" lon="2.988819871097803">
				<ele>111.0</ele>
				<time>2013-07-12T08:47:20</time>
			</trkpt>
			<trkpt lat="48.7351599521935" lon="2.98859984613955">
				<ele>111.0</ele>
				<time>2013-07-12T08:47:26</time>
			</trkpt>
			<trkpt lat="48.7354498822242" lon="3.0086898431181908">
				<ele>114.0</ele>
				<time>2013-07-12T08:50:59</time>
			</trkpt>
			<trkpt lat="48.73529992997646" lon="3.010139996185899">
				<ele>113.0</ele>
				<time>2013-07-12T08:51:14</time>
			</trkpt>
			<trkpt lat="48.73537997715175" lon="3.012389950454235">
				<ele>113.0</ele>
				<time>2013-07-12T08:51:38</time>
			</trkpt>
			<trkpt lat="48.73524997383356" lon="3.012749869376421">
				<ele>113.0</ele>
				<time>2013-07-12T08:51:42</time>
			</trkpt>
			<trkpt lat="48.73487999662757" lon="3.013029908761382">
				<ele>111.0</ele>
				<time>2013-07-12T08:51:49</time>
			</trkpt>
			<trkpt lat="48.73423995450139" lon="3.0149699840694666">
				<ele>107.0</ele>
				<time>2013-07-12T08:52:12</time>
			</trkpt>
			<trkpt lat="48.73352363705635" lon="3.018562300130725">
				<ele>102.42</ele>
				<time>2013-07-12T08:52:51</time>
			</trkpt>
			<trkpt lat="48.73298987746239" lon="3.021239899098873">
				<ele>101.0</ele>
				<time>2013-07-12T08:53:21</time>
			</trkpt>
			<trkpt lat="48.7330599501729" lon="3.023809874430299">
				<ele>96.0</ele>
				<time>2013-07-12T08:53:48</time>
			</trkpt>
			<trkpt lat="48.731909953057766" lon="3.025459935888648">
				<ele>95.0</ele>
				<time>2013-07-12T08:54:14</time>
			</trkpt>
			<trkpt lat="48.7309099920094" lon="3.0273499712347984">
				<ele>97.0</ele>
				<time>2013-07-12T08:54:39</time>
			</trkpt>
			<trkpt lat="48.73029995709658" lon="3.02769991569221">
				<ele>98.0</ele>
				<time>2013-07-12T08:54:50</time>
			</trkpt>
			<trkpt lat="48.72955991886556" lon="3.0298399832099676">
				<ele>96.0</ele>
				<time>2013-07-12T08:55:15</time>
			</trkpt>
			<trkpt lat="48.729589842259884" lon="3.031849879771471">
				<ele>101.0</ele>
				<time>2013-07-12T08:55:36</time>
			</trkpt>
			<trkpt lat="48.730019833892584" lon="3.0330498330295086">
				<ele>103.0</ele>
				<time>2013-07-12T08:55:51</time>
			</trkpt>
			<trkpt lat="48.73009988106787" lon="3.034199997782707">
				<ele>104.0</ele>
				<time>2013-07-12T08:56:03</time>
			</trkpt>
			<trkpt lat="48.72762990184128" lon="3.0344799533486366">
				<ele>109.0</ele>
				<time>2013-07-12T08:56:43</time>
			</trkpt>
			<trkpt lat="48.726929845288396" lon="3.0347399599850178">
				<ele>109.0</ele>
				<time>2013-07-12T08:56:54</time>
			</trkpt>
			<trkpt lat="48.7252199370414" lon="3.034309968352318">
				<ele>108.0</ele>
				<time>2013-07-12T08:57:22</time>
			</trkpt>
			<trkpt lat="48.723245579749346" lon="3.0344996508210897">
				<ele>113.0</ele>
				<time>2013-07-12T08:57:54</time>
			</trkpt>
			<trkpt lat="48.723139967769384" lon="3.034509876742959">
				<ele>110.0</ele>
				<time>2013-07-12T08:57:55</time>
			</trkpt>
			<trkpt lat="48.72245994396508" lon="3.0341599322855473">
				<ele>111.0</ele>
				<time>2013-07-12T08:58:07</time>
			</trkpt>
			<trkpt lat="48.7188599165529" lon="3.0337499734014273">
				<ele>111.0</ele>
				<time>2013-07-12T08:59:05</time>
			</trkpt>
			<trkpt lat="48.71835985220969" lon="3.033489966765046">
				<ele>112.0</ele>
				<time>2013-07-12T08:59:13</time>
			</trkpt>
			<trkpt lat="48.717899937182665" lon="3.0324098747223616">
				<ele>112.0</ele>
				<time>2013-07-12T08:59:27</time>
			</trkpt>
			<trkpt lat="48.71728998608887" lon="3.0315199680626392">
				<ele>112.0</ele>
				<time>2013-07-12T08:59:40</time>
			</trkpt>
			<trkpt lat="48.7155098374933" lon="3.0297299288213253">
				<ele>111.0</ele>
				<time>2013-07-12T09:00:14</time>
			</trkpt>
			<trkpt lat="48.713879976421595" lon="3.024309854954481">
				<ele>108.0</ele>
				<time>2013-07-12T09:01:17</time>
			</trkpt>
			<trkpt lat="48.71295461431146" lon="3.022471033036709">
				<ele>110.83</ele>
				<time>2013-07-12T09:01:42</time>
			</trkpt>
			<trkpt lat="48.712927708402276" lon="3.02250481210649">
				<ele>110.66</ele>
				<time>2013-07-12T09:01:42</time>
			</trkpt>
			<trkpt lat="48.712799632921815" lon="3.0222702026367188">
				<ele>111.0</ele>
				<time>2013-07-12T09:01:46</time>
			</trkpt>
			<trkpt lat="48.71279954910278" lon="3.0222702026367188">
				<ele>111.0</ele>
				<time>2013-07-12T09:01:46</time>
			</trkpt>
			<trkpt lat="48.712016344070435" lon="3.020467758178711">
				<ele>110.11</ele>
				<time>2013-07-12T09:02:08</time>
			</trkpt>
			<trkpt lat="48.71121168136597" lon="3.019073009490967">
				<ele>109.14</ele>
				<time>2013-07-12T09:02:28</time>
			</trkpt>
			<trkpt lat="48.710728883743286" lon="3.0180752277374268">
				<ele>109.0</ele>
				<time>2013-07-12T09:02:41</time>
			</trkpt>
			<trkpt lat="48.71064305305481" lon="3.017871379852295">
				<ele>109.0</ele>
				<time>2013-07-12T09:02:44</time>
			</trkpt>
			<trkpt lat="48.71038556098938" lon="3.0175065994262695">
				<ele>109.82</ele>
				<time>2013-07-12T09:02:49</time>
			</trkpt>
			<trkpt lat="48.710267543792725" lon="3.0173885822296143">
				<ele>110.25</ele>
				<time>2013-07-12T09:02:51</time>
			</trkpt>
			<trkpt lat="48.709484338760376" lon="3.0166375637054443">
				<ele>111.0</ele>
				<time>2013-07-12T09:03:06</time>
			</trkpt>
			<trkpt lat="48.70858311653137" lon="3.0159080028533936">
				<ele>112.0</ele>
				<time>2013-07-12T09:03:23</time>
			</trkpt>
			<trkpt lat="48.707263469696045" lon="3.0148887634277344">
				<ele>111.0</ele>
				<time>2013-07-12T09:03:46</time>
			</trkpt>
			<trkpt lat="48.70697379112244" lon="3.0145883560180664">
				<ele>111.1</ele>
				<time>2013-07-12T09:03:52</time>
			</trkpt>
			<trkpt lat="48.706512451171875" lon="3.013923168182373">
				<ele>111.37</ele>
				<time>2013-07-12T09:04:02</time>
			</trkpt>
			<trkpt lat="48.70584726333618" lon="3.013129234313965">
				<ele>112.15</ele>
				<time>2013-07-12T09:04:16</time>
			</trkpt>
			<trkpt lat="48.70468854904175" lon="3.0118417739868164">
				<ele>112.67</ele>
				<time>2013-07-12T09:04:39</time>
			</trkpt>
			<trkpt lat="48.70361566543579" lon="3.010833263397217">
				<ele>112.3</ele>
				<time>2013-07-12T09:04:59</time>
			</trkpt>
			<trkpt lat="48.70307922363281" lon="3.010232448577881">
				<ele>110.88</ele>
				<time>2013-07-12T09:05:10</time>
			</trkpt>
			<trkpt lat="48.70293974876404" lon="3.0101466178894043">
				<ele>110.37</ele>
				<time>2013-07-12T09:05:12</time>
			</trkpt>
			<trkpt lat="48.70270371437073" lon="3.010103702545166">
				<ele>109.53</ele>
				<time>2013-07-12T09:05:16</time>
			</trkpt>
			<trkpt lat="48.70270379818976" lon="3.010103702545166">
				<ele>109.53</ele>
				<time>2013-07-12T09:05:16</time>
			</trkpt>
			<trkpt lat="48.70215662755072" lon="3.0100178718566895">
				<ele>109.0</ele>
				<time>2013-07-12T09:05:25</time>
			</trkpt>
			<trkpt lat="48.701834762468934" lon="3.0094492435455322">
				<ele>108.3</ele>
				<time>2013-07-12T09:05:33</time>
			</trkpt>
			<trkpt lat="48.70145916938782" lon="3.0090200901031494">
				<ele>107.08</ele>
				<time>2013-07-12T09:05:40</time>
			</trkpt>
			<trkpt lat="48.701244592666626" lon="3.0086445808410645">
				<ele>106.22</ele>
				<time>2013-07-12T09:05:45</time>
			</trkpt>
			<trkpt lat="48.70115876197815" lon="3.0085158348083496">
				<ele>105.8</ele>
				<time>2013-07-12T09:05:47</time>
			</trkpt>
			<trkpt lat="48.701051473617554" lon="3.008451461791992">
				<ele>105.23</ele>
				<time>2013-07-12T09:05:49</time>
			</trkpt>
			<trkpt lat="48.7009334564209" lon="3.0084407329559326">
				<ele>104.45</ele>
				<time>2013-07-12T09:05:51</time>
			</trkpt>
			<trkpt lat="48.700783252716064" lon="3.00850510597229">
				<ele>103.5</ele>
				<time>2013-07-12T09:05:54</time>
			</trkpt>
			<trkpt lat="48.7004292011261" lon="3.008805513381958">
				<ele>100.49</ele>
				<time>2013-07-12T09:06:00</time>
			</trkpt>
			<trkpt lat="48.69996149092913" lon="3.009160151705146">
				<ele>96.19</ele>
				<time>2013-07-12T09:06:08</time>
			</trkpt>
			<trkpt lat="48.69945287704468" lon="3.0095458030700684">
				<ele>92.97</ele>
				<time>2013-07-12T09:06:18</time>
			</trkpt>
			<trkpt lat="48.69864821434021" lon="3.0102217197418213">
				<ele>91.0</ele>
				<time>2013-07-12T09:06:32</time>
			</trkpt>
			<trkpt lat="48.69864829815924" lon="3.0102217197418213">
				<ele>91.0</ele>
				<time>2013-07-12T09:06:32</time>
			</trkpt>
			<trkpt lat="48.69849809445441" lon="3.010350465774536">
				<ele>91.0</ele>
				<time>2013-07-12T09:06:35</time>
			</trkpt>
			<trkpt lat="48.69761824607849" lon="3.0110907554626465">
				<ele>92.77</ele>
				<time>2013-07-12T09:06:51</time>
			</trkpt>
			<trkpt lat="48.69732856750488" lon="3.011305332183838">
				<ele>93.63</ele>
				<time>2013-07-12T09:06:56</time>
			</trkpt>
			<trkpt lat="48.69707107543945" lon="3.0114448070526123">
				<ele>93.74</ele>
				<time>2013-07-12T09:07:01</time>
			</trkpt>
			<trkpt lat="48.69681358337402" lon="3.0115091800689697">
				<ele>94.73</ele>
				<time>2013-07-12T09:07:05</time>
			</trkpt>
			<trkpt lat="48.69485020637512" lon="3.0115628242492676">
				<ele>103.84</ele>
				<time>2013-07-12T09:07:36</time>
			</trkpt>
			<trkpt lat="48.694560527801514" lon="3.0114662647247314">
				<ele>105.54</ele>
				<time>2013-07-12T09:07:41</time>
			</trkpt>
			<trkpt lat="48.69433522224426" lon="3.011326789855957">
				<ele>107.75</ele>
				<time>2013-07-12T09:07:45</time>
			</trkpt>
			<trkpt lat="48.69420647621155" lon="3.0112838745117188">
				<ele>109.1</ele>
				<time>2013-07-12T09:07:47</time>
			</trkpt>
			<trkpt lat="48.69294055737555" lon="3.0116701126098633">
				<ele>115.6</ele>
				<time>2013-07-12T09:08:08</time>
			</trkpt>
			<trkpt lat="48.691760301589966" lon="3.0120456218719482">
				<ele>113.0</ele>
				<time>2013-07-12T09:08:27</time>
			</trkpt>
			<trkpt lat="48.69164228439331" lon="3.012099266052246">
				<ele>113.0</ele>
				<time>2013-07-12T09:08:29</time>
			</trkpt>
			<trkpt lat="48.691534996032715" lon="3.012206554412842">
				<ele>113.0</ele>
				<time>2013-07-12T09:08:31</time>
			</trkpt>
			<trkpt lat="48.69144916534424" lon="3.012356758117676">
				<ele>113.0</ele>
				<time>2013-07-12T09:08:33</time>
			</trkpt>
			<trkpt lat="48.69141697883606" lon="3.0125176906585693">
				<ele>112.53</ele>
				<time>2013-07-12T09:08:35</time>
			</trkpt>
			<trkpt lat="48.69140625" lon="3.012721538543701">
				<ele>112.12</ele>
				<time>2013-07-12T09:08:37</time>
			</trkpt>
			<trkpt lat="48.69143843650818" lon="3.013021945953369">
				<ele>112.01</ele>
				<time>2013-07-12T09:08:40</time>
			</trkpt>
			<trkpt lat="48.691502809524536" lon="3.0133330821990967">
				<ele>112.48</ele>
				<time>2013-07-12T09:08:44</time>
			</trkpt>
			<trkpt lat="48.69159936904907" lon="3.013719320297241">
				<ele>113.0</ele>
				<time>2013-07-12T09:08:48</time>
			</trkpt>
			<trkpt lat="48.692007064819336" lon="3.01499605178833">
				<ele>113.48</ele>
				<time>2013-07-12T09:09:03</time>
			</trkpt>
			<trkpt lat="48.69214653968811" lon="3.0154895782470703">
				<ele>112.46</ele>
				<time>2013-07-12T09:09:09</time>
			</trkpt>
			<trkpt lat="48.69247913360596" lon="3.01699161529541">
				<ele>111.92</ele>
				<time>2013-07-12T09:09:26</time>
			</trkpt>
			<trkpt lat="48.693015575408936" lon="3.0206501483917236">
				<ele>105.51</ele>
				<time>2013-07-12T09:10:05</time>
			</trkpt>
			<trkpt lat="48.693037033081055" lon="3.0208754539489746">
				<ele>104.62</ele>
				<time>2013-07-12T09:10:08</time>
			</trkpt>
			<trkpt lat="48.69302638806403" lon="3.021218776702881">
				<ele>104.29</ele>
				<time>2013-07-12T09:10:11</time>
			</trkpt>
			<trkpt lat="48.69297274388373" lon="3.021562099456787">
				<ele>104.0</ele>
				<time>2013-07-12T09:10:15</time>
			</trkpt>
			<trkpt lat="48.69283318519592" lon="3.0224311351776123">
				<ele>107.45</ele>
				<time>2013-07-12T09:10:24</time>
			</trkpt>
			<trkpt lat="48.692768812179565" lon="3.023042678833008">
				<ele>111.65</ele>
				<time>2013-07-12T09:10:31</time>
			</trkpt>
			<trkpt lat="48.69272589683533" lon="3.0231821537017822">
				<ele>112.0</ele>
				<time>2013-07-12T09:10:33</time>
			</trkpt>
			<trkpt lat="48.69262933731079" lon="3.023364543914795">
				<ele>111.72</ele>
				<time>2013-07-12T09:10:35</time>
			</trkpt>
			<trkpt lat="48.692747354507446" lon="3.02348256111145">
				<ele>111.29</ele>
				<time>2013-07-12T09:10:37</time>
			</trkpt>
			<trkpt lat="48.692790269851685" lon="3.0242228507995605">
				<ele>111.0</ele>
				<time>2013-07-12T09:10:45</time>
			</trkpt>
			<trkpt lat="48.69282245635986" lon="3.024609088897705">
				<ele>110.89</ele>
				<time>2013-07-12T09:10:49</time>
			</trkpt>
			<trkpt lat="48.69295120239258" lon="3.025263547897339">
				<ele>110.0</ele>
				<time>2013-07-12T09:10:56</time>
			</trkpt>
			<trkpt lat="48.693294525146484" lon="3.026529550552368">
				<ele>108.0</ele>
				<time>2013-07-12T09:11:11</time>
			</trkpt>
			<trkpt lat="48.69334816932678" lon="3.0268192291259766">
				<ele>107.83</ele>
				<time>2013-07-12T09:11:14</time>
			</trkpt>
			<trkpt lat="48.6933696269989" lon="3.0270767211914062">
				<ele>107.0</ele>
				<time>2013-07-12T09:11:17</time>
			</trkpt>
			<trkpt lat="48.6933696269989" lon="3.0273234844207764">
				<ele>107.0</ele>
				<time>2013-07-12T09:11:19</time>
			</trkpt>
			<trkpt lat="48.69321942329407" lon="3.028750419616699">
				<ele>106.6</ele>
				<time>2013-07-12T09:11:35</time>
			</trkpt>
			<trkpt lat="48.69313359260559" lon="3.0299949645996094">
				<ele>108.81</ele>
				<time>2013-07-12T09:11:48</time>
			</trkpt>
			<trkpt lat="48.69310509413481" lon="3.030553786084056">
				<ele>109.03</ele>
				<time>2013-07-12T09:11:54</time>
			</trkpt>
			<trkpt lat="48.69311112910509" lon="3.0305544566363096">
				<ele>109.17</ele>
				<time>2013-07-12T09:11:54</time>
			</trkpt>
			<trkpt lat="48.69281985796988" lon="3.034569974988699">
				<ele>106.0</ele>
				<time>2013-07-12T09:12:37</time>
			</trkpt>
			<trkpt lat="48.6935199983418" lon="3.0445898696780205">
				<ele>115.0</ele>
				<time>2013-07-12T09:14:23</time>
			</trkpt>
			<trkpt lat="48.693369878456" lon="3.04494995623827">
				<ele>114.0</ele>
				<time>2013-07-12T09:14:28</time>
			</trkpt>
			<trkpt lat="48.6924699973315" lon="3.044809978455305">
				<ele>114.0</ele>
				<time>2013-07-12T09:14:42</time>
			</trkpt>
			<trkpt lat="48.69111992418766" lon="3.044989937916398">
				<ele>115.0</ele>
				<time>2013-07-12T09:15:04</time>
			</trkpt>
			<trkpt lat="48.68692997843027" lon="3.0484199803322554">
				<ele>123.0</ele>
				<time>2013-07-12T09:16:20</time>
			</trkpt>
			<trkpt lat="48.68742995895445" lon="3.058919906616211">
				<ele>112.0</ele>
				<time>2013-07-12T09:18:11</time>
			</trkpt>
			<trkpt lat="48.68932996876538" lon="3.0694298911839724">
				<ele>106.0</ele>
				<time>2013-07-12T09:20:07</time>
			</trkpt>
			<trkpt lat="48.68937992490828" lon="3.0705399066209793">
				<ele>108.0</ele>
				<time>2013-07-12T09:20:18</time>
			</trkpt>
			<trkpt lat="48.68843989446759" lon="3.074649889022112">
				<ele>113.0</ele>
				<time>2013-07-12T09:21:04</time>
			</trkpt>
			<trkpt lat="48.68823998607695" lon="3.076269943267107">
				<ele>111.0</ele>
				<time>2013-07-12T09:21:22</time>
			</trkpt>
			<trkpt lat="48.687109937891364" lon="3.076199870556593">
				<ele>110.0</ele>
				<time>2013-07-12T09:21:40</time>
			</trkpt>
			<trkpt lat="48.685199953615665" lon="3.0744199734181166">
				<ele>112.0</ele>
				<time>2013-07-12T09:22:16</time>
			</trkpt>
			<trkpt lat="48.68408993817866" lon="3.0738098546862602">
				<ele>110.0</ele>
				<time>2013-07-12T09:22:35</time>
			</trkpt>
			<trkpt lat="48.683759942650795" lon="3.080439940094948">
				<ele>105.0</ele>
				<time>2013-07-12T09:23:45</time>
			</trkpt>
			<trkpt lat="48.68284991942346" lon="3.0803199112415314">
				<ele>105.0</ele>
				<time>2013-07-12T09:24:00</time>
			</trkpt>
			<trkpt lat="48.679789854213595" lon="3.078479999676347">
				<ele>105.0</ele>
				<time>2013-07-12T09:24:52</time>
			</trkpt>
			<trkpt lat="48.679079990834" lon="3.0783698614686728">
				<ele>105.0</ele>
				<time>2013-07-12T09:25:04</time>
			</trkpt>
			<trkpt lat="48.67629996500909" lon="3.0785699374973774">
				<ele>106.0</ele>
				<time>2013-07-12T09:25:48</time>
			</trkpt>
			<trkpt lat="48.67544995620847" lon="3.078779987990856">
				<ele>107.0</ele>
				<time>2013-07-12T09:26:02</time>
			</trkpt>
			<trkpt lat="48.668059883639216" lon="3.0848599690943956">
				<ele>111.0</ele>
				<time>2013-07-12T09:28:17</time>
			</trkpt>
			<trkpt lat="48.66755713708699" lon="3.085227683186531">
				<ele>111.86</ele>
				<time>2013-07-12T09:28:26</time>
			</trkpt>
			<trkpt lat="48.66755713708699" lon="3.085227767005563">
				<ele>111.87</ele>
				<time>2013-07-12T09:28:26</time>
			</trkpt>
			<trkpt lat="48.66755713708699" lon="3.0852278508245945">
				<ele>111.88</ele>
				<time>2013-07-12T09:28:26</time>
			</trkpt>
			<trkpt lat="48.667557053267956" lon="3.085228018462658">
				<ele>111.89</ele>
				<time>2013-07-12T09:28:26</time>
			</trkpt>
			<trkpt lat="48.66749997250736" lon="3.0852699279785156">
				<ele>112.0</ele>
				<time>2013-07-12T09:28:27</time>
			</trkpt>
			<trkpt lat="48.667129995301366" lon="3.0852799024432898">
				<ele>112.0</ele>
				<time>2013-07-12T09:28:33</time>
			</trkpt>
			<trkpt lat="48.6638799123466" lon="3.0843099486082792">
				<ele>113.0</ele>
				<time>2013-07-12T09:29:26</time>
			</trkpt>
			<trkpt lat="48.66045992821455" lon="3.0821099504828453">
				<ele>118.0</ele>
				<time>2013-07-12T09:30:25</time>
			</trkpt>
			<trkpt lat="48.65983991883695" lon="3.0812599416822195">
				<ele>119.0</ele>
				<time>2013-07-12T09:30:39</time>
			</trkpt>
			<trkpt lat="48.65886988118291" lon="3.080329969525337">
				<ele>121.0</ele>
				<time>2013-07-12T09:30:57</time>
			</trkpt>
			<trkpt lat="48.65840996615589" lon="3.0789898708462715">
				<ele>124.0</ele>
				<time>2013-07-12T09:31:13</time>
			</trkpt>
			<trkpt lat="48.65801987238228" lon="3.078409843146801">
				<ele>125.0</ele>
				<time>2013-07-12T09:31:22</time>
			</trkpt>
			<trkpt lat="48.656259924173355" lon="3.078469857573509">
				<ele>127.0</ele>
				<time>2013-07-12T09:31:50</time>
			</trkpt>
			<trkpt lat="48.65643996745348" lon="3.07732991874218">
				<ele>129.0</ele>
				<time>2013-07-12T09:32:02</time>
			</trkpt>
			<trkpt lat="48.65691991522908" lon="3.076709909364581">
				<ele>130.0</ele>
				<time>2013-07-12T09:32:12</time>
			</trkpt>
			<trkpt lat="48.656819835305214" lon="3.07519999332726">
				<ele>131.0</ele>
				<time>2013-07-12T09:32:28</time>
			</trkpt>
			<trkpt lat="48.65715988911688" lon="3.072479898110032">
				<ele>128.0</ele>
				<time>2013-07-12T09:32:58</time>
			</trkpt>
			<trkpt lat="48.64887990988791" lon="3.0690398812294006">
				<ele>130.0</ele>
				<time>2013-07-12T09:35:15</time>
			</trkpt>
			<trkpt lat="48.64118993282318" lon="3.06763993576169">
				<ele>127.0</ele>
				<time>2013-07-12T09:37:19</time>
			</trkpt>
			<trkpt lat="48.63544992171228" lon="3.067559888586402">
				<ele>122.0</ele>
				<time>2013-07-12T09:38:51</time>
			</trkpt>
			<trkpt lat="48.63467987626791" lon="3.067199969664216">
				<ele>124.0</ele>
				<time>2013-07-12T09:39:04</time>
			</trkpt>
			<trkpt lat="48.63297994248569" lon="3.066869890317321">
				<ele>126.0</ele>
				<time>2013-07-12T09:39:31</time>
			</trkpt>
			<trkpt lat="48.62637994810939" lon="3.069989886134863">
				<ele>128.0</ele>
				<time>2013-07-12T09:41:22</time>
			</trkpt>
			<trkpt lat="48.61769998446107" lon="3.0707899387925863">
				<ele>127.0</ele>
				<time>2013-07-12T09:43:41</time>
			</trkpt>
			<trkpt lat="48.6161199118942" lon="3.0718798376619816">
				<ele>126.0</ele>
				<time>2013-07-12T09:44:09</time>
			</trkpt>
			<trkpt lat="48.615569891408086" lon="3.0725798942148685">
				<ele>123.0</ele>
				<time>2013-07-12T09:44:21</time>
			</trkpt>
			<trkpt lat="48.613799968734384" lon="3.0714899115264416">
				<ele>123.0</ele>
				<time>2013-07-12T09:44:51</time>
			</trkpt>
			<trkpt lat="48.6127198766917" lon="3.071869947016239">
				<ele>127.0</ele>
				<time>2013-07-12T09:45:09</time>
			</trkpt>
			<trkpt lat="48.611679850146174" lon="3.0725698359310627">
				<ele>128.0</ele>
				<time>2013-07-12T09:45:27</time>
			</trkpt>
			<trkpt lat="48.61078994348645" lon="3.072749963030219">
				<ele>123.0</ele>
				<time>2013-07-12T09:45:42</time>
			</trkpt>
			<trkpt lat="48.60897995531559" lon="3.072459865361452">
				<ele>118.0</ele>
				<time>2013-07-12T09:46:11</time>
			</trkpt>
			<trkpt lat="48.60553993843496" lon="3.072459865361452">
				<ele>124.0</ele>
				<time>2013-07-12T09:47:06</time>
			</trkpt>
			<trkpt lat="48.604349959641695" lon="3.0726599413901567">
				<ele>126.0</ele>
				<time>2013-07-12T09:47:25</time>
			</trkpt>
			<trkpt lat="48.60193991102278" lon="3.072239840403199">
				<ele>130.0</ele>
				<time>2013-07-12T09:48:04</time>
			</trkpt>
			<trkpt lat="48.59993998892605" lon="3.0714999698102474">
				<ele>131.0</ele>
				<time>2013-07-12T09:48:37</time>
			</trkpt>
			<trkpt lat="48.59844985418022" lon="3.072049906477332">
				<ele>131.0</ele>
				<time>2013-07-12T09:49:01</time>
			</trkpt>
			<trkpt lat="48.596229990944266" lon="3.0732599180191755">
				<ele>132.0</ele>
				<time>2013-07-12T09:49:39</time>
			</trkpt>
			<trkpt lat="48.59517998993397" lon="3.074119985103607">
				<ele>131.0</ele>
				<time>2013-07-12T09:49:58</time>
			</trkpt>
			<trkpt lat="48.594879833981395" lon="3.0737599823623896">
				<ele>131.0</ele>
				<time>2013-07-12T09:50:05</time>
			</trkpt>
			<trkpt lat="48.5935499612242" lon="3.0739899817854166">
				<ele>132.0</ele>
				<time>2013-07-12T09:50:26</time>
			</trkpt>
			<trkpt lat="48.59301318414509" lon="3.0727262422442436">
				<ele>130.64</ele>
				<time>2013-07-12T09:50:42</time>
			</trkpt>
			<trkpt lat="48.59301318414509" lon="3.072726158425212">
				<ele>130.64</ele>
				<time>2013-07-12T09:50:42</time>
			</trkpt>
			<trkpt lat="48.59301310032606" lon="3.0727259907871485">
				<ele>130.64</ele>
				<time>2013-07-12T09:50:42</time>
			</trkpt>
			<trkpt lat="48.59275996685028" lon="3.0721298698335886">
				<ele>130.0</ele>
				<time>2013-07-12T09:50:49</time>
			</trkpt>
			<trkpt lat="48.5933099873364" lon="3.069989886134863">
				<ele>128.0</ele>
				<time>2013-07-12T09:51:14</time>
			</trkpt>
			<trkpt lat="48.59331887215376" lon="3.0684986617416143">
				<ele>131.15</ele>
				<time>2013-07-12T09:51:29</time>
			</trkpt>
			<trkpt lat="48.593329852446914" lon="3.0666699819266796">
				<ele>129.0</ele>
				<time>2013-07-12T09:51:49</time>
			</trkpt>
			<trkpt lat="48.59385992400348" lon="3.0654098466038704">
				<ele>127.0</ele>
				<time>2013-07-12T09:52:05</time>
			</trkpt>
			<trkpt lat="48.59723984263837" lon="3.0604099575430155">
				<ele>124.0</ele>
				<time>2013-07-12T09:53:20</time>
			</trkpt>
			<trkpt lat="48.59825983643532" lon="3.0579899344593287">
				<ele>127.0</ele>
				<time>2013-07-12T09:53:51</time>
			</trkpt>
			<trkpt lat="48.599259881302714" lon="3.0525598861277103">
				<ele>119.0</ele>
				<time>2013-07-12T09:54:50</time>
			</trkpt>
			<trkpt lat="48.60199992544949" lon="3.044289881363511">
				<ele>113.0</ele>
				<time>2013-07-12T09:56:28</time>
			</trkpt>
			<trkpt lat="48.60395986586809" lon="3.0424198787659407">
				<ele>121.0</ele>
				<time>2013-07-12T09:57:06</time>
			</trkpt>
			<trkpt lat="48.60430997796357" lon="3.0423598643392324">
				<ele>122.0</ele>
				<time>2013-07-12T09:57:11</time>
			</trkpt>
			<trkpt lat="48.60519988462329" lon="3.0426098965108395">
				<ele>123.0</ele>
				<time>2013-07-12T09:57:26</time>
			</trkpt>
			<trkpt lat="48.60577999614179" lon="3.042299933731556">
				<ele>122.0</ele>
				<time>2013-07-12T09:57:35</time>
			</trkpt>
			<trkpt lat="48.62257984466851" lon="3.023829907178879">
				<ele>116.0</ele>
				<time>2013-07-12T10:03:08</time>
			</trkpt>
			<trkpt lat="48.6273998580873" lon="3.0201598908752203">
				<ele>115.0</ele>
				<time>2013-07-12T10:04:34</time>
			</trkpt>
			<trkpt lat="48.62715150229633" lon="3.0196197610348463">
				<ele>116.73</ele>
				<time>2013-07-12T10:04:41</time>
			</trkpt>
			<trkpt lat="48.62659988924861" lon="3.0184198915958405">
				<ele>106.0</ele>
				<time>2013-07-12T10:04:57</time>
			</trkpt>
			<trkpt lat="48.6254898738116" lon="3.0175699666142464">
				<ele>101.0</ele>
				<time>2013-07-12T10:05:17</time>
			</trkpt>
			<trkpt lat="48.62616989761591" lon="3.0152299907058477">
				<ele>99.0</ele>
				<time>2013-07-12T10:05:44</time>
			</trkpt>
			<trkpt lat="48.62655990757048" lon="3.01248986274004">
				<ele>98.0</ele>
				<time>2013-07-12T10:06:14</time>
			</trkpt>
			<trkpt lat="48.6261098831892" lon="3.0079699214547873">
				<ele>100.0</ele>
				<time>2013-07-12T10:07:02</time>
			</trkpt>
			<trkpt lat="48.62647986039519" lon="3.004719838500023">
				<ele>94.0</ele>
				<time>2013-07-12T10:07:37</time>
			</trkpt>
			<trkpt lat="48.62594995647669" lon="3.0022999830543995">
				<ele>100.0</ele>
				<time>2013-07-12T10:08:04</time>
			</trkpt>
			<trkpt lat="48.625879883766174" lon="2.999719949439168">
				<ele>102.0</ele>
				<time>2013-07-12T10:08:31</time>
			</trkpt>
			<trkpt lat="48.62556992098689" lon="2.9976099729537964">
				<ele>106.0</ele>
				<time>2013-07-12T10:08:54</time>
			</trkpt>
			<trkpt lat="48.62532994709909" lon="2.9966998659074306">
				<ele>110.0</ele>
				<time>2013-07-12T10:09:04</time>
			</trkpt>
			<trkpt lat="48.62446996383369" lon="2.9949198849499226">
				<ele>117.0</ele>
				<time>2013-07-12T10:09:28</time>
			</trkpt>
			<trkpt lat="48.62421993166208" lon="2.9936098773032427">
				<ele>119.0</ele>
				<time>2013-07-12T10:09:42</time>
			</trkpt>
			<trkpt lat="48.624699879437685" lon="2.9899998754262924">
				<ele>119.0</ele>
				<time>2013-07-12T10:10:21</time>
			</trkpt>
			<trkpt lat="48.62465998157859" lon="2.986589949578047">
				<ele>116.0</ele>
				<time>2013-07-12T10:10:57</time>
			</trkpt>
			<trkpt lat="48.622999945655465" lon="2.9769098572432995">
				<ele>118.0</ele>
				<time>2013-07-12T10:12:43</time>
			</trkpt>
			<trkpt lat="48.62248990684748" lon="2.975239846855402">
				<ele>117.0</ele>
				<time>2013-07-12T10:13:03</time>
			</trkpt>
			<trkpt lat="48.621899988502264" lon="2.974219936877489">
				<ele>116.0</ele>
				<time>2013-07-12T10:13:17</time>
			</trkpt>
			<trkpt lat="48.62169999629259" lon="2.9734399169683456">
				<ele>116.0</ele>
				<time>2013-07-12T10:13:26</time>
			</trkpt>
			<trkpt lat="48.62164995633066" lon="2.962219901382923">
				<ele>113.0</ele>
				<time>2013-07-12T10:15:24</time>
			</trkpt>
			<trkpt lat="48.62124988809228" lon="2.957989973947406">
				<ele>113.0</ele>
				<time>2013-07-12T10:16:10</time>
			</trkpt>
			<trkpt lat="48.621779875829816" lon="2.9543699137866497">
				<ele>112.0</ele>
				<time>2013-07-12T10:16:49</time>
			</trkpt>
			<trkpt lat="48.6213799752295" lon="2.948909942060709">
				<ele>110.0</ele>
				<time>2013-07-12T10:17:47</time>
			</trkpt>
			<trkpt lat="48.621019972488284" lon="2.947499854490161">
				<ele>111.0</ele>
				<time>2013-07-12T10:18:03</time>
			</trkpt>
			<trkpt lat="48.62001992762089" lon="2.947099953889847">
				<ele>110.0</ele>
				<time>2013-07-12T10:18:20</time>
			</trkpt>
			<trkpt lat="48.61872995272279" lon="2.945349896326661">
				<ele>111.0</ele>
				<time>2013-07-12T10:18:47</time>
			</trkpt>
			<trkpt lat="48.6181699577719" lon="2.94332985766232">
				<ele>110.0</ele>
				<time>2013-07-12T10:19:11</time>
			</trkpt>
			<trkpt lat="48.61776997335255" lon="2.9396098852157593">
				<ele>112.0</ele>
				<time>2013-07-12T10:19:50</time>
			</trkpt>
			<trkpt lat="48.6180298961699" lon="2.936609834432602">
				<ele>113.0</ele>
				<time>2013-07-12T10:20:22</time>
			</trkpt>
			<trkpt lat="48.617929983884096" lon="2.929159998893738">
				<ele>108.0</ele>
				<time>2013-07-12T10:21:41</time>
			</trkpt>
			<trkpt lat="48.61837984062731" lon="2.924189865589142">
				<ele>109.0</ele>
				<time>2013-07-12T10:22:34</time>
			</trkpt>
			<trkpt lat="48.61782571300864" lon="2.9204435739666224">
				<ele>115.0</ele>
				<time>2013-07-12T10:23:15</time>
			</trkpt>
			<trkpt lat="48.61766989342868" lon="2.91938996873796">
				<ele>112.0</ele>
				<time>2013-07-12T10:23:27</time>
			</trkpt>
			<trkpt lat="48.6174098867923" lon="2.918589999899268">
				<ele>111.0</ele>
				<time>2013-07-12T10:23:36</time>
			</trkpt>
			<trkpt lat="48.61770987510681" lon="2.9185798577964306">
				<ele>111.0</ele>
				<time>2013-07-12T10:23:41</time>
			</trkpt>
			<trkpt lat="48.619669983163476" lon="2.9197299387305975">
				<ele>111.0</ele>
				<time>2013-07-12T10:24:14</time>
			</trkpt>
			<trkpt lat="48.620489900931716" lon="2.919619968160987">
				<ele>111.0</ele>
				<time>2013-07-12T10:24:28</time>
			</trkpt>
			<trkpt lat="48.62133999355137" lon="2.918999958783388">
				<ele>111.0</ele>
				<time>2013-07-12T10:24:43</time>
			</trkpt>
			<trkpt lat="48.62129984423518" lon="2.9174799006432295">
				<ele>110.0</ele>
				<time>2013-07-12T10:24:59</time>
			</trkpt>
			<trkpt lat="48.62088996917009" lon="2.915409989655018">
				<ele>110.0</ele>
				<time>2013-07-12T10:25:22</time>
			</trkpt>
			<trkpt lat="48.62126992084086" lon="2.9137498699128628">
				<ele>110.0</ele>
				<time>2013-07-12T10:25:40</time>
			</trkpt>
			<trkpt lat="48.62107998691499" lon="2.9128299560397863">
				<ele>110.0</ele>
				<time>2013-07-12T10:25:50</time>
			</trkpt>
			<trkpt lat="48.6232899595052" lon="2.8989099618047476">
				<ele>109.0</ele>
				<time>2013-07-12T10:28:22</time>
			</trkpt>
			<trkpt lat="48.626119857653975" lon="2.8962699975818396">
				<ele>108.0</ele>
				<time>2013-07-12T10:29:15</time>
			</trkpt>
			<trkpt lat="48.62728988751769" lon="2.8933098446577787">
				<ele>108.0</ele>
				<time>2013-07-12T10:29:52</time>
			</trkpt>
			<trkpt lat="48.630199916660786" lon="2.8892098367214203">
				<ele>110.0</ele>
				<time>2013-07-12T10:30:55</time>
			</trkpt>
			<trkpt lat="48.63102997653186" lon="2.886789981275797">
				<ele>112.0</ele>
				<time>2013-07-12T10:31:24</time>
			</trkpt>
			<trkpt lat="48.631079932674766" lon="2.885649958625436">
				<ele>110.0</ele>
				<time>2013-07-12T10:31:36</time>
			</trkpt>
			<trkpt lat="48.6317999381572" lon="2.883639894425869">
				<ele>109.0</ele>
				<time>2013-07-12T10:32:01</time>
			</trkpt>
			<trkpt lat="48.63801101222634" lon="2.8734934329986572">
				<ele>106.47</ele>
				<time>2013-07-12T10:34:27</time>
			</trkpt>
			<trkpt lat="48.6392498575151" lon="2.871469957754016">
				<ele>106.0</ele>
				<time>2013-07-12T10:34:56</time>
			</trkpt>
			<trkpt lat="48.64114995114505" lon="2.8693298902362585">
				<ele>105.0</ele>
				<time>2013-07-12T10:35:34</time>
			</trkpt>
			<trkpt lat="48.64285994321108" lon="2.8670998848974705">
				<ele>102.0</ele>
				<time>2013-07-12T10:36:10</time>
			</trkpt>
			<trkpt lat="48.64456985145807" lon="2.8655699361115694">
				<ele>103.0</ele>
				<time>2013-07-12T10:36:42</time>
			</trkpt>
			<trkpt lat="48.644979977980256" lon="2.8635699301958084">
				<ele>103.0</ele>
				<time>2013-07-12T10:37:04</time>
			</trkpt>
			<trkpt lat="48.646629955619574" lon="2.859999993816018">
				<ele>101.0</ele>
				<time>2013-07-12T10:37:50</time>
			</trkpt>
			<trkpt lat="48.64928995259106" lon="2.8558099642395973">
				<ele>99.0</ele>
				<time>2013-07-12T10:38:52</time>
			</trkpt>
			<trkpt lat="48.64992991089821" lon="2.855139998719096">
				<ele>99.0</ele>
				<time>2013-07-12T10:39:04</time>
			</trkpt>
			<trkpt lat="48.6508799996227" lon="2.854769853875041">
				<ele>102.0</ele>
				<time>2013-07-12T10:39:20</time>
			</trkpt>
			<trkpt lat="48.65147989243269" lon="2.8541299793869257">
				<ele>99.0</ele>
				<time>2013-07-12T10:39:32</time>
			</trkpt>
			<trkpt lat="48.65441984497011" lon="2.8493299148976803">
				<ele>98.0</ele>
				<time>2013-07-12T10:40:41</time>
			</trkpt>
			<trkpt lat="48.6553199775517" lon="2.8486898727715015">
				<ele>91.0</ele>
				<time>2013-07-12T10:40:57</time>
			</trkpt>
			<trkpt lat="48.659935388714075" lon="2.8445508889853954">
				<ele>77.22</ele>
				<time>2013-07-12T10:42:23</time>
			</trkpt>
			<trkpt lat="48.66209993138909" lon="2.842609891667962">
				<ele>74.0</ele>
				<time>2013-07-12T10:43:03</time>
			</trkpt>
			<trkpt lat="48.66477996110916" lon="2.8429599199444056">
				<ele>90.0</ele>
				<time>2013-07-12T10:43:46</time>
			</trkpt>
			<trkpt lat="48.665007781237364" lon="2.8428332693874836">
				<ele>94.06</ele>
				<time>2013-07-12T10:43:50</time>
			</trkpt>
			<trkpt lat="48.66567992605269" lon="2.8424598556011915">
				<ele>97.0</ele>
				<time>2013-07-12T10:44:01</time>
			</trkpt>
			<trkpt lat="48.66714986041188" lon="2.842589858919382">
				<ele>102.0</ele>
				<time>2013-07-12T10:44:25</time>
			</trkpt>
			<trkpt lat="48.667539954185486" lon="2.8428698983043432">
				<ele>101.0</ele>
				<time>2013-07-12T10:44:32</time>
			</trkpt>
			<trkpt lat="48.669149950146675" lon="2.8419398423284292">
				<ele>102.0</ele>
				<time>2013-07-12T10:44:59</time>
			</trkpt>
			<trkpt lat="48.66952998563647" lon="2.842229939997196">
				<ele>103.0</ele>
				<time>2013-07-12T10:45:06</time>
			</trkpt>
			<trkpt lat="48.669669879600406" lon="2.842179900035262">
				<ele>103.0</ele>
				<time>2013-07-12T10:45:09</time>
			</trkpt>
			<trkpt lat="48.670739913359284" lon="2.8404798824340105">
				<ele>101.0</ele>
				<time>2013-07-12T10:45:33</time>
			</trkpt>
			<trkpt lat="48.67211999371648" lon="2.839069962501526">
				<ele>96.0</ele>
				<time>2013-07-12T10:46:00</time>
			</trkpt>
			<trkpt lat="48.67297997698188" lon="2.8377899620682">
				<ele>95.0</ele>
				<time>2013-07-12T10:46:19</time>
			</trkpt>
			<trkpt lat="48.67471997626126" lon="2.8367398772388697">
				<ele>78.0</ele>
				<time>2013-07-12T10:46:49</time>
			</trkpt>
			<trkpt lat="48.676519906148314" lon="2.836199915036559">
				<ele>86.0</ele>
				<time>2013-07-12T10:47:19</time>
			</trkpt>
			<trkpt lat="48.67762983776629" lon="2.8369699604809284">
				<ele>93.0</ele>
				<time>2013-07-12T10:47:38</time>
			</trkpt>
			<trkpt lat="48.677869979292154" lon="2.8369699604809284">
				<ele>94.0</ele>
				<time>2013-07-12T10:47:42</time>
			</trkpt>
			<trkpt lat="48.678599959239364" lon="2.8355998545885086">
				<ele>96.0</ele>
				<time>2013-07-12T10:48:01</time>
			</trkpt>
			<trkpt lat="48.679059874266386" lon="2.835079925134778">
				<ele>99.0</ele>
				<time>2013-07-12T10:48:10</time>
			</trkpt>
			<trkpt lat="48.68110992014408" lon="2.837349995970726">
				<ele>101.0</ele>
				<time>2013-07-12T10:48:51</time>
			</trkpt>
			<trkpt lat="48.68196998722851" lon="2.8385051898658276">
				<ele>101.84</ele>
				<time>2013-07-12T10:49:09</time>
			</trkpt>
			<trkpt lat="48.68349985219538" lon="2.8405599296092987">
				<ele>98.0</ele>
				<time>2013-07-12T10:49:42</time>
			</trkpt>
			<trkpt lat="48.685239935293794" lon="2.8445198759436607">
				<ele>96.0</ele>
				<time>2013-07-12T10:50:32</time>
			</trkpt>
			<trkpt lat="48.6894999537617" lon="2.846849961206317">
				<ele>98.0</ele>
				<time>2013-07-12T10:51:45</time>
			</trkpt>
			<trkpt lat="48.69037996977568" lon="2.8470598440617323">
				<ele>96.0</ele>
				<time>2013-07-12T10:51:59</time>
			</trkpt>
			<trkpt lat="48.69106996804476" lon="2.846829928457737">
				<ele>96.0</ele>
				<time>2013-07-12T10:52:10</time>
			</trkpt>
			<trkpt lat="48.6915098503232" lon="2.8469298407435417">
				<ele>97.0</ele>
				<time>2013-07-12T10:52:17</time>
			</trkpt>
			<trkpt lat="48.6937998700887" lon="2.849689917638898">
				<ele>98.0</ele>
				<time>2013-07-12T10:53:04</time>
			</trkpt>
			<trkpt lat="48.69459983892739" lon="2.850399948656559">
				<ele>98.0</ele>
				<time>2013-07-12T10:53:19</time>
			</trkpt>
			<trkpt lat="48.69683990254998" lon="2.8510298486799">
				<ele>97.0</ele>
				<time>2013-07-12T10:53:55</time>
			</trkpt>
			<trkpt lat="48.70420994237065" lon="2.8551498893648386">
				<ele>103.0</ele>
				<time>2013-07-12T10:56:01</time>
			</trkpt>
			<trkpt lat="48.70650985278189" lon="2.8573599457740784">
				<ele>101.0</ele>
				<time>2013-07-12T10:56:45</time>
			</trkpt>
			<trkpt lat="48.70698996819556" lon="2.858359906822443">
				<ele>97.0</ele>
				<time>2013-07-12T10:56:58</time>
			</trkpt>
			<trkpt lat="48.70739992707968" lon="2.8608098533004522">
				<ele>98.0</ele>
				<time>2013-07-12T10:57:25</time>
			</trkpt>
			<trkpt lat="48.70735986158252" lon="2.8620399814099073">
				<ele>100.0</ele>
				<time>2013-07-12T10:57:38</time>
			</trkpt>
			<trkpt lat="48.70791985653341" lon="2.8613099176436663">
				<ele>101.0</ele>
				<time>2013-07-12T10:57:49</time>
			</trkpt>
			<trkpt lat="48.7086299713701" lon="2.8607699554413557">
				<ele>101.0</ele>
				<time>2013-07-12T10:58:02</time>
			</trkpt>
			<trkpt lat="48.708815881982446" lon="2.8604936879128218">
				<ele>100.96</ele>
				<time>2013-07-12T10:58:06</time>
			</trkpt>
			<trkpt lat="48.71068999171257" lon="2.85770989023149">
				<ele>98.0</ele>
				<time>2013-07-12T10:58:48</time>
			</trkpt>
			<trkpt lat="48.711309833452106" lon="2.857079990208149">
				<ele>101.0</ele>
				<time>2013-07-12T10:59:00</time>
			</trkpt>
			<trkpt lat="48.71147998608649" lon="2.8571699280291796">
				<ele>101.0</ele>
				<time>2013-07-12T10:59:03</time>
			</trkpt>
			<trkpt lat="48.71159993112087" lon="2.857039924710989">
				<ele>101.0</ele>
				<time>2013-07-12T10:59:06</time>
			</trkpt>
			<trkpt lat="48.71355987153947" lon="2.857939973473549">
				<ele>102.0</ele>
				<time>2013-07-12T10:59:38</time>
			</trkpt>
			<trkpt lat="48.71362994424999" lon="2.858509859070182">
				<ele>101.0</ele>
				<time>2013-07-12T10:59:44</time>
			</trkpt>
			<trkpt lat="48.71294992044568" lon="2.8598099760711193">
				<ele>103.0</ele>
				<time>2013-07-12T11:00:02</time>
			</trkpt>
			<trkpt lat="48.7129298876971" lon="2.863479992374778">
				<ele>104.0</ele>
				<time>2013-07-12T11:00:41</time>
			</trkpt>
			<trkpt lat="48.71376992203295" lon="2.8644398879259825">
				<ele>103.0</ele>
				<time>2013-07-12T11:00:58</time>
			</trkpt>
			<trkpt lat="48.715559961274266" lon="2.8670573886483908">
				<ele>105.84</ele>
				<time>2013-07-12T11:01:37</time>
			</trkpt>
			<trkpt lat="48.7169499322772" lon="2.8690899163484573">
				<ele>107.0</ele>
				<time>2013-07-12T11:02:08</time>
			</trkpt>
			<trkpt lat="48.717539850622416" lon="2.8709399700164795">
				<ele>107.0</ele>
				<time>2013-07-12T11:02:30</time>
			</trkpt>
			<trkpt lat="48.717859871685505" lon="2.871399885043502">
				<ele>108.0</ele>
				<time>2013-07-12T11:02:37</time>
			</trkpt>
			<trkpt lat="48.718759920448065" lon="2.872129864990711">
				<ele>108.0</ele>
				<time>2013-07-12T11:02:53</time>
			</trkpt>
			<trkpt lat="48.71943994425237" lon="2.8723698388785124">
				<ele>109.0</ele>
				<time>2013-07-12T11:03:05</time>
			</trkpt>
			<trkpt lat="48.72198988683522" lon="2.872779965400696">
				<ele>108.0</ele>
				<time>2013-07-12T11:03:46</time>
			</trkpt>
			<trkpt lat="48.72290996834636" lon="2.8734299819916487">
				<ele>109.0</ele>
				<time>2013-07-12T11:04:02</time>
			</trkpt>
			<trkpt lat="48.72305078431964" lon="2.8735761623829603">
				<ele>110.52</ele>
				<time>2013-07-12T11:04:05</time>
			</trkpt>
			<trkpt lat="48.724219892174006" lon="2.874789861962199">
				<ele>108.0</ele>
				<time>2013-07-12T11:04:27</time>
			</trkpt>
			<trkpt lat="48.72566996142268" lon="2.8757198341190815">
				<ele>110.0</ele>
				<time>2013-07-12T11:04:53</time>
			</trkpt>
			<trkpt lat="48.72725992463529" lon="2.8760299645364285">
				<ele>111.0</ele>
				<time>2013-07-12T11:05:18</time>
			</trkpt>
			<trkpt lat="48.72835988178849" lon="2.8759098518639803">
				<ele>112.0</ele>
				<time>2013-07-12T11:05:36</time>
			</trkpt>
			<trkpt lat="48.72849994339049" lon="2.8769499622285366">
				<ele>112.0</ele>
				<time>2013-07-12T11:05:47</time>
			</trkpt>
			<trkpt lat="48.72815997339785" lon="2.878769841045141">
				<ele>111.0</ele>
				<time>2013-07-12T11:06:07</time>
			</trkpt>
			<trkpt lat="48.72847991064191" lon="2.8791399858891964">
				<ele>111.0</ele>
				<time>2013-07-12T11:06:14</time>
			</trkpt>
			<trkpt lat="48.7289899494499" lon="2.879149876534939">
				<ele>112.0</ele>
				<time>2013-07-12T11:06:22</time>
			</trkpt>
			<trkpt lat="48.729309970512986" lon="2.8793999925255775">
				<ele>111.0</ele>
				<time>2013-07-12T11:06:28</time>
			</trkpt>
			<trkpt lat="48.730019833892584" lon="2.8792899381369352">
				<ele>112.0</ele>
				<time>2013-07-12T11:06:39</time>
			</trkpt>
			<trkpt lat="48.731009904295206" lon="2.8804398514330387">
				<ele>109.0</ele>
				<time>2013-07-12T11:06:59</time>
			</trkpt>
			<trkpt lat="48.732489896938205" lon="2.879149876534939">
				<ele>110.0</ele>
				<time>2013-07-12T11:07:26</time>
			</trkpt>
			<trkpt lat="48.7334399856627" lon="2.878579990938306">
				<ele>107.0</ele>
				<time>2013-07-12T11:07:43</time>
			</trkpt>
			<trkpt lat="48.73430994339287" lon="2.878379914909601">
				<ele>107.0</ele>
				<time>2013-07-12T11:07:57</time>
			</trkpt>
			<trkpt lat="48.737309910357" lon="2.8784599620848894">
				<ele>108.0</ele>
				<time>2013-07-12T11:08:45</time>
			</trkpt>
			<trkpt lat="48.73850827105343" lon="2.878269776701927">
				<ele>109.39</ele>
				<time>2013-07-12T11:09:04</time>
			</trkpt>
			<trkpt lat="48.738759979605675" lon="2.8782298788428307">
				<ele>109.0</ele>
				<time>2013-07-12T11:09:08</time>
			</trkpt>
			<trkpt lat="48.742419853806496" lon="2.8786198887974024">
				<ele>109.0</ele>
				<time>2013-07-12T11:10:07</time>
			</trkpt>
			<trkpt lat="48.74413998797536" lon="2.879129843786359">
				<ele>112.0</ele>
				<time>2013-07-12T11:10:35</time>
			</trkpt>
			<trkpt lat="48.74542996287346" lon="2.879149876534939">
				<ele>110.0</ele>
				<time>2013-07-12T11:10:56</time>
			</trkpt>
			<trkpt lat="48.746859999373555" lon="2.8780899848788977">
				<ele>113.0</ele>
				<time>2013-07-12T11:11:21</time>
			</trkpt>
			<trkpt lat="48.74798987992108" lon="2.876989860087633">
				<ele>115.0</ele>
				<time>2013-07-12T11:11:43</time>
			</trkpt>
			<trkpt lat="48.748539900407195" lon="2.8761698585003614">
				<ele>115.0</ele>
				<time>2013-07-12T11:11:55</time>
			</trkpt>
			<trkpt lat="48.75075984746218" lon="2.8746898658573627">
				<ele>117.0</ele>
				<time>2013-07-12T11:12:34</time>
			</trkpt>
			<trkpt lat="48.75148999504745" lon="2.87450990639627">
				<ele>116.0</ele>
				<time>2013-07-12T11:12:46</time>
			</trkpt>
			<trkpt lat="48.75256991945207" lon="2.874779971316457">
				<ele>116.0</ele>
				<time>2013-07-12T11:13:03</time>
			</trkpt>
			<trkpt lat="48.753609945997596" lon="2.8746598586440086">
				<ele>116.0</ele>
				<time>2013-07-12T11:13:20</time>
			</trkpt>
			<trkpt lat="48.75415988266468" lon="2.874809894710779">
				<ele>116.0</ele>
				<time>2013-07-12T11:13:29</time>
			</trkpt>
			<trkpt lat="48.755929889157414" lon="2.8743099980056286">
				<ele>114.0</ele>
				<time>2013-07-12T11:13:58</time>
			</trkpt>
			<trkpt lat="48.7572999112308" lon="2.8730498626828194">
				<ele>113.0</ele>
				<time>2013-07-12T11:14:23</time>
			</trkpt>
			<trkpt lat="48.75850564800203" lon="2.8721977584064007">
				<ele>115.78</ele>
				<time>2013-07-12T11:14:45</time>
			</trkpt>
			<trkpt lat="48.76012989319861" lon="2.87104994058609">
				<ele>115.0</ele>
				<time>2013-07-12T11:15:13</time>
			</trkpt>
			<trkpt lat="48.75997994095087" lon="2.869829870760441">
				<ele>115.0</ele>
				<time>2013-07-12T11:15:26</time>
			</trkpt>
			<trkpt lat="48.75907989218831" lon="2.8688798658549786">
				<ele>115.0</ele>
				<time>2013-07-12T11:15:44</time>
			</trkpt>
			<trkpt lat="48.75823994167149" lon="2.8676198981702328">
				<ele>115.0</ele>
				<time>2013-07-12T11:16:03</time>
			</trkpt>
			<trkpt lat="48.75750996172428" lon="2.8655298706144094">
				<ele>115.0</ele>
				<time>2013-07-12T11:16:28</time>
			</trkpt>
			<trkpt lat="48.75845988281071" lon="2.86395994015038">
				<ele>115.0</ele>
				<time>2013-07-12T11:16:50</time>
			</trkpt>
			<trkpt lat="48.759819846600294" lon="2.8607699554413557">
				<ele>114.0</ele>
				<time>2013-07-12T11:17:30</time>
			</trkpt>
			<trkpt lat="48.76115994527936" lon="2.8582098707556725">
				<ele>116.0</ele>
				<time>2013-07-12T11:18:05</time>
			</trkpt>
			<trkpt lat="48.76143990084529" lon="2.8579498641192913">
				<ele>115.0</ele>
				<time>2013-07-12T11:18:10</time>
			</trkpt>
			<trkpt lat="48.762889970093966" lon="2.85817994736135">
				<ele>115.0</ele>
				<time>2013-07-12T11:18:33</time>
			</trkpt>
			<trkpt lat="48.76373997889459" lon="2.8571298625320196">
				<ele>116.0</ele>
				<time>2013-07-12T11:18:51</time>
			</trkpt>
			<trkpt lat="48.764669951051474" lon="2.8564498387277126">
				<ele>116.0</ele>
				<time>2013-07-12T11:19:08</time>
			</trkpt>
			<trkpt lat="48.76579999923706" lon="2.855219878256321">
				<ele>117.0</ele>
				<time>2013-07-12T11:19:30</time>
			</trkpt>
			<trkpt lat="48.7669999524951" lon="2.853119960054755">
				<ele>116.0</ele>
				<time>2013-07-12T11:19:59</time>
			</trkpt>
			<trkpt lat="48.76763538457453" lon="2.8514916077256203">
				<ele>118.0</ele>
				<time>2013-07-12T11:20:19</time>
			</trkpt>
			<trkpt lat="48.76932987011969" lon="2.8471499495208263">
				<ele>117.0</ele>
				<time>2013-07-12T11:21:12</time>
			</trkpt>
			<trkpt lat="48.76856996677816" lon="2.8445499669760466">
				<ele>116.0</ele>
				<time>2013-07-12T11:21:42</time>
			</trkpt>
			<trkpt lat="48.76835991628468" lon="2.8425399027764797">
				<ele>115.0</ele>
				<time>2013-07-12T11:22:04</time>
			</trkpt>
			<trkpt lat="48.76776999793947" lon="2.84120986238122">
				<ele>115.0</ele>
				<time>2013-07-12T11:22:21</time>
			</trkpt>
			<trkpt lat="48.76741988584399" lon="2.839669855311513">
				<ele>114.0</ele>
				<time>2013-07-12T11:22:38</time>
			</trkpt>
			<trkpt lat="48.76736992970109" lon="2.838879944756627">
				<ele>115.0</ele>
				<time>2013-07-12T11:22:46</time>
			</trkpt>
			<trkpt lat="48.76781995408237" lon="2.833949876949191">
				<ele>116.0</ele>
				<time>2013-07-12T11:23:39</time>
			</trkpt>
			<trkpt lat="48.76782984472811" lon="2.831309912726283">
				<ele>117.0</ele>
				<time>2013-07-12T11:24:07</time>
			</trkpt>
			<trkpt lat="48.7710699532181" lon="2.829379979521036">
				<ele>116.0</ele>
				<time>2013-07-12T11:25:02</time>
			</trkpt>
			<trkpt lat="48.771809907630086" lon="2.8283299785107374">
				<ele>114.0</ele>
				<time>2013-07-12T11:25:19</time>
			</trkpt>
			<trkpt lat="48.7719299364835" lon="2.8283499274402857">
				<ele>115.0</ele>
				<time>2013-07-12T11:25:21</time>
			</trkpt>
			<trkpt lat="48.77290986478329" lon="2.8266898915171623">
				<ele>114.0</ele>
				<time>2013-07-12T11:25:44</time>
			</trkpt>
			<trkpt lat="48.773529874160886" lon="2.8262198343873024">
				<ele>114.0</ele>
				<time>2013-07-12T11:25:55</time>
			</trkpt>
			<trkpt lat="48.78579989075661" lon="2.8249498922377825">
				<ele>119.0</ele>
				<time>2013-07-12T11:29:12</time>
			</trkpt>
			<trkpt lat="48.792228223755956" lon="2.8228963259607553">
				<ele>125.04</ele>
				<time>2013-07-12T11:30:57</time>
			</trkpt>
			<trkpt lat="48.79222847521305" lon="2.822896158322692">
				<ele>125.04</ele>
				<time>2013-07-12T11:30:57</time>
			</trkpt>
			<trkpt lat="48.79222855903208" lon="2.822896158322692">
				<ele>125.04</ele>
				<time>2013-07-12T11:30:57</time>
			</trkpt>
			<trkpt lat="48.793249977752566" lon="2.8225699346512556">
				<ele>126.0</ele>
				<time>2013-07-12T11:31:14</time>
			</trkpt>
			<trkpt lat="48.8016598764807" lon="2.82620994374156">
				<ele>129.0</ele>
				<time>2013-07-12T11:33:34</time>
			</trkpt>
			<trkpt lat="48.80927131511271" lon="2.8285004664212465">
				<ele>126.93</ele>
				<time>2013-07-12T11:35:38</time>
			</trkpt>
			<trkpt lat="48.812159886583686" lon="2.8293698374181986">
				<ele>125.0</ele>
				<time>2013-07-12T11:36:25</time>
			</trkpt>
			<trkpt lat="48.814089987426996" lon="2.829719865694642">
				<ele>125.0</ele>
				<time>2013-07-12T11:36:57</time>
			</trkpt>
			<trkpt lat="48.81497997790575" lon="2.840549871325493">
				<ele>125.0</ele>
				<time>2013-07-12T11:38:52</time>
			</trkpt>
			<trkpt lat="48.81500990130007" lon="2.8413398656994104">
				<ele>126.0</ele>
				<time>2013-07-12T11:39:00</time>
			</trkpt>
			<trkpt lat="48.81482994183898" lon="2.8420399222522974">
				<ele>126.0</ele>
				<time>2013-07-12T11:39:08</time>
			</trkpt>
			<trkpt lat="48.81515985354781" lon="2.842779876664281">
				<ele>128.0</ele>
				<time>2013-07-12T11:39:17</time>
			</trkpt>
			<trkpt lat="48.815679866820574" lon="2.847939860075712">
				<ele>132.0</ele>
				<time>2013-07-12T11:40:12</time>
			</trkpt>
			<trkpt lat="48.81703505292535" lon="2.8565073385834694">
				<ele>135.0</ele>
				<time>2013-07-12T11:41:45</time>
			</trkpt>
			<trkpt lat="48.81702239625156" lon="2.856512116268277">
				<ele>135.91</ele>
				<time>2013-07-12T11:41:46</time>
			</trkpt>
			<trkpt lat="48.81775975227356" lon="2.860994338989258">
				<ele>135.38</ele>
				<time>2013-07-12T11:42:34</time>
			</trkpt>
			<trkpt lat="48.81844639778137" lon="2.865414619445801">
				<ele>137.74</ele>
				<time>2013-07-12T11:43:22</time>
			</trkpt>
			<trkpt lat="48.81858595646918" lon="2.8661227226257324">
				<ele>136.0</ele>
				<time>2013-07-12T11:43:30</time>
			</trkpt>
			<trkpt lat="48.81858587265015" lon="2.8661227226257324">
				<ele>136.0</ele>
				<time>2013-07-12T11:43:30</time>
			</trkpt>
			<trkpt lat="48.82043123245239" lon="2.8716158866882324">
				<ele>138.9</ele>
				<time>2013-07-12T11:44:35</time>
			</trkpt>
			<trkpt lat="48.82075309753418" lon="2.872474193572998">
				<ele>139.46</ele>
				<time>2013-07-12T11:44:45</time>
			</trkpt>
			<trkpt lat="48.82174015045166" lon="2.875349521636963">
				<ele>138.0</ele>
				<time>2013-07-12T11:45:20</time>
			</trkpt>
			<trkpt lat="48.821879709139466" lon="2.8755640983581543">
				<ele>138.44</ele>
				<time>2013-07-12T11:45:23</time>
			</trkpt>
			<trkpt lat="48.82224440574646" lon="2.8759074211120605">
				<ele>140.64</ele>
				<time>2013-07-12T11:45:30</time>
			</trkpt>
			<trkpt lat="48.822340965270996" lon="2.8760361671447754">
				<ele>140.64</ele>
				<time>2013-07-12T11:45:32</time>
			</trkpt>
			<trkpt lat="48.822383880615234" lon="2.8761327266693115">
				<ele>140.29</ele>
				<time>2013-07-12T11:45:33</time>
			</trkpt>
			<trkpt lat="48.82244825363159" lon="2.8764545917510986">
				<ele>138.4</ele>
				<time>2013-07-12T11:45:36</time>
			</trkpt>
			<trkpt lat="48.82244825363159" lon="2.8767013549804688">
				<ele>136.74</ele>
				<time>2013-07-12T11:45:39</time>
			</trkpt>
			<trkpt lat="48.822416150942445" lon="2.8768837451934814">
				<ele>136.33</ele>
				<time>2013-07-12T11:45:41</time>
			</trkpt>
			<trkpt lat="48.822373151779175" lon="2.8769373893737793">
				<ele>135.83</ele>
				<time>2013-07-12T11:45:42</time>
			</trkpt>
			<trkpt lat="48.822340965270996" lon="2.8770554065704346">
				<ele>135.19</ele>
				<time>2013-07-12T11:45:43</time>
			</trkpt>
			<trkpt lat="48.822351694107056" lon="2.8772056102752686">
				<ele>135.14</ele>
				<time>2013-07-12T11:45:45</time>
			</trkpt>
			<trkpt lat="48.822373151779175" lon="2.8772592544555664">
				<ele>135.21</ele>
				<time>2013-07-12T11:45:45</time>
			</trkpt>
			<trkpt lat="48.82243752479553" lon="2.8773343563079834">
				<ele>135.47</ele>
				<time>2013-07-12T11:45:47</time>
			</trkpt>
			<trkpt lat="48.82246971130371" lon="2.8774523735046387">
				<ele>136.02</ele>
				<time>2013-07-12T11:45:48</time>
			</trkpt>
			<trkpt lat="48.82252335548401" lon="2.8778064250946045">
				<ele>137.49</ele>
				<time>2013-07-12T11:45:52</time>
			</trkpt>
			<trkpt lat="48.82257699966431" lon="2.8779137134552">
				<ele>138.0</ele>
				<time>2013-07-12T11:45:53</time>
			</trkpt>
			<trkpt lat="48.82352113723755" lon="2.8806066513061523">
				<ele>135.0</ele>
				<time>2013-07-12T11:46:26</time>
			</trkpt>
			<trkpt lat="48.82367134094238" lon="2.8811752796173096">
				<ele>135.11</ele>
				<time>2013-07-12T11:46:32</time>
			</trkpt>
			<trkpt lat="48.8236927986145" lon="2.88166880607605">
				<ele>132.81</ele>
				<time>2013-07-12T11:46:37</time>
			</trkpt>
			<trkpt lat="48.82372506894171" lon="2.881840467453003">
				<ele>131.75</ele>
				<time>2013-07-12T11:46:39</time>
			</trkpt>
			<trkpt lat="48.82374652661383" lon="2.8820443153381348">
				<ele>131.02</ele>
				<time>2013-07-12T11:46:41</time>
			</trkpt>
			<trkpt lat="48.82391810417175" lon="2.882333993911743">
				<ele>130.0</ele>
				<time>2013-07-12T11:46:45</time>
			</trkpt>
			<trkpt lat="48.82467985153198" lon="2.8832244873046875">
				<ele>130.95</ele>
				<time>2013-07-12T11:47:01</time>
			</trkpt>
			<trkpt lat="48.82496953010559" lon="2.8836750984191895">
				<ele>129.71</ele>
				<time>2013-07-12T11:47:07</time>
			</trkpt>
			<trkpt lat="48.826396465301514" lon="2.8867220878601074">
				<ele>118.89</ele>
				<time>2013-07-12T11:47:47</time>
			</trkpt>
			<trkpt lat="48.82724404335022" lon="2.889232635498047">
				<ele>116.09</ele>
				<time>2013-07-12T11:48:17</time>
			</trkpt>
			<trkpt lat="48.827866315841675" lon="2.8912603855133057">
				<ele>111.88</ele>
				<time>2013-07-12T11:48:40</time>
			</trkpt>
			<trkpt lat="48.828435027971864" lon="2.8929877281188965">
				<ele>102.93</ele>
				<time>2013-07-12T11:49:01</time>
			</trkpt>
			<trkpt lat="48.82853150367737" lon="2.8932881355285645">
				<ele>102.6</ele>
				<time>2013-07-12T11:49:04</time>
			</trkpt>
			<trkpt lat="48.82877826690674" lon="2.894103527069092">
				<ele>101.19</ele>
				<time>2013-07-12T11:49:13</time>
			</trkpt>
			<trkpt lat="48.828864097595215" lon="2.894468307495117">
				<ele>100.13</ele>
				<time>2013-07-12T11:49:18</time>
			</trkpt>
			<trkpt lat="48.82892847061157" lon="2.894822359085083">
				<ele>99.36</ele>
				<time>2013-07-12T11:49:21</time>
			</trkpt>
			<trkpt lat="48.82894992828369" lon="2.8951656818389893">
				<ele>99.02</ele>
				<time>2013-07-12T11:49:25</time>
			</trkpt>
			<trkpt lat="48.82896065711975" lon="2.8955090045928955">
				<ele>97.7</ele>
				<time>2013-07-12T11:49:29</time>
			</trkpt>
			<trkpt lat="48.82891774177551" lon="2.896496057510376">
				<ele>93.24</ele>
				<time>2013-07-12T11:49:39</time>
			</trkpt>
			<trkpt lat="48.82890701293945" lon="2.897289991378784">
				<ele>91.15</ele>
				<time>2013-07-12T11:49:48</time>
			</trkpt>
			<trkpt lat="48.82892847061157" lon="2.8975582122802734">
				<ele>90.18</ele>
				<time>2013-07-12T11:49:50</time>
			</trkpt>
			<trkpt lat="48.82900357246399" lon="2.897794246673584">
				<ele>89.09</ele>
				<time>2013-07-12T11:49:53</time>
			</trkpt>
			<trkpt lat="48.829100131988525" lon="2.8979122638702393">
				<ele>87.34</ele>
				<time>2013-07-12T11:49:55</time>
			</trkpt>
			<trkpt lat="48.829389810562134" lon="2.897944450378418">
				<ele>85.39</ele>
				<time>2013-07-12T11:50:00</time>
			</trkpt>
			<trkpt lat="48.82947564125061" lon="2.897998094558716">
				<ele>84.81</ele>
				<time>2013-07-12T11:50:01</time>
			</trkpt>
			<trkpt lat="48.82954001426697" lon="2.8981053829193115">
				<ele>83.68</ele>
				<time>2013-07-12T11:50:03</time>
			</trkpt>
			<trkpt lat="48.82957220077515" lon="2.8982341289520264">
				<ele>82.39</ele>
				<time>2013-07-12T11:50:04</time>
			</trkpt>
			<trkpt lat="48.83001208305359" lon="2.9006588459014893">
				<ele>63.49</ele>
				<time>2013-07-12T11:50:31</time>
			</trkpt>
			<trkpt lat="48.83003354072571" lon="2.900744676589966">
				<ele>63.01</ele>
				<time>2013-07-12T11:50:32</time>
			</trkpt>
			<trkpt lat="48.830108642578125" lon="2.901066541671753">
				<ele>60.98</ele>
				<time>2013-07-12T11:50:35</time>
			</trkpt>
			<trkpt lat="48.83017301559448" lon="2.9012489318847656">
				<ele>59.9</ele>
				<time>2013-07-12T11:50:37</time>
			</trkpt>
			<trkpt lat="48.830333948135376" lon="2.9016244411468506">
				<ele>55.95</ele>
				<time>2013-07-12T11:50:42</time>
			</trkpt>
			<trkpt lat="48.83041977882385" lon="2.901785373687744">
				<ele>54.64</ele>
				<time>2013-07-12T11:50:44</time>
			</trkpt>
			<trkpt lat="48.83332645520568" lon="2.9036854673177004">
				<ele>53.78</ele>
				<time>2013-07-12T11:51:35</time>
			</trkpt>
			<trkpt lat="48.83373498916626" lon="2.9039525985717773">
				<ele>53.17</ele>
				<time>2013-07-12T11:51:42</time>
			</trkpt>
			<trkpt lat="48.83578419685364" lon="2.9051220417022705">
				<ele>53.0</ele>
				<time>2013-07-12T11:52:17</time>
			</trkpt>
			<trkpt lat="48.836149061098695" lon="2.9052507877349854">
				<ele>53.29</ele>
				<time>2013-07-12T11:52:23</time>
			</trkpt>
			<trkpt lat="48.83614897727966" lon="2.9052507877349854">
				<ele>53.29</ele>
				<time>2013-07-12T11:52:23</time>
			</trkpt>
			<trkpt lat="48.8390673045069" lon="2.9059267044067383">
				<ele>54.77</ele>
				<time>2013-07-12T11:53:10</time>
			</trkpt>
			<trkpt lat="48.839067220687866" lon="2.9059267044067383">
				<ele>54.77</ele>
				<time>2013-07-12T11:53:11</time>
			</trkpt>
			<trkpt lat="48.84170651435852" lon="2.906538248062134">
				<ele>56.4</ele>
				<time>2013-07-12T11:53:53</time>
			</trkpt>
			<trkpt lat="48.842071294784546" lon="2.9066884517669678">
				<ele>55.42</ele>
				<time>2013-07-12T11:53:59</time>
			</trkpt>
			<trkpt lat="48.8426399230957" lon="2.9070210456848145">
				<ele>55.46</ele>
				<time>2013-07-12T11:54:09</time>
			</trkpt>
			<trkpt lat="48.84313344955444" lon="2.9075467586517334">
				<ele>56.68</ele>
				<time>2013-07-12T11:54:19</time>
			</trkpt>
			<trkpt lat="48.844581842422485" lon="2.9094350337982178">
				<ele>52.89</ele>
				<time>2013-07-12T11:54:49</time>
			</trkpt>
			<trkpt lat="48.845601081848145" lon="2.911151647567749">
				<ele>56.71</ele>
				<time>2013-07-12T11:55:14</time>
			</trkpt>
			<trkpt lat="48.84572982788086" lon="2.9113876819610596">
				<ele>56.93</ele>
				<time>2013-07-12T11:55:17</time>
			</trkpt>
			<trkpt lat="48.84590148925781" lon="2.9116880893707275">
				<ele>58.06</ele>
				<time>2013-07-12T11:55:21</time>
			</trkpt>
			<trkpt lat="48.8461697101593" lon="2.912224531173706">
				<ele>60.11</ele>
				<time>2013-07-12T11:55:28</time>
			</trkpt>
			<trkpt lat="48.84641647338867" lon="2.9129326343536377">
				<ele>60.47</ele>
				<time>2013-07-12T11:55:37</time>
			</trkpt>
			<trkpt lat="48.84645938873291" lon="2.913072109222412">
				<ele>60.22</ele>
				<time>2013-07-12T11:55:38</time>
			</trkpt>
			<trkpt lat="48.84674906730652" lon="2.9146170616149902">
				<ele>59.47</ele>
				<time>2013-07-12T11:55:55</time>
			</trkpt>
			<trkpt lat="48.84688854217529" lon="2.915518283843994">
				<ele>59.19</ele>
				<time>2013-07-12T11:56:05</time>
			</trkpt>
			<trkpt lat="48.847113847732544" lon="2.9171812534332275">
				<ele>60.68</ele>
				<time>2013-07-12T11:56:23</time>
			</trkpt>
			<trkpt lat="48.84715676307678" lon="2.9173529148101807">
				<ele>61.27</ele>
				<time>2013-07-12T11:56:25</time>
			</trkpt>
			<trkpt lat="48.8472855091095" lon="2.917771339416504">
				<ele>63.5</ele>
				<time>2013-07-12T11:56:30</time>
			</trkpt>
			<trkpt lat="48.847821950912476" lon="2.9191553592681885">
				<ele>66.48</ele>
				<time>2013-07-12T11:56:47</time>
			</trkpt>
			<trkpt lat="48.84791851043701" lon="2.9193270206451416">
				<ele>67.17</ele>
				<time>2013-07-12T11:56:49</time>
			</trkpt>
			<trkpt lat="48.84802579879761" lon="2.9194557666778564">
				<ele>67.32</ele>
				<time>2013-07-12T11:56:51</time>
			</trkpt>
			<trkpt lat="48.84826191700995" lon="2.91961669921875">
				<ele>68.79</ele>
				<time>2013-07-12T11:56:55</time>
			</trkpt>
			<trkpt lat="48.848412120714784" lon="2.9197347164154053">
				<ele>69.54</ele>
				<time>2013-07-12T11:56:58</time>
			</trkpt>
			<trkpt lat="48.848605239763856" lon="2.919938564300537">
				<ele>69.9</ele>
				<time>2013-07-12T11:57:02</time>
			</trkpt>
			<trkpt lat="48.848605155944824" lon="2.919938564300537">
				<ele>69.9</ele>
				<time>2013-07-12T11:57:02</time>
			</trkpt>
			<trkpt lat="48.849055767059326" lon="2.9204320907592773">
				<ele>71.37</ele>
				<time>2013-07-12T11:57:11</time>
			</trkpt>
			<trkpt lat="48.849323987960815" lon="2.920668125152588">
				<ele>72.22</ele>
				<time>2013-07-12T11:57:16</time>
			</trkpt>
			<trkpt lat="48.850890481844544" lon="2.9218053817749023">
				<ele>70.14</ele>
				<time>2013-07-12T11:57:43</time>
			</trkpt>
			<trkpt lat="48.853304386138916" lon="2.9234254360198975">
				<ele>59.18</ele>
				<time>2013-07-12T11:58:26</time>
			</trkpt>
			<trkpt lat="48.85376572608948" lon="2.923736572265625">
				<ele>58.18</ele>
				<time>2013-07-12T11:58:34</time>
			</trkpt>
			<trkpt lat="48.854355812072754" lon="2.923661470413208">
				<ele>55.7</ele>
				<time>2013-07-12T11:58:43</time>
			</trkpt>
			<trkpt lat="48.8544309977442" lon="2.9236292839050293">
				<ele>54.6</ele>
				<time>2013-07-12T11:58:44</time>
			</trkpt>
			<trkpt lat="48.85443091392517" lon="2.9236292839050293">
				<ele>54.6</ele>
				<time>2013-07-12T11:58:44</time>
			</trkpt>
			<trkpt lat="48.85452747344971" lon="2.9235541820526123">
				<ele>53.8</ele>
				<time>2013-07-12T11:58:46</time>
			</trkpt>
			<trkpt lat="48.854613304138184" lon="2.923457622528076">
				<ele>53.25</ele>
				<time>2013-07-12T11:58:48</time>
			</trkpt>
			<trkpt lat="48.85498881340027" lon="2.9224812984466553">
				<ele>53.48</ele>
				<time>2013-07-12T11:59:00</time>
			</trkpt>
			<trkpt lat="48.855042457580566" lon="2.922288179397583">
				<ele>54.0</ele>
				<time>2013-07-12T11:59:02</time>
			</trkpt>
			<trkpt lat="48.85511755943298" lon="2.9216551780700684">
				<ele>52.93</ele>
				<time>2013-07-12T11:59:09</time>
			</trkpt>
			<trkpt lat="48.85516055859625" lon="2.9191982746124268">
				<ele>51.47</ele>
				<time>2013-07-12T11:59:35</time>
			</trkpt>
			<trkpt lat="48.8551926612854" lon="2.9165267944335938">
				<ele>51.65</ele>
				<time>2013-07-12T12:00:03</time>
			</trkpt>
			<trkpt lat="48.85517120361328" lon="2.9161620140075684">
				<ele>51.5</ele>
				<time>2013-07-12T12:00:07</time>
			</trkpt>
			<trkpt lat="48.85505327023566" lon="2.9155075550079346">
				<ele>51.0</ele>
				<time>2013-07-12T12:00:14</time>
			</trkpt>
			<trkpt lat="48.855053186416626" lon="2.9155075550079346">
				<ele>51.0</ele>
				<time>2013-07-12T12:00:14</time>
			</trkpt>
			<trkpt lat="48.85446318425238" lon="2.912546396255493">
				<ele>55.16</ele>
				<time>2013-07-12T12:00:46</time>
			</trkpt>
			<trkpt lat="48.85438799858093" lon="2.912203073501587">
				<ele>57.14</ele>
				<time>2013-07-12T12:00:50</time>
			</trkpt>
			<trkpt lat="48.854323625564575" lon="2.9118382930755615">
				<ele>57.92</ele>
				<time>2013-07-12T12:00:54</time>
			</trkpt>
			<trkpt lat="48.85431298054755" lon="2.911698818206787">
				<ele>57.96</ele>
				<time>2013-07-12T12:00:56</time>
			</trkpt>
			<trkpt lat="48.854334354400635" lon="2.911527156829834">
				<ele>57.3</ele>
				<time>2013-07-12T12:00:58</time>
			</trkpt>
			<trkpt lat="48.85443091392517" lon="2.911055088043213">
				<ele>54.42</ele>
				<time>2013-07-12T12:01:03</time>
			</trkpt>
			<trkpt lat="48.85449528694153" lon="2.9103362560272217">
				<ele>55.67</ele>
				<time>2013-07-12T12:01:10</time>
			</trkpt>
			<trkpt lat="48.854559659957886" lon="2.9101645946502686">
				<ele>54.93</ele>
				<time>2013-07-12T12:01:12</time>
			</trkpt>
			<trkpt lat="48.85477423667908" lon="2.90987491607666">
				<ele>53.47</ele>
				<time>2013-07-12T12:01:17</time>
			</trkpt>
			<trkpt lat="48.854849338531494" lon="2.9099178314208984">
				<ele>53.18</ele>
				<time>2013-07-12T12:01:18</time>
			</trkpt>
			<trkpt lat="48.85511755943298" lon="2.9098963737487793">
				<ele>52.14</ele>
				<time>2013-07-12T12:01:23</time>
			</trkpt>
			<trkpt lat="48.855117643252015" lon="2.9098963737487793">
				<ele>52.14</ele>
				<time>2013-07-12T12:01:23</time>
			</trkpt>
			<trkpt lat="48.855353677645326" lon="2.909853458404541">
				<ele>51.14</ele>
				<time>2013-07-12T12:01:26</time>
			</trkpt>
			<trkpt lat="48.85541796684265" lon="2.909853458404541">
				<ele>51.15</ele>
				<time>2013-07-12T12:01:27</time>
			</trkpt>
			<trkpt lat="48.8554931525141" lon="2.9098963737487793">
				<ele>51.41</ele>
				<time>2013-07-12T12:01:29</time>
			</trkpt>
			<trkpt lat="48.855589712038636" lon="2.9100894927978516">
				<ele>51.91</ele>
				<time>2013-07-12T12:01:31</time>
			</trkpt>
			<trkpt lat="48.85565400123596" lon="2.910325527191162">
				<ele>52.0</ele>
				<time>2013-07-12T12:01:34</time>
			</trkpt>
			<trkpt lat="48.855847204104066" lon="2.9105615615844727">
				<ele>52.0</ele>
				<time>2013-07-12T12:01:38</time>
			</trkpt>
			<trkpt lat="48.8562548160553" lon="2.911055088043213">
				<ele>52.61</ele>
				<time>2013-07-12T12:01:46</time>
			</trkpt>
			<trkpt lat="48.856319189071655" lon="2.911301851272583">
				<ele>52.27</ele>
				<time>2013-07-12T12:01:49</time>
			</trkpt>
			<trkpt lat="48.856383645907044" lon="2.9115164279937744">
				<ele>52.62</ele>
				<time>2013-07-12T12:01:52</time>
			</trkpt>
			<trkpt lat="48.85653376579285" lon="2.91212797164917">
				<ele>53.16</ele>
				<time>2013-07-12T12:01:58</time>
			</trkpt>
			<trkpt lat="48.8566517829895" lon="2.9126644134521484">
				<ele>53.41</ele>
				<time>2013-07-12T12:02:04</time>
			</trkpt>
			<trkpt lat="48.85669469833374" lon="2.912771701812744">
				<ele>53.26</ele>
				<time>2013-07-12T12:02:06</time>
			</trkpt>
			<trkpt lat="48.85697373189032" lon="2.91312575340271">
				<ele>52.24</ele>
				<time>2013-07-12T12:02:12</time>
			</trkpt>
			<trkpt lat="48.857306241989136" lon="2.913501262664795">
				<ele>53.0</ele>
				<time>2013-07-12T12:02:18</time>
			</trkpt>
			<trkpt lat="48.85772475041449" lon="2.913597822189331">
				<ele>53.44</ele>
				<time>2013-07-12T12:02:25</time>
			</trkpt>
			<trkpt lat="48.85796070098877" lon="2.9136407375335693">
				<ele>53.39</ele>
				<time>2013-07-12T12:02:29</time>
			</trkpt>
			<trkpt lat="48.85800361633301" lon="2.9136085510253906">
				<ele>53.12</ele>
				<time>2013-07-12T12:02:30</time>
			</trkpt>
			<trkpt lat="48.85803580284119" lon="2.913544178009033">
				<ele>53.0</ele>
				<time>2013-07-12T12:02:30</time>
			</trkpt>
			<trkpt lat="48.85802507400513" lon="2.913447618484497">
				<ele>53.0</ele>
				<time>2013-07-12T12:02:31</time>
			</trkpt>
			<trkpt lat="48.85792851448059" lon="2.911022901535034">
				<ele>52.0</ele>
				<time>2013-07-12T12:02:57</time>
			</trkpt>
			<trkpt lat="48.857842683792114" lon="2.909359931945801">
				<ele>53.0</ele>
				<time>2013-07-12T12:03:15</time>
			</trkpt>
			<trkpt lat="48.857789039611816" lon="2.9088234901428223">
				<ele>52.0</ele>
				<time>2013-07-12T12:03:20</time>
			</trkpt>
			<trkpt lat="48.85775685310364" lon="2.908608913421631">
				<ele>51.58</ele>
				<time>2013-07-12T12:03:23</time>
			</trkpt>
			<trkpt lat="48.85771402157843" lon="2.9082870483398438">
				<ele>51.0</ele>
				<time>2013-07-12T12:03:26</time>
			</trkpt>
			<trkpt lat="48.8577139377594" lon="2.90812611579895">
				<ele>51.15</ele>
				<time>2013-07-12T12:03:28</time>
			</trkpt>
			<trkpt lat="48.85803588666022" lon="2.9074931144714355">
				<ele>51.43</ele>
				<time>2013-07-12T12:03:36</time>
			</trkpt>
			<trkpt lat="48.8581109046936" lon="2.9073429107666016">
				<ele>51.97</ele>
				<time>2013-07-12T12:03:38</time>
			</trkpt>
			<trkpt lat="48.85815390385687" lon="2.9073214530944824">
				<ele>51.95</ele>
				<time>2013-07-12T12:03:39</time>
			</trkpt>
			<trkpt lat="48.85813236236572" lon="2.907278537750244">
				<ele>51.79</ele>
				<time>2013-07-12T12:03:40</time>
			</trkpt>
			<trkpt lat="48.8581109046936" lon="2.907257080078125">
				<ele>51.71</ele>
				<time>2013-07-12T12:03:40</time>
			</trkpt>
			<trkpt lat="48.85815021581948" lon="2.907145768404007">
				<ele>51.31</ele>
				<time>2013-07-12T12:03:41</time>
			</trkpt>
		</trkseg>
	</trk>
</gpx>
