<?xml version="1.0" encoding="UTF-8"?>
<gpx creator="Garmin Connect" version="1.1" xsi:schemaLocation="http://www.topografix.com/GPX/1/1 http://www.topografix.com/GPX/11.xsd" xmlns:ns3="http://www.garmin.com/xmlschemas/TrackPointExtension/v1" xmlns="http://www.topografix.com/GPX/1/1" xmlns:xsi="http://www.w3.org/2001/XMLSchema-instance" xmlns:ns2="http://www.garmin.com/xmlschemas/GpxExtensions/v3">
	<metadata>
		<name>006-G3-72 km-D 520 m-Blandy les Tours</name>
		<link href="connect.garmin.com">
			<text>Garmin Connect</text>
		</link>
		<time>2021-02-24T08:00:00</time>
	</metadata>
	<trk>
		<name>006-G3-72 km-D 520 m-Blandy les Tours</name>
		<trkseg>
			<trkpt lat="48.85816999711096" lon="2.907159933820367">
				<ele>51.0</ele>
				<time>2021-02-24T08:00:00</time>
			</trkpt>
			<trkpt lat="48.85667994618416" lon="2.909909952431917">
				<ele>51.0</ele>
				<time>2021-02-24T08:00:41</time>
			</trkpt>
			<trkpt lat="48.85626998730004" lon="2.910999935120344">
				<ele>52.0</ele>
				<time>2021-02-24T08:00:55</time>
			</trkpt>
			<trkpt lat="48.855729941278696" lon="2.910329969599843">
				<ele>52.0</ele>
				<time>2021-02-24T08:01:07</time>
			</trkpt>
			<trkpt lat="48.85566992685199" lon="2.9102099407464266">
				<ele>52.0</ele>
				<time>2021-02-24T08:01:09</time>
			</trkpt>
			<trkpt lat="48.85560999624431" lon="2.9099199268966913">
				<ele>51.0</ele>
				<time>2021-02-24T08:01:13</time>
			</trkpt>
			<trkpt lat="48.85549994185567" lon="2.9097699746489525">
				<ele>51.0</ele>
				<time>2021-02-24T08:01:15</time>
			</trkpt>
			<trkpt lat="48.85499996133149" lon="2.9098099563270807">
				<ele>52.0</ele>
				<time>2021-02-24T08:01:24</time>
			</trkpt>
			<trkpt lat="48.854799969121814" lon="2.9097699746489525">
				<ele>53.0</ele>
				<time>2021-02-24T08:01:27</time>
			</trkpt>
			<trkpt lat="48.85465999133885" lon="2.909909952431917">
				<ele>54.0</ele>
				<time>2021-02-24T08:01:30</time>
			</trkpt>
			<trkpt lat="48.85451992973685" lon="2.9101699590682983">
				<ele>55.0</ele>
				<time>2021-02-24T08:01:34</time>
			</trkpt>
			<trkpt lat="48.85442999191582" lon="2.9108999390155077">
				<ele>55.0</ele>
				<time>2021-02-24T08:01:43</time>
			</trkpt>
			<trkpt lat="48.854369977489114" lon="2.9111199639737606">
				<ele>55.0</ele>
				<time>2021-02-24T08:01:45</time>
			</trkpt>
			<trkpt lat="48.854329995810986" lon="2.9116899333894253">
				<ele>57.0</ele>
				<time>2021-02-24T08:01:52</time>
			</trkpt>
			<trkpt lat="48.855189979076385" lon="2.916089929640293">
				<ele>51.0</ele>
				<time>2021-02-24T08:02:44</time>
			</trkpt>
			<trkpt lat="48.855229960754514" lon="2.9168999567627907">
				<ele>51.0</ele>
				<time>2021-02-24T08:02:54</time>
			</trkpt>
			<trkpt lat="48.85512996464968" lon="2.9217099957168102">
				<ele>52.0</ele>
				<time>2021-02-24T08:03:49</time>
			</trkpt>
			<trkpt lat="48.85506995022297" lon="2.9222399834543467">
				<ele>53.0</ele>
				<time>2021-02-24T08:03:55</time>
			</trkpt>
			<trkpt lat="48.85461992584169" lon="2.92340992949903">
				<ele>53.0</ele>
				<time>2021-02-24T08:04:11</time>
			</trkpt>
			<trkpt lat="48.85446997359395" lon="2.9235899727791548">
				<ele>54.0</ele>
				<time>2021-02-24T08:04:14</time>
			</trkpt>
			<trkpt lat="48.854029923677444" lon="2.923679994419217">
				<ele>58.0</ele>
				<time>2021-02-24T08:04:22</time>
			</trkpt>
			<trkpt lat="48.85351996868849" lon="2.9234799183905125">
				<ele>58.0</ele>
				<time>2021-02-24T08:04:31</time>
			</trkpt>
			<trkpt lat="48.84931996464729" lon="2.920559998601675">
				<ele>72.0</ele>
				<time>2021-02-24T08:05:51</time>
			</trkpt>
			<trkpt lat="48.84913992136717" lon="2.9203799553215504">
				<ele>72.0</ele>
				<time>2021-02-24T08:05:55</time>
			</trkpt>
			<trkpt lat="48.84848998859525" lon="2.9196999315172434">
				<ele>70.0</ele>
				<time>2021-02-24T08:06:09</time>
			</trkpt>
			<trkpt lat="48.84799998253584" lon="2.9192699398845434">
				<ele>68.0</ele>
				<time>2021-02-24T08:06:18</time>
			</trkpt>
			<trkpt lat="48.84774995036423" lon="2.9188399482518435">
				<ele>66.0</ele>
				<time>2021-02-24T08:06:25</time>
			</trkpt>
			<trkpt lat="48.8474699947983" lon="2.9181899316608906">
				<ele>66.0</ele>
				<time>2021-02-24T08:06:34</time>
			</trkpt>
			<trkpt lat="48.84720998816192" lon="2.917479984462261">
				<ele>62.0</ele>
				<time>2021-02-24T08:06:43</time>
			</trkpt>
			<trkpt lat="48.84704997763038" lon="2.916799960657954">
				<ele>60.0</ele>
				<time>2021-02-24T08:06:52</time>
			</trkpt>
			<trkpt lat="48.846769938245416" lon="2.9146699514240026">
				<ele>59.0</ele>
				<time>2021-02-24T08:07:16</time>
			</trkpt>
			<trkpt lat="48.8464099355042" lon="2.9128299560397863">
				<ele>61.0</ele>
				<time>2021-02-24T08:07:38</time>
			</trkpt>
			<trkpt lat="48.84627993218601" lon="2.9124299716204405">
				<ele>60.0</ele>
				<time>2021-02-24T08:07:43</time>
			</trkpt>
			<trkpt lat="48.84591992944479" lon="2.9115999955683947">
				<ele>59.0</ele>
				<time>2021-02-24T08:07:55</time>
			</trkpt>
			<trkpt lat="48.84488996118307" lon="2.9097199346870184">
				<ele>55.0</ele>
				<time>2021-02-24T08:08:23</time>
			</trkpt>
			<trkpt lat="48.84294996969402" lon="2.9071099776774645">
				<ele>59.0</ele>
				<time>2021-02-24T08:09:08</time>
			</trkpt>
			<trkpt lat="48.84250991977751" lon="2.906749974936247">
				<ele>58.0</ele>
				<time>2021-02-24T08:09:17</time>
			</trkpt>
			<trkpt lat="48.842059979215264" lon="2.906509917229414">
				<ele>57.0</ele>
				<time>2021-02-24T08:09:25</time>
			</trkpt>
			<trkpt lat="48.84152999147773" lon="2.906319983303547">
				<ele>58.0</ele>
				<time>2021-02-24T08:09:34</time>
			</trkpt>
			<trkpt lat="48.83630999363959" lon="2.905179960653186">
				<ele>53.0</ele>
				<time>2021-02-24T08:11:06</time>
			</trkpt>
			<trkpt lat="48.83600992150605" lon="2.9050799645483494">
				<ele>53.0</ele>
				<time>2021-02-24T08:11:12</time>
			</trkpt>
			<trkpt lat="48.833919977769256" lon="2.90389996021986">
				<ele>53.0</ele>
				<time>2021-02-24T08:11:50</time>
			</trkpt>
			<trkpt lat="48.830479960888624" lon="2.9017299693077803">
				<ele>56.0</ele>
				<time>2021-02-24T08:12:55</time>
			</trkpt>
			<trkpt lat="48.830369990319014" lon="2.9015499260276556">
				<ele>57.0</ele>
				<time>2021-02-24T08:12:58</time>
			</trkpt>
			<trkpt lat="48.83010998368263" lon="2.900929916650057">
				<ele>62.0</ele>
				<time>2021-02-24T08:13:06</time>
			</trkpt>
			<trkpt lat="48.829619977623224" lon="2.898299926891923">
				<ele>81.0</ele>
				<time>2021-02-24T08:13:38</time>
			</trkpt>
			<trkpt lat="48.82941998541355" lon="2.897869935259223">
				<ele>86.0</ele>
				<time>2021-02-24T08:13:44</time>
			</trkpt>
			<trkpt lat="48.829129971563816" lon="2.8979599568992853">
				<ele>86.0</ele>
				<time>2021-02-24T08:13:49</time>
			</trkpt>
			<trkpt lat="48.829059982672334" lon="2.897859960794449">
				<ele>88.0</ele>
				<time>2021-02-24T08:13:51</time>
			</trkpt>
			<trkpt lat="48.829019917175174" lon="2.897679917514324">
				<ele>89.0</ele>
				<time>2021-02-24T08:13:53</time>
			</trkpt>
			<trkpt lat="48.82898999378085" lon="2.8966399747878313">
				<ele>92.0</ele>
				<time>2021-02-24T08:14:05</time>
			</trkpt>
			<trkpt lat="48.829039949923754" lon="2.895039953291416">
				<ele>98.0</ele>
				<time>2021-02-24T08:14:23</time>
			</trkpt>
			<trkpt lat="48.828979935497046" lon="2.894399994984269">
				<ele>99.0</ele>
				<time>2021-02-24T08:14:30</time>
			</trkpt>
			<trkpt lat="48.8288199249655" lon="2.8937799856066704">
				<ele>101.0</ele>
				<time>2021-02-24T08:14:38</time>
			</trkpt>
			<trkpt lat="48.82694992236793" lon="2.8881999850273132">
				<ele>117.0</ele>
				<time>2021-02-24T08:15:50</time>
			</trkpt>
			<trkpt lat="48.826669966802" lon="2.88739993236959">
				<ele>117.0</ele>
				<time>2021-02-24T08:16:00</time>
			</trkpt>
			<trkpt lat="48.8262399751693" lon="2.886389996856451">
				<ele>120.0</ele>
				<time>2021-02-24T08:16:14</time>
			</trkpt>
			<trkpt lat="48.82505997084081" lon="2.88391993381083">
				<ele>129.0</ele>
				<time>2021-02-24T08:16:49</time>
			</trkpt>
			<trkpt lat="48.82476995699108" lon="2.88348994217813">
				<ele>130.0</ele>
				<time>2021-02-24T08:16:56</time>
			</trkpt>
			<trkpt lat="48.823929922655225" lon="2.8824699483811855">
				<ele>130.0</ele>
				<time>2021-02-24T08:17:15</time>
			</trkpt>
			<trkpt lat="48.82378994487226" lon="2.8822499234229326">
				<ele>130.0</ele>
				<time>2021-02-24T08:17:18</time>
			</trkpt>
			<trkpt lat="48.82378994487226" lon="2.8815699834376574">
				<ele>133.0</ele>
				<time>2021-02-24T08:17:26</time>
			</trkpt>
			<trkpt lat="48.82374996319413" lon="2.8813599329441786">
				<ele>134.0</ele>
				<time>2021-02-24T08:17:29</time>
			</trkpt>
			<trkpt lat="48.823369927704334" lon="2.880129972472787">
				<ele>134.0</ele>
				<time>2021-02-24T08:17:44</time>
			</trkpt>
			<trkpt lat="48.82228991948068" lon="2.87682993337512">
				<ele>135.0</ele>
				<time>2021-02-24T08:18:26</time>
			</trkpt>
			<trkpt lat="48.818709924817085" lon="2.866329923272133">
				<ele>136.0</ele>
				<time>2021-02-24T08:20:42</time>
			</trkpt>
			<trkpt lat="48.818579921498895" lon="2.865739921107888">
				<ele>136.0</ele>
				<time>2021-02-24T08:20:49</time>
			</trkpt>
			<trkpt lat="48.815809953957796" lon="2.8483399283140898">
				<ele>132.0</ele>
				<time>2021-02-24T08:24:14</time>
			</trkpt>
			<trkpt lat="48.81568992510438" lon="2.8474199306219816">
				<ele>130.0</ele>
				<time>2021-02-24T08:24:25</time>
			</trkpt>
			<trkpt lat="48.81533998064697" lon="2.843819987028837">
				<ele>134.0</ele>
				<time>2021-02-24T08:25:07</time>
			</trkpt>
			<trkpt lat="48.81529999896884" lon="2.8428099676966667">
				<ele>127.0</ele>
				<time>2021-02-24T08:25:18</time>
			</trkpt>
			<trkpt lat="48.81531994789839" lon="2.842389950528741">
				<ele>127.0</ele>
				<time>2021-02-24T08:25:23</time>
			</trkpt>
			<trkpt lat="48.81545992568135" lon="2.842179983854294">
				<ele>126.0</ele>
				<time>2021-02-24T08:25:26</time>
			</trkpt>
			<trkpt lat="48.81545992568135" lon="2.8418399300426245">
				<ele>124.0</ele>
				<time>2021-02-24T08:25:30</time>
			</trkpt>
			<trkpt lat="48.81536998786032" lon="2.8416199889034033">
				<ele>124.0</ele>
				<time>2021-02-24T08:25:33</time>
			</trkpt>
			<trkpt lat="48.815249959006906" lon="2.841539941728115">
				<ele>124.0</ele>
				<time>2021-02-24T08:25:36</time>
			</trkpt>
			<trkpt lat="48.8151899445802" lon="2.8414099384099245">
				<ele>124.0</ele>
				<time>2021-02-24T08:25:37</time>
			</trkpt>
			<trkpt lat="48.815119955688715" lon="2.841089917346835">
				<ele>124.0</ele>
				<time>2021-02-24T08:25:41</time>
			</trkpt>
			<trkpt lat="48.81502993404865" lon="2.8404599335044622">
				<ele>126.0</ele>
				<time>2021-02-24T08:25:49</time>
			</trkpt>
			<trkpt lat="48.81495994515717" lon="2.8392599802464247">
				<ele>122.0</ele>
				<time>2021-02-24T08:26:02</time>
			</trkpt>
			<trkpt lat="48.81469993852079" lon="2.8367899172008038">
				<ele>124.0</ele>
				<time>2021-02-24T08:26:31</time>
			</trkpt>
			<trkpt lat="48.8145699352026" lon="2.835339931771159">
				<ele>123.0</ele>
				<time>2021-02-24T08:26:48</time>
			</trkpt>
			<trkpt lat="48.81447999738157" lon="2.83460995182395">
				<ele>124.0</ele>
				<time>2021-02-24T08:26:56</time>
			</trkpt>
			<trkpt lat="48.814259972423315" lon="2.8319199476391077">
				<ele>127.0</ele>
				<time>2021-02-24T08:27:27</time>
			</trkpt>
			<trkpt lat="48.8141399435699" lon="2.829749956727028">
				<ele>126.0</ele>
				<time>2021-02-24T08:27:52</time>
			</trkpt>
			<trkpt lat="48.81349998526275" lon="2.829519957304001">
				<ele>128.0</ele>
				<time>2021-02-24T08:28:04</time>
			</trkpt>
			<trkpt lat="48.81212996318936" lon="2.829359946772456">
				<ele>126.0</ele>
				<time>2021-02-24T08:28:28</time>
			</trkpt>
			<trkpt lat="48.80986995063722" lon="2.8287099301815033">
				<ele>125.0</ele>
				<time>2021-02-24T08:29:08</time>
			</trkpt>
			<trkpt lat="48.808569917455316" lon="2.828219924122095">
				<ele>126.0</ele>
				<time>2021-02-24T08:29:31</time>
			</trkpt>
			<trkpt lat="48.80189993418753" lon="2.826289990916848">
				<ele>130.0</ele>
				<time>2021-02-24T08:31:29</time>
			</trkpt>
			<trkpt lat="48.79997042007744" lon="2.825350211933255">
				<ele>129.0</ele>
				<time>2021-02-24T08:32:05</time>
			</trkpt>
			<trkpt lat="48.79996991716325" lon="2.82534996047616">
				<ele>129.0</ele>
				<time>2021-02-24T08:32:05</time>
			</trkpt>
			<trkpt lat="48.793159956112504" lon="2.822409924119711">
				<ele>127.0</ele>
				<time>2021-02-24T08:34:08</time>
			</trkpt>
			<trkpt lat="48.78618998453021" lon="2.8245199844241142">
				<ele>119.0</ele>
				<time>2021-02-24T08:36:12</time>
			</trkpt>
			<trkpt lat="48.78560995683074" lon="2.824649987742305">
				<ele>119.0</ele>
				<time>2021-02-24T08:36:22</time>
			</trkpt>
			<trkpt lat="48.78337995149195" lon="2.8250799793750048">
				<ele>115.0</ele>
				<time>2021-02-24T08:37:01</time>
			</trkpt>
			<trkpt lat="48.77763994038105" lon="2.8256799560040236">
				<ele>116.0</ele>
				<time>2021-02-24T08:38:41</time>
			</trkpt>
			<trkpt lat="48.77460996620357" lon="2.826039958745241">
				<ele>117.0</ele>
				<time>2021-02-24T08:39:34</time>
			</trkpt>
			<trkpt lat="48.773349998518825" lon="2.8262499254196882">
				<ele>115.0</ele>
				<time>2021-02-24T08:39:56</time>
			</trkpt>
			<trkpt lat="48.773139948025346" lon="2.8263599798083305">
				<ele>115.0</ele>
				<time>2021-02-24T08:40:00</time>
			</trkpt>
			<trkpt lat="48.77298999577761" lon="2.8265399392694235">
				<ele>114.0</ele>
				<time>2021-02-24T08:40:03</time>
			</trkpt>
			<trkpt lat="48.77194996923208" lon="2.8281099535524845">
				<ele>115.0</ele>
				<time>2021-02-24T08:40:29</time>
			</trkpt>
			<trkpt lat="48.771889954805374" lon="2.8280499391257763">
				<ele>115.0</ele>
				<time>2021-02-24T08:40:30</time>
			</trkpt>
			<trkpt lat="48.77178995870054" lon="2.8280999790877104">
				<ele>115.0</ele>
				<time>2021-02-24T08:40:32</time>
			</trkpt>
			<trkpt lat="48.77176992595196" lon="2.828219924122095">
				<ele>115.0</ele>
				<time>2021-02-24T08:40:33</time>
			</trkpt>
			<trkpt lat="48.77180999144912" lon="2.8283199202269316">
				<ele>115.0</ele>
				<time>2021-02-24T08:40:35</time>
			</trkpt>
			<trkpt lat="48.77123993821442" lon="2.8291399218142033">
				<ele>115.0</ele>
				<time>2021-02-24T08:40:48</time>
			</trkpt>
			<trkpt lat="48.76930992119014" lon="2.830409947782755">
				<ele>117.0</ele>
				<time>2021-02-24T08:41:25</time>
			</trkpt>
			<trkpt lat="48.767829928547144" lon="2.8312799893319607">
				<ele>117.0</ele>
				<time>2021-02-24T08:41:52</time>
			</trkpt>
			<trkpt lat="48.76588993705809" lon="2.8288299590349197">
				<ele>122.0</ele>
				<time>2021-02-24T08:42:36</time>
			</trkpt>
			<trkpt lat="48.76541996374726" lon="2.8281299863010645">
				<ele>121.0</ele>
				<time>2021-02-24T08:42:48</time>
			</trkpt>
			<trkpt lat="48.76442997716367" lon="2.826449917629361">
				<ele>119.0</ele>
				<time>2021-02-24T08:43:14</time>
			</trkpt>
			<trkpt lat="48.76261998899281" lon="2.8231599368155003">
				<ele>116.0</ele>
				<time>2021-02-24T08:44:03</time>
			</trkpt>
			<trkpt lat="48.763469997793436" lon="2.822249997407198">
				<ele>119.0</ele>
				<time>2021-02-24T08:44:21</time>
			</trkpt>
			<trkpt lat="48.763429932296276" lon="2.82173995859921">
				<ele>120.0</ele>
				<time>2021-02-24T08:44:27</time>
			</trkpt>
			<trkpt lat="48.7625599745661" lon="2.8196499310433865">
				<ele>117.0</ele>
				<time>2021-02-24T08:44:55</time>
			</trkpt>
			<trkpt lat="48.76076993532479" lon="2.815159996971488">
				<ele>119.0</ele>
				<time>2021-02-24T08:45:55</time>
			</trkpt>
			<trkpt lat="48.7606399320066" lon="2.8145299293100834">
				<ele>120.0</ele>
				<time>2021-02-24T08:46:03</time>
			</trkpt>
			<trkpt lat="48.76012997701764" lon="2.8132199216634035">
				<ele>120.0</ele>
				<time>2021-02-24T08:46:20</time>
			</trkpt>
			<trkpt lat="48.75892993994057" lon="2.809819970279932">
				<ele>118.0</ele>
				<time>2021-02-24T08:47:05</time>
			</trkpt>
			<trkpt lat="48.75865995883942" lon="2.809339938685298">
				<ele>119.0</ele>
				<time>2021-02-24T08:47:12</time>
			</trkpt>
			<trkpt lat="48.75832996331155" lon="2.808899972587824">
				<ele>118.0</ele>
				<time>2021-02-24T08:47:20</time>
			</trkpt>
			<trkpt lat="48.75817992724478" lon="2.8087799437344074">
				<ele>118.0</ele>
				<time>2021-02-24T08:47:23</time>
			</trkpt>
			<trkpt lat="48.757709953933954" lon="2.8086099587380886">
				<ele>113.0</ele>
				<time>2021-02-24T08:47:31</time>
			</trkpt>
			<trkpt lat="48.757259929552674" lon="2.8081299271434546">
				<ele>112.0</ele>
				<time>2021-02-24T08:47:41</time>
			</trkpt>
			<trkpt lat="48.75685994513333" lon="2.80753992497921">
				<ele>114.0</ele>
				<time>2021-02-24T08:47:50</time>
			</trkpt>
			<trkpt lat="48.75646993517876" lon="2.806849926710129">
				<ele>114.0</ele>
				<time>2021-02-24T08:48:01</time>
			</trkpt>
			<trkpt lat="48.75630992464721" lon="2.806419935077429">
				<ele>114.0</ele>
				<time>2021-02-24T08:48:06</time>
			</trkpt>
			<trkpt lat="48.75587993301451" lon="2.804879928007722">
				<ele>111.0</ele>
				<time>2021-02-24T08:48:25</time>
			</trkpt>
			<trkpt lat="48.755669966340065" lon="2.8039699885994196">
				<ele>109.0</ele>
				<time>2021-02-24T08:48:37</time>
			</trkpt>
			<trkpt lat="48.755349945276976" lon="2.8019299171864986">
				<ele>111.0</ele>
				<time>2021-02-24T08:49:01</time>
			</trkpt>
			<trkpt lat="48.75477997586131" lon="2.8002299834042788">
				<ele>111.0</ele>
				<time>2021-02-24T08:49:23</time>
			</trkpt>
			<trkpt lat="48.754119984805584" lon="2.798519991338253">
				<ele>110.0</ele>
				<time>2021-02-24T08:49:45</time>
			</trkpt>
			<trkpt lat="48.75346996821463" lon="2.7970899548381567">
				<ele>110.0</ele>
				<time>2021-02-24T08:50:05</time>
			</trkpt>
			<trkpt lat="48.752319971099496" lon="2.795359930023551">
				<ele>111.0</ele>
				<time>2021-02-24T08:50:33</time>
			</trkpt>
			<trkpt lat="48.75165998004377" lon="2.7941399440169334">
				<ele>112.0</ele>
				<time>2021-02-24T08:50:51</time>
			</trkpt>
			<trkpt lat="48.750989930704236" lon="2.792759947478771">
				<ele>110.0</ele>
				<time>2021-02-24T08:51:11</time>
			</trkpt>
			<trkpt lat="48.750639986246824" lon="2.792209926992655">
				<ele>108.0</ele>
				<time>2021-02-24T08:51:20</time>
			</trkpt>
			<trkpt lat="48.750079991295934" lon="2.791549935936928">
				<ele>107.0</ele>
				<time>2021-02-24T08:51:32</time>
			</trkpt>
			<trkpt lat="48.74987999908626" lon="2.791349943727255">
				<ele>107.0</ele>
				<time>2021-02-24T08:51:36</time>
			</trkpt>
			<trkpt lat="48.749609934166074" lon="2.79118993319571">
				<ele>108.0</ele>
				<time>2021-02-24T08:51:41</time>
			</trkpt>
			<trkpt lat="48.7492199242115" lon="2.79122999869287">
				<ele>108.0</ele>
				<time>2021-02-24T08:51:48</time>
			</trkpt>
			<trkpt lat="48.74906997196376" lon="2.79120996594429">
				<ele>108.0</ele>
				<time>2021-02-24T08:51:51</time>
			</trkpt>
			<trkpt lat="48.74891993589699" lon="2.791119944304228">
				<ele>108.0</ele>
				<time>2021-02-24T08:51:54</time>
			</trkpt>
			<trkpt lat="48.748019970953465" lon="2.789209960028529">
				<ele>109.0</ele>
				<time>2021-02-24T08:52:21</time>
			</trkpt>
			<trkpt lat="48.74735997989774" lon="2.7879699412733316">
				<ele>111.0</ele>
				<time>2021-02-24T08:52:39</time>
			</trkpt>
			<trkpt lat="48.746989918872714" lon="2.7881499845534563">
				<ele>112.0</ele>
				<time>2021-02-24T08:52:46</time>
			</trkpt>
			<trkpt lat="48.74674994498491" lon="2.7883799839764833">
				<ele>112.0</ele>
				<time>2021-02-24T08:52:51</time>
			</trkpt>
			<trkpt lat="48.74598995782435" lon="2.788929920643568">
				<ele>112.0</ele>
				<time>2021-02-24T08:53:05</time>
			</trkpt>
			<trkpt lat="48.74587998725474" lon="2.7890699822455645">
				<ele>112.0</ele>
				<time>2021-02-24T08:53:08</time>
			</trkpt>
			<trkpt lat="48.74581997282803" lon="2.789159920066595">
				<ele>112.0</ele>
				<time>2021-02-24T08:53:09</time>
			</trkpt>
			<trkpt lat="48.74575995840132" lon="2.789399977773428">
				<ele>112.0</ele>
				<time>2021-02-24T08:53:12</time>
			</trkpt>
			<trkpt lat="48.745719976723194" lon="2.7901899721473455">
				<ele>110.0</ele>
				<time>2021-02-24T08:53:21</time>
			</trkpt>
			<trkpt lat="48.74553993344307" lon="2.790469927713275">
				<ele>110.0</ele>
				<time>2021-02-24T08:53:26</time>
			</trkpt>
			<trkpt lat="48.745289985090494" lon="2.790709985420108">
				<ele>110.0</ele>
				<time>2021-02-24T08:53:31</time>
			</trkpt>
			<trkpt lat="48.74441994354129" lon="2.7915599942207336">
				<ele>112.0</ele>
				<time>2021-02-24T08:53:49</time>
			</trkpt>
			<trkpt lat="48.74392993748188" lon="2.7920799236744642">
				<ele>112.0</ele>
				<time>2021-02-24T08:53:59</time>
			</trkpt>
			<trkpt lat="48.74336994253099" lon="2.792529948055744">
				<ele>112.0</ele>
				<time>2021-02-24T08:54:10</time>
			</trkpt>
			<trkpt lat="48.742969958111644" lon="2.792779980227351">
				<ele>111.0</ele>
				<time>2021-02-24T08:54:18</time>
			</trkpt>
			<trkpt lat="48.74173999764025" lon="2.793389931321144">
				<ele>111.0</ele>
				<time>2021-02-24T08:54:40</time>
			</trkpt>
			<trkpt lat="48.741619968786836" lon="2.791799968108535">
				<ele>111.0</ele>
				<time>2021-02-24T08:54:59</time>
			</trkpt>
			<trkpt lat="48.74153992161155" lon="2.7916699647903442">
				<ele>111.0</ele>
				<time>2021-02-24T08:55:01</time>
			</trkpt>
			<trkpt lat="48.74112996272743" lon="2.7865999191999435">
				<ele>109.0</ele>
				<time>2021-02-24T08:55:59</time>
			</trkpt>
			<trkpt lat="48.740719920024276" lon="2.7821499668061733">
				<ele>109.0</ele>
				<time>2021-02-24T08:56:51</time>
			</trkpt>
			<trkpt lat="48.74067993834615" lon="2.7812399435788393">
				<ele>110.0</ele>
				<time>2021-02-24T08:57:02</time>
			</trkpt>
			<trkpt lat="48.740739952772856" lon="2.7810199186205864">
				<ele>110.0</ele>
				<time>2021-02-24T08:57:04</time>
			</trkpt>
			<trkpt lat="48.74072997830808" lon="2.7808999735862017">
				<ele>110.0</ele>
				<time>2021-02-24T08:57:06</time>
			</trkpt>
			<trkpt lat="48.74061992391944" lon="2.780719930306077">
				<ele>111.0</ele>
				<time>2021-02-24T08:57:08</time>
			</trkpt>
			<trkpt lat="48.74048992060125" lon="2.780689923092723">
				<ele>111.0</ele>
				<time>2021-02-24T08:57:11</time>
			</trkpt>
			<trkpt lat="48.74037995003164" lon="2.780759995803237">
				<ele>111.0</ele>
				<time>2021-02-24T08:57:13</time>
			</trkpt>
			<trkpt lat="48.74029998667538" lon="2.780969962477684">
				<ele>110.0</ele>
				<time>2021-02-24T08:57:16</time>
			</trkpt>
			<trkpt lat="48.74021993950009" lon="2.7810599841177464">
				<ele>109.0</ele>
				<time>2021-02-24T08:57:17</time>
			</trkpt>
			<trkpt lat="48.739729933440685" lon="2.781399954110384">
				<ele>109.0</ele>
				<time>2021-02-24T08:57:27</time>
			</trkpt>
			<trkpt lat="48.73969992622733" lon="2.7814699430018663">
				<ele>110.0</ele>
				<time>2021-02-24T08:57:28</time>
			</trkpt>
			<trkpt lat="48.7387999612838" lon="2.7819599490612745">
				<ele>110.0</ele>
				<time>2021-02-24T08:57:44</time>
			</trkpt>
			<trkpt lat="48.738549929112196" lon="2.782029937952757">
				<ele>110.0</ele>
				<time>2021-02-24T08:57:49</time>
			</trkpt>
			<trkpt lat="48.73824994079769" lon="2.7820199634879827">
				<ele>110.0</ele>
				<time>2021-02-24T08:57:54</time>
			</trkpt>
			<trkpt lat="48.73765993863344" lon="2.781649986281991">
				<ele>111.0</ele>
				<time>2021-02-24T08:58:05</time>
			</trkpt>
			<trkpt lat="48.73738995753229" lon="2.7812499180436134">
				<ele>111.0</ele>
				<time>2021-02-24T08:58:12</time>
			</trkpt>
			<trkpt lat="48.7370699364692" lon="2.78048993088305">
				<ele>109.0</ele>
				<time>2021-02-24T08:58:22</time>
			</trkpt>
			<trkpt lat="48.7370699364692" lon="2.7803999930620193">
				<ele>109.0</ele>
				<time>2021-02-24T08:58:23</time>
			</trkpt>
			<trkpt lat="48.736849995329976" lon="2.779799932613969">
				<ele>109.0</ele>
				<time>2021-02-24T08:58:31</time>
			</trkpt>
			<trkpt lat="48.736809929832816" lon="2.7793799992650747">
				<ele>109.0</ele>
				<time>2021-02-24T08:58:36</time>
			</trkpt>
			<trkpt lat="48.73672996647656" lon="2.7792599704116583">
				<ele>109.0</ele>
				<time>2021-02-24T08:58:38</time>
			</trkpt>
			<trkpt lat="48.73659996315837" lon="2.77921998873353">
				<ele>109.0</ele>
				<time>2021-02-24T08:58:40</time>
			</trkpt>
			<trkpt lat="48.73646995984018" lon="2.7793099265545607">
				<ele>108.0</ele>
				<time>2021-02-24T08:58:43</time>
			</trkpt>
			<trkpt lat="48.736159997060895" lon="2.779229963198304">
				<ele>106.0</ele>
				<time>2021-02-24T08:58:48</time>
			</trkpt>
			<trkpt lat="48.733779955655336" lon="2.7779799699783325">
				<ele>109.0</ele>
				<time>2021-02-24T08:59:32</time>
			</trkpt>
			<trkpt lat="48.733539981767535" lon="2.7778099849820137">
				<ele>108.0</ele>
				<time>2021-02-24T08:59:36</time>
			</trkpt>
			<trkpt lat="48.73344996012747" lon="2.7776699233800173">
				<ele>108.0</ele>
				<time>2021-02-24T08:59:39</time>
			</trkpt>
			<trkpt lat="48.73342992737889" lon="2.77747998945415">
				<ele>108.0</ele>
				<time>2021-02-24T08:59:41</time>
			</trkpt>
			<trkpt lat="48.73346999287605" lon="2.777209924533963">
				<ele>108.0</ele>
				<time>2021-02-24T08:59:44</time>
			</trkpt>
			<trkpt lat="48.733689934015274" lon="2.7768099401146173">
				<ele>108.0</ele>
				<time>2021-02-24T08:59:50</time>
			</trkpt>
			<trkpt lat="48.733819937333465" lon="2.776749925687909">
				<ele>108.0</ele>
				<time>2021-02-24T08:59:52</time>
			</trkpt>
			<trkpt lat="48.73389998450875" lon="2.7766199223697186">
				<ele>108.0</ele>
				<time>2021-02-24T08:59:54</time>
			</trkpt>
			<trkpt lat="48.73389998450875" lon="2.7761999890208244">
				<ele>106.0</ele>
				<time>2021-02-24T08:59:59</time>
			</trkpt>
			<trkpt lat="48.73442997224629" lon="2.775389961898327">
				<ele>106.0</ele>
				<time>2021-02-24T09:00:12</time>
			</trkpt>
			<trkpt lat="48.734679920598865" lon="2.7748099341988564">
				<ele>107.0</ele>
				<time>2021-02-24T09:00:20</time>
			</trkpt>
			<trkpt lat="48.73487999662757" lon="2.774129994213581">
				<ele>108.0</ele>
				<time>2021-02-24T09:00:29</time>
			</trkpt>
			<trkpt lat="48.73533999547362" lon="2.772099981084466">
				<ele>104.0</ele>
				<time>2021-02-24T09:00:54</time>
			</trkpt>
			<trkpt lat="48.73543999157846" lon="2.7713199611753225">
				<ele>105.0</ele>
				<time>2021-02-24T09:01:03</time>
			</trkpt>
			<trkpt lat="48.73537997715175" lon="2.7704399451613426">
				<ele>105.0</ele>
				<time>2021-02-24T09:01:13</time>
			</trkpt>
			<trkpt lat="48.73529992997646" lon="2.7700299862772226">
				<ele>106.0</ele>
				<time>2021-02-24T09:01:18</time>
			</trkpt>
			<trkpt lat="48.73519993387163" lon="2.7697599213570356">
				<ele>106.0</ele>
				<time>2021-02-24T09:01:21</time>
			</trkpt>
			<trkpt lat="48.735089963302016" lon="2.7695399802178144">
				<ele>106.0</ele>
				<time>2021-02-24T09:01:24</time>
			</trkpt>
			<trkpt lat="48.734679920598865" lon="2.768979985266924">
				<ele>110.0</ele>
				<time>2021-02-24T09:01:34</time>
			</trkpt>
			<trkpt lat="48.734489986673" lon="2.768769934773445">
				<ele>111.0</ele>
				<time>2021-02-24T09:01:38</time>
			</trkpt>
			<trkpt lat="48.73397994786501" lon="2.7683499176055193">
				<ele>109.0</ele>
				<time>2021-02-24T09:01:48</time>
			</trkpt>
			<trkpt lat="48.72983995825052" lon="2.765219947323203">
				<ele>105.0</ele>
				<time>2021-02-24T09:03:09</time>
			</trkpt>
			<trkpt lat="48.72476882301271" lon="2.7612190134823322">
				<ele>98.0</ele>
				<time>2021-02-24T09:04:48</time>
			</trkpt>
			<trkpt lat="48.724769996479154" lon="2.761219935491681">
				<ele>98.0</ele>
				<time>2021-02-24T09:04:48</time>
			</trkpt>
			<trkpt lat="48.72108992189169" lon="2.7583799790591">
				<ele>100.0</ele>
				<time>2021-02-24T09:06:00</time>
			</trkpt>
			<trkpt lat="48.72042993083596" lon="2.757919980213046">
				<ele>102.0</ele>
				<time>2021-02-24T09:06:13</time>
			</trkpt>
			<trkpt lat="48.72003992088139" lon="2.7577799186110497">
				<ele>103.0</ele>
				<time>2021-02-24T09:06:20</time>
			</trkpt>
			<trkpt lat="48.71940993703902" lon="2.757899947464466">
				<ele>102.0</ele>
				<time>2021-02-24T09:06:31</time>
			</trkpt>
			<trkpt lat="48.71654994785786" lon="2.759199980646372">
				<ele>102.0</ele>
				<time>2021-02-24T09:07:23</time>
			</trkpt>
			<trkpt lat="48.71626999229193" lon="2.759269969537854">
				<ele>102.0</ele>
				<time>2021-02-24T09:07:28</time>
			</trkpt>
			<trkpt lat="48.71577998623252" lon="2.759269969537854">
				<ele>102.0</ele>
				<time>2021-02-24T09:07:36</time>
			</trkpt>
			<trkpt lat="48.715129969641566" lon="2.759039970114827">
				<ele>104.0</ele>
				<time>2021-02-24T09:07:48</time>
			</trkpt>
			<trkpt lat="48.71272997930646" lon="2.7577399369329214">
				<ele>102.0</ele>
				<time>2021-02-24T09:08:32</time>
			</trkpt>
			<trkpt lat="48.71218993328512" lon="2.757249930873513">
				<ele>101.0</ele>
				<time>2021-02-24T09:08:43</time>
			</trkpt>
			<trkpt lat="48.711689952760935" lon="2.7564599364995956">
				<ele>101.0</ele>
				<time>2021-02-24T09:08:56</time>
			</trkpt>
			<trkpt lat="48.71145995333791" lon="2.7559399232268333">
				<ele>101.0</ele>
				<time>2021-02-24T09:09:03</time>
			</trkpt>
			<trkpt lat="48.71087992563844" lon="2.7539999317377806">
				<ele>102.0</ele>
				<time>2021-02-24T09:09:27</time>
			</trkpt>
			<trkpt lat="48.71062997728586" lon="2.7534999512135983">
				<ele>103.0</ele>
				<time>2021-02-24T09:09:35</time>
			</trkpt>
			<trkpt lat="48.71057993732393" lon="2.7533299662172794">
				<ele>103.0</ele>
				<time>2021-02-24T09:09:37</time>
			</trkpt>
			<trkpt lat="48.71044993400574" lon="2.7533099334686995">
				<ele>103.0</ele>
				<time>2021-02-24T09:09:39</time>
			</trkpt>
			<trkpt lat="48.710379945114255" lon="2.75345996953547">
				<ele>102.0</ele>
				<time>2021-02-24T09:09:41</time>
			</trkpt>
			<trkpt lat="48.71038991957903" lon="2.753609921783209">
				<ele>101.0</ele>
				<time>2021-02-24T09:09:43</time>
			</trkpt>
			<trkpt lat="48.709519961848855" lon="2.754559926688671">
				<ele>102.0</ele>
				<time>2021-02-24T09:10:02</time>
			</trkpt>
			<trkpt lat="48.70941996574402" lon="2.7544899377971888">
				<ele>102.0</ele>
				<time>2021-02-24T09:10:03</time>
			</trkpt>
			<trkpt lat="48.709349976852536" lon="2.754519945010543">
				<ele>102.0</ele>
				<time>2021-02-24T09:10:05</time>
			</trkpt>
			<trkpt lat="48.708899952471256" lon="2.7542199566960335">
				<ele>103.0</ele>
				<time>2021-02-24T09:10:13</time>
			</trkpt>
			<trkpt lat="48.70735994540155" lon="2.752989996224642">
				<ele>102.0</ele>
				<time>2021-02-24T09:10:44</time>
			</trkpt>
			<trkpt lat="48.70647992938757" lon="2.752399994060397">
				<ele>102.0</ele>
				<time>2021-02-24T09:11:00</time>
			</trkpt>
			<trkpt lat="48.70514997281134" lon="2.7515999414026737">
				<ele>102.0</ele>
				<time>2021-02-24T09:11:25</time>
			</trkpt>
			<trkpt lat="48.70496992953122" lon="2.751399949193001">
				<ele>102.0</ele>
				<time>2021-02-24T09:11:29</time>
			</trkpt>
			<trkpt lat="48.704579919576645" lon="2.7506499364972115">
				<ele>98.0</ele>
				<time>2021-02-24T09:11:40</time>
			</trkpt>
			<trkpt lat="48.70437992736697" lon="2.750169988721609">
				<ele>96.0</ele>
				<time>2021-02-24T09:11:47</time>
			</trkpt>
			<trkpt lat="48.70426995679736" lon="2.7497599460184574">
				<ele>95.0</ele>
				<time>2021-02-24T09:11:52</time>
			</trkpt>
			<trkpt lat="48.70420994237065" lon="2.7489599771797657">
				<ele>91.0</ele>
				<time>2021-02-24T09:12:01</time>
			</trkpt>
			<trkpt lat="48.70413995347917" lon="2.748799966648221">
				<ele>90.0</ele>
				<time>2021-02-24T09:12:03</time>
			</trkpt>
			<trkpt lat="48.7039399612695" lon="2.748719919472933">
				<ele>88.0</ele>
				<time>2021-02-24T09:12:07</time>
			</trkpt>
			<trkpt lat="48.702859953045845" lon="2.749179918318987">
				<ele>81.0</ele>
				<time>2021-02-24T09:12:26</time>
			</trkpt>
			<trkpt lat="48.70271997526288" lon="2.749209925532341">
				<ele>81.0</ele>
				<time>2021-02-24T09:12:29</time>
			</trkpt>
			<trkpt lat="48.702539931982756" lon="2.7491499949246645">
				<ele>81.0</ele>
				<time>2021-02-24T09:12:32</time>
			</trkpt>
			<trkpt lat="48.69747994467616" lon="2.743459939956665">
				<ele>96.0</ele>
				<time>2021-02-24T09:14:22</time>
			</trkpt>
			<trkpt lat="48.69721993803978" lon="2.744359988719225">
				<ele>97.0</ele>
				<time>2021-02-24T09:14:33</time>
			</trkpt>
			<trkpt lat="48.69689991697669" lon="2.745949951931834">
				<ele>95.0</ele>
				<time>2021-02-24T09:14:52</time>
			</trkpt>
			<trkpt lat="48.69654997251928" lon="2.747969990596175">
				<ele>95.0</ele>
				<time>2021-02-24T09:15:16</time>
			</trkpt>
			<trkpt lat="48.69654997251928" lon="2.748599974438548">
				<ele>96.0</ele>
				<time>2021-02-24T09:15:23</time>
			</trkpt>
			<trkpt lat="48.696649968624115" lon="2.7493299543857574">
				<ele>97.0</ele>
				<time>2021-02-24T09:15:32</time>
			</trkpt>
			<trkpt lat="48.69760994799435" lon="2.754539977759123">
				<ele>98.0</ele>
				<time>2021-02-24T09:16:34</time>
			</trkpt>
			<trkpt lat="48.69781999848783" lon="2.755229976028204">
				<ele>96.0</ele>
				<time>2021-02-24T09:16:43</time>
			</trkpt>
			<trkpt lat="48.69928993284702" lon="2.758699916303158">
				<ele>77.0</ele>
				<time>2021-02-24T09:17:30</time>
			</trkpt>
			<trkpt lat="48.69940996170044" lon="2.7590999845415354">
				<ele>78.0</ele>
				<time>2021-02-24T09:17:35</time>
			</trkpt>
			<trkpt lat="48.69947995059192" lon="2.75964992120862">
				<ele>80.0</ele>
				<time>2021-02-24T09:17:41</time>
			</trkpt>
			<trkpt lat="48.6994999833405" lon="2.7604899555444717">
				<ele>84.0</ele>
				<time>2021-02-24T09:17:51</time>
			</trkpt>
			<trkpt lat="48.69867998175323" lon="2.765839956700802">
				<ele>95.0</ele>
				<time>2021-02-24T09:18:54</time>
			</trkpt>
			<trkpt lat="48.69832995347679" lon="2.768339943140745">
				<ele>100.0</ele>
				<time>2021-02-24T09:19:24</time>
			</trkpt>
			<trkpt lat="48.69834998622537" lon="2.7685999497771263">
				<ele>100.0</ele>
				<time>2021-02-24T09:19:27</time>
			</trkpt>
			<trkpt lat="48.69869993068278" lon="2.769909957423806">
				<ele>105.0</ele>
				<time>2021-02-24T09:19:43</time>
			</trkpt>
			<trkpt lat="48.69869993068278" lon="2.770289992913604">
				<ele>105.0</ele>
				<time>2021-02-24T09:19:47</time>
			</trkpt>
			<trkpt lat="48.69845995679498" lon="2.7713299356400967">
				<ele>105.0</ele>
				<time>2021-02-24T09:20:00</time>
			</trkpt>
			<trkpt lat="48.69802996516228" lon="2.7721499372273684">
				<ele>105.0</ele>
				<time>2021-02-24T09:20:12</time>
			</trkpt>
			<trkpt lat="48.697769958525896" lon="2.772509939968586">
				<ele>104.0</ele>
				<time>2021-02-24T09:20:18</time>
			</trkpt>
			<trkpt lat="48.69697996415198" lon="2.773409988731146">
				<ele>104.0</ele>
				<time>2021-02-24T09:20:35</time>
			</trkpt>
			<trkpt lat="48.69553995318711" lon="2.7746899891644716">
				<ele>102.0</ele>
				<time>2021-02-24T09:21:04</time>
			</trkpt>
			<trkpt lat="48.69438995607197" lon="2.7751299552619457">
				<ele>104.0</ele>
				<time>2021-02-24T09:21:25</time>
			</trkpt>
			<trkpt lat="48.69201997295022" lon="2.776289926841855">
				<ele>102.0</ele>
				<time>2021-02-24T09:22:08</time>
			</trkpt>
			<trkpt lat="48.69154999963939" lon="2.7766099479049444">
				<ele>101.0</ele>
				<time>2021-02-24T09:22:17</time>
			</trkpt>
			<trkpt lat="48.69082999415696" lon="2.7772399317473173">
				<ele>101.0</ele>
				<time>2021-02-24T09:22:32</time>
			</trkpt>
			<trkpt lat="48.69044995866716" lon="2.7774699311703444">
				<ele>101.0</ele>
				<time>2021-02-24T09:22:39</time>
			</trkpt>
			<trkpt lat="48.68875999934971" lon="2.7778999228030443">
				<ele>99.0</ele>
				<time>2021-02-24T09:23:09</time>
			</trkpt>
			<trkpt lat="48.68714991956949" lon="2.7781499549746513">
				<ele>97.0</ele>
				<time>2021-02-24T09:23:37</time>
			</trkpt>
			<trkpt lat="48.686139984056354" lon="2.7790499199181795">
				<ele>95.0</ele>
				<time>2021-02-24T09:23:57</time>
			</trkpt>
			<trkpt lat="48.68541997857392" lon="2.7792399376630783">
				<ele>97.0</ele>
				<time>2021-02-24T09:24:10</time>
			</trkpt>
			<trkpt lat="48.684659991413355" lon="2.77962994761765">
				<ele>99.0</ele>
				<time>2021-02-24T09:24:24</time>
			</trkpt>
			<trkpt lat="48.684449940919876" lon="2.7799199614673853">
				<ele>101.0</ele>
				<time>2021-02-24T09:24:29</time>
			</trkpt>
			<trkpt lat="48.68273994885385" lon="2.7843499649316072">
				<ele>100.0</ele>
				<time>2021-02-24T09:25:28</time>
			</trkpt>
			<trkpt lat="48.68153999559581" lon="2.7870499435812235">
				<ele>102.0</ele>
				<time>2021-02-24T09:26:05</time>
			</trkpt>
			<trkpt lat="48.68120991624892" lon="2.7876699529588223">
				<ele>103.0</ele>
				<time>2021-02-24T09:26:14</time>
			</trkpt>
			<trkpt lat="48.67963998578489" lon="2.7901499904692173">
				<ele>101.0</ele>
				<time>2021-02-24T09:26:54</time>
			</trkpt>
			<trkpt lat="48.67858998477459" lon="2.7936499379575253">
				<ele>98.0</ele>
				<time>2021-02-24T09:27:38</time>
			</trkpt>
			<trkpt lat="48.678599959239364" lon="2.794119995087385">
				<ele>98.0</ele>
				<time>2021-02-24T09:27:43</time>
			</trkpt>
			<trkpt lat="48.67881998419762" lon="2.794869923964143">
				<ele>100.0</ele>
				<time>2021-02-24T09:27:53</time>
			</trkpt>
			<trkpt lat="48.67873993702233" lon="2.7949999272823334">
				<ele>99.0</ele>
				<time>2021-02-24T09:27:55</time>
			</trkpt>
			<trkpt lat="48.67746999487281" lon="2.7961099427193403">
				<ele>101.0</ele>
				<time>2021-02-24T09:28:20</time>
			</trkpt>
			<trkpt lat="48.677439987659454" lon="2.7961799316108227">
				<ele>101.0</ele>
				<time>2021-02-24T09:28:21</time>
			</trkpt>
			<trkpt lat="48.67732993327081" lon="2.8021199349313974">
				<ele>100.0</ele>
				<time>2021-02-24T09:29:30</time>
			</trkpt>
			<trkpt lat="48.677459936589" lon="2.8032099176198244">
				<ele>98.0</ele>
				<time>2021-02-24T09:29:42</time>
			</trkpt>
			<trkpt lat="48.67747996933758" lon="2.8037499636411667">
				<ele>96.0</ele>
				<time>2021-02-24T09:29:49</time>
			</trkpt>
			<trkpt lat="48.67744996212423" lon="2.8041799552738667">
				<ele>96.0</ele>
				<time>2021-02-24T09:29:54</time>
			</trkpt>
			<trkpt lat="48.67715994827449" lon="2.8063999861478806">
				<ele>95.0</ele>
				<time>2021-02-24T09:30:20</time>
			</trkpt>
			<trkpt lat="48.676799945533276" lon="2.8079099860042334">
				<ele>98.0</ele>
				<time>2021-02-24T09:30:38</time>
			</trkpt>
			<trkpt lat="48.67639996111393" lon="2.810009988024831">
				<ele>96.0</ele>
				<time>2021-02-24T09:31:03</time>
			</trkpt>
			<trkpt lat="48.67615998722613" lon="2.8106299974024296">
				<ele>97.0</ele>
				<time>2021-02-24T09:31:11</time>
			</trkpt>
			<trkpt lat="48.67566998116672" lon="2.8114499989897013">
				<ele>98.0</ele>
				<time>2021-02-24T09:31:24</time>
			</trkpt>
			<trkpt lat="48.67536999285221" lon="2.8121199645102024">
				<ele>98.0</ele>
				<time>2021-02-24T09:31:33</time>
			</trkpt>
			<trkpt lat="48.675189949572086" lon="2.812309982255101">
				<ele>99.0</ele>
				<time>2021-02-24T09:31:37</time>
			</trkpt>
			<trkpt lat="48.67465996183455" lon="2.8137299604713917">
				<ele>99.0</ele>
				<time>2021-02-24T09:31:56</time>
			</trkpt>
			<trkpt lat="48.67463992908597" lon="2.814029948785901">
				<ele>99.0</ele>
				<time>2021-02-24T09:31:59</time>
			</trkpt>
			<trkpt lat="48.67455996572971" lon="2.814259948208928">
				<ele>100.0</ele>
				<time>2021-02-24T09:32:02</time>
			</trkpt>
			<trkpt lat="48.673919923603535" lon="2.8158399369567633">
				<ele>100.0</ele>
				<time>2021-02-24T09:32:24</time>
			</trkpt>
			<trkpt lat="48.673749938607216" lon="2.8161599580198526">
				<ele>102.0</ele>
				<time>2021-02-24T09:32:28</time>
			</trkpt>
			<trkpt lat="48.67298995144665" lon="2.8170299995690584">
				<ele>106.0</ele>
				<time>2021-02-24T09:32:45</time>
			</trkpt>
			<trkpt lat="48.672439930960536" lon="2.818019986152649">
				<ele>100.0</ele>
				<time>2021-02-24T09:33:00</time>
			</trkpt>
			<trkpt lat="48.67201999761164" lon="2.8185799811035395">
				<ele>98.0</ele>
				<time>2021-02-24T09:33:10</time>
			</trkpt>
			<trkpt lat="48.6718599870801" lon="2.8181899711489677">
				<ele>99.0</ele>
				<time>2021-02-24T09:33:15</time>
			</trkpt>
			<trkpt lat="48.671599980443716" lon="2.8179399389773607">
				<ele>99.0</ele>
				<time>2021-02-24T09:33:20</time>
			</trkpt>
			<trkpt lat="48.67117996327579" lon="2.817739946767688">
				<ele>99.0</ele>
				<time>2021-02-24T09:33:28</time>
			</trkpt>
			<trkpt lat="48.67081996053457" lon="2.8176999650895596">
				<ele>99.0</ele>
				<time>2021-02-24T09:33:34</time>
			</trkpt>
			<trkpt lat="48.67054997943342" lon="2.817769953981042">
				<ele>99.0</ele>
				<time>2021-02-24T09:33:39</time>
			</trkpt>
			<trkpt lat="48.6691899318248" lon="2.818489959463477">
				<ele>86.0</ele>
				<time>2021-02-24T09:34:04</time>
			</trkpt>
			<trkpt lat="48.668459951877594" lon="2.8185999300330877">
				<ele>83.0</ele>
				<time>2021-02-24T09:34:17</time>
			</trkpt>
			<trkpt lat="48.6680899746716" lon="2.81868995167315">
				<ele>79.0</ele>
				<time>2021-02-24T09:34:23</time>
			</trkpt>
			<trkpt lat="48.66767993196845" lon="2.8189299255609512">
				<ele>78.0</ele>
				<time>2021-02-24T09:34:31</time>
			</trkpt>
			<trkpt lat="48.667429983615875" lon="2.8192399721592665">
				<ele>76.0</ele>
				<time>2021-02-24T09:34:37</time>
			</trkpt>
			<trkpt lat="48.6672199331224" lon="2.819829974323511">
				<ele>73.0</ele>
				<time>2021-02-24T09:34:44</time>
			</trkpt>
			<trkpt lat="48.66705992259085" lon="2.8201499953866005">
				<ele>73.0</ele>
				<time>2021-02-24T09:34:49</time>
			</trkpt>
			<trkpt lat="48.66670997813344" lon="2.820689957588911">
				<ele>71.0</ele>
				<time>2021-02-24T09:34:58</time>
			</trkpt>
			<trkpt lat="48.66655994206667" lon="2.8207699209451675">
				<ele>71.0</ele>
				<time>2021-02-24T09:35:00</time>
			</trkpt>
			<trkpt lat="48.66631996817887" lon="2.820709990337491">
				<ele>71.0</ele>
				<time>2021-02-24T09:35:05</time>
			</trkpt>
			<trkpt lat="48.666289960965514" lon="2.8219199180603027">
				<ele>70.0</ele>
				<time>2021-02-24T09:35:19</time>
			</trkpt>
			<trkpt lat="48.66601997986436" lon="2.826879993081093">
				<ele>72.0</ele>
				<time>2021-02-24T09:36:16</time>
			</trkpt>
			<trkpt lat="48.66591973230243" lon="2.8305877279490232">
				<ele>87.99</ele>
				<time>2021-02-24T09:36:58</time>
			</trkpt>
			<trkpt lat="48.66589307785034" lon="2.8305673599243164">
				<ele>90.08</ele>
				<time>2021-02-24T09:36:59</time>
			</trkpt>
			<trkpt lat="48.66589316166937" lon="2.8305673599243164">
				<ele>90.73</ele>
				<time>2021-02-24T09:36:59</time>
			</trkpt>
			<trkpt lat="48.66569995880127" lon="2.831254005432129">
				<ele>92.37</ele>
				<time>2021-02-24T09:37:08</time>
			</trkpt>
			<trkpt lat="48.66516351699829" lon="2.8327667713165283">
				<ele>93.95</ele>
				<time>2021-02-24T09:37:27</time>
			</trkpt>
			<trkpt lat="48.66510987281799" lon="2.83297061920166">
				<ele>94.87</ele>
				<time>2021-02-24T09:37:30</time>
			</trkpt>
			<trkpt lat="48.665088415145874" lon="2.8331851959228516">
				<ele>95.48</ele>
				<time>2021-02-24T09:37:32</time>
			</trkpt>
			<trkpt lat="48.665099143981934" lon="2.8333568572998047">
				<ele>95.94</ele>
				<time>2021-02-24T09:37:34</time>
			</trkpt>
			<trkpt lat="48.66516360081732" lon="2.8335821628570557">
				<ele>96.33</ele>
				<time>2021-02-24T09:37:37</time>
			</trkpt>
			<trkpt lat="48.66523861885071" lon="2.8337323665618896">
				<ele>96.68</ele>
				<time>2021-02-24T09:37:39</time>
			</trkpt>
			<trkpt lat="48.66535663604736" lon="2.8339147567749023">
				<ele>97.02</ele>
				<time>2021-02-24T09:37:42</time>
			</trkpt>
			<trkpt lat="48.66563558578491" lon="2.8342580795288086">
				<ele>97.45</ele>
				<time>2021-02-24T09:37:48</time>
			</trkpt>
			<trkpt lat="48.66567850112915" lon="2.834343910217285">
				<ele>97.76</ele>
				<time>2021-02-24T09:37:50</time>
			</trkpt>
			<trkpt lat="48.66571068763733" lon="2.8344297409057617">
				<ele>98.02</ele>
				<time>2021-02-24T09:37:51</time>
			</trkpt>
			<trkpt lat="48.66572141647339" lon="2.8345370292663574">
				<ele>98.21</ele>
				<time>2021-02-24T09:37:52</time>
			</trkpt>
			<trkpt lat="48.66569995880127" lon="2.834794521331787">
				<ele>98.44</ele>
				<time>2021-02-24T09:37:55</time>
			</trkpt>
			<trkpt lat="48.66560339927673" lon="2.8350305557250977">
				<ele>98.45</ele>
				<time>2021-02-24T09:37:58</time>
			</trkpt>
			<trkpt lat="48.66528161801398" lon="2.8355777263641357">
				<ele>98.47</ele>
				<time>2021-02-24T09:38:07</time>
			</trkpt>
			<trkpt lat="48.6650025844574" lon="2.83622145652771">
				<ele>98.48</ele>
				<time>2021-02-24T09:38:16</time>
			</trkpt>
			<trkpt lat="48.664573431015015" lon="2.8373801708221436">
				<ele>98.53</ele>
				<time>2021-02-24T09:38:31</time>
			</trkpt>
			<trkpt lat="48.66451978683472" lon="2.8376054763793945">
				<ele>98.37</ele>
				<time>2021-02-24T09:38:34</time>
			</trkpt>
			<trkpt lat="48.66451978683472" lon="2.837798595428467">
				<ele>98.25</ele>
				<time>2021-02-24T09:38:36</time>
			</trkpt>
			<trkpt lat="48.66469144821167" lon="2.8385281562805176">
				<ele>98.13</ele>
				<time>2021-02-24T09:38:45</time>
			</trkpt>
			<trkpt lat="48.66476655006409" lon="2.8394293785095215">
				<ele>97.91</ele>
				<time>2021-02-24T09:38:55</time>
			</trkpt>
			<trkpt lat="48.66495966911316" lon="2.8404700756073">
				<ele>97.59</ele>
				<time>2021-02-24T09:39:08</time>
			</trkpt>
			<trkpt lat="48.66501331329346" lon="2.8408992290496826">
				<ele>97.34</ele>
				<time>2021-02-24T09:39:13</time>
			</trkpt>
			<trkpt lat="48.665056228637695" lon="2.8412532806396484">
				<ele>97.1</ele>
				<time>2021-02-24T09:39:17</time>
			</trkpt>
			<trkpt lat="48.665088498964906" lon="2.8413820266723633">
				<ele>96.83</ele>
				<time>2021-02-24T09:39:18</time>
			</trkpt>
			<trkpt lat="48.66521724499762" lon="2.841939926147461">
				<ele>96.68</ele>
				<time>2021-02-24T09:39:25</time>
			</trkpt>
			<trkpt lat="48.66542100906372" lon="2.8425943851470947">
				<ele>96.5</ele>
				<time>2021-02-24T09:39:33</time>
			</trkpt>
			<trkpt lat="48.66510987281799" lon="2.842862606048584">
				<ele>95.89</ele>
				<time>2021-02-24T09:39:40</time>
			</trkpt>
			<trkpt lat="48.66515278816223" lon="2.8430235385894775">
				<ele>95.63</ele>
				<time>2021-02-24T09:39:42</time>
			</trkpt>
			<trkpt lat="48.66522789001465" lon="2.843860387802124">
				<ele>95.47</ele>
				<time>2021-02-24T09:39:51</time>
			</trkpt>
			<trkpt lat="48.66522797383368" lon="2.843860387802124">
				<ele>95.27</ele>
				<time>2021-02-24T09:39:51</time>
			</trkpt>
			<trkpt lat="48.66531380452216" lon="2.8447723388671875">
				<ele>94.9</ele>
				<time>2021-02-24T09:40:02</time>
			</trkpt>
			<trkpt lat="48.66536736488342" lon="2.8447508811950684">
				<ele>94.85</ele>
				<time>2021-02-24T09:40:03</time>
			</trkpt>
			<trkpt lat="48.66549611091614" lon="2.8449654579162598">
				<ele>94.88</ele>
				<time>2021-02-24T09:40:06</time>
			</trkpt>
			<trkpt lat="48.66564631462097" lon="2.8453195095062256">
				<ele>94.97</ele>
				<time>2021-02-24T09:40:11</time>
			</trkpt>
			<trkpt lat="48.66588234901428" lon="2.846102714538574">
				<ele>95.22</ele>
				<time>2021-02-24T09:40:21</time>
			</trkpt>
			<trkpt lat="48.66617202758789" lon="2.8467249870300293">
				<ele>95.53</ele>
				<time>2021-02-24T09:40:30</time>
			</trkpt>
			<trkpt lat="48.66613984107971" lon="2.8468644618988037">
				<ele>95.87</ele>
				<time>2021-02-24T09:40:31</time>
			</trkpt>
			<trkpt lat="48.66617211140692" lon="2.847003936767578">
				<ele>96.29</ele>
				<time>2021-02-24T09:40:33</time>
			</trkpt>
			<trkpt lat="48.66619348526001" lon="2.847111225128174">
				<ele>96.72</ele>
				<time>2021-02-24T09:40:34</time>
			</trkpt>
			<trkpt lat="48.66621494293213" lon="2.8473901748657227">
				<ele>97.2</ele>
				<time>2021-02-24T09:40:38</time>
			</trkpt>
			<trkpt lat="48.66613984107971" lon="2.8481733798980713">
				<ele>97.84</ele>
				<time>2021-02-24T09:40:47</time>
			</trkpt>
			<trkpt lat="48.66602182388306" lon="2.8487205505371094">
				<ele>98.27</ele>
				<time>2021-02-24T09:40:53</time>
			</trkpt>
			<trkpt lat="48.66576433181763" lon="2.849557399749756">
				<ele>98.87</ele>
				<time>2021-02-24T09:41:04</time>
			</trkpt>
			<trkpt lat="48.665571212768555" lon="2.850651741027832">
				<ele>99.4</ele>
				<time>2021-02-24T09:41:17</time>
			</trkpt>
			<trkpt lat="48.665571296587586" lon="2.850651741027832">
				<ele>99.89</ele>
				<time>2021-02-24T09:41:17</time>
			</trkpt>
			<trkpt lat="48.66545327939093" lon="2.851628065109253">
				<ele>100.5</ele>
				<time>2021-02-24T09:41:28</time>
			</trkpt>
			<trkpt lat="48.66542109288275" lon="2.851896286010742">
				<ele>100.99</ele>
				<time>2021-02-24T09:41:31</time>
			</trkpt>
			<trkpt lat="48.665292263031006" lon="2.852969169616699">
				<ele>101.47</ele>
				<time>2021-02-24T09:41:44</time>
			</trkpt>
			<trkpt lat="48.66443395614624" lon="2.8591811656951904">
				<ele>102.06</ele>
				<time>2021-02-24T09:42:57</time>
			</trkpt>
			<trkpt lat="48.66443403996527" lon="2.8591811656951904">
				<ele>102.54</ele>
				<time>2021-02-24T09:42:57</time>
			</trkpt>
			<trkpt lat="48.66405853070319" lon="2.861863374710083">
				<ele>103.11</ele>
				<time>2021-02-24T09:43:28</time>
			</trkpt>
			<trkpt lat="48.66400488652289" lon="2.8622496128082275">
				<ele>103.59</ele>
				<time>2021-02-24T09:43:33</time>
			</trkpt>
			<trkpt lat="48.66345763206482" lon="2.8661763668060303">
				<ele>104.22</ele>
				<time>2021-02-24T09:44:19</time>
			</trkpt>
			<trkpt lat="48.66342544555664" lon="2.866605520248413">
				<ele>104.61</ele>
				<time>2021-02-24T09:44:24</time>
			</trkpt>
			<trkpt lat="48.66342552937567" lon="2.867077589035034">
				<ele>104.93</ele>
				<time>2021-02-24T09:44:30</time>
			</trkpt>
			<trkpt lat="48.66342544555664" lon="2.867206335067749">
				<ele>105.32</ele>
				<time>2021-02-24T09:44:31</time>
			</trkpt>
			<trkpt lat="48.66351127624512" lon="2.867785692214966">
				<ele>105.78</ele>
				<time>2021-02-24T09:44:38</time>
			</trkpt>
			<trkpt lat="48.663532733917236" lon="2.8682899475097656">
				<ele>106.07</ele>
				<time>2021-02-24T09:44:44</time>
			</trkpt>
			<trkpt lat="48.66352200508118" lon="2.8692126274108887">
				<ele>106.42</ele>
				<time>2021-02-24T09:44:54</time>
			</trkpt>
			<trkpt lat="48.66351127624512" lon="2.8693735599517822">
				<ele>106.56</ele>
				<time>2021-02-24T09:44:56</time>
			</trkpt>
			<trkpt lat="48.66344698704779" lon="2.869502305984497">
				<ele>106.41</ele>
				<time>2021-02-24T09:44:58</time>
			</trkpt>
			<trkpt lat="48.66336107254028" lon="2.869652509689331">
				<ele>106.02</ele>
				<time>2021-02-24T09:45:00</time>
			</trkpt>
			<trkpt lat="48.6612690333277" lon="2.872624397277832">
				<ele>105.13</ele>
				<time>2021-02-24T09:45:50</time>
			</trkpt>
			<trkpt lat="48.66112947463989" lon="2.8728389739990234">
				<ele>104.63</ele>
				<time>2021-02-24T09:45:54</time>
			</trkpt>
			<trkpt lat="48.661129558458924" lon="2.8728389739990234">
				<ele>104.07</ele>
				<time>2021-02-24T09:45:54</time>
			</trkpt>
			<trkpt lat="48.66075396537781" lon="2.8734183311462402">
				<ele>103.23</ele>
				<time>2021-02-24T09:46:03</time>
			</trkpt>
			<trkpt lat="48.66046437062323" lon="2.873997688293457">
				<ele>102.56</ele>
				<time>2021-02-24T09:46:11</time>
			</trkpt>
			<trkpt lat="48.6600136756897" lon="2.874941825866699">
				<ele>102.52</ele>
				<time>2021-02-24T09:46:25</time>
			</trkpt>
			<trkpt lat="48.659935388714075" lon="2.875217841938138">
				<ele>102.11</ele>
				<time>2021-02-24T09:46:28</time>
			</trkpt>
			<trkpt lat="48.659788370132446" lon="2.8757357597351074">
				<ele>102.84</ele>
				<time>2021-02-24T09:46:35</time>
			</trkpt>
			<trkpt lat="48.65952023304999" lon="2.876390218734741">
				<ele>103.31</ele>
				<time>2021-02-24T09:46:44</time>
			</trkpt>
			<trkpt lat="48.658329248428345" lon="2.8786003589630127">
				<ele>103.19</ele>
				<time>2021-02-24T09:47:16</time>
			</trkpt>
			<trkpt lat="48.65820050239563" lon="2.878943681716919">
				<ele>103.11</ele>
				<time>2021-02-24T09:47:21</time>
			</trkpt>
			<trkpt lat="48.658082485198975" lon="2.8793728351593018">
				<ele>103.12</ele>
				<time>2021-02-24T09:47:26</time>
			</trkpt>
			<trkpt lat="48.658039569854736" lon="2.8797590732574463">
				<ele>103.08</ele>
				<time>2021-02-24T09:47:31</time>
			</trkpt>
			<trkpt lat="48.65800746716559" lon="2.8808212280273438">
				<ele>102.67</ele>
				<time>2021-02-24T09:47:43</time>
			</trkpt>
			<trkpt lat="48.65797519683838" lon="2.8818297386169434">
				<ele>102.05</ele>
				<time>2021-02-24T09:47:55</time>
			</trkpt>
			<trkpt lat="48.65797528065741" lon="2.882816791534424">
				<ele>101.64</ele>
				<time>2021-02-24T09:48:06</time>
			</trkpt>
			<trkpt lat="48.6579430103302" lon="2.8833532333374023">
				<ele>101.21</ele>
				<time>2021-02-24T09:48:12</time>
			</trkpt>
			<trkpt lat="48.657857179641724" lon="2.883707284927368">
				<ele>100.42</ele>
				<time>2021-02-24T09:48:16</time>
			</trkpt>
			<trkpt lat="48.65769624710083" lon="2.8840935230255127">
				<ele>99.95</ele>
				<time>2021-02-24T09:48:22</time>
			</trkpt>
			<trkpt lat="48.65739583969116" lon="2.8847157955169678">
				<ele>99.87</ele>
				<time>2021-02-24T09:48:31</time>
			</trkpt>
			<trkpt lat="48.657288551330566" lon="2.885187864303589">
				<ele>99.77</ele>
				<time>2021-02-24T09:48:36</time>
			</trkpt>
			<trkpt lat="48.65717053413391" lon="2.886207103729248">
				<ele>98.93</ele>
				<time>2021-02-24T09:48:48</time>
			</trkpt>
			<trkpt lat="48.657063245773315" lon="2.8868722915649414">
				<ele>98.49</ele>
				<time>2021-02-24T09:48:56</time>
			</trkpt>
			<trkpt lat="48.65691312588751" lon="2.88765549659729">
				<ele>98.02</ele>
				<time>2021-02-24T09:49:05</time>
			</trkpt>
			<trkpt lat="48.656859397888184" lon="2.887955904006958">
				<ele>97.68</ele>
				<time>2021-02-24T09:49:09</time>
			</trkpt>
			<trkpt lat="48.65676283836365" lon="2.888728380203247">
				<ele>97.35</ele>
				<time>2021-02-24T09:49:18</time>
			</trkpt>
			<trkpt lat="48.65668773651123" lon="2.889232635498047">
				<ele>97.19</ele>
				<time>2021-02-24T09:49:24</time>
			</trkpt>
			<trkpt lat="48.65650534629822" lon="2.890005111694336">
				<ele>97.16</ele>
				<time>2021-02-24T09:49:33</time>
			</trkpt>
			<trkpt lat="48.65645170211792" lon="2.8907132148742676">
				<ele>97.26</ele>
				<time>2021-02-24T09:49:42</time>
			</trkpt>
			<trkpt lat="48.656558990478516" lon="2.892075777053833">
				<ele>97.99</ele>
				<time>2021-02-24T09:49:57</time>
			</trkpt>
			<trkpt lat="48.65667700767517" lon="2.892676591873169">
				<ele>98.17</ele>
				<time>2021-02-24T09:50:05</time>
			</trkpt>
			<trkpt lat="48.65689158439636" lon="2.8940069675445557">
				<ele>98.61</ele>
				<time>2021-02-24T09:50:20</time>
			</trkpt>
			<trkpt lat="48.65696668624878" lon="2.894822359085083">
				<ele>98.74</ele>
				<time>2021-02-24T09:50:30</time>
			</trkpt>
			<trkpt lat="48.65723490715027" lon="2.8954017162323">
				<ele>99.11</ele>
				<time>2021-02-24T09:50:38</time>
			</trkpt>
			<trkpt lat="48.657288551330566" lon="2.895616292953491">
				<ele>99.36</ele>
				<time>2021-02-24T09:50:41</time>
			</trkpt>
			<trkpt lat="48.6573851108551" lon="2.8961098194122314">
				<ele>99.57</ele>
				<time>2021-02-24T09:50:46</time>
			</trkpt>
			<trkpt lat="48.657588958740234" lon="2.896914482116699">
				<ele>99.68</ele>
				<time>2021-02-24T09:50:56</time>
			</trkpt>
			<trkpt lat="48.65765333175659" lon="2.8974294662475586">
				<ele>99.75</ele>
				<time>2021-02-24T09:51:02</time>
			</trkpt>
			<trkpt lat="48.65764260292053" lon="2.898073196411133">
				<ele>99.59</ele>
				<time>2021-02-24T09:51:10</time>
			</trkpt>
			<trkpt lat="48.657578229904175" lon="2.89888858795166">
				<ele>99.74</ele>
				<time>2021-02-24T09:51:19</time>
			</trkpt>
			<trkpt lat="48.65750312805176" lon="2.9001760482788086">
				<ele>99.96</ele>
				<time>2021-02-24T09:51:34</time>
			</trkpt>
			<trkpt lat="48.65747094154358" lon="2.9004228115081787">
				<ele>99.9</ele>
				<time>2021-02-24T09:51:37</time>
			</trkpt>
			<trkpt lat="48.657342195510864" lon="2.9008519649505615">
				<ele>99.86</ele>
				<time>2021-02-24T09:51:42</time>
			</trkpt>
			<trkpt lat="48.65721344947815" lon="2.9007768630981445">
				<ele>99.72</ele>
				<time>2021-02-24T09:51:45</time>
			</trkpt>
			<trkpt lat="48.656301498413086" lon="2.900819778442383">
				<ele>99.01</ele>
				<time>2021-02-24T09:52:01</time>
			</trkpt>
			<trkpt lat="48.6563766002655" lon="2.901763916015625">
				<ele>99.4</ele>
				<time>2021-02-24T09:52:12</time>
			</trkpt>
			<trkpt lat="48.656355226412416" lon="2.9025042057037354">
				<ele>99.73</ele>
				<time>2021-02-24T09:52:20</time>
			</trkpt>
			<trkpt lat="48.65645170211792" lon="2.903362512588501">
				<ele>100.03</ele>
				<time>2021-02-24T09:52:30</time>
			</trkpt>
			<trkpt lat="48.65648397244513" lon="2.9043495655059814">
				<ele>99.94</ele>
				<time>2021-02-24T09:52:42</time>
			</trkpt>
			<trkpt lat="48.65645178593695" lon="2.9048216342926025">
				<ele>99.91</ele>
				<time>2021-02-24T09:52:47</time>
			</trkpt>
			<trkpt lat="48.65644105710089" lon="2.905454635620117">
				<ele>99.79</ele>
				<time>2021-02-24T09:52:54</time>
			</trkpt>
			<trkpt lat="48.65645170211792" lon="2.9064738750457764">
				<ele>99.46</ele>
				<time>2021-02-24T09:53:06</time>
			</trkpt>
			<trkpt lat="48.65669846534729" lon="2.9075145721435547">
				<ele>98.74</ele>
				<time>2021-02-24T09:53:19</time>
			</trkpt>
			<trkpt lat="48.65695595741272" lon="2.908233404159546">
				<ele>98.35</ele>
				<time>2021-02-24T09:53:28</time>
			</trkpt>
			<trkpt lat="48.657073974609375" lon="2.9087376594543457">
				<ele>97.28</ele>
				<time>2021-02-24T09:53:34</time>
			</trkpt>
			<trkpt lat="48.65725636482239" lon="2.910357713699341">
				<ele>95.42</ele>
				<time>2021-02-24T09:53:53</time>
			</trkpt>
			<trkpt lat="48.65748167037964" lon="2.9116880893707275">
				<ele>94.68</ele>
				<time>2021-02-24T09:54:09</time>
			</trkpt>
			<trkpt lat="48.657567501068115" lon="2.9119884967803955">
				<ele>94.07</ele>
				<time>2021-02-24T09:54:13</time>
			</trkpt>
			<trkpt lat="48.65779339335859" lon="2.912583276629448">
				<ele>93.64</ele>
				<time>2021-02-24T09:54:21</time>
			</trkpt>
			<trkpt lat="48.65787796676159" lon="2.91250959970057">
				<ele>90.09</ele>
				<time>2021-02-24T09:54:22</time>
			</trkpt>
			<trkpt lat="48.65795994177461" lon="2.91274999268353">
				<ele>93.0</ele>
				<time>2021-02-24T09:54:25</time>
			</trkpt>
			<trkpt lat="48.658149959519506" lon="2.913679964840412">
				<ele>91.0</ele>
				<time>2021-02-24T09:54:37</time>
			</trkpt>
			<trkpt lat="48.658639965578914" lon="2.9153299424797297">
				<ele>95.0</ele>
				<time>2021-02-24T09:54:57</time>
			</trkpt>
			<trkpt lat="48.65869998000562" lon="2.916519921272993">
				<ele>95.0</ele>
				<time>2021-02-24T09:55:11</time>
			</trkpt>
			<trkpt lat="48.658709954470396" lon="2.917619962245226">
				<ele>97.0</ele>
				<time>2021-02-24T09:55:24</time>
			</trkpt>
			<trkpt lat="48.65878991782665" lon="2.9179499577730894">
				<ele>98.0</ele>
				<time>2021-02-24T09:55:28</time>
			</trkpt>
			<trkpt lat="48.6593899782747" lon="2.918539959937334">
				<ele>99.0</ele>
				<time>2021-02-24T09:55:40</time>
			</trkpt>
			<trkpt lat="48.659479999914765" lon="2.9187799338251352">
				<ele>100.0</ele>
				<time>2021-02-24T09:55:43</time>
			</trkpt>
			<trkpt lat="48.65961997769773" lon="2.920939950272441">
				<ele>101.0</ele>
				<time>2021-02-24T09:56:08</time>
			</trkpt>
			<trkpt lat="48.661479922011495" lon="2.9232799261808395">
				<ele>88.0</ele>
				<time>2021-02-24T09:56:50</time>
			</trkpt>
			<trkpt lat="48.66327993571758" lon="2.928769988939166">
				<ele>84.0</ele>
				<time>2021-02-24T09:58:01</time>
			</trkpt>
			<trkpt lat="48.663369957357645" lon="2.929869946092367">
				<ele>85.0</ele>
				<time>2021-02-24T09:58:14</time>
			</trkpt>
			<trkpt lat="48.66342997178435" lon="2.9301299527287483">
				<ele>85.0</ele>
				<time>2021-02-24T09:58:17</time>
			</trkpt>
			<trkpt lat="48.663629963994026" lon="2.930289963260293">
				<ele>85.0</ele>
				<time>2021-02-24T09:58:21</time>
			</trkpt>
			<trkpt lat="48.66418995894492" lon="2.930289963260293">
				<ele>91.0</ele>
				<time>2021-02-24T09:58:30</time>
			</trkpt>
			<trkpt lat="48.664659932255745" lon="2.9301499854773283">
				<ele>92.0</ele>
				<time>2021-02-24T09:58:39</time>
			</trkpt>
			<trkpt lat="48.664999986067414" lon="2.9301299527287483">
				<ele>92.0</ele>
				<time>2021-02-24T09:58:45</time>
			</trkpt>
			<trkpt lat="48.66498992778361" lon="2.9303499776870012">
				<ele>93.0</ele>
				<time>2021-02-24T09:58:47</time>
			</trkpt>
			<trkpt lat="48.66513996385038" lon="2.932229954749346">
				<ele>102.0</ele>
				<time>2021-02-24T09:59:09</time>
			</trkpt>
			<trkpt lat="48.66539997048676" lon="2.933429991826415">
				<ele>104.0</ele>
				<time>2021-02-24T09:59:24</time>
			</trkpt>
			<trkpt lat="48.66599994711578" lon="2.9345999378710985">
				<ele>103.0</ele>
				<time>2021-02-24T09:59:41</time>
			</trkpt>
			<trkpt lat="48.66794999688864" lon="2.935329917818308">
				<ele>102.0</ele>
				<time>2021-02-24T10:00:16</time>
			</trkpt>
			<trkpt lat="48.66867997683585" lon="2.935579949989915">
				<ele>103.0</ele>
				<time>2021-02-24T10:00:29</time>
			</trkpt>
			<trkpt lat="48.66949997842312" lon="2.935579949989915">
				<ele>101.0</ele>
				<time>2021-02-24T10:00:43</time>
			</trkpt>
			<trkpt lat="48.670629942789674" lon="2.9357599932700396">
				<ele>104.0</ele>
				<time>2021-02-24T10:01:03</time>
			</trkpt>
			<trkpt lat="48.67235996760428" lon="2.936439933255315">
				<ele>101.0</ele>
				<time>2021-02-24T10:01:34</time>
			</trkpt>
			<trkpt lat="48.67289992980659" lon="2.936509922146797">
				<ele>100.0</ele>
				<time>2021-02-24T10:01:43</time>
			</trkpt>
			<trkpt lat="48.67304996587336" lon="2.9374899342656136">
				<ele>93.0</ele>
				<time>2021-02-24T10:01:55</time>
			</trkpt>
			<trkpt lat="48.67313998751342" lon="2.938529960811138">
				<ele>91.0</ele>
				<time>2021-02-24T10:02:07</time>
			</trkpt>
			<trkpt lat="48.67315993644297" lon="2.9386399313807487">
				<ele>92.0</ele>
				<time>2021-02-24T10:02:08</time>
			</trkpt>
			<trkpt lat="48.673319946974516" lon="2.938949977979064">
				<ele>91.0</ele>
				<time>2021-02-24T10:02:13</time>
			</trkpt>
			<trkpt lat="48.67351993918419" lon="2.9387899674475193">
				<ele>89.0</ele>
				<time>2021-02-24T10:02:17</time>
			</trkpt>
			<trkpt lat="48.674349999055266" lon="2.9383799247443676">
				<ele>83.0</ele>
				<time>2021-02-24T10:02:32</time>
			</trkpt>
			<trkpt lat="48.67560996674001" lon="2.9379799403250217">
				<ele>86.0</ele>
				<time>2021-02-24T10:02:54</time>
			</trkpt>
			<trkpt lat="48.67613995447755" lon="2.937869969755411">
				<ele>87.0</ele>
				<time>2021-02-24T10:03:03</time>
			</trkpt>
			<trkpt lat="48.67652996443212" lon="2.9372299276292324">
				<ele>89.0</ele>
				<time>2021-02-24T10:03:13</time>
			</trkpt>
			<trkpt lat="48.67667991667986" lon="2.9370899498462677">
				<ele>90.0</ele>
				<time>2021-02-24T10:03:17</time>
			</trkpt>
			<trkpt lat="48.67763997986913" lon="2.936509922146797">
				<ele>97.0</ele>
				<time>2021-02-24T10:03:35</time>
			</trkpt>
			<trkpt lat="48.679049983620644" lon="2.935779942199588">
				<ele>101.0</ele>
				<time>2021-02-24T10:04:00</time>
			</trkpt>
			<trkpt lat="48.68015999905765" lon="2.935189940035343">
				<ele>102.0</ele>
				<time>2021-02-24T10:04:21</time>
			</trkpt>
			<trkpt lat="48.68031992577016" lon="2.935169991105795">
				<ele>103.0</ele>
				<time>2021-02-24T10:04:24</time>
			</trkpt>
			<trkpt lat="48.68372993543744" lon="2.9365599621087313">
				<ele>105.0</ele>
				<time>2021-02-24T10:05:25</time>
			</trkpt>
			<trkpt lat="48.68426998145878" lon="2.9368599504232407">
				<ele>106.0</ele>
				<time>2021-02-24T10:05:35</time>
			</trkpt>
			<trkpt lat="48.684769961982965" lon="2.936979979276657">
				<ele>106.0</ele>
				<time>2021-02-24T10:05:44</time>
			</trkpt>
			<trkpt lat="48.68588995188475" lon="2.937139989808202">
				<ele>107.0</ele>
				<time>2021-02-24T10:06:04</time>
			</trkpt>
			<trkpt lat="48.68742995895445" lon="2.9376999847590923">
				<ele>109.0</ele>
				<time>2021-02-24T10:06:31</time>
			</trkpt>
			<trkpt lat="48.68860996328294" lon="2.9381299763917923">
				<ele>105.0</ele>
				<time>2021-02-24T10:06:52</time>
			</trkpt>
			<trkpt lat="48.69218995794654" lon="2.940029986202717">
				<ele>99.0</ele>
				<time>2021-02-24T10:07:58</time>
			</trkpt>
			<trkpt lat="48.693768521770835" lon="2.9407893028110266">
				<ele>99.0</ele>
				<time>2021-02-24T10:08:27</time>
			</trkpt>
			<trkpt lat="48.693769946694374" lon="2.9407899733632803">
				<ele>99.0</ele>
				<time>2021-02-24T10:08:27</time>
			</trkpt>
			<trkpt lat="48.694699918851256" lon="2.941589942201972">
				<ele>102.0</ele>
				<time>2021-02-24T10:08:46</time>
			</trkpt>
			<trkpt lat="48.69569996371865" lon="2.942709932103753">
				<ele>101.0</ele>
				<time>2021-02-24T10:09:07</time>
			</trkpt>
			<trkpt lat="48.69680997915566" lon="2.9439599253237247">
				<ele>100.0</ele>
				<time>2021-02-24T10:09:31</time>
			</trkpt>
			<trkpt lat="48.69717995636165" lon="2.944479938596487">
				<ele>102.0</ele>
				<time>2021-02-24T10:09:40</time>
			</trkpt>
			<trkpt lat="48.69807992130518" lon="2.946019945666194">
				<ele>105.0</ele>
				<time>2021-02-24T10:10:04</time>
			</trkpt>
			<trkpt lat="48.69968991726637" lon="2.9519799817353487">
				<ele>100.0</ele>
				<time>2021-02-24T10:11:18</time>
			</trkpt>
			<trkpt lat="48.6997399572283" lon="2.952249962836504">
				<ele>101.0</ele>
				<time>2021-02-24T10:11:21</time>
			</trkpt>
			<trkpt lat="48.69981992058456" lon="2.9532199166715145">
				<ele>103.0</ele>
				<time>2021-02-24T10:11:32</time>
			</trkpt>
			<trkpt lat="48.69994992390275" lon="2.9539299476891756">
				<ele>105.0</ele>
				<time>2021-02-24T10:11:41</time>
			</trkpt>
			<trkpt lat="48.69998998939991" lon="2.9550399631261826">
				<ele>103.0</ele>
				<time>2021-02-24T10:11:54</time>
			</trkpt>
			<trkpt lat="48.700129967182875" lon="2.955539943650365">
				<ele>104.0</ele>
				<time>2021-02-24T10:12:00</time>
			</trkpt>
			<trkpt lat="48.700689962133765" lon="2.955589983612299">
				<ele>106.0</ele>
				<time>2021-02-24T10:12:10</time>
			</trkpt>
			<trkpt lat="48.700859947130084" lon="2.955629965290427">
				<ele>107.0</ele>
				<time>2021-02-24T10:12:13</time>
			</trkpt>
			<trkpt lat="48.70105993933976" lon="2.9557499941438437">
				<ele>108.0</ele>
				<time>2021-02-24T10:12:16</time>
			</trkpt>
			<trkpt lat="48.70123998261988" lon="2.955999942496419">
				<ele>107.0</ele>
				<time>2021-02-24T10:12:21</time>
			</trkpt>
			<trkpt lat="48.70172998867929" lon="2.9569899290800095">
				<ele>107.0</ele>
				<time>2021-02-24T10:12:35</time>
			</trkpt>
			<trkpt lat="48.70163996703923" lon="2.9578999523073435">
				<ele>107.0</ele>
				<time>2021-02-24T10:12:45</time>
			</trkpt>
			<trkpt lat="48.7014599237591" lon="2.95887996442616">
				<ele>105.0</ele>
				<time>2021-02-24T10:12:57</time>
			</trkpt>
			<trkpt lat="48.70189997367561" lon="2.9625799879431725">
				<ele>104.0</ele>
				<time>2021-02-24T10:13:40</time>
			</trkpt>
			<trkpt lat="48.7041299790144" lon="2.96203994192183">
				<ele>107.0</ele>
				<time>2021-02-24T10:14:20</time>
			</trkpt>
			<trkpt lat="48.70484998449683" lon="2.9625899624079466">
				<ele>107.0</ele>
				<time>2021-02-24T10:14:34</time>
			</trkpt>
			<trkpt lat="48.70507998391986" lon="2.962659951299429">
				<ele>106.0</ele>
				<time>2021-02-24T10:14:38</time>
			</trkpt>
			<trkpt lat="48.70542992837727" lon="2.9625999368727207">
				<ele>108.0</ele>
				<time>2021-02-24T10:14:44</time>
			</trkpt>
			<trkpt lat="48.708099983632565" lon="2.961289929226041">
				<ele>111.0</ele>
				<time>2021-02-24T10:15:33</time>
			</trkpt>
			<trkpt lat="48.71055998839438" lon="2.9601299576461315">
				<ele>114.0</ele>
				<time>2021-02-24T10:16:17</time>
			</trkpt>
			<trkpt lat="48.71086995117366" lon="2.9600999504327774">
				<ele>112.0</ele>
				<time>2021-02-24T10:16:23</time>
			</trkpt>
			<trkpt lat="48.713109930977225" lon="2.960239928215742">
				<ele>115.0</ele>
				<time>2021-02-24T10:17:02</time>
			</trkpt>
			<trkpt lat="48.71375994756818" lon="2.9603499826043844">
				<ele>113.0</ele>
				<time>2021-02-24T10:17:13</time>
			</trkpt>
			<trkpt lat="48.71391995809972" lon="2.9602999426424503">
				<ele>113.0</ele>
				<time>2021-02-24T10:17:16</time>
			</trkpt>
			<trkpt lat="48.71399992145598" lon="2.9604199714958668">
				<ele>112.0</ele>
				<time>2021-02-24T10:17:18</time>
			</trkpt>
			<trkpt lat="48.714159931987524" lon="2.960439920425415">
				<ele>112.0</ele>
				<time>2021-02-24T10:17:21</time>
			</trkpt>
			<trkpt lat="48.71421994641423" lon="2.960399938747287">
				<ele>112.0</ele>
				<time>2021-02-24T10:17:22</time>
			</trkpt>
			<trkpt lat="48.714289935305715" lon="2.960249986499548">
				<ele>111.0</ele>
				<time>2021-02-24T10:17:24</time>
			</trkpt>
			<trkpt lat="48.714249953627586" lon="2.959989979863167">
				<ele>112.0</ele>
				<time>2021-02-24T10:17:27</time>
			</trkpt>
			<trkpt lat="48.72652994468808" lon="2.952489936724305">
				<ele>113.0</ele>
				<time>2021-02-24T10:21:18</time>
			</trkpt>
			<trkpt lat="48.72909992001951" lon="2.9508899990469217">
				<ele>115.0</ele>
				<time>2021-02-24T10:22:06</time>
			</trkpt>
			<trkpt lat="48.72950996272266" lon="2.950759995728731">
				<ele>117.0</ele>
				<time>2021-02-24T10:22:13</time>
			</trkpt>
			<trkpt lat="48.72974993661046" lon="2.9507899191230536">
				<ele>117.0</ele>
				<time>2021-02-24T10:22:17</time>
			</trkpt>
			<trkpt lat="48.730529956519604" lon="2.9512699507176876">
				<ele>114.0</ele>
				<time>2021-02-24T10:22:32</time>
			</trkpt>
			<trkpt lat="48.73612998984754" lon="2.95090994797647">
				<ele>119.0</ele>
				<time>2021-02-24T10:24:10</time>
			</trkpt>
			<trkpt lat="48.736419919878244" lon="2.951099965721369">
				<ele>118.0</ele>
				<time>2021-02-24T10:24:15</time>
			</trkpt>
			<trkpt lat="48.73692995868623" lon="2.951849978417158">
				<ele>117.0</ele>
				<time>2021-02-24T10:24:27</time>
			</trkpt>
			<trkpt lat="48.73810996301472" lon="2.9501399863511324">
				<ele>115.0</ele>
				<time>2021-02-24T10:24:56</time>
			</trkpt>
			<trkpt lat="48.73943991959095" lon="2.9488599859178066">
				<ele>115.0</ele>
				<time>2021-02-24T10:25:23</time>
			</trkpt>
			<trkpt lat="48.73990997672081" lon="2.948229918256402">
				<ele>114.0</ele>
				<time>2021-02-24T10:25:34</time>
			</trkpt>
			<trkpt lat="48.74012991786003" lon="2.947999918833375">
				<ele>114.0</ele>
				<time>2021-02-24T10:25:39</time>
			</trkpt>
			<trkpt lat="48.740369975566864" lon="2.947769919410348">
				<ele>115.0</ele>
				<time>2021-02-24T10:25:44</time>
			</trkpt>
			<trkpt lat="48.74064993113279" lon="2.947589959949255">
				<ele>114.0</ele>
				<time>2021-02-24T10:25:49</time>
			</trkpt>
			<trkpt lat="48.7412799987942" lon="2.947329953312874">
				<ele>113.0</ele>
				<time>2021-02-24T10:26:00</time>
			</trkpt>
			<trkpt lat="48.749199975281954" lon="2.9446399491280317">
				<ele>121.0</ele>
				<time>2021-02-24T10:28:22</time>
			</trkpt>
			<trkpt lat="48.752189967781305" lon="2.9437399841845036">
				<ele>122.0</ele>
				<time>2021-02-24T10:29:15</time>
			</trkpt>
			<trkpt lat="48.75244997441769" lon="2.943789940327406">
				<ele>121.0</ele>
				<time>2021-02-24T10:29:19</time>
			</trkpt>
			<trkpt lat="48.75266999937594" lon="2.9437699913978577">
				<ele>120.0</ele>
				<time>2021-02-24T10:29:23</time>
			</trkpt>
			<trkpt lat="48.75307995826006" lon="2.9438999947160482">
				<ele>118.0</ele>
				<time>2021-02-24T10:29:30</time>
			</trkpt>
			<trkpt lat="48.75326997600496" lon="2.94383998028934">
				<ele>117.0</ele>
				<time>2021-02-24T10:29:34</time>
			</trkpt>
			<trkpt lat="48.753349939361215" lon="2.943809973075986">
				<ele>116.0</ele>
				<time>2021-02-24T10:29:35</time>
			</trkpt>
			<trkpt lat="48.75353995710611" lon="2.9434999264776707">
				<ele>115.0</ele>
				<time>2021-02-24T10:29:40</time>
			</trkpt>
			<trkpt lat="48.753719916567206" lon="2.9433399997651577">
				<ele>114.0</ele>
				<time>2021-02-24T10:29:44</time>
			</trkpt>
			<trkpt lat="48.75413993373513" lon="2.9430699348449707">
				<ele>115.0</ele>
				<time>2021-02-24T10:29:52</time>
			</trkpt>
			<trkpt lat="48.75441997312009" lon="2.942949989810586">
				<ele>117.0</ele>
				<time>2021-02-24T10:29:57</time>
			</trkpt>
			<trkpt lat="48.76019996590912" lon="2.941139917820692">
				<ele>117.0</ele>
				<time>2021-02-24T10:31:40</time>
			</trkpt>
			<trkpt lat="48.763639982789755" lon="2.939989920705557">
				<ele>120.0</ele>
				<time>2021-02-24T10:32:41</time>
			</trkpt>
			<trkpt lat="48.77732997760177" lon="2.9352799616754055">
				<ele>127.0</ele>
				<time>2021-02-24T10:36:45</time>
			</trkpt>
			<trkpt lat="48.779669953510165" lon="2.9362499993294477">
				<ele>128.0</ele>
				<time>2021-02-24T10:37:27</time>
			</trkpt>
			<trkpt lat="48.78133996389806" lon="2.936509922146797">
				<ele>123.0</ele>
				<time>2021-02-24T10:37:57</time>
			</trkpt>
			<trkpt lat="48.79248697310686" lon="2.934990283101797">
				<ele>138.99</ele>
				<time>2021-02-24T10:41:11</time>
			</trkpt>
			<trkpt lat="48.792489990592" lon="2.9349899478256702">
				<ele>139.0</ele>
				<time>2021-02-24T10:41:11</time>
			</trkpt>
			<trkpt lat="48.79822991788387" lon="2.9330199491232634">
				<ele>137.0</ele>
				<time>2021-02-24T10:42:54</time>
			</trkpt>
			<trkpt lat="48.801629953086376" lon="2.9319099336862564">
				<ele>134.0</ele>
				<time>2021-02-24T10:43:54</time>
			</trkpt>
			<trkpt lat="48.8050099555403" lon="2.9306599404662848">
				<ele>131.0</ele>
				<time>2021-02-24T10:44:55</time>
			</trkpt>
			<trkpt lat="48.80528999492526" lon="2.930529937148094">
				<ele>130.0</ele>
				<time>2021-02-24T10:45:00</time>
			</trkpt>
			<trkpt lat="48.80601997487247" lon="2.9299399349838495">
				<ele>126.0</ele>
				<time>2021-02-24T10:45:14</time>
			</trkpt>
			<trkpt lat="48.80737993866205" lon="2.9286099784076214">
				<ele>120.0</ele>
				<time>2021-02-24T10:45:43</time>
			</trkpt>
			<trkpt lat="48.81010992452502" lon="2.925909999758005">
				<ele>99.0</ele>
				<time>2021-02-24T10:46:39</time>
			</trkpt>
			<trkpt lat="48.814429957419634" lon="2.9217699263244867">
				<ele>84.0</ele>
				<time>2021-02-24T10:48:08</time>
			</trkpt>
			<trkpt lat="48.814819967374206" lon="2.9212899785488844">
				<ele>81.0</ele>
				<time>2021-02-24T10:48:17</time>
			</trkpt>
			<trkpt lat="48.81697998382151" lon="2.9161599185317755">
				<ele>63.0</ele>
				<time>2021-02-24T10:49:27</time>
			</trkpt>
			<trkpt lat="48.81956999190152" lon="2.909839963540435">
				<ele>55.0</ele>
				<time>2021-02-24T10:50:52</time>
			</trkpt>
			<trkpt lat="48.819759925827384" lon="2.9090599436312914">
				<ele>53.0</ele>
				<time>2021-02-24T10:51:02</time>
			</trkpt>
			<trkpt lat="48.820059997960925" lon="2.9062399361282587">
				<ele>57.0</ele>
				<time>2021-02-24T10:51:34</time>
			</trkpt>
			<trkpt lat="48.820149935781956" lon="2.905679941177368">
				<ele>59.0</ele>
				<time>2021-02-24T10:51:41</time>
			</trkpt>
			<trkpt lat="48.82021992467344" lon="2.9054599162191153">
				<ele>61.0</ele>
				<time>2021-02-24T10:51:44</time>
			</trkpt>
			<trkpt lat="48.82040994241834" lon="2.9051199462264776">
				<ele>64.0</ele>
				<time>2021-02-24T10:51:49</time>
			</trkpt>
			<trkpt lat="48.821799997240305" lon="2.9037199169397354">
				<ele>60.0</ele>
				<time>2021-02-24T10:52:18</time>
			</trkpt>
			<trkpt lat="48.82269996218383" lon="2.9028799664229155">
				<ele>63.0</ele>
				<time>2021-02-24T10:52:36</time>
			</trkpt>
			<trkpt lat="48.82298997603357" lon="2.9026599414646626">
				<ele>63.0</ele>
				<time>2021-02-24T10:52:42</time>
			</trkpt>
			<trkpt lat="48.82337998598814" lon="2.902519963681698">
				<ele>61.0</ele>
				<time>2021-02-24T10:52:49</time>
			</trkpt>
			<trkpt lat="48.82408993318677" lon="2.9023899603635073">
				<ele>61.0</ele>
				<time>2021-02-24T10:53:01</time>
			</trkpt>
			<trkpt lat="48.82500993087888" lon="2.9017999581992626">
				<ele>68.0</ele>
				<time>2021-02-24T10:53:19</time>
			</trkpt>
			<trkpt lat="48.82543992251158" lon="2.9017299693077803">
				<ele>65.0</ele>
				<time>2021-02-24T10:53:26</time>
			</trkpt>
			<trkpt lat="48.82718998007476" lon="2.901689987629652">
				<ele>59.0</ele>
				<time>2021-02-24T10:53:57</time>
			</trkpt>
			<trkpt lat="48.827729942277074" lon="2.9015999659895897">
				<ele>60.0</ele>
				<time>2021-02-24T10:54:06</time>
			</trkpt>
			<trkpt lat="48.829019917175174" lon="2.901239963248372">
				<ele>58.0</ele>
				<time>2021-02-24T10:54:29</time>
			</trkpt>
			<trkpt lat="48.82928998209536" lon="2.901239963248372">
				<ele>56.0</ele>
				<time>2021-02-24T10:54:34</time>
			</trkpt>
			<trkpt lat="48.82980999536812" lon="2.9013399593532085">
				<ele>56.0</ele>
				<time>2021-02-24T10:54:43</time>
			</trkpt>
			<trkpt lat="48.83025993593037" lon="2.9015799332410097">
				<ele>56.0</ele>
				<time>2021-02-24T10:54:51</time>
			</trkpt>
			<trkpt lat="48.833919977769256" lon="2.90389996021986">
				<ele>53.0</ele>
				<time>2021-02-24T10:56:00</time>
			</trkpt>
			<trkpt lat="48.83600992150605" lon="2.9050799645483494">
				<ele>53.0</ele>
				<time>2021-02-24T10:56:39</time>
			</trkpt>
			<trkpt lat="48.83630999363959" lon="2.905179960653186">
				<ele>53.0</ele>
				<time>2021-02-24T10:56:44</time>
			</trkpt>
			<trkpt lat="48.84152999147773" lon="2.906319983303547">
				<ele>58.0</ele>
				<time>2021-02-24T10:58:16</time>
			</trkpt>
			<trkpt lat="48.842059979215264" lon="2.906509917229414">
				<ele>57.0</ele>
				<time>2021-02-24T10:58:25</time>
			</trkpt>
			<trkpt lat="48.84250991977751" lon="2.906749974936247">
				<ele>58.0</ele>
				<time>2021-02-24T10:58:34</time>
			</trkpt>
			<trkpt lat="48.84294996969402" lon="2.9071099776774645">
				<ele>59.0</ele>
				<time>2021-02-24T10:58:42</time>
			</trkpt>
			<trkpt lat="48.84488996118307" lon="2.9097199346870184">
				<ele>55.0</ele>
				<time>2021-02-24T10:59:28</time>
			</trkpt>
			<trkpt lat="48.846059991046786" lon="2.911909958347678">
				<ele>59.0</ele>
				<time>2021-02-24T11:00:00</time>
			</trkpt>
			<trkpt lat="48.8464099355042" lon="2.9128299560397863">
				<ele>61.0</ele>
				<time>2021-02-24T11:00:12</time>
			</trkpt>
			<trkpt lat="48.846769938245416" lon="2.9146699514240026">
				<ele>59.0</ele>
				<time>2021-02-24T11:00:34</time>
			</trkpt>
			<trkpt lat="48.84704997763038" lon="2.916799960657954">
				<ele>60.0</ele>
				<time>2021-02-24T11:00:59</time>
			</trkpt>
			<trkpt lat="48.84720998816192" lon="2.917479984462261">
				<ele>62.0</ele>
				<time>2021-02-24T11:01:07</time>
			</trkpt>
			<trkpt lat="48.84774995036423" lon="2.9188399482518435">
				<ele>66.0</ele>
				<time>2021-02-24T11:01:25</time>
			</trkpt>
			<trkpt lat="48.84799998253584" lon="2.9192699398845434">
				<ele>68.0</ele>
				<time>2021-02-24T11:01:32</time>
			</trkpt>
			<trkpt lat="48.84848998859525" lon="2.9196999315172434">
				<ele>70.0</ele>
				<time>2021-02-24T11:01:42</time>
			</trkpt>
			<trkpt lat="48.84931996464729" lon="2.920559998601675">
				<ele>72.0</ele>
				<time>2021-02-24T11:01:59</time>
			</trkpt>
			<trkpt lat="48.85351996868849" lon="2.9234799183905125">
				<ele>58.0</ele>
				<time>2021-02-24T11:03:20</time>
			</trkpt>
			<trkpt lat="48.854029923677444" lon="2.923679994419217">
				<ele>58.0</ele>
				<time>2021-02-24T11:03:29</time>
			</trkpt>
			<trkpt lat="48.85446997359395" lon="2.9235899727791548">
				<ele>54.0</ele>
				<time>2021-02-24T11:03:37</time>
			</trkpt>
			<trkpt lat="48.85455999523401" lon="2.9235199838876724">
				<ele>53.0</ele>
				<time>2021-02-24T11:03:38</time>
			</trkpt>
			<trkpt lat="48.85498998686671" lon="2.922499990090728">
				<ele>53.0</ele>
				<time>2021-02-24T11:03:52</time>
			</trkpt>
			<trkpt lat="48.85506995022297" lon="2.9222399834543467">
				<ele>53.0</ele>
				<time>2021-02-24T11:03:55</time>
			</trkpt>
			<trkpt lat="48.85512996464968" lon="2.9217099957168102">
				<ele>52.0</ele>
				<time>2021-02-24T11:04:02</time>
			</trkpt>
			<trkpt lat="48.855229960754514" lon="2.9168999567627907">
				<ele>51.0</ele>
				<time>2021-02-24T11:04:57</time>
			</trkpt>
			<trkpt lat="48.855189979076385" lon="2.916089929640293">
				<ele>51.0</ele>
				<time>2021-02-24T11:05:06</time>
			</trkpt>
			<trkpt lat="48.854329995810986" lon="2.9116899333894253">
				<ele>57.0</ele>
				<time>2021-02-24T11:05:59</time>
			</trkpt>
			<trkpt lat="48.854369977489114" lon="2.9111199639737606">
				<ele>55.0</ele>
				<time>2021-02-24T11:06:05</time>
			</trkpt>
			<trkpt lat="48.85442999191582" lon="2.9108999390155077">
				<ele>55.0</ele>
				<time>2021-02-24T11:06:08</time>
			</trkpt>
			<trkpt lat="48.85451992973685" lon="2.9101699590682983">
				<ele>55.0</ele>
				<time>2021-02-24T11:06:16</time>
			</trkpt>
			<trkpt lat="48.85465999133885" lon="2.909909952431917">
				<ele>54.0</ele>
				<time>2021-02-24T11:06:20</time>
			</trkpt>
			<trkpt lat="48.854799969121814" lon="2.9097699746489525">
				<ele>53.0</ele>
				<time>2021-02-24T11:06:23</time>
			</trkpt>
			<trkpt lat="48.85499996133149" lon="2.9098099563270807">
				<ele>52.0</ele>
				<time>2021-02-24T11:06:27</time>
			</trkpt>
			<trkpt lat="48.85539994575083" lon="2.9097599163651466">
				<ele>51.0</ele>
				<time>2021-02-24T11:06:34</time>
			</trkpt>
			<trkpt lat="48.85549994185567" lon="2.9097699746489525">
				<ele>51.0</ele>
				<time>2021-02-24T11:06:35</time>
			</trkpt>
			<trkpt lat="48.85555995628238" lon="2.9098299890756607">
				<ele>51.0</ele>
				<time>2021-02-24T11:06:37</time>
			</trkpt>
			<trkpt lat="48.855729941278696" lon="2.910329969599843">
				<ele>52.0</ele>
				<time>2021-02-24T11:06:43</time>
			</trkpt>
			<trkpt lat="48.85626998730004" lon="2.910999935120344">
				<ele>52.0</ele>
				<time>2021-02-24T11:06:55</time>
			</trkpt>
			<trkpt lat="48.85669997893274" lon="2.912539942190051">
				<ele>53.0</ele>
				<time>2021-02-24T11:07:14</time>
			</trkpt>
			<trkpt lat="48.85697993449867" lon="2.9130499809980392">
				<ele>52.0</ele>
				<time>2021-02-24T11:07:22</time>
			</trkpt>
			<trkpt lat="48.85719995945692" lon="2.9133299365639687">
				<ele>52.0</ele>
				<time>2021-02-24T11:07:27</time>
			</trkpt>
			<trkpt lat="48.85742995887995" lon="2.9134999215602875">
				<ele>53.0</ele>
				<time>2021-02-24T11:07:31</time>
			</trkpt>
			<trkpt lat="48.858069917187095" lon="2.913639983162284">
				<ele>53.0</ele>
				<time>2021-02-24T11:07:43</time>
			</trkpt>
			<trkpt lat="48.85774997994304" lon="2.9079699609428644">
				<ele>51.0</ele>
				<time>2021-02-24T11:08:48</time>
			</trkpt>
			<trkpt lat="48.858170164749026" lon="2.9071595147252083">
				<ele>51.0</ele>
				<time>2021-02-24T11:09:00</time>
			</trkpt>
		</trkseg>
	</trk>
</gpx>
