<?xml version="1.0" encoding="UTF-8"?>
<gpx creator="Garmin Connect" version="1.1" xsi:schemaLocation="http://www.topografix.com/GPX/1/1 http://www.topografix.com/GPX/11.xsd" xmlns:ns3="http://www.garmin.com/xmlschemas/TrackPointExtension/v1" xmlns="http://www.topografix.com/GPX/1/1" xmlns:xsi="http://www.w3.org/2001/XMLSchema-instance" xmlns:ns2="http://www.garmin.com/xmlschemas/GpxExtensions/v3">
	<metadata>
		<name>102-G2-85 km-D 605 m-Le Petit Morin-Bellot</name>
		<link href="connect.garmin.com">
			<text>Garmin Connect</text>
		</link>
		<time>2013-07-12T08:00:00</time>
	</metadata>
	<trk>
		<name>102-G2-85 km-D 605 m-Le Petit Morin-Bellot</name>
		<trkseg>
			<trkpt lat="48.85798987001181" lon="2.9069199599325657">
				<ele>50.0</ele>
				<time>2013-07-12T08:00:00</time>
			</trkpt>
			<trkpt lat="48.85824987664819" lon="2.9070798866450787">
				<ele>51.0</ele>
				<time>2013-07-12T08:00:04</time>
			</trkpt>
			<trkpt lat="48.85823990218341" lon="2.907229922711849">
				<ele>51.0</ele>
				<time>2013-07-12T08:00:06</time>
			</trkpt>
			<trkpt lat="48.857119996100664" lon="2.909199921414256">
				<ele>52.0</ele>
				<time>2013-07-12T08:00:34</time>
			</trkpt>
			<trkpt lat="48.85772994719446" lon="2.91356991045177">
				<ele>53.0</ele>
				<time>2013-07-12T08:01:21</time>
			</trkpt>
			<trkpt lat="48.85823990218341" lon="2.9137198626995087">
				<ele>52.0</ele>
				<time>2013-07-12T08:01:29</time>
			</trkpt>
			<trkpt lat="48.85928990319371" lon="2.9148699436336756">
				<ele>54.0</ele>
				<time>2013-07-12T08:01:50</time>
			</trkpt>
			<trkpt lat="48.859369950369" lon="2.9152498953044415">
				<ele>56.0</ele>
				<time>2013-07-12T08:01:54</time>
			</trkpt>
			<trkpt lat="48.858949933201075" lon="2.919619968160987">
				<ele>56.0</ele>
				<time>2013-07-12T08:02:40</time>
			</trkpt>
			<trkpt lat="48.859059903770685" lon="2.9222199507057667">
				<ele>65.0</ele>
				<time>2013-07-12T08:03:08</time>
			</trkpt>
			<trkpt lat="48.8595599681139" lon="2.9234998673200607">
				<ele>73.0</ele>
				<time>2013-07-12T08:03:23</time>
			</trkpt>
			<trkpt lat="48.86044995859265" lon="2.92469990439713">
				<ele>78.0</ele>
				<time>2013-07-12T08:03:43</time>
			</trkpt>
			<trkpt lat="48.86063997633755" lon="2.925229975953698">
				<ele>79.0</ele>
				<time>2013-07-12T08:03:49</time>
			</trkpt>
			<trkpt lat="48.86082999408245" lon="2.927659973502159">
				<ele>83.0</ele>
				<time>2013-07-12T08:04:15</time>
			</trkpt>
			<trkpt lat="48.86162987910211" lon="2.933279871940613">
				<ele>94.0</ele>
				<time>2013-07-12T08:05:15</time>
			</trkpt>
			<trkpt lat="48.864279985427856" lon="2.9419098794460297">
				<ele>103.0</ele>
				<time>2013-07-12T08:06:56</time>
			</trkpt>
			<trkpt lat="48.86535990983248" lon="2.948809862136841">
				<ele>135.0</ele>
				<time>2013-07-12T08:08:10</time>
			</trkpt>
			<trkpt lat="48.86544984765351" lon="2.95090994797647">
				<ele>139.0</ele>
				<time>2013-07-12T08:08:32</time>
			</trkpt>
			<trkpt lat="48.865999951958656" lon="2.954689934849739">
				<ele>150.0</ele>
				<time>2013-07-12T08:09:13</time>
			</trkpt>
			<trkpt lat="48.86822987347841" lon="2.9601699393242598">
				<ele>148.0</ele>
				<time>2013-07-12T08:10:21</time>
			</trkpt>
			<trkpt lat="48.86684996075928" lon="2.964029973372817">
				<ele>146.0</ele>
				<time>2013-07-12T08:11:07</time>
			</trkpt>
			<trkpt lat="48.864129949361086" lon="2.9696298390626907">
				<ele>151.0</ele>
				<time>2013-07-12T08:12:21</time>
			</trkpt>
			<trkpt lat="48.86333995498717" lon="2.979589970782399">
				<ele>145.0</ele>
				<time>2013-07-12T08:14:06</time>
			</trkpt>
			<trkpt lat="48.8625199533999" lon="2.984329853206873">
				<ele>142.0</ele>
				<time>2013-07-12T08:14:58</time>
			</trkpt>
			<trkpt lat="48.86239992454648" lon="2.989769959822297">
				<ele>137.0</ele>
				<time>2013-07-12T08:15:55</time>
			</trkpt>
			<trkpt lat="48.86243990622461" lon="2.9904498998075724">
				<ele>139.0</ele>
				<time>2013-07-12T08:16:02</time>
			</trkpt>
			<trkpt lat="48.86271994560957" lon="2.991249952465296">
				<ele>142.0</ele>
				<time>2013-07-12T08:16:12</time>
			</trkpt>
			<trkpt lat="48.86273989453912" lon="2.9973999224603176">
				<ele>149.0</ele>
				<time>2013-07-12T08:17:17</time>
			</trkpt>
			<trkpt lat="48.862469997256994" lon="2.9983998835086823">
				<ele>147.0</ele>
				<time>2013-07-12T08:17:28</time>
			</trkpt>
			<trkpt lat="48.8629999011755" lon="2.9992998484522104">
				<ele>145.0</ele>
				<time>2013-07-12T08:17:41</time>
			</trkpt>
			<trkpt lat="48.86376994661987" lon="2.9997898545116186">
				<ele>145.0</ele>
				<time>2013-07-12T08:17:54</time>
			</trkpt>
			<trkpt lat="48.864129949361086" lon="3.000329900532961">
				<ele>146.0</ele>
				<time>2013-07-12T08:18:02</time>
			</trkpt>
			<trkpt lat="48.864189963787794" lon="3.00199999473989">
				<ele>148.0</ele>
				<time>2013-07-12T08:18:20</time>
			</trkpt>
			<trkpt lat="48.854739870876074" lon="3.01828988827765">
				<ele>145.0</ele>
				<time>2013-07-12T08:22:09</time>
			</trkpt>
			<trkpt lat="48.854309879243374" lon="3.0184198915958405">
				<ele>142.0</ele>
				<time>2013-07-12T08:22:16</time>
			</trkpt>
			<trkpt lat="48.84361985139549" lon="3.019009977579117">
				<ele>135.0</ele>
				<time>2013-07-12T08:25:07</time>
			</trkpt>
			<trkpt lat="48.842839915305376" lon="3.0237098783254623">
				<ele>138.0</ele>
				<time>2013-07-12T08:25:58</time>
			</trkpt>
			<trkpt lat="48.841509874910116" lon="3.0262398719787598">
				<ele>133.0</ele>
				<time>2013-07-12T08:26:32</time>
			</trkpt>
			<trkpt lat="48.84187985211611" lon="3.027379894629121">
				<ele>134.0</ele>
				<time>2013-07-12T08:26:46</time>
			</trkpt>
			<trkpt lat="48.84165991097689" lon="3.0284599866718054">
				<ele>135.0</ele>
				<time>2013-07-12T08:26:58</time>
			</trkpt>
			<trkpt lat="48.8434898480773" lon="3.0309199076145887">
				<ele>132.0</ele>
				<time>2013-07-12T08:27:37</time>
			</trkpt>
			<trkpt lat="48.852269891649485" lon="3.041269965469837">
				<ele>147.0</ele>
				<time>2013-07-12T08:30:35</time>
			</trkpt>
			<trkpt lat="48.85285997763276" lon="3.041799869388342">
				<ele>146.0</ele>
				<time>2013-07-12T08:30:46</time>
			</trkpt>
			<trkpt lat="48.853859854862094" lon="3.0421799048781395">
				<ele>147.0</ele>
				<time>2013-07-12T08:31:02</time>
			</trkpt>
			<trkpt lat="48.85313993319869" lon="3.0441598780453205">
				<ele>146.0</ele>
				<time>2013-07-12T08:31:26</time>
			</trkpt>
			<trkpt lat="48.852999871596694" lon="3.0490198731422424">
				<ele>143.0</ele>
				<time>2013-07-12T08:32:17</time>
			</trkpt>
			<trkpt lat="48.85279996320605" lon="3.0508999340236187">
				<ele>142.0</ele>
				<time>2013-07-12T08:32:37</time>
			</trkpt>
			<trkpt lat="48.851709896698594" lon="3.0545598920434713">
				<ele>141.0</ele>
				<time>2013-07-12T08:33:20</time>
			</trkpt>
			<trkpt lat="48.8511499017477" lon="3.0578298401087523">
				<ele>142.0</ele>
				<time>2013-07-12T08:33:55</time>
			</trkpt>
			<trkpt lat="48.8504698779434" lon="3.0595799814909697">
				<ele>141.0</ele>
				<time>2013-07-12T08:34:17</time>
			</trkpt>
			<trkpt lat="48.850339874625206" lon="3.060329994186759">
				<ele>142.0</ele>
				<time>2013-07-12T08:34:25</time>
			</trkpt>
			<trkpt lat="48.850719910115004" lon="3.0628399550914764">
				<ele>142.0</ele>
				<time>2013-07-12T08:34:52</time>
			</trkpt>
			<trkpt lat="48.850549925118685" lon="3.0676698591560125">
				<ele>139.0</ele>
				<time>2013-07-12T08:35:43</time>
			</trkpt>
			<trkpt lat="48.850979916751385" lon="3.071199981495738">
				<ele>137.0</ele>
				<time>2013-07-12T08:36:21</time>
			</trkpt>
			<trkpt lat="48.85083985514939" lon="3.073179954662919">
				<ele>135.0</ele>
				<time>2013-07-12T08:36:42</time>
			</trkpt>
			<trkpt lat="48.85091990232468" lon="3.07517996057868">
				<ele>133.0</ele>
				<time>2013-07-12T08:37:03</time>
			</trkpt>
			<trkpt lat="48.85014985688031" lon="3.0763698555529118">
				<ele>135.0</ele>
				<time>2013-07-12T08:37:20</time>
			</trkpt>
			<trkpt lat="48.8479398842901" lon="3.0790799763053656">
				<ele>133.0</ele>
				<time>2013-07-12T08:38:06</time>
			</trkpt>
			<trkpt lat="48.84711996652186" lon="3.0792198702692986">
				<ele>127.0</ele>
				<time>2013-07-12T08:38:19</time>
			</trkpt>
			<trkpt lat="48.84579990059137" lon="3.08009997010231">
				<ele>126.0</ele>
				<time>2013-07-12T08:38:42</time>
			</trkpt>
			<trkpt lat="48.84510990232229" lon="3.0841999780386686">
				<ele>129.0</ele>
				<time>2013-07-12T08:39:27</time>
			</trkpt>
			<trkpt lat="48.843159936368465" lon="3.0892299581319094">
				<ele>122.0</ele>
				<time>2013-07-12T08:40:28</time>
			</trkpt>
			<trkpt lat="48.842899929732084" lon="3.0904099624603987">
				<ele>128.0</ele>
				<time>2013-07-12T08:40:41</time>
			</trkpt>
			<trkpt lat="48.843689924106" lon="3.0936398450285196">
				<ele>138.0</ele>
				<time>2013-07-12T08:41:18</time>
			</trkpt>
			<trkpt lat="48.84314996190369" lon="3.095709839835763">
				<ele>140.0</ele>
				<time>2013-07-12T08:41:41</time>
			</trkpt>
			<trkpt lat="48.843309888616204" lon="3.0972199235111475">
				<ele>137.0</ele>
				<time>2013-07-12T08:41:57</time>
			</trkpt>
			<trkpt lat="48.84404984302819" lon="3.1018298864364624">
				<ele>135.0</ele>
				<time>2013-07-12T08:42:47</time>
			</trkpt>
			<trkpt lat="48.844709834083915" lon="3.1028299313038588">
				<ele>138.0</ele>
				<time>2013-07-12T08:43:02</time>
			</trkpt>
			<trkpt lat="48.84479985572398" lon="3.1032599229365587">
				<ele>138.0</ele>
				<time>2013-07-12T08:43:07</time>
			</trkpt>
			<trkpt lat="48.84495995007455" lon="3.106419900432229">
				<ele>135.0</ele>
				<time>2013-07-12T08:43:40</time>
			</trkpt>
			<trkpt lat="48.84555992670357" lon="3.107729908078909">
				<ele>135.0</ele>
				<time>2013-07-12T08:43:57</time>
			</trkpt>
			<trkpt lat="48.84569998830557" lon="3.109459849074483">
				<ele>135.0</ele>
				<time>2013-07-12T08:44:16</time>
			</trkpt>
			<trkpt lat="48.84501996450126" lon="3.111099936068058">
				<ele>131.0</ele>
				<time>2013-07-12T08:44:36</time>
			</trkpt>
			<trkpt lat="48.844469860196114" lon="3.114429982379079">
				<ele>126.0</ele>
				<time>2013-07-12T08:45:12</time>
			</trkpt>
			<trkpt lat="48.84467991068959" lon="3.117059888318181">
				<ele>131.0</ele>
				<time>2013-07-12T08:45:40</time>
			</trkpt>
			<trkpt lat="48.84508986957371" lon="3.119559958577156">
				<ele>135.0</ele>
				<time>2013-07-12T08:46:07</time>
			</trkpt>
			<trkpt lat="48.844429878517985" lon="3.1211598962545395">
				<ele>137.0</ele>
				<time>2013-07-12T08:46:27</time>
			</trkpt>
			<trkpt lat="48.84548993781209" lon="3.1243099831044674">
				<ele>142.0</ele>
				<time>2013-07-12T08:47:04</time>
			</trkpt>
			<trkpt lat="48.845309978351" lon="3.125439863651991">
				<ele>140.0</ele>
				<time>2013-07-12T08:47:17</time>
			</trkpt>
			<trkpt lat="48.8447399251163" lon="3.1267399806529284">
				<ele>140.0</ele>
				<time>2013-07-12T08:47:33</time>
			</trkpt>
			<trkpt lat="48.8447399251163" lon="3.1276199966669083">
				<ele>139.0</ele>
				<time>2013-07-12T08:47:42</time>
			</trkpt>
			<trkpt lat="48.84711996652186" lon="3.1333498656749725">
				<ele>134.0</ele>
				<time>2013-07-12T08:48:54</time>
			</trkpt>
			<trkpt lat="48.84780988097191" lon="3.1342698633670807">
				<ele>135.0</ele>
				<time>2013-07-12T08:49:08</time>
			</trkpt>
			<trkpt lat="48.84919993579388" lon="3.13499984331429">
				<ele>136.0</ele>
				<time>2013-07-12T08:49:32</time>
			</trkpt>
			<trkpt lat="48.85034984908998" lon="3.1362999603152275">
				<ele>133.0</ele>
				<time>2013-07-12T08:49:55</time>
			</trkpt>
			<trkpt lat="48.850379940122366" lon="3.1374898552894592">
				<ele>130.0</ele>
				<time>2013-07-12T08:50:08</time>
			</trkpt>
			<trkpt lat="48.850699961185455" lon="3.1382498424500227">
				<ele>129.0</ele>
				<time>2013-07-12T08:50:17</time>
			</trkpt>
			<trkpt lat="48.85093993507326" lon="3.139879871159792">
				<ele>129.0</ele>
				<time>2013-07-12T08:50:35</time>
			</trkpt>
			<trkpt lat="48.85059988126159" lon="3.1412298604846">
				<ele>125.0</ele>
				<time>2013-07-12T08:50:50</time>
			</trkpt>
			<trkpt lat="48.850359907373786" lon="3.143259957432747">
				<ele>127.0</ele>
				<time>2013-07-12T08:51:12</time>
			</trkpt>
			<trkpt lat="48.850329983979464" lon="3.1440599262714386">
				<ele>125.0</ele>
				<time>2013-07-12T08:51:20</time>
			</trkpt>
			<trkpt lat="48.85074991732836" lon="3.1447699572890997">
				<ele>125.0</ele>
				<time>2013-07-12T08:51:30</time>
			</trkpt>
			<trkpt lat="48.85225983336568" lon="3.145679896697402">
				<ele>129.0</ele>
				<time>2013-07-12T08:51:56</time>
			</trkpt>
			<trkpt lat="48.85504991747439" lon="3.1491699535399675">
				<ele>130.0</ele>
				<time>2013-07-12T08:52:54</time>
			</trkpt>
			<trkpt lat="48.85783991776407" lon="3.1500399112701416">
				<ele>133.0</ele>
				<time>2013-07-12T08:53:40</time>
			</trkpt>
			<trkpt lat="48.85870995931327" lon="3.1507098767906427">
				<ele>132.0</ele>
				<time>2013-07-12T08:53:55</time>
			</trkpt>
			<trkpt lat="48.8600399158895" lon="3.1513599772006273">
				<ele>135.0</ele>
				<time>2013-07-12T08:54:18</time>
			</trkpt>
			<trkpt lat="48.8613298907876" lon="3.153919978067279">
				<ele>137.0</ele>
				<time>2013-07-12T08:54:52</time>
			</trkpt>
			<trkpt lat="48.86216992512345" lon="3.1548799574375153">
				<ele>137.0</ele>
				<time>2013-07-12T08:55:08</time>
			</trkpt>
			<trkpt lat="48.86316988617182" lon="3.1573999766260386">
				<ele>139.0</ele>
				<time>2013-07-12T08:55:39</time>
			</trkpt>
			<trkpt lat="48.8636199105531" lon="3.1577698700129986">
				<ele>139.0</ele>
				<time>2013-07-12T08:55:48</time>
			</trkpt>
			<trkpt lat="48.86408996768296" lon="3.1585199665278196">
				<ele>139.0</ele>
				<time>2013-07-12T08:55:58</time>
			</trkpt>
			<trkpt lat="48.864769991487265" lon="3.160519888624549">
				<ele>142.0</ele>
				<time>2013-07-12T08:56:22</time>
			</trkpt>
			<trkpt lat="48.86559988372028" lon="3.1639998871833086">
				<ele>144.0</ele>
				<time>2013-07-12T08:57:01</time>
			</trkpt>
			<trkpt lat="48.867459911853075" lon="3.162759868428111">
				<ele>149.0</ele>
				<time>2013-07-12T08:57:34</time>
			</trkpt>
			<trkpt lat="48.86757994070649" lon="3.1634099688380957">
				<ele>151.0</ele>
				<time>2013-07-12T08:57:41</time>
			</trkpt>
			<trkpt lat="48.868299862369895" lon="3.1647199764847755">
				<ele>157.0</ele>
				<time>2013-07-12T08:57:59</time>
			</trkpt>
			<trkpt lat="48.868079921230674" lon="3.1665299646556377">
				<ele>171.0</ele>
				<time>2013-07-12T08:58:18</time>
			</trkpt>
			<trkpt lat="48.86903990060091" lon="3.1683399528265">
				<ele>175.0</ele>
				<time>2013-07-12T08:58:43</time>
			</trkpt>
			<trkpt lat="48.870469853281975" lon="3.1720499508082867">
				<ele>152.0</ele>
				<time>2013-07-12T08:59:28</time>
			</trkpt>
			<trkpt lat="48.87041989713907" lon="3.172729890793562">
				<ele>150.0</ele>
				<time>2013-07-12T08:59:35</time>
			</trkpt>
			<trkpt lat="48.868939904496074" lon="3.1728899851441383">
				<ele>145.0</ele>
				<time>2013-07-12T08:59:59</time>
			</trkpt>
			<trkpt lat="48.87197993695736" lon="3.1804299261420965">
				<ele>147.0</ele>
				<time>2013-07-12T09:01:32</time>
			</trkpt>
			<trkpt lat="48.87233993969858" lon="3.1821998488157988">
				<ele>148.0</ele>
				<time>2013-07-12T09:01:52</time>
			</trkpt>
			<trkpt lat="48.872229969128966" lon="3.183909924700856">
				<ele>150.0</ele>
				<time>2013-07-12T09:02:10</time>
			</trkpt>
			<trkpt lat="48.8731798902154" lon="3.1845498830080032">
				<ele>150.0</ele>
				<time>2013-07-12T09:02:26</time>
			</trkpt>
			<trkpt lat="48.873239904642105" lon="3.185429899021983">
				<ele>151.0</ele>
				<time>2013-07-12T09:02:36</time>
			</trkpt>
			<trkpt lat="48.873819932341576" lon="3.188019907101989">
				<ele>157.0</ele>
				<time>2013-07-12T09:03:04</time>
			</trkpt>
			<trkpt lat="48.874399876222014" lon="3.189619844779372">
				<ele>159.0</ele>
				<time>2013-07-12T09:03:24</time>
			</trkpt>
			<trkpt lat="48.875299924984574" lon="3.190959943458438">
				<ele>161.0</ele>
				<time>2013-07-12T09:03:44</time>
			</trkpt>
			<trkpt lat="48.87636995874345" lon="3.191809868440032">
				<ele>164.0</ele>
				<time>2013-07-12T09:04:03</time>
			</trkpt>
			<trkpt lat="48.8767699431628" lon="3.1924199871718884">
				<ele>165.0</ele>
				<time>2013-07-12T09:04:12</time>
			</trkpt>
			<trkpt lat="48.876389907673" lon="3.193839965388179">
				<ele>166.0</ele>
				<time>2013-07-12T09:04:28</time>
			</trkpt>
			<trkpt lat="48.876179940998554" lon="3.1956498697400093">
				<ele>167.0</ele>
				<time>2013-07-12T09:04:48</time>
			</trkpt>
			<trkpt lat="48.87780988588929" lon="3.19626996293664">
				<ele>173.0</ele>
				<time>2013-07-12T09:05:15</time>
			</trkpt>
			<trkpt lat="48.87917990796268" lon="3.1975198723375797">
				<ele>174.0</ele>
				<time>2013-07-12T09:05:40</time>
			</trkpt>
			<trkpt lat="48.882479863241315" lon="3.2007899042218924">
				<ele>179.0</ele>
				<time>2013-07-12T09:06:43</time>
			</trkpt>
			<trkpt lat="48.882909854874015" lon="3.202089937403798">
				<ele>178.0</ele>
				<time>2013-07-12T09:06:59</time>
			</trkpt>
			<trkpt lat="48.8831799197942" lon="3.20247994735837">
				<ele>178.0</ele>
				<time>2013-07-12T09:07:05</time>
			</trkpt>
			<trkpt lat="48.885099878534675" lon="3.203189894556999">
				<ele>177.0</ele>
				<time>2013-07-12T09:07:36</time>
			</trkpt>
			<trkpt lat="48.886259850114584" lon="3.2034499011933804">
				<ele>176.0</ele>
				<time>2013-07-12T09:07:55</time>
			</trkpt>
			<trkpt lat="48.88655983842909" lon="3.203819878399372">
				<ele>176.0</ele>
				<time>2013-07-12T09:08:01</time>
			</trkpt>
			<trkpt lat="48.88744991272688" lon="3.2096598856151104">
				<ele>178.0</ele>
				<time>2013-07-12T09:09:04</time>
			</trkpt>
			<trkpt lat="48.88733994215727" lon="3.2099499832838774">
				<ele>178.0</ele>
				<time>2013-07-12T09:09:08</time>
			</trkpt>
			<trkpt lat="48.886709958314896" lon="3.210219880566001">
				<ele>179.0</ele>
				<time>2013-07-12T09:09:18</time>
			</trkpt>
			<trkpt lat="48.88630989007652" lon="3.213839940726757">
				<ele>180.0</ele>
				<time>2013-07-12T09:09:57</time>
			</trkpt>
			<trkpt lat="48.88963985256851" lon="3.2170699071139097">
				<ele>181.0</ele>
				<time>2013-07-12T09:11:00</time>
			</trkpt>
			<trkpt lat="48.888109903782606" lon="3.22110990062356">
				<ele>177.0</ele>
				<time>2013-07-12T09:11:49</time>
			</trkpt>
			<trkpt lat="48.88763993047178" lon="3.222749987617135">
				<ele>177.0</ele>
				<time>2013-07-12T09:12:08</time>
			</trkpt>
			<trkpt lat="48.88731990940869" lon="3.2322599273175">
				<ele>176.0</ele>
				<time>2013-07-12T09:13:48</time>
			</trkpt>
			<trkpt lat="48.88815985992551" lon="3.2325599156320095">
				<ele>175.0</ele>
				<time>2013-07-12T09:14:02</time>
			</trkpt>
			<trkpt lat="48.8891498465091" lon="3.23176983743906">
				<ele>174.0</ele>
				<time>2013-07-12T09:14:20</time>
			</trkpt>
			<trkpt lat="48.890299927443266" lon="3.2318299356848">
				<ele>169.0</ele>
				<time>2013-07-12T09:14:39</time>
			</trkpt>
			<trkpt lat="48.89107986353338" lon="3.231099871918559">
				<ele>163.0</ele>
				<time>2013-07-12T09:14:53</time>
			</trkpt>
			<trkpt lat="48.891779920086265" lon="3.2308099418878555">
				<ele>159.0</ele>
				<time>2013-07-12T09:15:05</time>
			</trkpt>
			<trkpt lat="48.89409986324608" lon="3.2313999440521">
				<ele>141.0</ele>
				<time>2013-07-12T09:15:42</time>
			</trkpt>
			<trkpt lat="48.89466991648078" lon="3.231349987909198">
				<ele>140.0</ele>
				<time>2013-07-12T09:15:52</time>
			</trkpt>
			<trkpt lat="48.89544985257089" lon="3.2309498358517885">
				<ele>135.0</ele>
				<time>2013-07-12T09:16:05</time>
			</trkpt>
			<trkpt lat="48.896099952980876" lon="3.230239888653159">
				<ele>134.0</ele>
				<time>2013-07-12T09:16:18</time>
			</trkpt>
			<trkpt lat="48.8969898596406" lon="3.228719914332032">
				<ele>131.0</ele>
				<time>2013-07-12T09:16:39</time>
			</trkpt>
			<trkpt lat="48.89758983626962" lon="3.2265498396009207">
				<ele>123.0</ele>
				<time>2013-07-12T09:17:04</time>
			</trkpt>
			<trkpt lat="48.89771983958781" lon="3.2267899811267853">
				<ele>119.0</ele>
				<time>2013-07-12T09:17:07</time>
			</trkpt>
			<trkpt lat="48.897599978372455" lon="3.230059929192066">
				<ele>106.0</ele>
				<time>2013-07-12T09:17:42</time>
			</trkpt>
			<trkpt lat="48.89778999611735" lon="3.2305799424648285">
				<ele>101.0</ele>
				<time>2013-07-12T09:17:48</time>
			</trkpt>
			<trkpt lat="48.8980398606509" lon="3.230609865859151">
				<ele>96.0</ele>
				<time>2013-07-12T09:17:52</time>
			</trkpt>
			<trkpt lat="48.898309925571084" lon="3.230179874226451">
				<ele>89.0</ele>
				<time>2013-07-12T09:17:58</time>
			</trkpt>
			<trkpt lat="48.899409882724285" lon="3.226469960063696">
				<ele>73.0</ele>
				<time>2013-07-12T09:18:41</time>
			</trkpt>
			<trkpt lat="48.90006987378001" lon="3.226989973336458">
				<ele>68.0</ele>
				<time>2013-07-12T09:18:53</time>
			</trkpt>
			<trkpt lat="48.901559840887785" lon="3.2275499682873487">
				<ele>71.0</ele>
				<time>2013-07-12T09:19:17</time>
			</trkpt>
			<trkpt lat="48.90239995904267" lon="3.2287499215453863">
				<ele>71.0</ele>
				<time>2013-07-12T09:19:36</time>
			</trkpt>
			<trkpt lat="48.9032999239862" lon="3.22866995818913">
				<ele>76.0</ele>
				<time>2013-07-12T09:19:50</time>
			</trkpt>
			<trkpt lat="48.904499961063266" lon="3.229369930922985">
				<ele>84.0</ele>
				<time>2013-07-12T09:20:11</time>
			</trkpt>
			<trkpt lat="48.90340989455581" lon="3.232179880142212">
				<ele>86.0</ele>
				<time>2013-07-12T09:20:45</time>
			</trkpt>
			<trkpt lat="48.90325994230807" lon="3.2362598553299904">
				<ele>98.0</ele>
				<time>2013-07-12T09:21:28</time>
			</trkpt>
			<trkpt lat="48.90153997577727" lon="3.243069900199771">
				<ele>132.0</ele>
				<time>2013-07-12T09:22:45</time>
			</trkpt>
			<trkpt lat="48.90127996914089" lon="3.2463699392974377">
				<ele>140.0</ele>
				<time>2013-07-12T09:23:20</time>
			</trkpt>
			<trkpt lat="48.90141994692385" lon="3.2472398970276117">
				<ele>145.0</ele>
				<time>2013-07-12T09:23:29</time>
			</trkpt>
			<trkpt lat="48.90209997072816" lon="3.248949972912669">
				<ele>144.0</ele>
				<time>2013-07-12T09:23:50</time>
			</trkpt>
			<trkpt lat="48.90179989859462" lon="3.250839924439788">
				<ele>145.0</ele>
				<time>2013-07-12T09:24:11</time>
			</trkpt>
			<trkpt lat="48.90115994028747" lon="3.25178992934525">
				<ele>148.0</ele>
				<time>2013-07-12T09:24:25</time>
			</trkpt>
			<trkpt lat="48.89973996207118" lon="3.2522799354046583">
				<ele>159.0</ele>
				<time>2013-07-12T09:24:49</time>
			</trkpt>
			<trkpt lat="48.89877989888191" lon="3.253249889239669">
				<ele>167.0</ele>
				<time>2013-07-12T09:25:07</time>
			</trkpt>
			<trkpt lat="48.897259924560785" lon="3.2553598657250404">
				<ele>171.0</ele>
				<time>2013-07-12T09:25:40</time>
			</trkpt>
			<trkpt lat="48.8963299524039" lon="3.257089974358678">
				<ele>176.0</ele>
				<time>2013-07-12T09:26:03</time>
			</trkpt>
			<trkpt lat="48.89597992412746" lon="3.260089857503772">
				<ele>177.0</ele>
				<time>2013-07-12T09:26:36</time>
			</trkpt>
			<trkpt lat="48.89558991417289" lon="3.259989945217967">
				<ele>176.0</ele>
				<time>2013-07-12T09:26:42</time>
			</trkpt>
			<trkpt lat="48.89496990479529" lon="3.262859908863902">
				<ele>172.0</ele>
				<time>2013-07-12T09:27:14</time>
			</trkpt>
			<trkpt lat="48.89498993754387" lon="3.263959866017103">
				<ele>172.0</ele>
				<time>2013-07-12T09:27:25</time>
			</trkpt>
			<trkpt lat="48.89584992080927" lon="3.266639895737171">
				<ele>172.0</ele>
				<time>2013-07-12T09:27:57</time>
			</trkpt>
			<trkpt lat="48.89543987810612" lon="3.268319880589843">
				<ele>170.0</ele>
				<time>2013-07-12T09:28:16</time>
			</trkpt>
			<trkpt lat="48.89530995860696" lon="3.27129989862442">
				<ele>171.0</ele>
				<time>2013-07-12T09:28:47</time>
			</trkpt>
			<trkpt lat="48.89395996928215" lon="3.276569852605462">
				<ele>168.0</ele>
				<time>2013-07-12T09:29:47</time>
			</trkpt>
			<trkpt lat="48.8927398994565" lon="3.279259940609336">
				<ele>167.0</ele>
				<time>2013-07-12T09:30:21</time>
			</trkpt>
			<trkpt lat="48.89240998774767" lon="3.2804798427969217">
				<ele>165.0</ele>
				<time>2013-07-12T09:30:35</time>
			</trkpt>
			<trkpt lat="48.891779920086265" lon="3.2809098344296217">
				<ele>161.0</ele>
				<time>2013-07-12T09:30:46</time>
			</trkpt>
			<trkpt lat="48.891139877960086" lon="3.2837999984622">
				<ele>159.0</ele>
				<time>2013-07-12T09:31:18</time>
			</trkpt>
			<trkpt lat="48.89051986858249" lon="3.2851799111813307">
				<ele>159.0</ele>
				<time>2013-07-12T09:31:36</time>
			</trkpt>
			<trkpt lat="48.890489945188165" lon="3.2862499449402094">
				<ele>156.0</ele>
				<time>2013-07-12T09:31:47</time>
			</trkpt>
			<trkpt lat="48.889589896425605" lon="3.291529957205057">
				<ele>157.0</ele>
				<time>2013-07-12T09:32:44</time>
			</trkpt>
			<trkpt lat="48.88706987723708" lon="3.29131999053061">
				<ele>151.0</ele>
				<time>2013-07-12T09:33:25</time>
			</trkpt>
			<trkpt lat="48.884519850835204" lon="3.290319861844182">
				<ele>137.0</ele>
				<time>2013-07-12T09:34:07</time>
			</trkpt>
			<trkpt lat="48.884259928017855" lon="3.2906998973339796">
				<ele>134.0</ele>
				<time>2013-07-12T09:34:13</time>
			</trkpt>
			<trkpt lat="48.88353983871639" lon="3.2938299514353275">
				<ele>118.0</ele>
				<time>2013-07-12T09:34:48</time>
			</trkpt>
			<trkpt lat="48.8831799197942" lon="3.294209986925125">
				<ele>114.0</ele>
				<time>2013-07-12T09:34:55</time>
			</trkpt>
			<trkpt lat="48.882799884304404" lon="3.294099848717451">
				<ele>110.0</ele>
				<time>2013-07-12T09:35:01</time>
			</trkpt>
			<trkpt lat="48.88041992671788" lon="3.291699942201376">
				<ele>90.0</ele>
				<time>2013-07-12T09:35:46</time>
			</trkpt>
			<trkpt lat="48.87979991734028" lon="3.2914998661726713">
				<ele>85.0</ele>
				<time>2013-07-12T09:35:57</time>
			</trkpt>
			<trkpt lat="48.87856995686889" lon="3.292369991540909">
				<ele>80.0</ele>
				<time>2013-07-12T09:36:18</time>
			</trkpt>
			<trkpt lat="48.87618999928236" lon="3.296119887381792">
				<ele>84.0</ele>
				<time>2013-07-12T09:37:13</time>
			</trkpt>
			<trkpt lat="48.87520990334451" lon="3.2961598690599203">
				<ele>84.0</ele>
				<time>2013-07-12T09:37:29</time>
			</trkpt>
			<trkpt lat="48.8747098390013" lon="3.296599918976426">
				<ele>84.0</ele>
				<time>2013-07-12T09:37:38</time>
			</trkpt>
			<trkpt lat="48.8734198641032" lon="3.2970898412168026">
				<ele>85.0</ele>
				<time>2013-07-12T09:37:59</time>
			</trkpt>
			<trkpt lat="48.870939994230866" lon="3.2971599977463484">
				<ele>83.0</ele>
				<time>2013-07-12T09:38:39</time>
			</trkpt>
			<trkpt lat="48.86920996941626" lon="3.2977499160915613">
				<ele>85.0</ele>
				<time>2013-07-12T09:39:08</time>
			</trkpt>
			<trkpt lat="48.868729854002595" lon="3.29834989272058">
				<ele>85.0</ele>
				<time>2013-07-12T09:39:18</time>
			</trkpt>
			<trkpt lat="48.867879929021" lon="3.300079917535186">
				<ele>85.0</ele>
				<time>2013-07-12T09:39:40</time>
			</trkpt>
			<trkpt lat="48.86714994907379" lon="3.302789954468608">
				<ele>86.0</ele>
				<time>2013-07-12T09:40:11</time>
			</trkpt>
			<trkpt lat="48.865079870447516" lon="3.3078399673104286">
				<ele>86.0</ele>
				<time>2013-07-12T09:41:14</time>
			</trkpt>
			<trkpt lat="48.86475993320346" lon="3.3084399439394474">
				<ele>86.0</ele>
				<time>2013-07-12T09:41:22</time>
			</trkpt>
			<trkpt lat="48.86372988112271" lon="3.3095999993383884">
				<ele>85.0</ele>
				<time>2013-07-12T09:41:42</time>
			</trkpt>
			<trkpt lat="48.86278993450105" lon="3.3113099075853825">
				<ele>86.0</ele>
				<time>2013-07-12T09:42:06</time>
			</trkpt>
			<trkpt lat="48.86220990680158" lon="3.3134199678897858">
				<ele>86.0</ele>
				<time>2013-07-12T09:42:30</time>
			</trkpt>
			<trkpt lat="48.86211996898055" lon="3.3164499420672655">
				<ele>86.0</ele>
				<time>2013-07-12T09:43:02</time>
			</trkpt>
			<trkpt lat="48.861319832503796" lon="3.318959902971983">
				<ele>86.0</ele>
				<time>2013-07-12T09:43:31</time>
			</trkpt>
			<trkpt lat="48.86117993853986" lon="3.3209199272096157">
				<ele>86.0</ele>
				<time>2013-07-12T09:43:52</time>
			</trkpt>
			<trkpt lat="48.85904984548688" lon="3.320719851180911">
				<ele>84.0</ele>
				<time>2013-07-12T09:44:26</time>
			</trkpt>
			<trkpt lat="48.857429875060916" lon="3.3201399073004723">
				<ele>89.0</ele>
				<time>2013-07-12T09:44:53</time>
			</trkpt>
			<trkpt lat="48.857059981673956" lon="3.3183899335563183">
				<ele>89.0</ele>
				<time>2013-07-12T09:45:12</time>
			</trkpt>
			<trkpt lat="48.856669971719384" lon="3.318489845842123">
				<ele>89.0</ele>
				<time>2013-07-12T09:45:19</time>
			</trkpt>
			<trkpt lat="48.855939991772175" lon="3.3190799318253994">
				<ele>90.0</ele>
				<time>2013-07-12T09:45:32</time>
			</trkpt>
			<trkpt lat="48.855189979076385" lon="3.3190499246120453">
				<ele>93.0</ele>
				<time>2013-07-12T09:45:44</time>
			</trkpt>
			<trkpt lat="48.85427995584905" lon="3.3186399657279253">
				<ele>100.0</ele>
				<time>2013-07-12T09:45:59</time>
			</trkpt>
			<trkpt lat="48.85331989265978" lon="3.319929940626025">
				<ele>106.0</ele>
				<time>2013-07-12T09:46:20</time>
			</trkpt>
			<trkpt lat="48.852199902758" lon="3.3221598621457815">
				<ele>123.0</ele>
				<time>2013-07-12T09:46:49</time>
			</trkpt>
			<trkpt lat="48.851519878953695" lon="3.3247598446905613">
				<ele>137.0</ele>
				<time>2013-07-12T09:47:19</time>
			</trkpt>
			<trkpt lat="48.851089887320995" lon="3.3253699634224176">
				<ele>137.0</ele>
				<time>2013-07-12T09:47:28</time>
			</trkpt>
			<trkpt lat="48.84916984476149" lon="3.3253099489957094">
				<ele>142.0</ele>
				<time>2013-07-12T09:47:59</time>
			</trkpt>
			<trkpt lat="48.84833995252848" lon="3.3248398918658495">
				<ele>144.0</ele>
				<time>2013-07-12T09:48:13</time>
			</trkpt>
			<trkpt lat="48.84741995483637" lon="3.3247798774391413">
				<ele>155.0</ele>
				<time>2013-07-12T09:48:28</time>
			</trkpt>
			<trkpt lat="48.84632988832891" lon="3.325179945677519">
				<ele>161.0</ele>
				<time>2013-07-12T09:48:46</time>
			</trkpt>
			<trkpt lat="48.84537996724248" lon="3.3257898967713118">
				<ele>167.0</ele>
				<time>2013-07-12T09:49:02</time>
			</trkpt>
			<trkpt lat="48.84379989467561" lon="3.3274799399077892">
				<ele>174.0</ele>
				<time>2013-07-12T09:49:33</time>
			</trkpt>
			<trkpt lat="48.8383299484849" lon="3.329039979726076">
				<ele>178.0</ele>
				<time>2013-07-12T09:51:02</time>
			</trkpt>
			<trkpt lat="48.83800984360278" lon="3.3275199215859175">
				<ele>180.0</ele>
				<time>2013-07-12T09:51:19</time>
			</trkpt>
			<trkpt lat="48.8366099819541" lon="3.3244299329817295">
				<ele>187.0</ele>
				<time>2013-07-12T09:51:59</time>
			</trkpt>
			<trkpt lat="48.835729882121086" lon="3.3136698324233294">
				<ele>187.0</ele>
				<time>2013-07-12T09:53:53</time>
			</trkpt>
			<trkpt lat="48.83472983725369" lon="3.3068799041211605">
				<ele>176.0</ele>
				<time>2013-07-12T09:55:06</time>
			</trkpt>
			<trkpt lat="48.83396993391216" lon="3.2844799384474754">
				<ele>167.0</ele>
				<time>2013-07-12T09:59:03</time>
			</trkpt>
			<trkpt lat="48.834089962765574" lon="3.28010986559093">
				<ele>172.0</ele>
				<time>2013-07-12T09:59:49</time>
			</trkpt>
			<trkpt lat="48.834519954398274" lon="3.2766698487102985">
				<ele>168.0</ele>
				<time>2013-07-12T10:00:26</time>
			</trkpt>
			<trkpt lat="48.83538999594748" lon="3.271489916369319">
				<ele>167.0</ele>
				<time>2013-07-12T10:01:22</time>
			</trkpt>
			<trkpt lat="48.83638987317681" lon="3.269479852169752">
				<ele>164.0</ele>
				<time>2013-07-12T10:01:49</time>
			</trkpt>
			<trkpt lat="48.83681986480951" lon="3.2682298589497805">
				<ele>170.0</ele>
				<time>2013-07-12T10:02:03</time>
			</trkpt>
			<trkpt lat="48.83712999522686" lon="3.2596299424767494">
				<ele>159.0</ele>
				<time>2013-07-12T10:03:34</time>
			</trkpt>
			<trkpt lat="48.83736996911466" lon="3.2583399675786495">
				<ele>159.0</ele>
				<time>2013-07-12T10:03:48</time>
			</trkpt>
			<trkpt lat="48.83863991126418" lon="3.254879917949438">
				<ele>162.0</ele>
				<time>2013-07-12T10:04:30</time>
			</trkpt>
			<trkpt lat="48.83964993059635" lon="3.2530499808490276">
				<ele>159.0</ele>
				<time>2013-07-12T10:04:55</time>
			</trkpt>
			<trkpt lat="48.841719925403595" lon="3.2477399613708258">
				<ele>152.0</ele>
				<time>2013-07-12T10:06:00</time>
			</trkpt>
			<trkpt lat="48.8423999492079" lon="3.244789866730571">
				<ele>155.0</ele>
				<time>2013-07-12T10:06:33</time>
			</trkpt>
			<trkpt lat="48.84303999133408" lon="3.2436098624020815">
				<ele>157.0</ele>
				<time>2013-07-12T10:06:49</time>
			</trkpt>
			<trkpt lat="48.84335984475911" lon="3.2411398831754923">
				<ele>151.0</ele>
				<time>2013-07-12T10:07:16</time>
			</trkpt>
			<trkpt lat="48.8447898812592" lon="3.238399922847748">
				<ele>150.0</ele>
				<time>2013-07-12T10:07:53</time>
			</trkpt>
			<trkpt lat="48.8451199606061" lon="3.2367498613893986">
				<ele>147.0</ele>
				<time>2013-07-12T10:08:11</time>
			</trkpt>
			<trkpt lat="48.84514996781945" lon="3.23489997535944">
				<ele>144.0</ele>
				<time>2013-07-12T10:08:30</time>
			</trkpt>
			<trkpt lat="48.84756990708411" lon="3.235169956460595">
				<ele>154.0</ele>
				<time>2013-07-12T10:09:09</time>
			</trkpt>
			<trkpt lat="48.84849987924099" lon="3.23180990293622">
				<ele>155.0</ele>
				<time>2013-07-12T10:09:48</time>
			</trkpt>
			<trkpt lat="48.8487499114126" lon="3.231469849124551">
				<ele>154.0</ele>
				<time>2013-07-12T10:09:53</time>
			</trkpt>
			<trkpt lat="48.84932993911207" lon="3.2312298752367496">
				<ele>153.0</ele>
				<time>2013-07-12T10:10:03</time>
			</trkpt>
			<trkpt lat="48.84902995079756" lon="3.2290299609303474">
				<ele>150.0</ele>
				<time>2013-07-12T10:10:26</time>
			</trkpt>
			<trkpt lat="48.84867983870208" lon="3.2277199532836676">
				<ele>151.0</ele>
				<time>2013-07-12T10:10:41</time>
			</trkpt>
			<trkpt lat="48.84896985255182" lon="3.2259599212557077">
				<ele>149.0</ele>
				<time>2013-07-12T10:11:00</time>
			</trkpt>
			<trkpt lat="48.84725986048579" lon="3.2082599401474">
				<ele>158.0</ele>
				<time>2013-07-12T10:14:09</time>
			</trkpt>
			<trkpt lat="48.84921996854246" lon="3.2054098416119814">
				<ele>158.0</ele>
				<time>2013-07-12T10:14:52</time>
			</trkpt>
			<trkpt lat="48.8515299372375" lon="3.203479992225766">
				<ele>159.0</ele>
				<time>2013-07-12T10:15:34</time>
			</trkpt>
			<trkpt lat="48.85292988270521" lon="3.2021499518305063">
				<ele>158.0</ele>
				<time>2013-07-12T10:16:01</time>
			</trkpt>
			<trkpt lat="48.85326993651688" lon="3.20161996409297">
				<ele>158.0</ele>
				<time>2013-07-12T10:16:09</time>
			</trkpt>
			<trkpt lat="48.865909930318594" lon="3.166339946910739">
				<ele>145.0</ele>
				<time>2013-07-12T10:23:12</time>
			</trkpt>
			<trkpt lat="48.865399891510606" lon="3.1628698389977217">
				<ele>142.0</ele>
				<time>2013-07-12T10:23:49</time>
			</trkpt>
			<trkpt lat="48.86398988775909" lon="3.158309916034341">
				<ele>139.0</ele>
				<time>2013-07-12T10:24:42</time>
			</trkpt>
			<trkpt lat="48.86333995498717" lon="3.1532799359411">
				<ele>138.0</ele>
				<time>2013-07-12T10:25:36</time>
			</trkpt>
			<trkpt lat="48.864149982109666" lon="3.1459798850119114">
				<ele>138.0</ele>
				<time>2013-07-12T10:26:54</time>
			</trkpt>
			<trkpt lat="48.866489958018064" lon="3.136099884286523">
				<ele>140.0</ele>
				<time>2013-07-12T10:28:45</time>
			</trkpt>
			<trkpt lat="48.86946989223361" lon="3.12581998296082">
				<ele>142.0</ele>
				<time>2013-07-12T10:30:43</time>
			</trkpt>
			<trkpt lat="48.86952999047935" lon="3.10880983248353">
				<ele>143.0</ele>
				<time>2013-07-12T10:33:42</time>
			</trkpt>
			<trkpt lat="48.868859857320786" lon="3.1034499406814575">
				<ele>141.0</ele>
				<time>2013-07-12T10:34:40</time>
			</trkpt>
			<trkpt lat="48.86856992729008" lon="3.0925698950886726">
				<ele>147.0</ele>
				<time>2013-07-12T10:36:35</time>
			</trkpt>
			<trkpt lat="48.86879984289408" lon="3.0914599634706974">
				<ele>150.0</ele>
				<time>2013-07-12T10:36:47</time>
			</trkpt>
			<trkpt lat="48.876869855448604" lon="3.079289859160781">
				<ele>146.0</ele>
				<time>2013-07-12T10:39:49</time>
			</trkpt>
			<trkpt lat="48.883549897000194" lon="3.06980992667377">
				<ele>147.0</ele>
				<time>2013-07-12T10:42:15</time>
			</trkpt>
			<trkpt lat="48.88690995052457" lon="3.067819895222783">
				<ele>149.0</ele>
				<time>2013-07-12T10:43:13</time>
			</trkpt>
			<trkpt lat="48.8916399423033" lon="3.0656898859888315">
				<ele>155.0</ele>
				<time>2013-07-12T10:44:32</time>
			</trkpt>
			<trkpt lat="48.8922599516809" lon="3.0652598943561316">
				<ele>156.0</ele>
				<time>2013-07-12T10:44:43</time>
			</trkpt>
			<trkpt lat="48.89556988142431" lon="3.0616698414087296">
				<ele>158.0</ele>
				<time>2013-07-12T10:45:48</time>
			</trkpt>
			<trkpt lat="48.89677997678518" lon="3.0601698998361826">
				<ele>161.0</ele>
				<time>2013-07-12T10:46:13</time>
			</trkpt>
			<trkpt lat="48.897369895130396" lon="3.0591199826449156">
				<ele>161.0</ele>
				<time>2013-07-12T10:46:27</time>
			</trkpt>
			<trkpt lat="48.892529932782054" lon="3.052929863333702">
				<ele>157.0</ele>
				<time>2013-07-12T10:48:09</time>
			</trkpt>
			<trkpt lat="48.890879871323705" lon="3.0514398962259293">
				<ele>158.0</ele>
				<time>2013-07-12T10:48:39</time>
			</trkpt>
			<trkpt lat="48.891909923404455" lon="3.0388399679213762">
				<ele>153.0</ele>
				<time>2013-07-12T10:50:53</time>
			</trkpt>
			<trkpt lat="48.8770099170506" lon="3.037919970229268">
				<ele>149.0</ele>
				<time>2013-07-12T10:54:52</time>
			</trkpt>
			<trkpt lat="48.87462995946407" lon="3.027599835768342">
				<ele>152.0</ele>
				<time>2013-07-12T10:56:47</time>
			</trkpt>
			<trkpt lat="48.876869855448604" lon="3.01791999489069">
				<ele>151.0</ele>
				<time>2013-07-12T10:58:35</time>
			</trkpt>
			<trkpt lat="48.87806989252567" lon="3.01439993083477">
				<ele>153.0</ele>
				<time>2013-07-12T10:59:17</time>
			</trkpt>
			<trkpt lat="48.87737989425659" lon="3.0095698591321707">
				<ele>153.0</ele>
				<time>2013-07-12T11:00:09</time>
			</trkpt>
			<trkpt lat="48.87740998528898" lon="3.0089299846440554">
				<ele>153.0</ele>
				<time>2013-07-12T11:00:16</time>
			</trkpt>
			<trkpt lat="48.88100984506309" lon="3.0031999479979277">
				<ele>158.0</ele>
				<time>2013-07-12T11:01:39</time>
			</trkpt>
			<trkpt lat="48.87995984405279" lon="3.002309873700142">
				<ele>156.0</ele>
				<time>2013-07-12T11:01:58</time>
			</trkpt>
			<trkpt lat="48.878009961917996" lon="3.0013198871165514">
				<ele>155.0</ele>
				<time>2013-07-12T11:02:31</time>
			</trkpt>
			<trkpt lat="48.877129862084985" lon="3.0013398360460997">
				<ele>155.0</ele>
				<time>2013-07-12T11:02:45</time>
			</trkpt>
			<trkpt lat="48.874739930033684" lon="3.001879882067442">
				<ele>154.0</ele>
				<time>2013-07-12T11:03:24</time>
			</trkpt>
			<trkpt lat="48.874249923974276" lon="3.0018199514597654">
				<ele>154.0</ele>
				<time>2013-07-12T11:03:32</time>
			</trkpt>
			<trkpt lat="48.8729898724705" lon="2.9992998484522104">
				<ele>152.0</ele>
				<time>2013-07-12T11:04:05</time>
			</trkpt>
			<trkpt lat="48.87137987650931" lon="2.997889928519726">
				<ele>154.0</ele>
				<time>2013-07-12T11:04:35</time>
			</trkpt>
			<trkpt lat="48.87106999754906" lon="2.994619896635413">
				<ele>151.0</ele>
				<time>2013-07-12T11:05:10</time>
			</trkpt>
			<trkpt lat="48.86968991719186" lon="2.994599863886833">
				<ele>151.0</ele>
				<time>2013-07-12T11:05:32</time>
			</trkpt>
			<trkpt lat="48.86923989281058" lon="2.995549952611327">
				<ele>150.0</ele>
				<time>2013-07-12T11:05:44</time>
			</trkpt>
			<trkpt lat="48.868899838998914" lon="2.9957999009639025">
				<ele>150.0</ele>
				<time>2013-07-12T11:05:50</time>
			</trkpt>
			<trkpt lat="48.86839994229376" lon="2.994809914380312">
				<ele>150.0</ele>
				<time>2013-07-12T11:06:03</time>
			</trkpt>
			<trkpt lat="48.8675899989903" lon="2.994649987667799">
				<ele>149.0</ele>
				<time>2013-07-12T11:06:16</time>
			</trkpt>
			<trkpt lat="48.867269894108176" lon="2.99443993717432">
				<ele>150.0</ele>
				<time>2013-07-12T11:06:22</time>
			</trkpt>
			<trkpt lat="48.86611998081207" lon="2.9928998462855816">
				<ele>149.0</ele>
				<time>2013-07-12T11:06:47</time>
			</trkpt>
			<trkpt lat="48.864189963787794" lon="2.991069909185171">
				<ele>141.0</ele>
				<time>2013-07-12T11:07:23</time>
			</trkpt>
			<trkpt lat="48.86271994560957" lon="2.991249952465296">
				<ele>142.0</ele>
				<time>2013-07-12T11:07:47</time>
			</trkpt>
			<trkpt lat="48.86243990622461" lon="2.990449983626604">
				<ele>139.0</ele>
				<time>2013-07-12T11:07:56</time>
			</trkpt>
			<trkpt lat="48.8625199533999" lon="2.984329853206873">
				<ele>142.0</ele>
				<time>2013-07-12T11:09:01</time>
			</trkpt>
			<trkpt lat="48.86333987116814" lon="2.9795898869633675">
				<ele>145.0</ele>
				<time>2013-07-12T11:09:52</time>
			</trkpt>
			<trkpt lat="48.864129949361086" lon="2.9696298390626907">
				<ele>151.0</ele>
				<time>2013-07-12T11:11:38</time>
			</trkpt>
			<trkpt lat="48.86684987694025" lon="2.9640298895537853">
				<ele>146.0</ele>
				<time>2013-07-12T11:12:51</time>
			</trkpt>
			<trkpt lat="48.86822987347841" lon="2.9601699393242598">
				<ele>148.0</ele>
				<time>2013-07-12T11:13:38</time>
			</trkpt>
			<trkpt lat="48.865999868139625" lon="2.954689934849739">
				<ele>150.0</ele>
				<time>2013-07-12T11:14:45</time>
			</trkpt>
			<trkpt lat="48.86544984765351" lon="2.95090994797647">
				<ele>139.0</ele>
				<time>2013-07-12T11:15:26</time>
			</trkpt>
			<trkpt lat="48.86535990983248" lon="2.9488099459558725">
				<ele>135.0</ele>
				<time>2013-07-12T11:15:48</time>
			</trkpt>
			<trkpt lat="48.864279985427856" lon="2.9419098794460297">
				<ele>103.0</ele>
				<time>2013-07-12T11:17:03</time>
			</trkpt>
			<trkpt lat="48.86168997734785" lon="2.933579860255122">
				<ele>94.0</ele>
				<time>2013-07-12T11:18:40</time>
			</trkpt>
			<trkpt lat="48.86082999408245" lon="2.927659973502159">
				<ele>83.0</ele>
				<time>2013-07-12T11:19:44</time>
			</trkpt>
			<trkpt lat="48.86063989251852" lon="2.925229975953698">
				<ele>79.0</ele>
				<time>2013-07-12T11:20:10</time>
			</trkpt>
			<trkpt lat="48.86044995859265" lon="2.92469990439713">
				<ele>78.0</ele>
				<time>2013-07-12T11:20:16</time>
			</trkpt>
			<trkpt lat="48.859399957582355" lon="2.9231998790055513">
				<ele>73.0</ele>
				<time>2013-07-12T11:20:39</time>
			</trkpt>
			<trkpt lat="48.859059903770685" lon="2.9222199507057667">
				<ele>65.0</ele>
				<time>2013-07-12T11:20:51</time>
			</trkpt>
			<trkpt lat="48.85894984938204" lon="2.919619968160987">
				<ele>56.0</ele>
				<time>2013-07-12T11:21:18</time>
			</trkpt>
			<trkpt lat="48.85952987708151" lon="2.9146199114620686">
				<ele>56.0</ele>
				<time>2013-07-12T11:22:12</time>
			</trkpt>
			<trkpt lat="48.85973992757499" lon="2.906979890540242">
				<ele>53.0</ele>
				<time>2013-07-12T11:23:32</time>
			</trkpt>
			<trkpt lat="48.85823990218341" lon="2.907229922711849">
				<ele>51.0</ele>
				<time>2013-07-12T11:23:57</time>
			</trkpt>
			<trkpt lat="48.85824987664819" lon="2.9070798866450787">
				<ele>51.0</ele>
				<time>2013-07-12T11:23:58</time>
			</trkpt>
			<trkpt lat="48.85798987001181" lon="2.9069199599325657">
				<ele>50.0</ele>
				<time>2013-07-12T11:24:03</time>
			</trkpt>
		</trkseg>
	</trk>
</gpx>
