<?xml version="1.0" encoding="UTF-8"?>
<gpx creator="Garmin Connect" version="1.1" xsi:schemaLocation="http://www.topografix.com/GPX/1/1 http://www.topografix.com/GPX/11.xsd" xmlns:ns3="http://www.garmin.com/xmlschemas/TrackPointExtension/v1" xmlns="http://www.topografix.com/GPX/1/1" xmlns:xsi="http://www.w3.org/2001/XMLSchema-instance" xmlns:ns2="http://www.garmin.com/xmlschemas/GpxExtensions/v3">
	<metadata>
		<name>105-G3-68 km-D 671 m-Biercy-Monthomé</name>
		<link href="connect.garmin.com">
			<text>Garmin Connect</text>
		</link>
		<time>2016-09-17T08:00:00</time>
	</metadata>
	<trk>
		<name>105-G3-68 km-D 671 m-Biercy-Monthomé</name>
		<trkseg>
			<trkpt lat="48.85814996436238" lon="2.9069998394697905">
				<ele>50.0</ele>
				<time>2016-09-17T08:00:00</time>
			</trkpt>
			<trkpt lat="48.85823990218341" lon="2.907229922711849">
				<ele>51.0</ele>
				<time>2016-09-17T08:00:03</time>
			</trkpt>
			<trkpt lat="48.859659880399704" lon="2.9070299305021763">
				<ele>53.0</ele>
				<time>2016-09-17T08:00:28</time>
			</trkpt>
			<trkpt lat="48.861209861934185" lon="2.906129965558648">
				<ele>60.0</ele>
				<time>2016-09-17T08:00:57</time>
			</trkpt>
			<trkpt lat="48.8623798917979" lon="2.897809837013483">
				<ele>65.0</ele>
				<time>2016-09-17T08:02:34</time>
			</trkpt>
			<trkpt lat="48.86248986236751" lon="2.89594997651875">
				<ele>72.0</ele>
				<time>2016-09-17T08:02:56</time>
			</trkpt>
			<trkpt lat="48.86450998485088" lon="2.886789981275797">
				<ele>91.0</ele>
				<time>2016-09-17T08:04:46</time>
			</trkpt>
			<trkpt lat="48.8664398342371" lon="2.88391993381083">
				<ele>98.0</ele>
				<time>2016-09-17T08:05:33</time>
			</trkpt>
			<trkpt lat="48.8685498945415" lon="2.8824699483811855">
				<ele>98.0</ele>
				<time>2016-09-17T08:06:13</time>
			</trkpt>
			<trkpt lat="48.8704598788172" lon="2.8804199025034904">
				<ele>100.0</ele>
				<time>2016-09-17T08:06:54</time>
			</trkpt>
			<trkpt lat="48.8717498537153" lon="2.878729859367013">
				<ele>99.0</ele>
				<time>2016-09-17T08:07:24</time>
			</trkpt>
			<trkpt lat="48.87425302527845" lon="2.8763518296182156">
				<ele>87.45</ele>
				<time>2016-09-17T08:08:15</time>
			</trkpt>
			<trkpt lat="48.87434983626008" lon="2.8762599639594555">
				<ele>87.0</ele>
				<time>2016-09-17T08:08:17</time>
			</trkpt>
			<trkpt lat="48.87472987174988" lon="2.877879934385419">
				<ele>91.0</ele>
				<time>2016-09-17T08:08:37</time>
			</trkpt>
			<trkpt lat="48.87580996379256" lon="2.8796199336647987">
				<ele>93.0</ele>
				<time>2016-09-17T08:09:04</time>
			</trkpt>
			<trkpt lat="48.87677991762757" lon="2.883419953286648">
				<ele>94.0</ele>
				<time>2016-09-17T08:09:51</time>
			</trkpt>
			<trkpt lat="48.87792991474271" lon="2.8864398691803217">
				<ele>95.0</ele>
				<time>2016-09-17T08:10:31</time>
			</trkpt>
			<trkpt lat="48.87803996913135" lon="2.890379950404167">
				<ele>89.0</ele>
				<time>2016-09-17T08:11:16</time>
			</trkpt>
			<trkpt lat="48.87860985472798" lon="2.895239945501089">
				<ele>98.0</ele>
				<time>2016-09-17T08:12:12</time>
			</trkpt>
			<trkpt lat="48.87827994301915" lon="2.897229976952076">
				<ele>98.0</ele>
				<time>2016-09-17T08:12:36</time>
			</trkpt>
			<trkpt lat="48.877859842032194" lon="2.9026299342513084">
				<ele>99.0</ele>
				<time>2016-09-17T08:13:38</time>
			</trkpt>
			<trkpt lat="48.87726992368698" lon="2.9047999251633883">
				<ele>99.0</ele>
				<time>2016-09-17T08:14:05</time>
			</trkpt>
			<trkpt lat="48.87817986309528" lon="2.90602988563478">
				<ele>93.0</ele>
				<time>2016-09-17T08:14:26</time>
			</trkpt>
			<trkpt lat="48.87965985573828" lon="2.9056698828935623">
				<ele>91.0</ele>
				<time>2016-09-17T08:14:52</time>
			</trkpt>
			<trkpt lat="48.8806398678571" lon="2.9057399556040764">
				<ele>93.0</ele>
				<time>2016-09-17T08:15:09</time>
			</trkpt>
			<trkpt lat="48.88113984838128" lon="2.9059498384594917">
				<ele>95.0</ele>
				<time>2016-09-17T08:15:18</time>
			</trkpt>
			<trkpt lat="48.88265999034047" lon="2.907239980995655">
				<ele>99.0</ele>
				<time>2016-09-17T08:15:49</time>
			</trkpt>
			<trkpt lat="48.88442991301417" lon="2.9095699824392796">
				<ele>105.0</ele>
				<time>2016-09-17T08:16:30</time>
			</trkpt>
			<trkpt lat="48.88553992845118" lon="2.9092598520219326">
				<ele>110.0</ele>
				<time>2016-09-17T08:16:49</time>
			</trkpt>
			<trkpt lat="48.8869499322027" lon="2.909339899197221">
				<ele>116.0</ele>
				<time>2016-09-17T08:17:14</time>
			</trkpt>
			<trkpt lat="48.8910698890686" lon="2.9081398621201515">
				<ele>123.0</ele>
				<time>2016-09-17T08:18:27</time>
			</trkpt>
			<trkpt lat="48.89165997505188" lon="2.908279923722148">
				<ele>123.0</ele>
				<time>2016-09-17T08:18:37</time>
			</trkpt>
			<trkpt lat="48.893349850550294" lon="2.909199921414256">
				<ele>124.0</ele>
				<time>2016-09-17T08:19:08</time>
			</trkpt>
			<trkpt lat="48.89387992210686" lon="2.9079899098724127">
				<ele>116.0</ele>
				<time>2016-09-17T08:19:25</time>
			</trkpt>
			<trkpt lat="48.894739989191294" lon="2.9070299305021763">
				<ele>110.0</ele>
				<time>2016-09-17T08:19:44</time>
			</trkpt>
			<trkpt lat="48.89514986425638" lon="2.9069399926811457">
				<ele>108.0</ele>
				<time>2016-09-17T08:19:51</time>
			</trkpt>
			<trkpt lat="48.896119985729456" lon="2.9070798866450787">
				<ele>102.0</ele>
				<time>2016-09-17T08:20:08</time>
			</trkpt>
			<trkpt lat="48.896719962358475" lon="2.9068498872220516">
				<ele>97.0</ele>
				<time>2016-09-17T08:20:18</time>
			</trkpt>
			<trkpt lat="48.897149953991175" lon="2.907149875536561">
				<ele>94.0</ele>
				<time>2016-09-17T08:20:27</time>
			</trkpt>
			<trkpt lat="48.89817992225289" lon="2.9067598655819893">
				<ele>89.0</ele>
				<time>2016-09-17T08:20:45</time>
			</trkpt>
			<trkpt lat="48.89922992326319" lon="2.9081598948687315">
				<ele>95.0</ele>
				<time>2016-09-17T08:21:09</time>
			</trkpt>
			<trkpt lat="48.90486993826926" lon="2.91313991881907">
				<ele>123.0</ele>
				<time>2016-09-17T08:23:03</time>
			</trkpt>
			<trkpt lat="48.9052699226886" lon="2.913339911028743">
				<ele>126.0</ele>
				<time>2016-09-17T08:23:10</time>
			</trkpt>
			<trkpt lat="48.90570988878608" lon="2.913339911028743">
				<ele>131.0</ele>
				<time>2016-09-17T08:23:18</time>
			</trkpt>
			<trkpt lat="48.9068899769336" lon="2.912959959357977">
				<ele>139.0</ele>
				<time>2016-09-17T08:23:39</time>
			</trkpt>
			<trkpt lat="48.9071799069643" lon="2.9134898632764816">
				<ele>137.0</ele>
				<time>2016-09-17T08:23:47</time>
			</trkpt>
			<trkpt lat="48.90829989686608" lon="2.9144499264657497">
				<ele>138.0</ele>
				<time>2016-09-17T08:24:09</time>
			</trkpt>
			<trkpt lat="48.91069988720119" lon="2.918209880590439">
				<ele>139.0</ele>
				<time>2016-09-17T08:25:09</time>
			</trkpt>
			<trkpt lat="48.911329954862595" lon="2.9205899219959974">
				<ele>140.0</ele>
				<time>2016-09-17T08:25:39</time>
			</trkpt>
			<trkpt lat="48.91170999035239" lon="2.9208899941295385">
				<ele>142.0</ele>
				<time>2016-09-17T08:25:46</time>
			</trkpt>
			<trkpt lat="48.912169905379415" lon="2.9208198375999928">
				<ele>143.0</ele>
				<time>2016-09-17T08:25:54</time>
			</trkpt>
			<trkpt lat="48.912959983572364" lon="2.922889916226268">
				<ele>142.0</ele>
				<time>2016-09-17T08:26:21</time>
			</trkpt>
			<trkpt lat="48.9156898856163" lon="2.9273399524390697">
				<ele>145.0</ele>
				<time>2016-09-17T08:27:31</time>
			</trkpt>
			<trkpt lat="48.91647996380925" lon="2.929109875112772">
				<ele>143.0</ele>
				<time>2016-09-17T08:27:56</time>
			</trkpt>
			<trkpt lat="48.917179852724075" lon="2.933849925175309">
				<ele>138.0</ele>
				<time>2016-09-17T08:28:51</time>
			</trkpt>
			<trkpt lat="48.91729988157749" lon="2.94057983905077">
				<ele>136.0</ele>
				<time>2016-09-17T08:30:08</time>
			</trkpt>
			<trkpt lat="48.91808987595141" lon="2.9465698823332787">
				<ele>133.0</ele>
				<time>2016-09-17T08:31:18</time>
			</trkpt>
			<trkpt lat="48.91871985979378" lon="2.948359837755561">
				<ele>138.0</ele>
				<time>2016-09-17T08:31:41</time>
			</trkpt>
			<trkpt lat="48.92044988460839" lon="2.950209891423583">
				<ele>129.0</ele>
				<time>2016-09-17T08:32:18</time>
			</trkpt>
			<trkpt lat="48.921349849551916" lon="2.95002993196249">
				<ele>124.0</ele>
				<time>2016-09-17T08:32:34</time>
			</trkpt>
			<trkpt lat="48.92234989441931" lon="2.950179884210229">
				<ele>118.0</ele>
				<time>2016-09-17T08:32:51</time>
			</trkpt>
			<trkpt lat="48.92278986051679" lon="2.9492499958723783">
				<ele>115.0</ele>
				<time>2016-09-17T08:33:04</time>
			</trkpt>
			<trkpt lat="48.92302983440459" lon="2.9479098971933126">
				<ele>113.0</ele>
				<time>2016-09-17T08:33:20</time>
			</trkpt>
			<trkpt lat="48.92449985258281" lon="2.94289986602962">
				<ele>100.0</ele>
				<time>2016-09-17T08:34:23</time>
			</trkpt>
			<trkpt lat="48.92551993019879" lon="2.9410199727863073">
				<ele>95.0</ele>
				<time>2016-09-17T08:34:51</time>
			</trkpt>
			<trkpt lat="48.92655987292528" lon="2.9401298984885216">
				<ele>104.0</ele>
				<time>2016-09-17T08:35:12</time>
			</trkpt>
			<trkpt lat="48.92722983844578" lon="2.93889993801713">
				<ele>106.0</ele>
				<time>2016-09-17T08:35:30</time>
			</trkpt>
			<trkpt lat="48.92848997376859" lon="2.9381199181079865">
				<ele>122.0</ele>
				<time>2016-09-17T08:35:54</time>
			</trkpt>
			<trkpt lat="48.930319910869" lon="2.93760996311903">
				<ele>131.0</ele>
				<time>2016-09-17T08:36:26</time>
			</trkpt>
			<trkpt lat="48.93147988244891" lon="2.937839962542057">
				<ele>130.0</ele>
				<time>2016-09-17T08:36:46</time>
			</trkpt>
			<trkpt lat="48.9330898784101" lon="2.93760996311903">
				<ele>135.0</ele>
				<time>2016-09-17T08:37:14</time>
			</trkpt>
			<trkpt lat="48.934279941022396" lon="2.937129931524396">
				<ele>135.0</ele>
				<time>2016-09-17T08:37:36</time>
			</trkpt>
			<trkpt lat="48.9373398385942" lon="2.9364998638629913">
				<ele>111.0</ele>
				<time>2016-09-17T08:38:30</time>
			</trkpt>
			<trkpt lat="48.937799921259284" lon="2.9386599641293287">
				<ele>108.0</ele>
				<time>2016-09-17T08:38:56</time>
			</trkpt>
			<trkpt lat="48.9385399594903" lon="2.9397299978882074">
				<ele>102.0</ele>
				<time>2016-09-17T08:39:13</time>
			</trkpt>
			<trkpt lat="48.93890993669629" lon="2.9399599134922028">
				<ele>99.0</ele>
				<time>2016-09-17T08:39:20</time>
			</trkpt>
			<trkpt lat="48.939029881730676" lon="2.940859878435731">
				<ele>100.0</ele>
				<time>2016-09-17T08:39:31</time>
			</trkpt>
			<trkpt lat="48.93890993669629" lon="2.9437499586492777">
				<ele>105.0</ele>
				<time>2016-09-17T08:40:04</time>
			</trkpt>
			<trkpt lat="48.93931989558041" lon="2.9466099478304386">
				<ele>103.0</ele>
				<time>2016-09-17T08:40:37</time>
			</trkpt>
			<trkpt lat="48.93893986009061" lon="2.949849972501397">
				<ele>111.0</ele>
				<time>2016-09-17T08:41:15</time>
			</trkpt>
			<trkpt lat="48.93885998055339" lon="2.953369952738285">
				<ele>114.0</ele>
				<time>2016-09-17T08:41:55</time>
			</trkpt>
			<trkpt lat="48.93802983686328" lon="2.9567198641598225">
				<ele>119.0</ele>
				<time>2016-09-17T08:42:36</time>
			</trkpt>
			<trkpt lat="48.93679987639189" lon="2.959149945527315">
				<ele>131.0</ele>
				<time>2016-09-17T08:43:11</time>
			</trkpt>
			<trkpt lat="48.93696986138821" lon="2.960699927061796">
				<ele>136.0</ele>
				<time>2016-09-17T08:43:29</time>
			</trkpt>
			<trkpt lat="48.93776999786496" lon="2.96424999833107">
				<ele>138.0</ele>
				<time>2016-09-17T08:44:12</time>
			</trkpt>
			<trkpt lat="48.93748995848" lon="2.9656199365854263">
				<ele>140.0</ele>
				<time>2016-09-17T08:44:29</time>
			</trkpt>
			<trkpt lat="48.93819998949766" lon="2.9738198686391115">
				<ele>141.0</ele>
				<time>2016-09-17T08:46:03</time>
			</trkpt>
			<trkpt lat="48.938129832968116" lon="2.974689994007349">
				<ele>141.0</ele>
				<time>2016-09-17T08:46:13</time>
			</trkpt>
			<trkpt lat="48.93770998343825" lon="2.9762599244713783">
				<ele>145.0</ele>
				<time>2016-09-17T08:46:33</time>
			</trkpt>
			<trkpt lat="48.93748995848" lon="2.9816199000924826">
				<ele>157.0</ele>
				<time>2016-09-17T08:47:34</time>
			</trkpt>
			<trkpt lat="48.93688998185098" lon="2.986639905720949">
				<ele>163.0</ele>
				<time>2016-09-17T08:48:32</time>
			</trkpt>
			<trkpt lat="48.93694999627769" lon="2.9869298357516527">
				<ele>163.0</ele>
				<time>2016-09-17T08:48:36</time>
			</trkpt>
			<trkpt lat="48.937349896878004" lon="2.9866099823266268">
				<ele>164.0</ele>
				<time>2016-09-17T08:48:44</time>
			</trkpt>
			<trkpt lat="48.94062990322709" lon="2.985299974679947">
				<ele>163.0</ele>
				<time>2016-09-17T08:49:43</time>
			</trkpt>
			<trkpt lat="48.94122987985611" lon="2.985679842531681">
				<ele>166.0</ele>
				<time>2016-09-17T08:49:54</time>
			</trkpt>
			<trkpt lat="48.940399987623096" lon="2.9891499504446983">
				<ele>164.0</ele>
				<time>2016-09-17T08:50:36</time>
			</trkpt>
			<trkpt lat="48.939929846674204" lon="2.992839999496937">
				<ele>167.0</ele>
				<time>2016-09-17T08:51:19</time>
			</trkpt>
			<trkpt lat="48.94033997319639" lon="2.99615990370512">
				<ele>169.0</ele>
				<time>2016-09-17T08:51:58</time>
			</trkpt>
			<trkpt lat="48.94425633363426" lon="3.0053372494876385">
				<ele>154.58</ele>
				<time>2016-09-17T08:54:03</time>
			</trkpt>
			<trkpt lat="48.944679871201515" lon="3.006329834461212">
				<ele>153.0</ele>
				<time>2016-09-17T08:54:16</time>
			</trkpt>
			<trkpt lat="48.9439398329705" lon="3.00861993804574">
				<ele>142.0</ele>
				<time>2016-09-17T08:54:46</time>
			</trkpt>
			<trkpt lat="48.94306995905936" lon="3.0099899601191282">
				<ele>143.0</ele>
				<time>2016-09-17T08:55:07</time>
			</trkpt>
			<trkpt lat="48.94289989024401" lon="3.0109799467027187">
				<ele>141.0</ele>
				<time>2016-09-17T08:55:19</time>
			</trkpt>
			<trkpt lat="48.94169993698597" lon="3.01164991222322">
				<ele>148.0</ele>
				<time>2016-09-17T08:55:41</time>
			</trkpt>
			<trkpt lat="48.94112988375127" lon="3.012759927660227">
				<ele>151.0</ele>
				<time>2016-09-17T08:55:57</time>
			</trkpt>
			<trkpt lat="48.94015992991626" lon="3.0168599355965853">
				<ele>150.0</ele>
				<time>2016-09-17T08:56:47</time>
			</trkpt>
			<trkpt lat="48.939949879422784" lon="3.019479950889945">
				<ele>155.0</ele>
				<time>2016-09-17T08:57:17</time>
			</trkpt>
			<trkpt lat="48.94081992097199" lon="3.0204398464411497">
				<ele>155.0</ele>
				<time>2016-09-17T08:57:36</time>
			</trkpt>
			<trkpt lat="48.94137991592288" lon="3.022539932280779">
				<ele>158.0</ele>
				<time>2016-09-17T08:58:02</time>
			</trkpt>
			<trkpt lat="48.94204988144338" lon="3.023219956085086">
				<ele>157.0</ele>
				<time>2016-09-17T08:58:16</time>
			</trkpt>
			<trkpt lat="48.94196983426809" lon="3.0272498913109303">
				<ele>150.0</ele>
				<time>2016-09-17T08:59:02</time>
			</trkpt>
			<trkpt lat="48.9413099270314" lon="3.0273399129509926">
				<ele>146.0</ele>
				<time>2016-09-17T08:59:14</time>
			</trkpt>
			<trkpt lat="48.94041985273361" lon="3.0271299462765455">
				<ele>143.0</ele>
				<time>2016-09-17T08:59:29</time>
			</trkpt>
			<trkpt lat="48.939969995990396" lon="3.028139965608716">
				<ele>140.0</ele>
				<time>2016-09-17T08:59:43</time>
			</trkpt>
			<trkpt lat="48.939649891108274" lon="3.0282398778945208">
				<ele>139.0</ele>
				<time>2016-09-17T08:59:49</time>
			</trkpt>
			<trkpt lat="48.937909891828895" lon="3.0278199445456266">
				<ele>149.0</ele>
				<time>2016-09-17T09:00:20</time>
			</trkpt>
			<trkpt lat="48.93658999353647" lon="3.027259949594736">
				<ele>156.0</ele>
				<time>2016-09-17T09:00:43</time>
			</trkpt>
			<trkpt lat="48.93497999757528" lon="3.0269599612802267">
				<ele>158.0</ele>
				<time>2016-09-17T09:01:12</time>
			</trkpt>
			<trkpt lat="48.933179983869195" lon="3.0295199621468782">
				<ele>158.0</ele>
				<time>2016-09-17T09:01:55</time>
			</trkpt>
			<trkpt lat="48.932909835129976" lon="3.031709985807538">
				<ele>162.0</ele>
				<time>2016-09-17T09:02:20</time>
			</trkpt>
			<trkpt lat="48.93278989009559" lon="3.036429835483432">
				<ele>163.0</ele>
				<time>2016-09-17T09:03:14</time>
			</trkpt>
			<trkpt lat="48.932559974491596" lon="3.037659963592887">
				<ele>165.0</ele>
				<time>2016-09-17T09:03:29</time>
			</trkpt>
			<trkpt lat="48.93196997232735" lon="3.039439944550395">
				<ele>162.0</ele>
				<time>2016-09-17T09:03:51</time>
			</trkpt>
			<trkpt lat="48.9311798941344" lon="3.04402987472713">
				<ele>163.0</ele>
				<time>2016-09-17T09:04:46</time>
			</trkpt>
			<trkpt lat="48.93142984248698" lon="3.0466399993747473">
				<ele>160.0</ele>
				<time>2016-09-17T09:05:16</time>
			</trkpt>
			<trkpt lat="48.93133998848498" lon="3.0488799791783094">
				<ele>156.0</ele>
				<time>2016-09-17T09:05:42</time>
			</trkpt>
			<trkpt lat="48.930759876966476" lon="3.0513098929077387">
				<ele>147.0</ele>
				<time>2016-09-17T09:06:11</time>
			</trkpt>
			<trkpt lat="48.930279929190874" lon="3.05513983592391">
				<ele>134.0</ele>
				<time>2016-09-17T09:06:56</time>
			</trkpt>
			<trkpt lat="48.92979998141527" lon="3.057179907336831">
				<ele>127.0</ele>
				<time>2016-09-17T09:07:20</time>
			</trkpt>
			<trkpt lat="48.929829904809594" lon="3.058759979903698">
				<ele>126.0</ele>
				<time>2016-09-17T09:07:39</time>
			</trkpt>
			<trkpt lat="48.92957987263799" lon="3.060619840398431">
				<ele>118.0</ele>
				<time>2016-09-17T09:08:00</time>
			</trkpt>
			<trkpt lat="48.928969921544194" lon="3.0629299767315388">
				<ele>104.0</ele>
				<time>2016-09-17T09:08:29</time>
			</trkpt>
			<trkpt lat="48.92833985388279" lon="3.0644999910146">
				<ele>96.0</ele>
				<time>2016-09-17T09:08:50</time>
			</trkpt>
			<trkpt lat="48.928969921544194" lon="3.0668098758906126">
				<ele>94.0</ele>
				<time>2016-09-17T09:09:18</time>
			</trkpt>
			<trkpt lat="48.92861997708678" lon="3.0673299729824066">
				<ele>92.0</ele>
				<time>2016-09-17T09:09:27</time>
			</trkpt>
			<trkpt lat="48.92788999713957" lon="3.067629961296916">
				<ele>93.0</ele>
				<time>2016-09-17T09:09:40</time>
			</trkpt>
			<trkpt lat="48.9272999111563" lon="3.0686399806290865">
				<ele>93.0</ele>
				<time>2016-09-17T09:09:55</time>
			</trkpt>
			<trkpt lat="48.927589841187" lon="3.071459988132119">
				<ele>97.0</ele>
				<time>2016-09-17T09:10:28</time>
			</trkpt>
			<trkpt lat="48.92744994722307" lon="3.07554985396564">
				<ele>109.0</ele>
				<time>2016-09-17T09:11:15</time>
			</trkpt>
			<trkpt lat="48.92663992010057" lon="3.0826199054718018">
				<ele>124.0</ele>
				<time>2016-09-17T09:12:37</time>
			</trkpt>
			<trkpt lat="48.92698986455798" lon="3.085209997370839">
				<ele>132.0</ele>
				<time>2016-09-17T09:13:07</time>
			</trkpt>
			<trkpt lat="48.9265398401767" lon="3.0880899354815483">
				<ele>114.0</ele>
				<time>2016-09-17T09:13:41</time>
			</trkpt>
			<trkpt lat="48.926839996129274" lon="3.090419853106141">
				<ele>109.0</ele>
				<time>2016-09-17T09:14:08</time>
			</trkpt>
			<trkpt lat="48.92727987840772" lon="3.0919299367815256">
				<ele>123.0</ele>
				<time>2016-09-17T09:14:27</time>
			</trkpt>
			<trkpt lat="48.92738993279636" lon="3.09380991384387">
				<ele>136.0</ele>
				<time>2016-09-17T09:14:49</time>
			</trkpt>
			<trkpt lat="48.92785990610719" lon="3.0949899181723595">
				<ele>141.0</ele>
				<time>2016-09-17T09:15:04</time>
			</trkpt>
			<trkpt lat="48.92790986225009" lon="3.0966399796307087">
				<ele>146.0</ele>
				<time>2016-09-17T09:15:23</time>
			</trkpt>
			<trkpt lat="48.928579995408654" lon="3.099719909951091">
				<ele>143.0</ele>
				<time>2016-09-17T09:16:00</time>
			</trkpt>
			<trkpt lat="48.929339898750186" lon="3.106859866529703">
				<ele>145.0</ele>
				<time>2016-09-17T09:17:23</time>
			</trkpt>
			<trkpt lat="48.92912984825671" lon="3.113329941406846">
				<ele>142.0</ele>
				<time>2016-09-17T09:18:37</time>
			</trkpt>
			<trkpt lat="48.92819995991886" lon="3.1173899676650763">
				<ele>145.0</ele>
				<time>2016-09-17T09:19:26</time>
			</trkpt>
			<trkpt lat="48.928539929911494" lon="3.1201998330652714">
				<ele>149.0</ele>
				<time>2016-09-17T09:19:59</time>
			</trkpt>
			<trkpt lat="48.927959986031055" lon="3.1242699176073074">
				<ele>150.0</ele>
				<time>2016-09-17T09:20:47</time>
			</trkpt>
			<trkpt lat="48.929359931498766" lon="3.126299846917391">
				<ele>138.0</ele>
				<time>2016-09-17T09:21:20</time>
			</trkpt>
			<trkpt lat="48.92807984724641" lon="3.1278099305927753">
				<ele>141.0</ele>
				<time>2016-09-17T09:21:49</time>
			</trkpt>
			<trkpt lat="48.92764985561371" lon="3.1292699743062258">
				<ele>142.0</ele>
				<time>2016-09-17T09:22:07</time>
			</trkpt>
			<trkpt lat="48.927209973335266" lon="3.1301399320364">
				<ele>144.0</ele>
				<time>2016-09-17T09:22:19</time>
			</trkpt>
			<trkpt lat="48.92678987234831" lon="3.132769837975502">
				<ele>144.0</ele>
				<time>2016-09-17T09:22:50</time>
			</trkpt>
			<trkpt lat="48.92642986960709" lon="3.1326998490840197">
				<ele>144.0</ele>
				<time>2016-09-17T09:22:57</time>
			</trkpt>
			<trkpt lat="48.92622987739742" lon="3.1331298407167196">
				<ele>144.0</ele>
				<time>2016-09-17T09:23:03</time>
			</trkpt>
			<trkpt lat="48.923619920387864" lon="3.135029934346676">
				<ele>149.0</ele>
				<time>2016-09-17T09:23:53</time>
			</trkpt>
			<trkpt lat="48.920049984008074" lon="3.1390398368239403">
				<ele>153.0</ele>
				<time>2016-09-17T09:25:10</time>
			</trkpt>
			<trkpt lat="48.91976986080408" lon="3.139519952237606">
				<ele>151.0</ele>
				<time>2016-09-17T09:25:18</time>
			</trkpt>
			<trkpt lat="48.91847988590598" lon="3.14343991689384">
				<ele>151.0</ele>
				<time>2016-09-17T09:26:08</time>
			</trkpt>
			<trkpt lat="48.91660988330841" lon="3.1465299893170595">
				<ele>142.0</ele>
				<time>2016-09-17T09:26:56</time>
			</trkpt>
			<trkpt lat="48.91595995053649" lon="3.14700985327363">
				<ele>142.0</ele>
				<time>2016-09-17T09:27:08</time>
			</trkpt>
			<trkpt lat="48.916079895570874" lon="3.148609958589077">
				<ele>134.0</ele>
				<time>2016-09-17T09:27:27</time>
			</trkpt>
			<trkpt lat="48.91595995053649" lon="3.1498799845576286">
				<ele>131.0</ele>
				<time>2016-09-17T09:27:41</time>
			</trkpt>
			<trkpt lat="48.91619992442429" lon="3.1527399737387896">
				<ele>114.0</ele>
				<time>2016-09-17T09:28:14</time>
			</trkpt>
			<trkpt lat="48.91602993942797" lon="3.152999896556139">
				<ele>112.0</ele>
				<time>2016-09-17T09:28:19</time>
			</trkpt>
			<trkpt lat="48.915459886193275" lon="3.1532099470496178">
				<ele>109.0</ele>
				<time>2016-09-17T09:28:29</time>
			</trkpt>
			<trkpt lat="48.91541998833418" lon="3.1535598915070295">
				<ele>107.0</ele>
				<time>2016-09-17T09:28:33</time>
			</trkpt>
			<trkpt lat="48.91584997996688" lon="3.1541898753494024">
				<ele>104.0</ele>
				<time>2016-09-17T09:28:43</time>
			</trkpt>
			<trkpt lat="48.91679990105331" lon="3.155059916898608">
				<ele>95.0</ele>
				<time>2016-09-17T09:29:03</time>
			</trkpt>
			<trkpt lat="48.91765988431871" lon="3.15495983697474">
				<ele>92.0</ele>
				<time>2016-09-17T09:29:18</time>
			</trkpt>
			<trkpt lat="48.918979950249195" lon="3.1543998420238495">
				<ele>84.0</ele>
				<time>2016-09-17T09:29:41</time>
			</trkpt>
			<trkpt lat="48.91913987696171" lon="3.1549398880451918">
				<ele>76.0</ele>
				<time>2016-09-17T09:29:48</time>
			</trkpt>
			<trkpt lat="48.9188398886472" lon="3.156509902328253">
				<ele>67.0</ele>
				<time>2016-09-17T09:30:07</time>
			</trkpt>
			<trkpt lat="48.918339908123016" lon="3.157269973307848">
				<ele>61.0</ele>
				<time>2016-09-17T09:30:19</time>
			</trkpt>
			<trkpt lat="48.91686988994479" lon="3.157009966671467">
				<ele>62.0</ele>
				<time>2016-09-17T09:30:45</time>
			</trkpt>
			<trkpt lat="48.91646998934448" lon="3.1587099842727184">
				<ele>58.0</ele>
				<time>2016-09-17T09:31:06</time>
			</trkpt>
			<trkpt lat="48.9154499117285" lon="3.1615199334919453">
				<ele>59.0</ele>
				<time>2016-09-17T09:31:42</time>
			</trkpt>
			<trkpt lat="48.91591996885836" lon="3.1629799772053957">
				<ele>62.0</ele>
				<time>2016-09-17T09:32:01</time>
			</trkpt>
			<trkpt lat="48.91578996554017" lon="3.1632699072360992">
				<ele>63.0</ele>
				<time>2016-09-17T09:32:05</time>
			</trkpt>
			<trkpt lat="48.913799934089184" lon="3.1640098616480827">
				<ele>72.0</ele>
				<time>2016-09-17T09:32:41</time>
			</trkpt>
			<trkpt lat="48.912539882585406" lon="3.163759997114539">
				<ele>77.0</ele>
				<time>2016-09-17T09:33:03</time>
			</trkpt>
			<trkpt lat="48.9116698410362" lon="3.16339991055429">
				<ele>81.0</ele>
				<time>2016-09-17T09:33:18</time>
			</trkpt>
			<trkpt lat="48.91131989657879" lon="3.1635899282991886">
				<ele>81.0</ele>
				<time>2016-09-17T09:33:25</time>
			</trkpt>
			<trkpt lat="48.91107992269099" lon="3.165279971435666">
				<ele>85.0</ele>
				<time>2016-09-17T09:33:45</time>
			</trkpt>
			<trkpt lat="48.91033988445997" lon="3.167379889637232">
				<ele>78.0</ele>
				<time>2016-09-17T09:34:12</time>
			</trkpt>
			<trkpt lat="48.910039979964495" lon="3.1690899655222893">
				<ele>71.0</ele>
				<time>2016-09-17T09:34:32</time>
			</trkpt>
			<trkpt lat="48.9096599444747" lon="3.174089938402176">
				<ele>63.0</ele>
				<time>2016-09-17T09:35:30</time>
			</trkpt>
			<trkpt lat="48.9098999183625" lon="3.177029974758625">
				<ele>59.0</ele>
				<time>2016-09-17T09:36:04</time>
			</trkpt>
			<trkpt lat="48.9087566267699" lon="3.177504474297166">
				<ele>62.01</ele>
				<time>2016-09-17T09:36:24</time>
			</trkpt>
			<trkpt lat="48.907249895855784" lon="3.178129931911826">
				<ele>66.0</ele>
				<time>2016-09-17T09:36:51</time>
			</trkpt>
			<trkpt lat="48.90559991821647" lon="3.171179909259081">
				<ele>73.0</ele>
				<time>2016-09-17T09:38:16</time>
			</trkpt>
			<trkpt lat="48.905549962073565" lon="3.168139960616827">
				<ele>65.0</ele>
				<time>2016-09-17T09:38:51</time>
			</trkpt>
			<trkpt lat="48.906269967556" lon="3.15989987924695">
				<ele>67.0</ele>
				<time>2016-09-17T09:40:26</time>
			</trkpt>
			<trkpt lat="48.90749992802739" lon="3.156579975038767">
				<ele>66.0</ele>
				<time>2016-09-17T09:41:09</time>
			</trkpt>
			<trkpt lat="48.90815983526409" lon="3.1557798385620117">
				<ele>64.0</ele>
				<time>2016-09-17T09:41:24</time>
			</trkpt>
			<trkpt lat="48.9105299860239" lon="3.155059916898608">
				<ele>68.0</ele>
				<time>2016-09-17T09:42:06</time>
			</trkpt>
			<trkpt lat="48.91241985373199" lon="3.155459985136986">
				<ele>71.0</ele>
				<time>2016-09-17T09:42:39</time>
			</trkpt>
			<trkpt lat="48.91387998126447" lon="3.1555998791009188">
				<ele>68.0</ele>
				<time>2016-09-17T09:43:05</time>
			</trkpt>
			<trkpt lat="48.91400998458266" lon="3.15546995960176">
				<ele>70.0</ele>
				<time>2016-09-17T09:43:08</time>
			</trkpt>
			<trkpt lat="48.911569928750396" lon="3.1544499658048153">
				<ele>79.0</ele>
				<time>2016-09-17T09:43:52</time>
			</trkpt>
			<trkpt lat="48.910259837284684" lon="3.1529398821294308">
				<ele>89.0</ele>
				<time>2016-09-17T09:44:20</time>
			</trkpt>
			<trkpt lat="48.90874992124736" lon="3.1515598855912685">
				<ele>95.0</ele>
				<time>2016-09-17T09:44:51</time>
			</trkpt>
			<trkpt lat="48.906069891527295" lon="3.149729948490858">
				<ele>103.0</ele>
				<time>2016-09-17T09:45:42</time>
			</trkpt>
			<trkpt lat="48.90551987104118" lon="3.1490899063646793">
				<ele>103.0</ele>
				<time>2016-09-17T09:45:54</time>
			</trkpt>
			<trkpt lat="48.906929874792695" lon="3.14876988530159">
				<ele>113.0</ele>
				<time>2016-09-17T09:46:19</time>
			</trkpt>
			<trkpt lat="48.91103994101286" lon="3.149029891937971">
				<ele>123.0</ele>
				<time>2016-09-17T09:47:30</time>
			</trkpt>
			<trkpt lat="48.91292989253998" lon="3.148669973015785">
				<ele>129.0</ele>
				<time>2016-09-17T09:48:04</time>
			</trkpt>
			<trkpt lat="48.91393999569118" lon="3.148139985278249">
				<ele>134.0</ele>
				<time>2016-09-17T09:48:22</time>
			</trkpt>
			<trkpt lat="48.914059940725565" lon="3.146349862217903">
				<ele>144.0</ele>
				<time>2016-09-17T09:48:43</time>
			</trkpt>
			<trkpt lat="48.91378987580538" lon="3.1443199329078197">
				<ele>144.0</ele>
				<time>2016-09-17T09:49:06</time>
			</trkpt>
			<trkpt lat="48.913889871910214" lon="3.143089972436428">
				<ele>143.0</ele>
				<time>2016-09-17T09:49:21</time>
			</trkpt>
			<trkpt lat="48.91269997693598" lon="3.1367299519479275">
				<ele>148.0</ele>
				<time>2016-09-17T09:50:36</time>
			</trkpt>
			<trkpt lat="48.9113899692893" lon="3.1338599044829607">
				<ele>154.0</ele>
				<time>2016-09-17T09:51:16</time>
			</trkpt>
			<trkpt lat="48.91139994375408" lon="3.1311699002981186">
				<ele>159.0</ele>
				<time>2016-09-17T09:51:47</time>
			</trkpt>
			<trkpt lat="48.91443997621536" lon="3.123989962041378">
				<ele>156.0</ele>
				<time>2016-09-17T09:53:25</time>
			</trkpt>
			<trkpt lat="48.914659917354584" lon="3.1231798510998487">
				<ele>157.0</ele>
				<time>2016-09-17T09:53:35</time>
			</trkpt>
			<trkpt lat="48.91641986556351" lon="3.124069841578603">
				<ele>160.0</ele>
				<time>2016-09-17T09:54:07</time>
			</trkpt>
			<trkpt lat="48.91877987422049" lon="3.12308999709785">
				<ele>157.0</ele>
				<time>2016-09-17T09:54:50</time>
			</trkpt>
			<trkpt lat="48.914809953421354" lon="3.119229879230261">
				<ele>162.0</ele>
				<time>2016-09-17T09:56:12</time>
			</trkpt>
			<trkpt lat="48.8910698890686" lon="3.095059907063842">
				<ele>160.0</ele>
				<time>2016-09-17T10:04:29</time>
			</trkpt>
			<trkpt lat="48.88946986757219" lon="3.093709833920002">
				<ele>156.0</ele>
				<time>2016-09-17T10:05:01</time>
			</trkpt>
			<trkpt lat="48.88716987334192" lon="3.0878999177366495">
				<ele>148.0</ele>
				<time>2016-09-17T10:06:18</time>
			</trkpt>
			<trkpt lat="48.8867599144578" lon="3.0830498971045017">
				<ele>151.0</ele>
				<time>2016-09-17T10:07:14</time>
			</trkpt>
			<trkpt lat="48.88647995889187" lon="3.0827298760414124">
				<ele>151.0</ele>
				<time>2016-09-17T10:07:20</time>
			</trkpt>
			<trkpt lat="48.88474993407726" lon="3.082469869405031">
				<ele>150.0</ele>
				<time>2016-09-17T10:07:51</time>
			</trkpt>
			<trkpt lat="48.88321998529136" lon="3.0810199677944183">
				<ele>146.0</ele>
				<time>2016-09-17T10:08:22</time>
			</trkpt>
			<trkpt lat="48.88258991762996" lon="3.0791598558425903">
				<ele>143.0</ele>
				<time>2016-09-17T10:08:46</time>
			</trkpt>
			<trkpt lat="48.881489960476756" lon="3.077549859881401">
				<ele>144.0</ele>
				<time>2016-09-17T10:09:12</time>
			</trkpt>
			<trkpt lat="48.8808399438858" lon="3.073689993470907">
				<ele>146.0</ele>
				<time>2016-09-17T10:09:58</time>
			</trkpt>
			<trkpt lat="48.883769838139415" lon="3.069609934464097">
				<ele>148.0</ele>
				<time>2016-09-17T10:11:07</time>
			</trkpt>
			<trkpt lat="48.88773984275758" lon="3.067389903590083">
				<ele>151.0</ele>
				<time>2016-09-17T10:12:21</time>
			</trkpt>
			<trkpt lat="48.8916399423033" lon="3.0656898859888315">
				<ele>155.0</ele>
				<time>2016-09-17T10:13:31</time>
			</trkpt>
			<trkpt lat="48.8922599516809" lon="3.0652598943561316">
				<ele>156.0</ele>
				<time>2016-09-17T10:13:43</time>
			</trkpt>
			<trkpt lat="48.89556988142431" lon="3.0616698414087296">
				<ele>158.0</ele>
				<time>2016-09-17T10:14:54</time>
			</trkpt>
			<trkpt lat="48.89677997678518" lon="3.0601698998361826">
				<ele>161.0</ele>
				<time>2016-09-17T10:15:21</time>
			</trkpt>
			<trkpt lat="48.897369895130396" lon="3.0591199826449156">
				<ele>161.0</ele>
				<time>2016-09-17T10:15:37</time>
			</trkpt>
			<trkpt lat="48.892529932782054" lon="3.052929863333702">
				<ele>157.0</ele>
				<time>2016-09-17T10:17:27</time>
			</trkpt>
			<trkpt lat="48.890879871323705" lon="3.0514398962259293">
				<ele>158.0</ele>
				<time>2016-09-17T10:18:00</time>
			</trkpt>
			<trkpt lat="48.89179986901581" lon="3.0411299038678408">
				<ele>152.0</ele>
				<time>2016-09-17T10:20:00</time>
			</trkpt>
			<trkpt lat="48.89267988502979" lon="3.0237999837845564">
				<ele>157.0</ele>
				<time>2016-09-17T10:23:18</time>
			</trkpt>
			<trkpt lat="48.89150985516608" lon="3.0184598732739687">
				<ele>155.0</ele>
				<time>2016-09-17T10:24:23</time>
			</trkpt>
			<trkpt lat="48.8909699767828" lon="3.017129832878709">
				<ele>150.0</ele>
				<time>2016-09-17T10:24:41</time>
			</trkpt>
			<trkpt lat="48.88132986612618" lon="3.00373999401927">
				<ele>157.0</ele>
				<time>2016-09-17T10:28:28</time>
			</trkpt>
			<trkpt lat="48.881119983270764" lon="3.003169856965542">
				<ele>158.0</ele>
				<time>2016-09-17T10:28:35</time>
			</trkpt>
			<trkpt lat="48.882259922102094" lon="2.9995899461209774">
				<ele>163.0</ele>
				<time>2016-09-17T10:29:21</time>
			</trkpt>
			<trkpt lat="48.88383999466896" lon="3.001209832727909">
				<ele>163.0</ele>
				<time>2016-09-17T10:29:54</time>
			</trkpt>
			<trkpt lat="48.88560991734266" lon="2.9978999029845">
				<ele>160.0</ele>
				<time>2016-09-17T10:30:43</time>
			</trkpt>
			<trkpt lat="48.88682990334928" lon="2.9938499350100756">
				<ele>158.0</ele>
				<time>2016-09-17T10:31:34</time>
			</trkpt>
			<trkpt lat="48.88727992773056" lon="2.9917998891323805">
				<ele>158.0</ele>
				<time>2016-09-17T10:31:59</time>
			</trkpt>
			<trkpt lat="48.88789993710816" lon="2.9904498998075724">
				<ele>158.0</ele>
				<time>2016-09-17T10:32:18</time>
			</trkpt>
			<trkpt lat="48.8884798809886" lon="2.987909847870469">
				<ele>160.0</ele>
				<time>2016-09-17T10:32:48</time>
			</trkpt>
			<trkpt lat="48.889329973608255" lon="2.985279941931367">
				<ele>158.0</ele>
				<time>2016-09-17T10:33:22</time>
			</trkpt>
			<trkpt lat="48.889439944177866" lon="2.983929952606559">
				<ele>160.0</ele>
				<time>2016-09-17T10:33:37</time>
			</trkpt>
			<trkpt lat="48.889759965240955" lon="2.982699992135167">
				<ele>160.0</ele>
				<time>2016-09-17T10:33:53</time>
			</trkpt>
			<trkpt lat="48.89007990248501" lon="2.9818899650126696">
				<ele>161.0</ele>
				<time>2016-09-17T10:34:03</time>
			</trkpt>
			<trkpt lat="48.89064987190068" lon="2.9810998868197203">
				<ele>161.0</ele>
				<time>2016-09-17T10:34:17</time>
			</trkpt>
			<trkpt lat="48.89092999510467" lon="2.9791698697954416">
				<ele>159.0</ele>
				<time>2016-09-17T10:34:39</time>
			</trkpt>
			<trkpt lat="48.89097995124757" lon="2.977639837190509">
				<ele>161.0</ele>
				<time>2016-09-17T10:34:57</time>
			</trkpt>
			<trkpt lat="48.888149969279766" lon="2.9658999759703875">
				<ele>159.0</ele>
				<time>2016-09-17T10:37:20</time>
			</trkpt>
			<trkpt lat="48.88787990435958" lon="2.9651198722422123">
				<ele>160.0</ele>
				<time>2016-09-17T10:37:30</time>
			</trkpt>
			<trkpt lat="48.8869998883456" lon="2.9636098723858595">
				<ele>154.0</ele>
				<time>2016-09-17T10:37:53</time>
			</trkpt>
			<trkpt lat="48.88641994446516" lon="2.961949920281768">
				<ele>150.0</ele>
				<time>2016-09-17T10:38:15</time>
			</trkpt>
			<trkpt lat="48.88609992340207" lon="2.961509870365262">
				<ele>149.0</ele>
				<time>2016-09-17T10:38:22</time>
			</trkpt>
			<trkpt lat="48.886729991063476" lon="2.9606399964541197">
				<ele>151.0</ele>
				<time>2016-09-17T10:38:37</time>
			</trkpt>
			<trkpt lat="48.88959987089038" lon="2.9527398850768805">
				<ele>157.0</ele>
				<time>2016-09-17T10:40:20</time>
			</trkpt>
			<trkpt lat="48.89200991950929" lon="2.9435099847614765">
				<ele>159.0</ele>
				<time>2016-09-17T10:42:14</time>
			</trkpt>
			<trkpt lat="48.89183993451297" lon="2.9399098735302687">
				<ele>156.0</ele>
				<time>2016-09-17T10:42:55</time>
			</trkpt>
			<trkpt lat="48.891929872334" lon="2.9353598412126303">
				<ele>156.0</ele>
				<time>2016-09-17T10:43:47</time>
			</trkpt>
			<trkpt lat="48.891649916768074" lon="2.9348799772560596">
				<ele>156.0</ele>
				<time>2016-09-17T10:43:55</time>
			</trkpt>
			<trkpt lat="48.8910199329257" lon="2.934669842943549">
				<ele>152.0</ele>
				<time>2016-09-17T10:44:06</time>
			</trkpt>
			<trkpt lat="48.891139877960086" lon="2.9323599580675364">
				<ele>153.0</ele>
				<time>2016-09-17T10:44:32</time>
			</trkpt>
			<trkpt lat="48.890359941869974" lon="2.931549930945039">
				<ele>153.0</ele>
				<time>2016-09-17T10:44:49</time>
			</trkpt>
			<trkpt lat="48.891179859638214" lon="2.9282698407769203">
				<ele>154.0</ele>
				<time>2016-09-17T10:45:29</time>
			</trkpt>
			<trkpt lat="48.884649854153395" lon="2.9099999740719795">
				<ele>107.0</ele>
				<time>2016-09-17T10:49:27</time>
			</trkpt>
			<trkpt lat="48.88265999034047" lon="2.907239980995655">
				<ele>99.0</ele>
				<time>2016-09-17T10:50:14</time>
			</trkpt>
			<trkpt lat="48.88113984838128" lon="2.9059499222785234">
				<ele>95.0</ele>
				<time>2016-09-17T10:50:44</time>
			</trkpt>
			<trkpt lat="48.8806398678571" lon="2.9057399556040764">
				<ele>93.0</ele>
				<time>2016-09-17T10:50:53</time>
			</trkpt>
			<trkpt lat="48.87965985573828" lon="2.905669966712594">
				<ele>91.0</ele>
				<time>2016-09-17T10:51:10</time>
			</trkpt>
			<trkpt lat="48.87817986309528" lon="2.90602988563478">
				<ele>93.0</ele>
				<time>2016-09-17T10:51:36</time>
			</trkpt>
			<trkpt lat="48.87713992036879" lon="2.9046299401670694">
				<ele>99.0</ele>
				<time>2016-09-17T10:52:01</time>
			</trkpt>
			<trkpt lat="48.87644983828068" lon="2.9039898980408907">
				<ele>104.0</ele>
				<time>2016-09-17T10:52:15</time>
			</trkpt>
			<trkpt lat="48.873599991202354" lon="2.902579978108406">
				<ele>115.0</ele>
				<time>2016-09-17T10:53:07</time>
			</trkpt>
			<trkpt lat="48.87173996306956" lon="2.902949955314398">
				<ele>121.0</ele>
				<time>2016-09-17T10:53:39</time>
			</trkpt>
			<trkpt lat="48.867669962346554" lon="2.902949955314398">
				<ele>118.0</ele>
				<time>2016-09-17T10:54:50</time>
			</trkpt>
			<trkpt lat="48.8657299708575" lon="2.9044198896735907">
				<ele>103.0</ele>
				<time>2016-09-17T10:55:28</time>
			</trkpt>
			<trkpt lat="48.864579973742366" lon="2.9044099990278482">
				<ele>93.0</ele>
				<time>2016-09-17T10:55:48</time>
			</trkpt>
			<trkpt lat="48.86422986164689" lon="2.904009846970439">
				<ele>89.0</ele>
				<time>2016-09-17T10:55:56</time>
			</trkpt>
			<trkpt lat="48.86398988775909" lon="2.9033599980175495">
				<ele>89.0</ele>
				<time>2016-09-17T10:56:04</time>
			</trkpt>
			<trkpt lat="48.86353986337781" lon="2.903189929202199">
				<ele>82.0</ele>
				<time>2016-09-17T10:56:12</time>
			</trkpt>
			<trkpt lat="48.86325990781188" lon="2.90344993583858">
				<ele>78.0</ele>
				<time>2016-09-17T10:56:18</time>
			</trkpt>
			<trkpt lat="48.86259991675615" lon="2.904889862984419">
				<ele>69.0</ele>
				<time>2016-09-17T10:56:38</time>
			</trkpt>
			<trkpt lat="48.86178997345269" lon="2.905769878998399">
				<ele>63.0</ele>
				<time>2016-09-17T10:56:55</time>
			</trkpt>
			<trkpt lat="48.859659880399704" lon="2.9070299305021763">
				<ele>53.0</ele>
				<time>2016-09-17T10:57:35</time>
			</trkpt>
			<trkpt lat="48.85921538807452" lon="2.907092459499836">
				<ele>52.37</ele>
				<time>2016-09-17T10:57:43</time>
			</trkpt>
		</trkseg>
	</trk>
</gpx>
