<?xml version="1.0" encoding="UTF-8"?>
<gpx creator="Garmin Connect" version="1.1" xsi:schemaLocation="http://www.topografix.com/GPX/1/1 http://www.topografix.com/GPX/11.xsd" xmlns:ns3="http://www.garmin.com/xmlschemas/TrackPointExtension/v1" xmlns="http://www.topografix.com/GPX/1/1" xmlns:xsi="http://www.w3.org/2001/XMLSchema-instance" xmlns:ns2="http://www.garmin.com/xmlschemas/GpxExtensions/v3">
	<metadata>
		<name>109-G1-113 km-D 932 m-La Daltonienne</name>
		<link href="connect.garmin.com">
			<text>Garmin Connect</text>
		</link>
		<time>2013-07-20T08:00:00</time>
	</metadata>
	<trk>
		<name>109-G1-113 km-D 932 m-La Daltonienne</name>
		<trkseg>
			<trkpt lat="48.85811987333" lon="2.9069798067212105">
				<ele>49.0</ele>
				<time>2013-07-20T08:00:00</time>
			</trkpt>
			<trkpt lat="48.85823990218341" lon="2.907229922711849">
				<ele>49.0</ele>
				<time>2013-07-20T08:00:03</time>
			</trkpt>
			<trkpt lat="48.85973992757499" lon="2.906979890540242">
				<ele>52.0</ele>
				<time>2013-07-20T08:00:24</time>
			</trkpt>
			<trkpt lat="48.86178997345269" lon="2.905769878998399">
				<ele>62.0</ele>
				<time>2013-07-20T08:00:56</time>
			</trkpt>
			<trkpt lat="48.86248986236751" lon="2.9050499573349953">
				<ele>67.0</ele>
				<time>2013-07-20T08:01:08</time>
			</trkpt>
			<trkpt lat="48.86325990781188" lon="2.90344993583858">
				<ele>75.0</ele>
				<time>2013-07-20T08:01:27</time>
			</trkpt>
			<trkpt lat="48.863549837842584" lon="2.9032398853451014">
				<ele>80.0</ele>
				<time>2013-07-20T08:01:31</time>
			</trkpt>
			<trkpt lat="48.863889975473285" lon="2.9033099580556154">
				<ele>84.0</ele>
				<time>2013-07-20T08:01:36</time>
			</trkpt>
			<trkpt lat="48.864579973742366" lon="2.9044099990278482">
				<ele>91.0</ele>
				<time>2013-07-20T08:01:50</time>
			</trkpt>
			<trkpt lat="48.8657299708575" lon="2.9044198896735907">
				<ele>101.0</ele>
				<time>2013-07-20T08:02:07</time>
			</trkpt>
			<trkpt lat="48.867669962346554" lon="2.902949955314398">
				<ele>116.0</ele>
				<time>2013-07-20T08:02:38</time>
			</trkpt>
			<trkpt lat="48.87173996306956" lon="2.902949955314398">
				<ele>121.0</ele>
				<time>2013-07-20T08:03:36</time>
			</trkpt>
			<trkpt lat="48.87363997288048" lon="2.902579978108406">
				<ele>114.0</ele>
				<time>2013-07-20T08:04:03</time>
			</trkpt>
			<trkpt lat="48.87644983828068" lon="2.9039898980408907">
				<ele>103.0</ele>
				<time>2013-07-20T08:04:46</time>
			</trkpt>
			<trkpt lat="48.87713992036879" lon="2.9046299401670694">
				<ele>99.0</ele>
				<time>2013-07-20T08:04:57</time>
			</trkpt>
			<trkpt lat="48.87817986309528" lon="2.90602988563478">
				<ele>94.0</ele>
				<time>2013-07-20T08:05:17</time>
			</trkpt>
			<trkpt lat="48.87965985573828" lon="2.9056698828935623">
				<ele>91.0</ele>
				<time>2013-07-20T08:05:39</time>
			</trkpt>
			<trkpt lat="48.8806398678571" lon="2.9057399556040764">
				<ele>92.0</ele>
				<time>2013-07-20T08:05:53</time>
			</trkpt>
			<trkpt lat="48.88113984838128" lon="2.9059498384594917">
				<ele>94.0</ele>
				<time>2013-07-20T08:06:00</time>
			</trkpt>
			<trkpt lat="48.88265999034047" lon="2.907239980995655">
				<ele>98.0</ele>
				<time>2013-07-20T08:06:25</time>
			</trkpt>
			<trkpt lat="48.8843699824065" lon="2.9095499496906996">
				<ele>104.0</ele>
				<time>2013-07-20T08:06:58</time>
			</trkpt>
			<trkpt lat="48.88553992845118" lon="2.9092598520219326">
				<ele>109.0</ele>
				<time>2013-07-20T08:07:15</time>
			</trkpt>
			<trkpt lat="48.8869599904865" lon="2.9093299247324467">
				<ele>116.0</ele>
				<time>2013-07-20T08:07:35</time>
			</trkpt>
			<trkpt lat="48.8910698890686" lon="2.9081199131906033">
				<ele>124.0</ele>
				<time>2013-07-20T08:08:35</time>
			</trkpt>
			<trkpt lat="48.891669949516654" lon="2.908269865438342">
				<ele>123.0</ele>
				<time>2013-07-20T08:08:43</time>
			</trkpt>
			<trkpt lat="48.8924499694258" lon="2.90881996974349">
				<ele>124.0</ele>
				<time>2013-07-20T08:08:56</time>
			</trkpt>
			<trkpt lat="48.893349850550294" lon="2.909199921414256">
				<ele>124.0</ele>
				<time>2013-07-20T08:09:09</time>
			</trkpt>
			<trkpt lat="48.89365989714861" lon="2.9083499126136303">
				<ele>120.0</ele>
				<time>2013-07-20T08:09:18</time>
			</trkpt>
			<trkpt lat="48.8944099098444" lon="2.907249955460429">
				<ele>112.0</ele>
				<time>2013-07-20T08:09:33</time>
			</trkpt>
			<trkpt lat="48.89494987204671" lon="2.90694996714592">
				<ele>109.0</ele>
				<time>2013-07-20T08:09:41</time>
			</trkpt>
			<trkpt lat="48.896119985729456" lon="2.9070798866450787">
				<ele>103.0</ele>
				<time>2013-07-20T08:09:58</time>
			</trkpt>
			<trkpt lat="48.89676991850138" lon="2.9068199638277292">
				<ele>97.0</ele>
				<time>2013-07-20T08:10:08</time>
			</trkpt>
			<trkpt lat="48.89729990623891" lon="2.9062399361282587">
				<ele>93.0</ele>
				<time>2013-07-20T08:10:17</time>
			</trkpt>
			<trkpt lat="48.89790985733271" lon="2.904899837449193">
				<ele>90.0</ele>
				<time>2013-07-20T08:10:32</time>
			</trkpt>
			<trkpt lat="48.898829855024815" lon="2.9024799820035696">
				<ele>91.0</ele>
				<time>2013-07-20T08:10:59</time>
			</trkpt>
			<trkpt lat="48.898849887773395" lon="2.896589934825897">
				<ele>115.0</ele>
				<time>2013-07-20T08:11:54</time>
			</trkpt>
			<trkpt lat="48.89806995168328" lon="2.8940799739211798">
				<ele>122.0</ele>
				<time>2013-07-20T08:12:20</time>
			</trkpt>
			<trkpt lat="48.89773987233639" lon="2.89098990149796">
				<ele>127.0</ele>
				<time>2013-07-20T08:12:49</time>
			</trkpt>
			<trkpt lat="48.8976098690182" lon="2.888149945065379">
				<ele>131.0</ele>
				<time>2013-07-20T08:13:16</time>
			</trkpt>
			<trkpt lat="48.897839952260256" lon="2.8851199708878994">
				<ele>130.0</ele>
				<time>2013-07-20T08:13:45</time>
			</trkpt>
			<trkpt lat="48.897859901189804" lon="2.8817098774015903">
				<ele>131.0</ele>
				<time>2013-07-20T08:14:17</time>
			</trkpt>
			<trkpt lat="48.89719991013408" lon="2.8779698722064495">
				<ele>125.0</ele>
				<time>2013-07-20T08:14:53</time>
			</trkpt>
			<trkpt lat="48.898959858343005" lon="2.873489996418357">
				<ele>126.0</ele>
				<time>2013-07-20T08:15:42</time>
			</trkpt>
			<trkpt lat="48.90087990090251" lon="2.871199892833829">
				<ele>122.0</ele>
				<time>2013-07-20T08:16:17</time>
			</trkpt>
			<trkpt lat="48.9009599480778" lon="2.8705099783837795">
				<ele>120.0</ele>
				<time>2013-07-20T08:16:24</time>
			</trkpt>
			<trkpt lat="48.90054998919368" lon="2.8693298902362585">
				<ele>120.0</ele>
				<time>2013-07-20T08:16:36</time>
			</trkpt>
			<trkpt lat="48.90066993422806" lon="2.865399867296219">
				<ele>116.0</ele>
				<time>2013-07-20T08:17:13</time>
			</trkpt>
			<trkpt lat="48.900249833241105" lon="2.861259877681732">
				<ele>111.0</ele>
				<time>2013-07-20T08:17:53</time>
			</trkpt>
			<trkpt lat="48.90030984766781" lon="2.8608899004757404">
				<ele>110.0</ele>
				<time>2013-07-20T08:17:56</time>
			</trkpt>
			<trkpt lat="48.90108995139599" lon="2.8605199232697487">
				<ele>106.0</ele>
				<time>2013-07-20T08:18:08</time>
			</trkpt>
			<trkpt lat="48.90123998746276" lon="2.8600698988884687">
				<ele>104.0</ele>
				<time>2013-07-20T08:18:13</time>
			</trkpt>
			<trkpt lat="48.90010993927717" lon="2.8562399558722973">
				<ele>104.0</ele>
				<time>2013-07-20T08:18:52</time>
			</trkpt>
			<trkpt lat="48.89988999813795" lon="2.8509399108588696">
				<ele>98.0</ele>
				<time>2013-07-20T08:19:42</time>
			</trkpt>
			<trkpt lat="48.899649856612086" lon="2.8493698965758085">
				<ele>97.0</ele>
				<time>2013-07-20T08:19:57</time>
			</trkpt>
			<trkpt lat="48.8996699731797" lon="2.847529901191592">
				<ele>87.0</ele>
				<time>2013-07-20T08:20:15</time>
			</trkpt>
			<trkpt lat="48.89831998385489" lon="2.8460799995809793">
				<ele>84.0</ele>
				<time>2013-07-20T08:20:38</time>
			</trkpt>
			<trkpt lat="48.89603993855417" lon="2.841919893398881">
				<ele>70.0</ele>
				<time>2013-07-20T08:21:29</time>
			</trkpt>
			<trkpt lat="48.89661988243461" lon="2.8394499141722918">
				<ele>73.0</ele>
				<time>2013-07-20T08:21:54</time>
			</trkpt>
			<trkpt lat="48.89776996336877" lon="2.8312099166214466">
				<ele>50.0</ele>
				<time>2013-07-20T08:23:13</time>
			</trkpt>
			<trkpt lat="48.89814999885857" lon="2.829539906233549">
				<ele>46.0</ele>
				<time>2013-07-20T08:23:30</time>
			</trkpt>
			<trkpt lat="48.8965598680079" lon="2.8287499118596315">
				<ele>45.0</ele>
				<time>2013-07-20T08:23:53</time>
			</trkpt>
			<trkpt lat="48.896269937977195" lon="2.8275699075311422">
				<ele>46.0</ele>
				<time>2013-07-20T08:24:05</time>
			</trkpt>
			<trkpt lat="48.891669949516654" lon="2.825929904356599">
				<ele>46.0</ele>
				<time>2013-07-20T08:25:13</time>
			</trkpt>
			<trkpt lat="48.89137985184789" lon="2.8256299160420895">
				<ele>46.0</ele>
				<time>2013-07-20T08:25:18</time>
			</trkpt>
			<trkpt lat="48.89178997837007" lon="2.824639929458499">
				<ele>46.0</ele>
				<time>2013-07-20T08:25:29</time>
			</trkpt>
			<trkpt lat="48.8946498837322" lon="2.820509998127818">
				<ele>47.0</ele>
				<time>2013-07-20T08:26:25</time>
			</trkpt>
			<trkpt lat="48.89621998183429" lon="2.816159874200821">
				<ele>53.0</ele>
				<time>2013-07-20T08:27:12</time>
			</trkpt>
			<trkpt lat="48.89661988243461" lon="2.8158398531377316">
				<ele>49.0</ele>
				<time>2013-07-20T08:27:18</time>
			</trkpt>
			<trkpt lat="48.896509911864996" lon="2.8152299020439386">
				<ele>52.0</ele>
				<time>2013-07-20T08:27:24</time>
			</trkpt>
			<trkpt lat="48.896609991788864" lon="2.814829833805561">
				<ele>51.0</ele>
				<time>2013-07-20T08:27:28</time>
			</trkpt>
			<trkpt lat="48.89797984622419" lon="2.81157991848886">
				<ele>50.0</ele>
				<time>2013-07-20T08:28:05</time>
			</trkpt>
			<trkpt lat="48.899579867720604" lon="2.8112499229609966">
				<ele>49.0</ele>
				<time>2013-07-20T08:28:28</time>
			</trkpt>
			<trkpt lat="48.90032988041639" lon="2.8117199800908566">
				<ele>48.0</ele>
				<time>2013-07-20T08:28:39</time>
			</trkpt>
			<trkpt lat="48.90073983930051" lon="2.8127799555659294">
				<ele>47.0</ele>
				<time>2013-07-20T08:28:51</time>
			</trkpt>
			<trkpt lat="48.90289993956685" lon="2.813019845634699">
				<ele>49.0</ele>
				<time>2013-07-20T08:29:22</time>
			</trkpt>
			<trkpt lat="48.904609931632876" lon="2.812639893963933">
				<ele>53.0</ele>
				<time>2013-07-20T08:29:47</time>
			</trkpt>
			<trkpt lat="48.905449882149696" lon="2.813739934936166">
				<ele>52.0</ele>
				<time>2013-07-20T08:30:02</time>
			</trkpt>
			<trkpt lat="48.90807995572686" lon="2.8147598449140787">
				<ele>49.0</ele>
				<time>2013-07-20T08:30:41</time>
			</trkpt>
			<trkpt lat="48.912579948082566" lon="2.8152599092572927">
				<ele>46.0</ele>
				<time>2013-07-20T08:31:46</time>
			</trkpt>
			<trkpt lat="48.913329960778356" lon="2.8156999591737986">
				<ele>46.0</ele>
				<time>2013-07-20T08:31:57</time>
			</trkpt>
			<trkpt lat="48.913439931347966" lon="2.815309949219227">
				<ele>45.0</ele>
				<time>2013-07-20T08:32:01</time>
			</trkpt>
			<trkpt lat="48.9208999928087" lon="2.81114992685616">
				<ele>44.0</ele>
				<time>2013-07-20T08:33:55</time>
			</trkpt>
			<trkpt lat="48.92786996439099" lon="2.8090298920869827">
				<ele>45.0</ele>
				<time>2013-07-20T08:35:36</time>
			</trkpt>
			<trkpt lat="48.93089993856847" lon="2.8088699653744698">
				<ele>46.0</ele>
				<time>2013-07-20T08:36:20</time>
			</trkpt>
			<trkpt lat="48.93200995400548" lon="2.8079998400062323">
				<ele>46.0</ele>
				<time>2013-07-20T08:36:38</time>
			</trkpt>
			<trkpt lat="48.93220994621515" lon="2.8081999998539686">
				<ele>46.0</ele>
				<time>2013-07-20T08:36:41</time>
			</trkpt>
			<trkpt lat="48.932989966124296" lon="2.8101799730211496">
				<ele>47.0</ele>
				<time>2013-07-20T08:37:03</time>
			</trkpt>
			<trkpt lat="48.935479978099465" lon="2.8098698426038027">
				<ele>45.0</ele>
				<time>2013-07-20T08:37:38</time>
			</trkpt>
			<trkpt lat="48.936039973050356" lon="2.8096098359674215">
				<ele>44.0</ele>
				<time>2013-07-20T08:37:47</time>
			</trkpt>
			<trkpt lat="48.93759984523058" lon="2.80841994099319">
				<ele>44.0</ele>
				<time>2013-07-20T08:38:12</time>
			</trkpt>
			<trkpt lat="48.94045991823077" lon="2.80710993334651">
				<ele>46.0</ele>
				<time>2013-07-20T08:38:54</time>
			</trkpt>
			<trkpt lat="48.9428398758173" lon="2.8056599479168653">
				<ele>49.0</ele>
				<time>2013-07-20T08:39:31</time>
			</trkpt>
			<trkpt lat="48.94304992631078" lon="2.805079836398363">
				<ele>48.0</ele>
				<time>2013-07-20T08:39:37</time>
			</trkpt>
			<trkpt lat="48.943559965118766" lon="2.804699968546629">
				<ele>48.0</ele>
				<time>2013-07-20T08:39:45</time>
			</trkpt>
			<trkpt lat="48.94333985634148" lon="2.8035099897533655">
				<ele>45.0</ele>
				<time>2013-07-20T08:39:57</time>
			</trkpt>
			<trkpt lat="48.94414988346398" lon="2.803369928151369">
				<ele>49.0</ele>
				<time>2013-07-20T08:40:09</time>
			</trkpt>
			<trkpt lat="48.94584998488426" lon="2.802679929882288">
				<ele>48.0</ele>
				<time>2013-07-20T08:40:34</time>
			</trkpt>
			<trkpt lat="48.94636991433799" lon="2.8023198433220387">
				<ele>48.0</ele>
				<time>2013-07-20T08:40:42</time>
			</trkpt>
			<trkpt lat="48.94734984263778" lon="2.801169930025935">
				<ele>49.0</ele>
				<time>2013-07-20T08:41:00</time>
			</trkpt>
			<trkpt lat="48.94872992299497" lon="2.798629878088832">
				<ele>48.0</ele>
				<time>2013-07-20T08:41:31</time>
			</trkpt>
			<trkpt lat="48.94946996122599" lon="2.7959099505096674">
				<ele>48.0</ele>
				<time>2013-07-20T08:41:58</time>
			</trkpt>
			<trkpt lat="48.94969987682998" lon="2.793489843606949">
				<ele>50.0</ele>
				<time>2013-07-20T08:42:21</time>
			</trkpt>
			<trkpt lat="48.94884995184839" lon="2.79333989135921">
				<ele>44.0</ele>
				<time>2013-07-20T08:42:33</time>
			</trkpt>
			<trkpt lat="48.94969996064901" lon="2.793489843606949">
				<ele>50.0</ele>
				<time>2013-07-20T08:42:46</time>
			</trkpt>
			<trkpt lat="48.94951991736889" lon="2.789169894531369">
				<ele>45.0</ele>
				<time>2013-07-20T08:43:26</time>
			</trkpt>
			<trkpt lat="48.949659978970885" lon="2.782779950648546">
				<ele>47.0</ele>
				<time>2013-07-20T08:44:26</time>
			</trkpt>
			<trkpt lat="48.9491599984467" lon="2.7813199907541275">
				<ele>49.0</ele>
				<time>2013-07-20T08:44:42</time>
			</trkpt>
			<trkpt lat="48.94960993900895" lon="2.780459923669696">
				<ele>54.0</ele>
				<time>2013-07-20T08:44:52</time>
			</trkpt>
			<trkpt lat="48.94970993511379" lon="2.7796799037605524">
				<ele>55.0</ele>
				<time>2013-07-20T08:45:00</time>
			</trkpt>
			<trkpt lat="48.94950985908508" lon="2.7792698610574007">
				<ele>54.0</ele>
				<time>2013-07-20T08:45:04</time>
			</trkpt>
			<trkpt lat="48.948799995705485" lon="2.7792499121278524">
				<ele>56.0</ele>
				<time>2013-07-20T08:45:15</time>
			</trkpt>
			<trkpt lat="48.94767992198467" lon="2.7781699039041996">
				<ele>61.0</ele>
				<time>2013-07-20T08:45:33</time>
			</trkpt>
			<trkpt lat="48.94865993410349" lon="2.774959970265627">
				<ele>63.0</ele>
				<time>2013-07-20T08:46:07</time>
			</trkpt>
			<trkpt lat="48.94960993900895" lon="2.7742099575698376">
				<ele>63.0</ele>
				<time>2013-07-20T08:46:22</time>
			</trkpt>
			<trkpt lat="48.950349977239966" lon="2.774099987000227">
				<ele>61.0</ele>
				<time>2013-07-20T08:46:33</time>
			</trkpt>
			<trkpt lat="48.95082992501557" lon="2.7728799171745777">
				<ele>63.0</ele>
				<time>2013-07-20T08:46:46</time>
			</trkpt>
			<trkpt lat="48.95157993771136" lon="2.771589942276478">
				<ele>65.0</ele>
				<time>2013-07-20T08:47:02</time>
			</trkpt>
			<trkpt lat="48.95284987986088" lon="2.770749991759658">
				<ele>69.0</ele>
				<time>2013-07-20T08:47:22</time>
			</trkpt>
			<trkpt lat="48.953339885920286" lon="2.7705898974090815">
				<ele>70.0</ele>
				<time>2013-07-20T08:47:29</time>
			</trkpt>
			<trkpt lat="48.9555099606514" lon="2.7705098502337933">
				<ele>76.0</ele>
				<time>2013-07-20T08:48:00</time>
			</trkpt>
			<trkpt lat="48.95667990669608" lon="2.770019927993417">
				<ele>76.0</ele>
				<time>2013-07-20T08:48:17</time>
			</trkpt>
			<trkpt lat="48.95817993208766" lon="2.76894997805357">
				<ele>78.0</ele>
				<time>2013-07-20T08:48:41</time>
			</trkpt>
			<trkpt lat="48.96015998907387" lon="2.767819846048951">
				<ele>82.0</ele>
				<time>2013-07-20T08:49:11</time>
			</trkpt>
			<trkpt lat="48.96264983341098" lon="2.767409887164831">
				<ele>84.0</ele>
				<time>2013-07-20T08:49:47</time>
			</trkpt>
			<trkpt lat="48.96666987799108" lon="2.766299955546856">
				<ele>88.0</ele>
				<time>2013-07-20T08:50:46</time>
			</trkpt>
			<trkpt lat="48.96739985793829" lon="2.7658099494874477">
				<ele>91.0</ele>
				<time>2013-07-20T08:50:57</time>
			</trkpt>
			<trkpt lat="48.968369979411364" lon="2.764499941840768">
				<ele>96.0</ele>
				<time>2013-07-20T08:51:16</time>
			</trkpt>
			<trkpt lat="48.968759905546904" lon="2.764209844172001">
				<ele>97.0</ele>
				<time>2013-07-20T08:51:22</time>
			</trkpt>
			<trkpt lat="48.97098991088569" lon="2.763919997960329">
				<ele>104.0</ele>
				<time>2013-07-20T08:51:54</time>
			</trkpt>
			<trkpt lat="48.97222992964089" lon="2.7639698702841997">
				<ele>105.0</ele>
				<time>2013-07-20T08:52:11</time>
			</trkpt>
			<trkpt lat="48.97256998345256" lon="2.7635499369353056">
				<ele>106.0</ele>
				<time>2013-07-20T08:52:18</time>
			</trkpt>
			<trkpt lat="48.972889836877584" lon="2.7635198459029198">
				<ele>105.0</ele>
				<time>2013-07-20T08:52:22</time>
			</trkpt>
			<trkpt lat="48.972909953445196" lon="2.761089848354459">
				<ele>106.0</ele>
				<time>2013-07-20T08:52:45</time>
			</trkpt>
			<trkpt lat="48.973149927333" lon="2.7595099434256554">
				<ele>109.0</ele>
				<time>2013-07-20T08:53:00</time>
			</trkpt>
			<trkpt lat="48.97353993728757" lon="2.758449884131551">
				<ele>106.0</ele>
				<time>2013-07-20T08:53:12</time>
			</trkpt>
			<trkpt lat="48.99306985549629" lon="2.768249837681651">
				<ele>108.0</ele>
				<time>2013-07-20T08:58:06</time>
			</trkpt>
			<trkpt lat="48.993559861555696" lon="2.768229888752103">
				<ele>108.0</ele>
				<time>2013-07-20T08:58:13</time>
			</trkpt>
			<trkpt lat="48.99751989170909" lon="2.766939913854003">
				<ele>120.0</ele>
				<time>2013-07-20T08:59:11</time>
			</trkpt>
			<trkpt lat="48.99994997307658" lon="2.766899848356843">
				<ele>110.0</ele>
				<time>2013-07-20T08:59:45</time>
			</trkpt>
			<trkpt lat="49.000389939174056" lon="2.766989953815937">
				<ele>109.0</ele>
				<time>2013-07-20T08:59:52</time>
			</trkpt>
			<trkpt lat="49.00335998274386" lon="2.7685298770666122">
				<ele>108.0</ele>
				<time>2013-07-20T09:00:37</time>
			</trkpt>
			<trkpt lat="49.00432993657887" lon="2.768359975889325">
				<ele>107.0</ele>
				<time>2013-07-20T09:00:51</time>
			</trkpt>
			<trkpt lat="49.005929958075285" lon="2.768749985843897">
				<ele>111.0</ele>
				<time>2013-07-20T09:01:14</time>
			</trkpt>
			<trkpt lat="49.008059883490205" lon="2.7699198480695486">
				<ele>110.0</ele>
				<time>2013-07-20T09:01:46</time>
			</trkpt>
			<trkpt lat="49.01343989185989" lon="2.7691898681223392">
				<ele>112.0</ele>
				<time>2013-07-20T09:03:03</time>
			</trkpt>
			<trkpt lat="49.0156498644501" lon="2.768279928714037">
				<ele>108.0</ele>
				<time>2013-07-20T09:03:36</time>
			</trkpt>
			<trkpt lat="49.02032998390496" lon="2.768989959731698">
				<ele>128.0</ele>
				<time>2013-07-20T09:04:43</time>
			</trkpt>
			<trkpt lat="49.0224898327142" lon="2.769089872017503">
				<ele>144.0</ele>
				<time>2013-07-20T09:05:14</time>
			</trkpt>
			<trkpt lat="49.024369893595576" lon="2.7687999419867992">
				<ele>161.0</ele>
				<time>2013-07-20T09:05:41</time>
			</trkpt>
			<trkpt lat="49.02549994178116" lon="2.7695098891854286">
				<ele>166.0</ele>
				<time>2013-07-20T09:05:59</time>
			</trkpt>
			<trkpt lat="49.02585994452238" lon="2.7694699075073004">
				<ele>171.0</ele>
				<time>2013-07-20T09:06:04</time>
			</trkpt>
			<trkpt lat="49.02452998794615" lon="2.7674799598753452">
				<ele>172.0</ele>
				<time>2013-07-20T09:06:30</time>
			</trkpt>
			<trkpt lat="49.0243599191308" lon="2.7665999438613653">
				<ele>173.0</ele>
				<time>2013-07-20T09:06:39</time>
			</trkpt>
			<trkpt lat="49.02503985911608" lon="2.7585598547011614">
				<ele>150.0</ele>
				<time>2013-07-20T09:07:55</time>
			</trkpt>
			<trkpt lat="49.02623998001218" lon="2.7547999005764723">
				<ele>142.0</ele>
				<time>2013-07-20T09:08:34</time>
			</trkpt>
			<trkpt lat="49.02629999443889" lon="2.7525898441672325">
				<ele>145.0</ele>
				<time>2013-07-20T09:08:55</time>
			</trkpt>
			<trkpt lat="49.02673996053636" lon="2.750379955396056">
				<ele>147.0</ele>
				<time>2013-07-20T09:09:17</time>
			</trkpt>
			<trkpt lat="49.02834995649755" lon="2.749019907787442">
				<ele>161.0</ele>
				<time>2013-07-20T09:09:43</time>
			</trkpt>
			<trkpt lat="49.02894993312657" lon="2.7477099001407623">
				<ele>158.0</ele>
				<time>2013-07-20T09:09:58</time>
			</trkpt>
			<trkpt lat="49.030249966308475" lon="2.7479999978095293">
				<ele>160.0</ele>
				<time>2013-07-20T09:10:17</time>
			</trkpt>
			<trkpt lat="49.031329890713096" lon="2.74759984575212">
				<ele>164.0</ele>
				<time>2013-07-20T09:10:33</time>
			</trkpt>
			<trkpt lat="49.03255985118449" lon="2.744739856570959">
				<ele>161.0</ele>
				<time>2013-07-20T09:11:05</time>
			</trkpt>
			<trkpt lat="49.03340985998511" lon="2.743919938802719">
				<ele>161.0</ele>
				<time>2013-07-20T09:11:19</time>
			</trkpt>
			<trkpt lat="49.03371999040246" lon="2.743049981072545">
				<ele>158.0</ele>
				<time>2013-07-20T09:11:28</time>
			</trkpt>
			<trkpt lat="49.034999990835786" lon="2.742599956691265">
				<ele>156.0</ele>
				<time>2013-07-20T09:11:47</time>
			</trkpt>
			<trkpt lat="49.03603993356228" lon="2.7405199874192476">
				<ele>138.0</ele>
				<time>2013-07-20T09:12:12</time>
			</trkpt>
			<trkpt lat="49.03794991783798" lon="2.738979896530509">
				<ele>125.0</ele>
				<time>2013-07-20T09:12:42</time>
			</trkpt>
			<trkpt lat="49.03839994221926" lon="2.7249298989772797">
				<ele>122.0</ele>
				<time>2013-07-20T09:14:54</time>
			</trkpt>
			<trkpt lat="49.03962998650968" lon="2.7206699643284082">
				<ele>110.0</ele>
				<time>2013-07-20T09:15:38</time>
			</trkpt>
			<trkpt lat="49.04055995866656" lon="2.7186198346316814">
				<ele>109.0</ele>
				<time>2013-07-20T09:16:01</time>
			</trkpt>
			<trkpt lat="49.040479911491275" lon="2.714959876611829">
				<ele>113.0</ele>
				<time>2013-07-20T09:16:36</time>
			</trkpt>
			<trkpt lat="49.041059855371714" lon="2.712159985676408">
				<ele>115.0</ele>
				<time>2013-07-20T09:17:03</time>
			</trkpt>
			<trkpt lat="49.04125984758139" lon="2.70949998870492">
				<ele>115.0</ele>
				<time>2013-07-20T09:17:28</time>
			</trkpt>
			<trkpt lat="49.041129844263196" lon="2.7078399527817965">
				<ele>115.0</ele>
				<time>2013-07-20T09:17:44</time>
			</trkpt>
			<trkpt lat="49.040009854361415" lon="2.7058098558336496">
				<ele>115.0</ele>
				<time>2013-07-20T09:18:09</time>
			</trkpt>
			<trkpt lat="49.03990985825658" lon="2.7054299879819155">
				<ele>116.0</ele>
				<time>2013-07-20T09:18:13</time>
			</trkpt>
			<trkpt lat="49.0400399453938" lon="2.7049199491739273">
				<ele>116.0</ele>
				<time>2013-07-20T09:18:18</time>
			</trkpt>
			<trkpt lat="49.04229987412691" lon="2.7068999223411083">
				<ele>114.0</ele>
				<time>2013-07-20T09:18:55</time>
			</trkpt>
			<trkpt lat="49.04363997280598" lon="2.7064899634569883">
				<ele>114.0</ele>
				<time>2013-07-20T09:19:15</time>
			</trkpt>
			<trkpt lat="49.04570988379419" lon="2.7071398962289095">
				<ele>118.0</ele>
				<time>2013-07-20T09:19:45</time>
			</trkpt>
			<trkpt lat="49.04755985364318" lon="2.7085198927670717">
				<ele>118.0</ele>
				<time>2013-07-20T09:20:14</time>
			</trkpt>
			<trkpt lat="49.049099860712886" lon="2.710049841552973">
				<ele>118.0</ele>
				<time>2013-07-20T09:20:40</time>
			</trkpt>
			<trkpt lat="49.05200988985598" lon="2.711959909647703">
				<ele>115.0</ele>
				<time>2013-07-20T09:21:26</time>
			</trkpt>
			<trkpt lat="49.05249989591539" lon="2.71257983520627">
				<ele>112.0</ele>
				<time>2013-07-20T09:21:35</time>
			</trkpt>
			<trkpt lat="49.05367990024388" lon="2.71480992436409">
				<ele>108.0</ele>
				<time>2013-07-20T09:22:02</time>
			</trkpt>
			<trkpt lat="49.05410989187658" lon="2.7152099926024675">
				<ele>107.0</ele>
				<time>2013-07-20T09:22:09</time>
			</trkpt>
			<trkpt lat="49.05504992231727" lon="2.7156098932027817">
				<ele>106.0</ele>
				<time>2013-07-20T09:22:23</time>
			</trkpt>
			<trkpt lat="49.05769994482398" lon="2.703539952635765">
				<ele>112.0</ele>
				<time>2013-07-20T09:24:22</time>
			</trkpt>
			<trkpt lat="49.058009991422296" lon="2.7027899399399757">
				<ele>114.0</ele>
				<time>2013-07-20T09:24:30</time>
			</trkpt>
			<trkpt lat="49.05793991871178" lon="2.702119890600443">
				<ele>115.0</ele>
				<time>2013-07-20T09:24:37</time>
			</trkpt>
			<trkpt lat="49.05814996920526" lon="2.700979867950082">
				<ele>117.0</ele>
				<time>2013-07-20T09:24:48</time>
			</trkpt>
			<trkpt lat="49.05907985754311" lon="2.700409982353449">
				<ele>117.0</ele>
				<time>2013-07-20T09:25:02</time>
			</trkpt>
			<trkpt lat="49.06115999445319" lon="2.6966798678040504">
				<ele>115.0</ele>
				<time>2013-07-20T09:25:48</time>
			</trkpt>
			<trkpt lat="49.06430999748409" lon="2.689679889008403">
				<ele>112.0</ele>
				<time>2013-07-20T09:27:08</time>
			</trkpt>
			<trkpt lat="49.06463999301195" lon="2.6892799884080887">
				<ele>113.0</ele>
				<time>2013-07-20T09:27:14</time>
			</trkpt>
			<trkpt lat="49.064779886975884" lon="2.688629971817136">
				<ele>113.0</ele>
				<time>2013-07-20T09:27:20</time>
			</trkpt>
			<trkpt lat="49.06839986331761" lon="2.6807398349046707">
				<ele>111.0</ele>
				<time>2013-07-20T09:28:50</time>
			</trkpt>
			<trkpt lat="49.069179967045784" lon="2.679629987105727">
				<ele>112.0</ele>
				<time>2013-07-20T09:29:06</time>
			</trkpt>
			<trkpt lat="49.07150988467038" lon="2.677109884098172">
				<ele>115.0</ele>
				<time>2013-07-20T09:29:46</time>
			</trkpt>
			<trkpt lat="49.07381993718445" lon="2.6751799508929253">
				<ele>112.0</ele>
				<time>2013-07-20T09:30:24</time>
			</trkpt>
			<trkpt lat="49.07415990717709" lon="2.6750999875366688">
				<ele>111.0</ele>
				<time>2013-07-20T09:30:29</time>
			</trkpt>
			<trkpt lat="49.0750799048692" lon="2.675329986959696">
				<ele>111.0</ele>
				<time>2013-07-20T09:30:42</time>
			</trkpt>
			<trkpt lat="49.0757498703897" lon="2.6752398815006018">
				<ele>110.0</ele>
				<time>2013-07-20T09:30:52</time>
			</trkpt>
			<trkpt lat="49.077519960701466" lon="2.675909847021103">
				<ele>107.0</ele>
				<time>2013-07-20T09:31:18</time>
			</trkpt>
			<trkpt lat="49.08507985062897" lon="2.67707996070385">
				<ele>94.0</ele>
				<time>2013-07-20T09:33:07</time>
			</trkpt>
			<trkpt lat="49.0857398416847" lon="2.6776799373328686">
				<ele>93.0</ele>
				<time>2013-07-20T09:33:18</time>
			</trkpt>
			<trkpt lat="49.08676997758448" lon="2.6791799627244473">
				<ele>93.0</ele>
				<time>2013-07-20T09:33:38</time>
			</trkpt>
			<trkpt lat="49.08967983908951" lon="2.6821899879723787">
				<ele>92.0</ele>
				<time>2013-07-20T09:34:28</time>
			</trkpt>
			<trkpt lat="49.09288985654712" lon="2.684629876166582">
				<ele>92.0</ele>
				<time>2013-07-20T09:35:19</time>
			</trkpt>
			<trkpt lat="49.094059970229864" lon="2.685699909925461">
				<ele>93.0</ele>
				<time>2013-07-20T09:35:39</time>
			</trkpt>
			<trkpt lat="49.095009891316295" lon="2.686209948733449">
				<ele>92.0</ele>
				<time>2013-07-20T09:35:53</time>
			</trkpt>
			<trkpt lat="49.09712992608547" lon="2.686109868809581">
				<ele>96.0</ele>
				<time>2013-07-20T09:36:24</time>
			</trkpt>
			<trkpt lat="49.098029891029" lon="2.686389908194542">
				<ele>89.0</ele>
				<time>2013-07-20T09:36:37</time>
			</trkpt>
			<trkpt lat="49.09915993921459" lon="2.6869999431073666">
				<ele>85.0</ele>
				<time>2013-07-20T09:36:54</time>
			</trkpt>
			<trkpt lat="49.10001992247999" lon="2.6871699281036854">
				<ele>86.0</ele>
				<time>2013-07-20T09:37:06</time>
			</trkpt>
			<trkpt lat="49.101049890741706" lon="2.686869939789176">
				<ele>85.0</ele>
				<time>2013-07-20T09:37:21</time>
			</trkpt>
			<trkpt lat="49.10283984616399" lon="2.685729833319783">
				<ele>88.0</ele>
				<time>2013-07-20T09:37:49</time>
			</trkpt>
			<trkpt lat="49.10434992983937" lon="2.685949942097068">
				<ele>88.0</ele>
				<time>2013-07-20T09:38:11</time>
			</trkpt>
			<trkpt lat="49.10522994585335" lon="2.6858599204570055">
				<ele>86.0</ele>
				<time>2013-07-20T09:38:23</time>
			</trkpt>
			<trkpt lat="49.10595992580056" lon="2.6856398954987526">
				<ele>86.0</ele>
				<time>2013-07-20T09:38:34</time>
			</trkpt>
			<trkpt lat="49.10678990185261" lon="2.6849599555134773">
				<ele>84.0</ele>
				<time>2013-07-20T09:38:47</time>
			</trkpt>
			<trkpt lat="49.10762993618846" lon="2.6848099194467068">
				<ele>85.0</ele>
				<time>2013-07-20T09:38:59</time>
			</trkpt>
			<trkpt lat="49.108889903873205" lon="2.6853998377919197">
				<ele>86.0</ele>
				<time>2013-07-20T09:39:18</time>
			</trkpt>
			<trkpt lat="49.110289849340916" lon="2.6850998494774103">
				<ele>89.0</ele>
				<time>2013-07-20T09:39:39</time>
			</trkpt>
			<trkpt lat="49.11409992724657" lon="2.6860698871314526">
				<ele>94.0</ele>
				<time>2013-07-20T09:40:34</time>
			</trkpt>
			<trkpt lat="49.11536986939609" lon="2.68603996373713">
				<ele>87.0</ele>
				<time>2013-07-20T09:40:52</time>
			</trkpt>
			<trkpt lat="49.11576993763447" lon="2.6863299775868654">
				<ele>84.0</ele>
				<time>2013-07-20T09:40:58</time>
			</trkpt>
			<trkpt lat="49.1160998493433" lon="2.6860698871314526">
				<ele>85.0</ele>
				<time>2013-07-20T09:41:04</time>
			</trkpt>
			<trkpt lat="49.11649991758168" lon="2.68601993098855">
				<ele>87.0</ele>
				<time>2013-07-20T09:41:09</time>
			</trkpt>
			<trkpt lat="49.11865993402898" lon="2.687069931998849">
				<ele>92.0</ele>
				<time>2013-07-20T09:41:42</time>
			</trkpt>
			<trkpt lat="49.124829936772585" lon="2.6856198627501726">
				<ele>103.0</ele>
				<time>2013-07-20T09:43:11</time>
			</trkpt>
			<trkpt lat="49.12554985843599" lon="2.685679877176881">
				<ele>100.0</ele>
				<time>2013-07-20T09:43:21</time>
			</trkpt>
			<trkpt lat="49.125709952786565" lon="2.685559932142496">
				<ele>100.0</ele>
				<time>2013-07-20T09:43:24</time>
			</trkpt>
			<trkpt lat="49.12573987618089" lon="2.6851898711174726">
				<ele>101.0</ele>
				<time>2013-07-20T09:43:27</time>
			</trkpt>
			<trkpt lat="49.12566527724266" lon="2.6850871089845896">
				<ele>101.0</ele>
				<time>2013-07-20T09:43:29</time>
			</trkpt>
			<trkpt lat="49.12566519342363" lon="2.685086941346526">
				<ele>101.0</ele>
				<time>2013-07-20T09:43:29</time>
			</trkpt>
			<trkpt lat="49.125369898974895" lon="2.684679999947548">
				<ele>104.0</ele>
				<time>2013-07-20T09:43:34</time>
			</trkpt>
			<trkpt lat="49.125239895656705" lon="2.684059990569949">
				<ele>107.0</ele>
				<time>2013-07-20T09:43:41</time>
			</trkpt>
			<trkpt lat="49.12476992234588" lon="2.677289927378297">
				<ele>110.0</ele>
				<time>2013-07-20T09:44:44</time>
			</trkpt>
			<trkpt lat="49.12419986911118" lon="2.673909841105342">
				<ele>109.0</ele>
				<time>2013-07-20T09:45:17</time>
			</trkpt>
			<trkpt lat="49.12395989522338" lon="2.6707898452878">
				<ele>109.0</ele>
				<time>2013-07-20T09:45:46</time>
			</trkpt>
			<trkpt lat="49.12325983867049" lon="2.6674899738281965">
				<ele>114.0</ele>
				<time>2013-07-20T09:46:19</time>
			</trkpt>
			<trkpt lat="49.12243992090225" lon="2.6650599762797356">
				<ele>113.0</ele>
				<time>2013-07-20T09:46:44</time>
			</trkpt>
			<trkpt lat="49.117919979617" lon="2.6558299921453">
				<ele>112.0</ele>
				<time>2013-07-20T09:48:32</time>
			</trkpt>
			<trkpt lat="49.11699998192489" lon="2.6481499895453453">
				<ele>104.0</ele>
				<time>2013-07-20T09:49:45</time>
			</trkpt>
			<trkpt lat="49.116529840976" lon="2.646739985793829">
				<ele>102.0</ele>
				<time>2013-07-20T09:50:00</time>
			</trkpt>
			<trkpt lat="49.11448985338211" lon="2.644539987668395">
				<ele>92.0</ele>
				<time>2013-07-20T09:50:36</time>
			</trkpt>
			<trkpt lat="49.11353993229568" lon="2.6425798796117306">
				<ele>89.0</ele>
				<time>2013-07-20T09:50:59</time>
			</trkpt>
			<trkpt lat="49.11372995004058" lon="2.64074994251132">
				<ele>91.0</ele>
				<time>2013-07-20T09:51:16</time>
			</trkpt>
			<trkpt lat="49.11330993287265" lon="2.6380898617208004">
				<ele>90.0</ele>
				<time>2013-07-20T09:51:41</time>
			</trkpt>
			<trkpt lat="49.11466998048127" lon="2.631229944527149">
				<ele>90.0</ele>
				<time>2013-07-20T09:52:49</time>
			</trkpt>
			<trkpt lat="49.11471993662417" lon="2.627609884366393">
				<ele>92.0</ele>
				<time>2013-07-20T09:53:22</time>
			</trkpt>
			<trkpt lat="49.1164899431169" lon="2.620919868350029">
				<ele>93.0</ele>
				<time>2013-07-20T09:54:30</time>
			</trkpt>
			<trkpt lat="49.1164798848331" lon="2.6196998823434114">
				<ele>94.0</ele>
				<time>2013-07-20T09:54:41</time>
			</trkpt>
			<trkpt lat="49.112519854679704" lon="2.613259982317686">
				<ele>99.0</ele>
				<time>2013-07-20T09:56:04</time>
			</trkpt>
			<trkpt lat="49.11085990257561" lon="2.6111599802970886">
				<ele>96.0</ele>
				<time>2013-07-20T09:56:35</time>
			</trkpt>
			<trkpt lat="49.11056988872588" lon="2.61045983992517">
				<ele>94.0</ele>
				<time>2013-07-20T09:56:43</time>
			</trkpt>
			<trkpt lat="49.1106999758631" lon="2.6069199945777655">
				<ele>101.0</ele>
				<time>2013-07-20T09:57:16</time>
			</trkpt>
			<trkpt lat="49.1113699413836" lon="2.6024799328297377">
				<ele>105.0</ele>
				<time>2013-07-20T09:57:58</time>
			</trkpt>
			<trkpt lat="49.11102997139096" lon="2.601839890703559">
				<ele>103.0</ele>
				<time>2013-07-20T09:58:06</time>
			</trkpt>
			<trkpt lat="49.107299940660596" lon="2.5982199981808662">
				<ele>103.0</ele>
				<time>2013-07-20T09:59:09</time>
			</trkpt>
			<trkpt lat="49.10674992017448" lon="2.59715985506773">
				<ele>101.0</ele>
				<time>2013-07-20T09:59:22</time>
			</trkpt>
			<trkpt lat="49.1062599979341" lon="2.5950998347252607">
				<ele>102.0</ele>
				<time>2013-07-20T09:59:43</time>
			</trkpt>
			<trkpt lat="49.105429854243994" lon="2.5889098830521107">
				<ele>100.0</ele>
				<time>2013-07-20T10:00:42</time>
			</trkpt>
			<trkpt lat="49.10397995263338" lon="2.586719859391451">
				<ele>104.0</ele>
				<time>2013-07-20T10:01:11</time>
			</trkpt>
			<trkpt lat="49.10361994989216" lon="2.585699949413538">
				<ele>104.0</ele>
				<time>2013-07-20T10:01:22</time>
			</trkpt>
			<trkpt lat="49.1032399982214" lon="2.5851399544626474">
				<ele>105.0</ele>
				<time>2013-07-20T10:01:29</time>
			</trkpt>
			<trkpt lat="49.10401985049248" lon="2.5829899962991476">
				<ele>102.0</ele>
				<time>2013-07-20T10:01:52</time>
			</trkpt>
			<trkpt lat="49.10404994152486" lon="2.5816399231553078">
				<ele>106.0</ele>
				<time>2013-07-20T10:02:05</time>
			</trkpt>
			<trkpt lat="49.1027098428458" lon="2.579549979418516">
				<ele>110.0</ele>
				<time>2013-07-20T10:02:32</time>
			</trkpt>
			<trkpt lat="49.098039865493774" lon="2.574299890547991">
				<ele>140.0</ele>
				<time>2013-07-20T10:03:55</time>
			</trkpt>
			<trkpt lat="49.09751985222101" lon="2.574159996584058">
				<ele>143.0</ele>
				<time>2013-07-20T10:04:03</time>
			</trkpt>
			<trkpt lat="49.0969798900187" lon="2.5744098611176014">
				<ele>145.0</ele>
				<time>2013-07-20T10:04:11</time>
			</trkpt>
			<trkpt lat="49.09609995782375" lon="2.57592991925776">
				<ele>162.0</ele>
				<time>2013-07-20T10:04:30</time>
			</trkpt>
			<trkpt lat="49.095849841833115" lon="2.5759598426520824">
				<ele>164.0</ele>
				<time>2013-07-20T10:04:33</time>
			</trkpt>
			<trkpt lat="49.09546997398138" lon="2.575709978118539">
				<ele>167.0</ele>
				<time>2013-07-20T10:04:39</time>
			</trkpt>
			<trkpt lat="49.09518985077739" lon="2.574889976531267">
				<ele>167.0</ele>
				<time>2013-07-20T10:04:48</time>
			</trkpt>
			<trkpt lat="49.09591999836266" lon="2.573229856789112">
				<ele>163.0</ele>
				<time>2013-07-20T10:05:07</time>
			</trkpt>
			<trkpt lat="49.095779936760664" lon="2.571799987927079">
				<ele>170.0</ele>
				<time>2013-07-20T10:05:20</time>
			</trkpt>
			<trkpt lat="49.0919098444283" lon="2.5675999000668526">
				<ele>168.0</ele>
				<time>2013-07-20T10:06:28</time>
			</trkpt>
			<trkpt lat="49.090949948877096" lon="2.5648999214172363">
				<ele>162.0</ele>
				<time>2013-07-20T10:06:57</time>
			</trkpt>
			<trkpt lat="49.090938214212656" lon="2.564912745729089">
				<ele>162.0</ele>
				<time>2013-07-20T10:06:57</time>
			</trkpt>
			<trkpt lat="49.09093804657459" lon="2.564912997186184">
				<ele>162.0</ele>
				<time>2013-07-20T10:06:57</time>
			</trkpt>
			<trkpt lat="49.08929997123778" lon="2.5667198840528727">
				<ele>157.0</ele>
				<time>2013-07-20T10:07:26</time>
			</trkpt>
			<trkpt lat="49.08701992593706" lon="2.5705499947071075">
				<ele>138.0</ele>
				<time>2013-07-20T10:08:14</time>
			</trkpt>
			<trkpt lat="49.08451985567808" lon="2.570369867607951">
				<ele>131.0</ele>
				<time>2013-07-20T10:08:50</time>
			</trkpt>
			<trkpt lat="49.083429956808686" lon="2.5691699981689453">
				<ele>128.0</ele>
				<time>2013-07-20T10:09:09</time>
			</trkpt>
			<trkpt lat="49.08174988813698" lon="2.570229973644018">
				<ele>130.0</ele>
				<time>2013-07-20T10:09:35</time>
			</trkpt>
			<trkpt lat="49.0805799420923" lon="2.569989999756217">
				<ele>127.0</ele>
				<time>2013-07-20T10:09:52</time>
			</trkpt>
			<trkpt lat="49.07926985062659" lon="2.569479960948229">
				<ele>126.0</ele>
				<time>2013-07-20T10:10:12</time>
			</trkpt>
			<trkpt lat="49.07797987572849" lon="2.569709960371256">
				<ele>127.0</ele>
				<time>2013-07-20T10:10:30</time>
			</trkpt>
			<trkpt lat="49.07438990660012" lon="2.569909952580929">
				<ele>134.0</ele>
				<time>2013-07-20T10:11:21</time>
			</trkpt>
			<trkpt lat="49.07262995839119" lon="2.57145993411541">
				<ele>123.0</ele>
				<time>2013-07-20T10:11:51</time>
			</trkpt>
			<trkpt lat="49.07119992189109" lon="2.5720198452472687">
				<ele>113.0</ele>
				<time>2013-07-20T10:12:12</time>
			</trkpt>
			<trkpt lat="49.07047991640866" lon="2.572649996727705">
				<ele>117.0</ele>
				<time>2013-07-20T10:12:23</time>
			</trkpt>
			<trkpt lat="49.069959903135896" lon="2.5704699475318193">
				<ele>115.0</ele>
				<time>2013-07-20T10:12:45</time>
			</trkpt>
			<trkpt lat="49.06899992376566" lon="2.5682398583739996">
				<ele>113.0</ele>
				<time>2013-07-20T10:13:10</time>
			</trkpt>
			<trkpt lat="49.06882985495031" lon="2.5674898456782103">
				<ele>112.0</ele>
				<time>2013-07-20T10:13:18</time>
			</trkpt>
			<trkpt lat="49.06858988106251" lon="2.567929979413748">
				<ele>114.0</ele>
				<time>2013-07-20T10:13:23</time>
			</trkpt>
			<trkpt lat="49.068019995465875" lon="2.568419985473156">
				<ele>120.0</ele>
				<time>2013-07-20T10:13:32</time>
			</trkpt>
			<trkpt lat="49.066819874569774" lon="2.57016995921731">
				<ele>124.0</ele>
				<time>2013-07-20T10:13:56</time>
			</trkpt>
			<trkpt lat="49.06708993948996" lon="2.5714499596506357">
				<ele>125.0</ele>
				<time>2013-07-20T10:14:09</time>
			</trkpt>
			<trkpt lat="49.06687988899648" lon="2.573089962825179">
				<ele>125.0</ele>
				<time>2013-07-20T10:14:24</time>
			</trkpt>
			<trkpt lat="49.06688994728029" lon="2.5765899941325188">
				<ele>127.0</ele>
				<time>2013-07-20T10:14:57</time>
			</trkpt>
			<trkpt lat="49.06671996228397" lon="2.578339884057641">
				<ele>125.0</ele>
				<time>2013-07-20T10:15:14</time>
			</trkpt>
			<trkpt lat="49.06721994280815" lon="2.5815598759800196">
				<ele>122.0</ele>
				<time>2013-07-20T10:15:45</time>
			</trkpt>
			<trkpt lat="49.06720996834338" lon="2.58260996080935">
				<ele>122.0</ele>
				<time>2013-07-20T10:15:55</time>
			</trkpt>
			<trkpt lat="49.06539989635348" lon="2.588579971343279">
				<ele>120.0</ele>
				<time>2013-07-20T10:16:56</time>
			</trkpt>
			<trkpt lat="49.064799919724464" lon="2.595279961824417">
				<ele>113.0</ele>
				<time>2013-07-20T10:17:59</time>
			</trkpt>
			<trkpt lat="49.064239924773574" lon="2.597709959372878">
				<ele>115.0</ele>
				<time>2013-07-20T10:18:24</time>
			</trkpt>
			<trkpt lat="49.063939936459064" lon="2.5986999459564686">
				<ele>117.0</ele>
				<time>2013-07-20T10:18:34</time>
			</trkpt>
			<trkpt lat="49.06375997699797" lon="2.5988699309527874">
				<ele>118.0</ele>
				<time>2013-07-20T10:18:37</time>
			</trkpt>
			<trkpt lat="49.06499999575317" lon="2.600709842517972">
				<ele>114.0</ele>
				<time>2013-07-20T10:19:02</time>
			</trkpt>
			<trkpt lat="49.06497996300459" lon="2.6015198696404696">
				<ele>112.0</ele>
				<time>2013-07-20T10:19:09</time>
			</trkpt>
			<trkpt lat="49.06431997194886" lon="2.6024299766868353">
				<ele>111.0</ele>
				<time>2013-07-20T10:19:22</time>
			</trkpt>
			<trkpt lat="49.0629899315536" lon="2.60250985622406">
				<ele>109.0</ele>
				<time>2013-07-20T10:19:41</time>
			</trkpt>
			<trkpt lat="49.0618899744004" lon="2.6029499899595976">
				<ele>110.0</ele>
				<time>2013-07-20T10:19:57</time>
			</trkpt>
			<trkpt lat="49.06151991337538" lon="2.6064099557697773">
				<ele>105.0</ele>
				<time>2013-07-20T10:20:30</time>
			</trkpt>
			<trkpt lat="49.06024997122586" lon="2.609369857236743">
				<ele>105.0</ele>
				<time>2013-07-20T10:21:03</time>
			</trkpt>
			<trkpt lat="49.05658992938697" lon="2.6141798961907625">
				<ele>106.0</ele>
				<time>2013-07-20T10:22:12</time>
			</trkpt>
			<trkpt lat="49.0517099853605" lon="2.61842985637486">
				<ele>100.0</ele>
				<time>2013-07-20T10:23:33</time>
			</trkpt>
			<trkpt lat="49.05133992433548" lon="2.618999993428588">
				<ele>100.0</ele>
				<time>2013-07-20T10:23:40</time>
			</trkpt>
			<trkpt lat="49.050519838929176" lon="2.621409958228469">
				<ele>95.0</ele>
				<time>2013-07-20T10:24:05</time>
			</trkpt>
			<trkpt lat="49.048309950158" lon="2.6232999935746193">
				<ele>91.0</ele>
				<time>2013-07-20T10:24:42</time>
			</trkpt>
			<trkpt lat="49.04721996746957" lon="2.6238099485635757">
				<ele>88.0</ele>
				<time>2013-07-20T10:24:58</time>
			</trkpt>
			<trkpt lat="49.046929869800806" lon="2.6244799979031086">
				<ele>86.0</ele>
				<time>2013-07-20T10:25:06</time>
			</trkpt>
			<trkpt lat="49.046539943665266" lon="2.6247199717909098">
				<ele>88.0</ele>
				<time>2013-07-20T10:25:12</time>
			</trkpt>
			<trkpt lat="49.04613987542689" lon="2.625409886240959">
				<ele>89.0</ele>
				<time>2013-07-20T10:25:20</time>
			</trkpt>
			<trkpt lat="49.0457799565047" lon="2.6255699805915356">
				<ele>90.0</ele>
				<time>2013-07-20T10:25:26</time>
			</trkpt>
			<trkpt lat="49.04542992822826" lon="2.6238498464226723">
				<ele>94.0</ele>
				<time>2013-07-20T10:25:42</time>
			</trkpt>
			<trkpt lat="49.032829916104674" lon="2.6348399464040995">
				<ele>95.0</ele>
				<time>2013-07-20T10:29:10</time>
			</trkpt>
			<trkpt lat="49.0336299687624" lon="2.637799931690097">
				<ele>94.0</ele>
				<time>2013-07-20T10:29:40</time>
			</trkpt>
			<trkpt lat="49.03382996097207" lon="2.639819970354438">
				<ele>91.0</ele>
				<time>2013-07-20T10:29:59</time>
			</trkpt>
			<trkpt lat="49.033149937167764" lon="2.6393099315464497">
				<ele>91.0</ele>
				<time>2013-07-20T10:30:10</time>
			</trkpt>
			<trkpt lat="49.0302899479866" lon="2.638219865038991">
				<ele>86.0</ele>
				<time>2013-07-20T10:30:52</time>
			</trkpt>
			<trkpt lat="49.029949977993965" lon="2.638259846717119">
				<ele>86.0</ele>
				<time>2013-07-20T10:30:57</time>
			</trkpt>
			<trkpt lat="49.028559923172" lon="2.6392999570816755">
				<ele>83.0</ele>
				<time>2013-07-20T10:31:19</time>
			</trkpt>
			<trkpt lat="49.02794988825917" lon="2.6404098886996508">
				<ele>89.0</ele>
				<time>2013-07-20T10:31:33</time>
			</trkpt>
			<trkpt lat="49.02708990499377" lon="2.641349919140339">
				<ele>89.0</ele>
				<time>2013-07-20T10:31:48</time>
			</trkpt>
			<trkpt lat="49.01968994177878" lon="2.648169854655862">
				<ele>80.0</ele>
				<time>2013-07-20T10:33:51</time>
			</trkpt>
			<trkpt lat="49.0186199080199" lon="2.649399982765317">
				<ele>81.0</ele>
				<time>2013-07-20T10:34:11</time>
			</trkpt>
			<trkpt lat="49.01554995216429" lon="2.654609838500619">
				<ele>77.0</ele>
				<time>2013-07-20T10:35:16</time>
			</trkpt>
			<trkpt lat="49.013149961829185" lon="2.656469950452447">
				<ele>77.0</ele>
				<time>2013-07-20T10:35:55</time>
			</trkpt>
			<trkpt lat="49.01143996976316" lon="2.657419955357909">
				<ele>74.0</ele>
				<time>2013-07-20T10:36:21</time>
			</trkpt>
			<trkpt lat="49.00868986733258" lon="2.659759931266308">
				<ele>75.0</ele>
				<time>2013-07-20T10:37:06</time>
			</trkpt>
			<trkpt lat="49.00843991898" lon="2.660469962283969">
				<ele>74.0</ele>
				<time>2013-07-20T10:37:13</time>
			</trkpt>
			<trkpt lat="49.00843991898" lon="2.661059880629182">
				<ele>72.0</ele>
				<time>2013-07-20T10:37:19</time>
			</trkpt>
			<trkpt lat="49.008749881759286" lon="2.6618799660354853">
				<ele>71.0</ele>
				<time>2013-07-20T10:37:28</time>
			</trkpt>
			<trkpt lat="49.00982997380197" lon="2.663059886544943">
				<ele>73.0</ele>
				<time>2013-07-20T10:37:47</time>
			</trkpt>
			<trkpt lat="49.010209841653705" lon="2.6640398986637592">
				<ele>77.0</ele>
				<time>2013-07-20T10:37:57</time>
			</trkpt>
			<trkpt lat="49.0102999471128" lon="2.6643599197268486">
				<ele>78.0</ele>
				<time>2013-07-20T10:38:01</time>
			</trkpt>
			<trkpt lat="49.009949918836355" lon="2.665289891883731">
				<ele>77.0</ele>
				<time>2013-07-20T10:38:11</time>
			</trkpt>
			<trkpt lat="49.01055995374918" lon="2.6678498927503824">
				<ele>79.0</ele>
				<time>2013-07-20T10:38:36</time>
			</trkpt>
			<trkpt lat="49.007519921287894" lon="2.669779909774661">
				<ele>77.0</ele>
				<time>2013-07-20T10:39:23</time>
			</trkpt>
			<trkpt lat="49.00797983631492" lon="2.6727298367768526">
				<ele>86.0</ele>
				<time>2013-07-20T10:39:52</time>
			</trkpt>
			<trkpt lat="49.010249990969896" lon="2.697789967060089">
				<ele>94.0</ele>
				<time>2013-07-20T10:43:49</time>
			</trkpt>
			<trkpt lat="49.01044998317957" lon="2.6987599208950996">
				<ele>94.0</ele>
				<time>2013-07-20T10:43:59</time>
			</trkpt>
			<trkpt lat="49.01037999428809" lon="2.6993698719888926">
				<ele>93.0</ele>
				<time>2013-07-20T10:44:04</time>
			</trkpt>
			<trkpt lat="49.00279998779297" lon="2.7011399623006582">
				<ele>83.0</ele>
				<time>2013-07-20T10:45:54</time>
			</trkpt>
			<trkpt lat="49.0024599339813" lon="2.701749913394451">
				<ele>83.0</ele>
				<time>2013-07-20T10:46:01</time>
			</trkpt>
			<trkpt lat="49.001999851316214" lon="2.7037498354911804">
				<ele>78.0</ele>
				<time>2013-07-20T10:46:21</time>
			</trkpt>
			<trkpt lat="49.00144999846816" lon="2.703709853813052">
				<ele>75.0</ele>
				<time>2013-07-20T10:46:29</time>
			</trkpt>
			<trkpt lat="49.000259935855865" lon="2.7029899321496487">
				<ele>76.0</ele>
				<time>2013-07-20T10:46:48</time>
			</trkpt>
			<trkpt lat="48.999099964275956" lon="2.70197999663651">
				<ele>77.0</ele>
				<time>2013-07-20T10:47:07</time>
			</trkpt>
			<trkpt lat="48.99718998000026" lon="2.7013198379427195">
				<ele>73.0</ele>
				<time>2013-07-20T10:47:35</time>
			</trkpt>
			<trkpt lat="48.99512995965779" lon="2.699979990720749">
				<ele>69.0</ele>
				<time>2013-07-20T10:48:07</time>
			</trkpt>
			<trkpt lat="48.99276986718178" lon="2.6971698738634586">
				<ele>69.0</ele>
				<time>2013-07-20T10:48:49</time>
			</trkpt>
			<trkpt lat="48.9912698417902" lon="2.6959199644625187">
				<ele>69.0</ele>
				<time>2013-07-20T10:49:14</time>
			</trkpt>
			<trkpt lat="48.989819940179586" lon="2.6941099762916565">
				<ele>65.0</ele>
				<time>2013-07-20T10:49:41</time>
			</trkpt>
			<trkpt lat="48.98726991377771" lon="2.6935898791998625">
				<ele>66.0</ele>
				<time>2013-07-20T10:50:17</time>
			</trkpt>
			<trkpt lat="48.98694997653365" lon="2.6936199702322483">
				<ele>67.0</ele>
				<time>2013-07-20T10:50:22</time>
			</trkpt>
			<trkpt lat="48.986149840056896" lon="2.694199997931719">
				<ele>75.0</ele>
				<time>2013-07-20T10:50:35</time>
			</trkpt>
			<trkpt lat="48.983759908005595" lon="2.6963299233466387">
				<ele>87.0</ele>
				<time>2013-07-20T10:51:14</time>
			</trkpt>
			<trkpt lat="48.97830999456346" lon="2.696649944409728">
				<ele>84.0</ele>
				<time>2013-07-20T10:52:32</time>
			</trkpt>
			<trkpt lat="48.975249929353595" lon="2.6978699304163456">
				<ele>80.0</ele>
				<time>2013-07-20T10:53:18</time>
			</trkpt>
			<trkpt lat="48.96896995604038" lon="2.6987799536436796">
				<ele>75.0</ele>
				<time>2013-07-20T10:54:48</time>
			</trkpt>
			<trkpt lat="48.96650995127857" lon="2.6989198476076126">
				<ele>74.0</ele>
				<time>2013-07-20T10:55:23</time>
			</trkpt>
			<trkpt lat="48.96433996036649" lon="2.6985999941825867">
				<ele>76.0</ele>
				<time>2013-07-20T10:55:54</time>
			</trkpt>
			<trkpt lat="48.96312986500561" lon="2.6987999863922596">
				<ele>76.0</ele>
				<time>2013-07-20T10:56:11</time>
			</trkpt>
			<trkpt lat="48.960639936849475" lon="2.698569903150201">
				<ele>76.0</ele>
				<time>2013-07-20T10:56:47</time>
			</trkpt>
			<trkpt lat="48.959739888086915" lon="2.6982799731194973">
				<ele>74.0</ele>
				<time>2013-07-20T10:57:00</time>
			</trkpt>
			<trkpt lat="48.9493899140507" lon="2.692219940945506">
				<ele>64.0</ele>
				<time>2013-07-20T10:59:39</time>
			</trkpt>
			<trkpt lat="48.94743994809687" lon="2.690699966624379">
				<ele>65.0</ele>
				<time>2013-07-20T11:00:10</time>
			</trkpt>
			<trkpt lat="48.94634988158941" lon="2.6901299133896828">
				<ele>57.0</ele>
				<time>2013-07-20T11:00:27</time>
			</trkpt>
			<trkpt lat="48.945859875530005" lon="2.6894899550825357">
				<ele>53.0</ele>
				<time>2013-07-20T11:00:36</time>
			</trkpt>
			<trkpt lat="48.94520994275808" lon="2.6911699399352074">
				<ele>52.0</ele>
				<time>2013-07-20T11:00:54</time>
			</trkpt>
			<trkpt lat="48.944959910586476" lon="2.693979972973466">
				<ele>54.0</ele>
				<time>2013-07-20T11:01:21</time>
			</trkpt>
			<trkpt lat="48.944519944489" lon="2.6960299350321293">
				<ele>53.0</ele>
				<time>2013-07-20T11:01:41</time>
			</trkpt>
			<trkpt lat="48.943619979545474" lon="2.6964799594134092">
				<ele>51.0</ele>
				<time>2013-07-20T11:01:55</time>
			</trkpt>
			<trkpt lat="48.94266989082098" lon="2.6964799594134092">
				<ele>46.0</ele>
				<time>2013-07-20T11:02:08</time>
			</trkpt>
			<trkpt lat="48.94207997247577" lon="2.696019960567355">
				<ele>48.0</ele>
				<time>2013-07-20T11:02:18</time>
			</trkpt>
			<trkpt lat="48.94147991202772" lon="2.695039948448539">
				<ele>49.0</ele>
				<time>2013-07-20T11:02:30</time>
			</trkpt>
			<trkpt lat="48.94060987047851" lon="2.6949398685246706">
				<ele>51.0</ele>
				<time>2013-07-20T11:02:43</time>
			</trkpt>
			<trkpt lat="48.940449943766" lon="2.69615993835032">
				<ele>52.0</ele>
				<time>2013-07-20T11:02:54</time>
			</trkpt>
			<trkpt lat="48.93120998516679" lon="2.716709850355983">
				<ele>56.0</ele>
				<time>2013-07-20T11:06:48</time>
			</trkpt>
			<trkpt lat="48.93013986758888" lon="2.7195399161428213">
				<ele>52.0</ele>
				<time>2013-07-20T11:07:19</time>
			</trkpt>
			<trkpt lat="48.92994984984398" lon="2.71966983564198">
				<ele>52.0</ele>
				<time>2013-07-20T11:07:22</time>
			</trkpt>
			<trkpt lat="48.929439978674054" lon="2.719549974426627">
				<ele>54.0</ele>
				<time>2013-07-20T11:07:29</time>
			</trkpt>
			<trkpt lat="48.928889874368906" lon="2.7211599703878164">
				<ele>50.0</ele>
				<time>2013-07-20T11:07:46</time>
			</trkpt>
			<trkpt lat="48.92778983339667" lon="2.7200699876993895">
				<ele>51.0</ele>
				<time>2013-07-20T11:08:05</time>
			</trkpt>
			<trkpt lat="48.92682993784547" lon="2.7196199633181095">
				<ele>53.0</ele>
				<time>2013-07-20T11:08:19</time>
			</trkpt>
			<trkpt lat="48.92652994953096" lon="2.720099911093712">
				<ele>51.0</ele>
				<time>2013-07-20T11:08:26</time>
			</trkpt>
			<trkpt lat="48.92606986686587" lon="2.7198699954897165">
				<ele>52.0</ele>
				<time>2013-07-20T11:08:33</time>
			</trkpt>
			<trkpt lat="48.925529988482594" lon="2.7215398382395506">
				<ele>48.0</ele>
				<time>2013-07-20T11:08:50</time>
			</trkpt>
			<trkpt lat="48.925039982423186" lon="2.7222599275410175">
				<ele>45.0</ele>
				<time>2013-07-20T11:09:00</time>
			</trkpt>
			<trkpt lat="48.92378990538418" lon="2.7232199907302856">
				<ele>44.0</ele>
				<time>2013-07-20T11:09:20</time>
			</trkpt>
			<trkpt lat="48.923319932073355" lon="2.7233598846942186">
				<ele>42.0</ele>
				<time>2013-07-20T11:09:27</time>
			</trkpt>
			<trkpt lat="48.92300996929407" lon="2.7238198835402727">
				<ele>41.0</ele>
				<time>2013-07-20T11:09:33</time>
			</trkpt>
			<trkpt lat="48.92107995226979" lon="2.725089993327856">
				<ele>42.0</ele>
				<time>2013-07-20T11:10:03</time>
			</trkpt>
			<trkpt lat="48.920269925147295" lon="2.7262699976563454">
				<ele>44.0</ele>
				<time>2013-07-20T11:10:19</time>
			</trkpt>
			<trkpt lat="48.91997999511659" lon="2.7276199031621218">
				<ele>42.0</ele>
				<time>2013-07-20T11:10:32</time>
			</trkpt>
			<trkpt lat="48.92010999843478" lon="2.7291299868375063">
				<ele>40.0</ele>
				<time>2013-07-20T11:10:47</time>
			</trkpt>
			<trkpt lat="48.9224299415946" lon="2.7351699862629175">
				<ele>42.0</ele>
				<time>2013-07-20T11:11:52</time>
			</trkpt>
			<trkpt lat="48.922719871625304" lon="2.7377398777753115">
				<ele>42.0</ele>
				<time>2013-07-20T11:12:17</time>
			</trkpt>
			<trkpt lat="48.922269931063056" lon="2.7419098746031523">
				<ele>41.0</ele>
				<time>2013-07-20T11:12:56</time>
			</trkpt>
			<trkpt lat="48.921669870615005" lon="2.743429848924279">
				<ele>44.0</ele>
				<time>2013-07-20T11:13:13</time>
			</trkpt>
			<trkpt lat="48.92108992673457" lon="2.7440199349075556">
				<ele>45.0</ele>
				<time>2013-07-20T11:13:23</time>
			</trkpt>
			<trkpt lat="48.920529931783676" lon="2.7442799415439367">
				<ele>47.0</ele>
				<time>2013-07-20T11:13:31</time>
			</trkpt>
			<trkpt lat="48.918829998001456" lon="2.744249850511551">
				<ele>50.0</ele>
				<time>2013-07-20T11:13:56</time>
			</trkpt>
			<trkpt lat="48.91834988258779" lon="2.7439898438751698">
				<ele>51.0</ele>
				<time>2013-07-20T11:14:03</time>
			</trkpt>
			<trkpt lat="48.91812994144857" lon="2.7442299015820026">
				<ele>51.0</ele>
				<time>2013-07-20T11:14:07</time>
			</trkpt>
			<trkpt lat="48.91850997693837" lon="2.745199855417013">
				<ele>51.0</ele>
				<time>2013-07-20T11:14:18</time>
			</trkpt>
			<trkpt lat="48.91871985979378" lon="2.74634993635118">
				<ele>52.0</ele>
				<time>2013-07-20T11:14:29</time>
			</trkpt>
			<trkpt lat="48.919409941881895" lon="2.7568499464541674">
				<ele>56.0</ele>
				<time>2013-07-20T11:16:08</time>
			</trkpt>
			<trkpt lat="48.918869979679585" lon="2.759569874033332">
				<ele>57.0</ele>
				<time>2013-07-20T11:16:35</time>
			</trkpt>
			<trkpt lat="48.91820998862386" lon="2.760679889470339">
				<ele>59.0</ele>
				<time>2013-07-20T11:16:49</time>
			</trkpt>
			<trkpt lat="48.91726995818317" lon="2.762969993054867">
				<ele>55.0</ele>
				<time>2013-07-20T11:17:14</time>
			</trkpt>
			<trkpt lat="48.915739841759205" lon="2.762569924816489">
				<ele>57.0</ele>
				<time>2013-07-20T11:17:36</time>
			</trkpt>
			<trkpt lat="48.91409992240369" lon="2.765889996662736">
				<ele>61.0</ele>
				<time>2013-07-20T11:18:15</time>
			</trkpt>
			<trkpt lat="48.91325997188687" lon="2.767179971560836">
				<ele>61.0</ele>
				<time>2013-07-20T11:18:32</time>
			</trkpt>
			<trkpt lat="48.91256997361779" lon="2.76761993765831">
				<ele>62.0</ele>
				<time>2013-07-20T11:18:43</time>
			</trkpt>
			<trkpt lat="48.909289883449674" lon="2.7683499176055193">
				<ele>67.0</ele>
				<time>2013-07-20T11:19:30</time>
			</trkpt>
			<trkpt lat="48.9088499173522" lon="2.7686098404228687">
				<ele>68.0</ele>
				<time>2013-07-20T11:19:37</time>
			</trkpt>
			<trkpt lat="48.90787996351719" lon="2.7697199396789074">
				<ele>72.0</ele>
				<time>2013-07-20T11:19:55</time>
			</trkpt>
			<trkpt lat="48.90151994302869" lon="2.771819857880473">
				<ele>77.0</ele>
				<time>2013-07-20T11:21:28</time>
			</trkpt>
			<trkpt lat="48.8999099470675" lon="2.772509939968586">
				<ele>83.0</ele>
				<time>2013-07-20T11:21:51</time>
			</trkpt>
			<trkpt lat="48.89898994937539" lon="2.7730299532413483">
				<ele>82.0</ele>
				<time>2013-07-20T11:22:05</time>
			</trkpt>
			<trkpt lat="48.89810984954238" lon="2.773889936506748">
				<ele>87.0</ele>
				<time>2013-07-20T11:22:20</time>
			</trkpt>
			<trkpt lat="48.89709999784827" lon="2.774529978632927">
				<ele>98.0</ele>
				<time>2013-07-20T11:22:36</time>
			</trkpt>
			<trkpt lat="48.895109966397285" lon="2.774529978632927">
				<ele>106.0</ele>
				<time>2013-07-20T11:23:05</time>
			</trkpt>
			<trkpt lat="48.892509900033474" lon="2.7736999187618494">
				<ele>104.0</ele>
				<time>2013-07-20T11:23:43</time>
			</trkpt>
			<trkpt lat="48.89065993018448" lon="2.7729098405689">
				<ele>104.0</ele>
				<time>2013-07-20T11:24:10</time>
			</trkpt>
			<trkpt lat="48.88913995586336" lon="2.7728799171745777">
				<ele>110.0</ele>
				<time>2013-07-20T11:24:32</time>
			</trkpt>
			<trkpt lat="48.88497993350029" lon="2.7710699290037155">
				<ele>112.0</ele>
				<time>2013-07-20T11:25:34</time>
			</trkpt>
			<trkpt lat="48.88440988026559" lon="2.77122993953526">
				<ele>114.0</ele>
				<time>2013-07-20T11:25:42</time>
			</trkpt>
			<trkpt lat="48.88329986482859" lon="2.771909963339567">
				<ele>118.0</ele>
				<time>2013-07-20T11:25:59</time>
			</trkpt>
			<trkpt lat="48.881639912724495" lon="2.77335986495018">
				<ele>117.0</ele>
				<time>2013-07-20T11:26:26</time>
			</trkpt>
			<trkpt lat="48.88115996494889" lon="2.7734399959445">
				<ele>117.0</ele>
				<time>2013-07-20T11:26:33</time>
			</trkpt>
			<trkpt lat="48.88108989223838" lon="2.773729842156172">
				<ele>117.0</ele>
				<time>2013-07-20T11:26:36</time>
			</trkpt>
			<trkpt lat="48.88132986612618" lon="2.7748598903417587">
				<ele>116.0</ele>
				<time>2013-07-20T11:26:47</time>
			</trkpt>
			<trkpt lat="48.88095988892019" lon="2.780289938673377">
				<ele>111.0</ele>
				<time>2013-07-20T11:27:39</time>
			</trkpt>
			<trkpt lat="48.87956991791725" lon="2.7805598359555006">
				<ele>114.0</ele>
				<time>2013-07-20T11:27:59</time>
			</trkpt>
			<trkpt lat="48.8789698574692" lon="2.7800099831074476">
				<ele>114.0</ele>
				<time>2013-07-20T11:28:09</time>
			</trkpt>
			<trkpt lat="48.87860985472798" lon="2.78042983263731">
				<ele>114.0</ele>
				<time>2013-07-20T11:28:15</time>
			</trkpt>
			<trkpt lat="48.878629971295595" lon="2.7808699663728476">
				<ele>114.0</ele>
				<time>2013-07-20T11:28:19</time>
			</trkpt>
			<trkpt lat="48.879079995676875" lon="2.781509840860963">
				<ele>114.0</ele>
				<time>2013-07-20T11:28:28</time>
			</trkpt>
			<trkpt lat="48.879299936816096" lon="2.7834598906338215">
				<ele>113.0</ele>
				<time>2013-07-20T11:28:47</time>
			</trkpt>
			<trkpt lat="48.87935986742377" lon="2.7880199812352657">
				<ele>117.0</ele>
				<time>2013-07-20T11:29:30</time>
			</trkpt>
			<trkpt lat="48.8787798397243" lon="2.7925698459148407">
				<ele>120.0</ele>
				<time>2013-07-20T11:30:13</time>
			</trkpt>
			<trkpt lat="48.87758994475007" lon="2.7967799082398415">
				<ele>124.0</ele>
				<time>2013-07-20T11:30:56</time>
			</trkpt>
			<trkpt lat="48.87579998932779" lon="2.8005699533969164">
				<ele>128.0</ele>
				<time>2013-07-20T11:31:40</time>
			</trkpt>
			<trkpt lat="48.87493992224336" lon="2.8019098844379187">
				<ele>124.0</ele>
				<time>2013-07-20T11:31:58</time>
			</trkpt>
			<trkpt lat="48.874249923974276" lon="2.8021698910743">
				<ele>123.0</ele>
				<time>2013-07-20T11:32:08</time>
			</trkpt>
			<trkpt lat="48.87408999726176" lon="2.8030098415911198">
				<ele>124.0</ele>
				<time>2013-07-20T11:32:16</time>
			</trkpt>
			<trkpt lat="48.87339999899268" lon="2.803809894248843">
				<ele>123.0</ele>
				<time>2013-07-20T11:32:29</time>
			</trkpt>
			<trkpt lat="48.872059900313616" lon="2.805089894682169">
				<ele>122.0</ele>
				<time>2013-07-20T11:32:51</time>
			</trkpt>
			<trkpt lat="48.87057990767062" lon="2.8061399795114994">
				<ele>123.0</ele>
				<time>2013-07-20T11:33:15</time>
			</trkpt>
			<trkpt lat="48.86914995498955" lon="2.806879850104451">
				<ele>124.0</ele>
				<time>2013-07-20T11:33:36</time>
			</trkpt>
			<trkpt lat="48.86703997850418" lon="2.80749985948205">
				<ele>127.0</ele>
				<time>2013-07-20T11:34:07</time>
			</trkpt>
			<trkpt lat="48.867029920220375" lon="2.8085899259895086">
				<ele>125.0</ele>
				<time>2013-07-20T11:34:17</time>
			</trkpt>
			<trkpt lat="48.8666399102658" lon="2.8111998829990625">
				<ele>122.0</ele>
				<time>2013-07-20T11:34:42</time>
			</trkpt>
			<trkpt lat="48.86709999293089" lon="2.8115099295973778">
				<ele>120.0</ele>
				<time>2013-07-20T11:34:49</time>
			</trkpt>
			<trkpt lat="48.86757994070649" lon="2.815569955855608">
				<ele>108.0</ele>
				<time>2013-07-20T11:35:28</time>
			</trkpt>
			<trkpt lat="48.86757994070649" lon="2.8167499601840973">
				<ele>103.0</ele>
				<time>2013-07-20T11:35:39</time>
			</trkpt>
			<trkpt lat="48.86738992296159" lon="2.81739997677505">
				<ele>102.0</ele>
				<time>2013-07-20T11:35:46</time>
			</trkpt>
			<trkpt lat="48.872209936380386" lon="2.8218298964202404">
				<ele>91.0</ele>
				<time>2013-07-20T11:37:07</time>
			</trkpt>
			<trkpt lat="48.87515986338258" lon="2.8236198518425226">
				<ele>78.0</ele>
				<time>2013-07-20T11:37:52</time>
			</trkpt>
			<trkpt lat="48.87620986439288" lon="2.8245699405670166">
				<ele>75.0</ele>
				<time>2013-07-20T11:38:09</time>
			</trkpt>
			<trkpt lat="48.876049937680364" lon="2.825479879975319">
				<ele>73.0</ele>
				<time>2013-07-20T11:38:18</time>
			</trkpt>
			<trkpt lat="48.87363997288048" lon="2.8291998524218798">
				<ele>95.0</ele>
				<time>2013-07-20T11:39:07</time>
			</trkpt>
			<trkpt lat="48.8727998547256" lon="2.8316199593245983">
				<ele>107.0</ele>
				<time>2013-07-20T11:39:33</time>
			</trkpt>
			<trkpt lat="48.87264998629689" lon="2.8322698920965195">
				<ele>107.0</ele>
				<time>2013-07-20T11:39:40</time>
			</trkpt>
			<trkpt lat="48.8727599568665" lon="2.8337798919528723">
				<ele>106.0</ele>
				<time>2013-07-20T11:39:54</time>
			</trkpt>
			<trkpt lat="48.872489891946316" lon="2.8366198483854532">
				<ele>112.0</ele>
				<time>2013-07-20T11:40:21</time>
			</trkpt>
			<trkpt lat="48.87371985241771" lon="2.837089905515313">
				<ele>101.0</ele>
				<time>2013-07-20T11:40:39</time>
			</trkpt>
			<trkpt lat="48.8740499317646" lon="2.837489889934659">
				<ele>96.0</ele>
				<time>2013-07-20T11:40:45</time>
			</trkpt>
			<trkpt lat="48.87455997057259" lon="2.8377199731767178">
				<ele>89.0</ele>
				<time>2013-07-20T11:40:53</time>
			</trkpt>
			<trkpt lat="48.874739930033684" lon="2.838189946487546">
				<ele>86.0</ele>
				<time>2013-07-20T11:40:58</time>
			</trkpt>
			<trkpt lat="48.8747098390013" lon="2.839089995250106">
				<ele>84.0</ele>
				<time>2013-07-20T11:41:06</time>
			</trkpt>
			<trkpt lat="48.87541995383799" lon="2.8395998664200306">
				<ele>76.0</ele>
				<time>2013-07-20T11:41:17</time>
			</trkpt>
			<trkpt lat="48.87599998153746" lon="2.8406298346817493">
				<ele>65.0</ele>
				<time>2013-07-20T11:41:30</time>
			</trkpt>
			<trkpt lat="48.87863994576037" lon="2.842759843915701">
				<ele>55.0</ele>
				<time>2013-07-20T11:42:13</time>
			</trkpt>
			<trkpt lat="48.87874991632998" lon="2.84315999597311">
				<ele>55.0</ele>
				<time>2013-07-20T11:42:17</time>
			</trkpt>
			<trkpt lat="48.87846996076405" lon="2.844829922541976">
				<ele>55.0</ele>
				<time>2013-07-20T11:42:33</time>
			</trkpt>
			<trkpt lat="48.87857993133366" lon="2.845229906961322">
				<ele>55.0</ele>
				<time>2013-07-20T11:42:37</time>
			</trkpt>
			<trkpt lat="48.881119983270764" lon="2.847299985587597">
				<ele>53.0</ele>
				<time>2013-07-20T11:43:18</time>
			</trkpt>
			<trkpt lat="48.88011993840337" lon="2.8495098743587732">
				<ele>52.0</ele>
				<time>2013-07-20T11:43:44</time>
			</trkpt>
			<trkpt lat="48.87985993176699" lon="2.849539965391159">
				<ele>53.0</ele>
				<time>2013-07-20T11:43:47</time>
			</trkpt>
			<trkpt lat="48.87936992570758" lon="2.8491598460823298">
				<ele>54.0</ele>
				<time>2013-07-20T11:43:55</time>
			</trkpt>
			<trkpt lat="48.87883985415101" lon="2.8511899430304766">
				<ele>52.0</ele>
				<time>2013-07-20T11:44:16</time>
			</trkpt>
			<trkpt lat="48.87947989627719" lon="2.850969834253192">
				<ele>51.0</ele>
				<time>2013-07-20T11:44:25</time>
			</trkpt>
			<trkpt lat="48.8810698594898" lon="2.85104988142848">
				<ele>49.0</ele>
				<time>2013-07-20T11:44:48</time>
			</trkpt>
			<trkpt lat="48.88033987954259" lon="2.852159980684519">
				<ele>49.0</ele>
				<time>2013-07-20T11:45:03</time>
			</trkpt>
			<trkpt lat="48.879679972305894" lon="2.8540699649602175">
				<ele>47.0</ele>
				<time>2013-07-20T11:45:23</time>
			</trkpt>
			<trkpt lat="48.87820995412767" lon="2.857029866427183">
				<ele>48.0</ele>
				<time>2013-07-20T11:45:58</time>
			</trkpt>
			<trkpt lat="48.8759599160403" lon="2.858509859070182">
				<ele>64.0</ele>
				<time>2013-07-20T11:46:33</time>
			</trkpt>
			<trkpt lat="48.8739999756217" lon="2.861509909853339">
				<ele>57.0</ele>
				<time>2013-07-20T11:47:13</time>
			</trkpt>
			<trkpt lat="48.87042995542288" lon="2.8635398391634226">
				<ele>67.0</ele>
				<time>2013-07-20T11:48:07</time>
			</trkpt>
			<trkpt lat="48.86998990550637" lon="2.8644899278879166">
				<ele>65.0</ele>
				<time>2013-07-20T11:48:18</time>
			</trkpt>
			<trkpt lat="48.867609864100814" lon="2.8682399075478315">
				<ele>52.0</ele>
				<time>2013-07-20T11:49:07</time>
			</trkpt>
			<trkpt lat="48.86650990694761" lon="2.8709199372678995">
				<ele>48.0</ele>
				<time>2013-07-20T11:49:37</time>
			</trkpt>
			<trkpt lat="48.86392987333238" lon="2.87489983253181">
				<ele>48.0</ele>
				<time>2013-07-20T11:50:29</time>
			</trkpt>
			<trkpt lat="48.86298984289169" lon="2.8775398805737495">
				<ele>50.0</ele>
				<time>2013-07-20T11:50:58</time>
			</trkpt>
			<trkpt lat="48.86011996306479" lon="2.8835398983210325">
				<ele>49.0</ele>
				<time>2013-07-20T11:52:07</time>
			</trkpt>
			<trkpt lat="48.85798987001181" lon="2.8840399626642466">
				<ele>55.0</ele>
				<time>2013-07-20T11:52:38</time>
			</trkpt>
			<trkpt lat="48.85605993680656" lon="2.8855899441987276">
				<ele>74.0</ele>
				<time>2013-07-20T11:53:09</time>
			</trkpt>
			<trkpt lat="48.8542499486357" lon="2.88651991635561">
				<ele>93.0</ele>
				<time>2013-07-20T11:53:37</time>
			</trkpt>
			<trkpt lat="48.85376991704106" lon="2.8869199845939875">
				<ele>96.0</ele>
				<time>2013-07-20T11:53:45</time>
			</trkpt>
			<trkpt lat="48.852399894967675" lon="2.8887099400162697">
				<ele>103.0</ele>
				<time>2013-07-20T11:54:10</time>
			</trkpt>
			<trkpt lat="48.8519099727273" lon="2.8896598611027002">
				<ele>106.0</ele>
				<time>2013-07-20T11:54:22</time>
			</trkpt>
			<trkpt lat="48.8505198340863" lon="2.89139986038208">
				<ele>112.0</ele>
				<time>2013-07-20T11:54:47</time>
			</trkpt>
			<trkpt lat="48.84988993406296" lon="2.893359884619713">
				<ele>112.0</ele>
				<time>2013-07-20T11:55:08</time>
			</trkpt>
			<trkpt lat="48.848619908094406" lon="2.8935199789702892">
				<ele>121.0</ele>
				<time>2013-07-20T11:55:26</time>
			</trkpt>
			<trkpt lat="48.84758993983269" lon="2.8944599255919456">
				<ele>123.0</ele>
				<time>2013-07-20T11:55:43</time>
			</trkpt>
			<trkpt lat="48.84718987159431" lon="2.895179847255349">
				<ele>124.0</ele>
				<time>2013-07-20T11:55:52</time>
			</trkpt>
			<trkpt lat="48.847211664542556" lon="2.8952023945748806">
				<ele>124.0</ele>
				<time>2013-07-20T11:55:53</time>
			</trkpt>
			<trkpt lat="48.847212167456746" lon="2.895202897489071">
				<ele>124.0</ele>
				<time>2013-07-20T11:55:53</time>
			</trkpt>
			<trkpt lat="48.85006997734308" lon="2.8981599491089582">
				<ele>109.0</ele>
				<time>2013-07-20T11:56:42</time>
			</trkpt>
			<trkpt lat="48.85057984851301" lon="2.8984199557453394">
				<ele>107.0</ele>
				<time>2013-07-20T11:56:50</time>
			</trkpt>
			<trkpt lat="48.85275989770889" lon="2.8988299146294594">
				<ele>97.0</ele>
				<time>2013-07-20T11:57:21</time>
			</trkpt>
			<trkpt lat="48.853539833799005" lon="2.89938990958035">
				<ele>93.0</ele>
				<time>2013-07-20T11:57:33</time>
			</trkpt>
			<trkpt lat="48.85403998196125" lon="2.9000499844551086">
				<ele>91.0</ele>
				<time>2013-07-20T11:57:43</time>
			</trkpt>
			<trkpt lat="48.85446997359395" lon="2.9014798533171415">
				<ele>87.0</ele>
				<time>2013-07-20T11:57:58</time>
			</trkpt>
			<trkpt lat="48.85420996695757" lon="2.9068599455058575">
				<ele>77.0</ele>
				<time>2013-07-20T11:58:48</time>
			</trkpt>
			<trkpt lat="48.8546899985522" lon="2.909609964117408">
				<ele>58.0</ele>
				<time>2013-07-20T11:59:15</time>
			</trkpt>
			<trkpt lat="48.85487993247807" lon="2.909859912469983">
				<ele>55.0</ele>
				<time>2013-07-20T11:59:19</time>
			</trkpt>
			<trkpt lat="48.85549994185567" lon="2.909829905256629">
				<ele>51.0</ele>
				<time>2013-07-20T11:59:28</time>
			</trkpt>
			<trkpt lat="48.85628993622959" lon="2.91098996065557">
				<ele>51.0</ele>
				<time>2013-07-20T11:59:43</time>
			</trkpt>
			<trkpt lat="48.85678991675377" lon="2.912909835577011">
				<ele>52.0</ele>
				<time>2013-07-20T12:00:03</time>
			</trkpt>
			<trkpt lat="48.85736986063421" lon="2.9135098960250616">
				<ele>52.0</ele>
				<time>2013-07-20T12:00:13</time>
			</trkpt>
			<trkpt lat="48.858049884438515" lon="2.91360997594893">
				<ele>51.0</ele>
				<time>2013-07-20T12:00:23</time>
			</trkpt>
			<trkpt lat="48.85804762132466" lon="2.9135761968791485">
				<ele>51.0</ele>
				<time>2013-07-20T12:00:23</time>
			</trkpt>
			<trkpt lat="48.85804762132466" lon="2.9135753586888313">
				<ele>51.0</ele>
				<time>2013-07-20T12:00:23</time>
			</trkpt>
			<trkpt lat="48.8576898816973" lon="2.9081598948687315">
				<ele>51.0</ele>
				<time>2013-07-20T12:01:14</time>
			</trkpt>
			<trkpt lat="48.85824987664819" lon="2.9070798866450787">
				<ele>49.0</ele>
				<time>2013-07-20T12:01:27</time>
			</trkpt>
			<trkpt lat="48.85790973901749" lon="2.906889785081148">
				<ele>49.0</ele>
				<time>2013-07-20T12:01:32</time>
			</trkpt>
		</trkseg>
	</trk>
</gpx>
