<?xml version="1.0" encoding="UTF-8"?>
<gpx creator="Garmin Connect" version="1.1" xsi:schemaLocation="http://www.topografix.com/GPX/1/1 http://www.topografix.com/GPX/11.xsd" xmlns:ns3="http://www.garmin.com/xmlschemas/TrackPointExtension/v1" xmlns="http://www.topografix.com/GPX/1/1" xmlns:xsi="http://www.w3.org/2001/XMLSchema-instance" xmlns:ns2="http://www.garmin.com/xmlschemas/GpxExtensions/v3">
	<metadata>
		<name>109-G3-71 km-D 617 m-La Daltonienne</name>
		<link href="connect.garmin.com">
			<text>Garmin Connect</text>
		</link>
		<time>2013-07-20T08:00:00</time>
	</metadata>
	<trk>
		<name>109-G3-71 km-D 617 m-La Daltonienne</name>
		<trkseg>
			<trkpt lat="48.85811987333" lon="2.9069798067212105">
				<ele>49.0</ele>
				<time>2013-07-20T08:00:00</time>
			</trkpt>
			<trkpt lat="48.85823990218341" lon="2.907229922711849">
				<ele>49.0</ele>
				<time>2013-07-20T08:00:04</time>
			</trkpt>
			<trkpt lat="48.85973992757499" lon="2.906979890540242">
				<ele>52.0</ele>
				<time>2013-07-20T08:00:30</time>
			</trkpt>
			<trkpt lat="48.86178997345269" lon="2.905769878998399">
				<ele>62.0</ele>
				<time>2013-07-20T08:01:08</time>
			</trkpt>
			<trkpt lat="48.86248986236751" lon="2.9050499573349953">
				<ele>67.0</ele>
				<time>2013-07-20T08:01:23</time>
			</trkpt>
			<trkpt lat="48.86325990781188" lon="2.90344993583858">
				<ele>75.0</ele>
				<time>2013-07-20T08:01:45</time>
			</trkpt>
			<trkpt lat="48.863549837842584" lon="2.9032398853451014">
				<ele>80.0</ele>
				<time>2013-07-20T08:01:51</time>
			</trkpt>
			<trkpt lat="48.863889975473285" lon="2.9033099580556154">
				<ele>84.0</ele>
				<time>2013-07-20T08:01:57</time>
			</trkpt>
			<trkpt lat="48.864579973742366" lon="2.9044099990278482">
				<ele>91.0</ele>
				<time>2013-07-20T08:02:14</time>
			</trkpt>
			<trkpt lat="48.8657299708575" lon="2.9044198896735907">
				<ele>101.0</ele>
				<time>2013-07-20T08:02:34</time>
			</trkpt>
			<trkpt lat="48.867669962346554" lon="2.902949955314398">
				<ele>116.0</ele>
				<time>2013-07-20T08:03:12</time>
			</trkpt>
			<trkpt lat="48.87173996306956" lon="2.902949955314398">
				<ele>121.0</ele>
				<time>2013-07-20T08:04:23</time>
			</trkpt>
			<trkpt lat="48.87363997288048" lon="2.902579978108406">
				<ele>114.0</ele>
				<time>2013-07-20T08:04:56</time>
			</trkpt>
			<trkpt lat="48.87644983828068" lon="2.9039898980408907">
				<ele>103.0</ele>
				<time>2013-07-20T08:05:48</time>
			</trkpt>
			<trkpt lat="48.87713992036879" lon="2.9046299401670694">
				<ele>99.0</ele>
				<time>2013-07-20T08:06:02</time>
			</trkpt>
			<trkpt lat="48.87817986309528" lon="2.90602988563478">
				<ele>94.0</ele>
				<time>2013-07-20T08:06:26</time>
			</trkpt>
			<trkpt lat="48.87965985573828" lon="2.9056698828935623">
				<ele>91.0</ele>
				<time>2013-07-20T08:06:52</time>
			</trkpt>
			<trkpt lat="48.8806398678571" lon="2.9057399556040764">
				<ele>92.0</ele>
				<time>2013-07-20T08:07:09</time>
			</trkpt>
			<trkpt lat="48.88113984838128" lon="2.9059498384594917">
				<ele>94.0</ele>
				<time>2013-07-20T08:07:18</time>
			</trkpt>
			<trkpt lat="48.88265999034047" lon="2.907239980995655">
				<ele>98.0</ele>
				<time>2013-07-20T08:07:49</time>
			</trkpt>
			<trkpt lat="48.8843699824065" lon="2.9095499496906996">
				<ele>104.0</ele>
				<time>2013-07-20T08:08:28</time>
			</trkpt>
			<trkpt lat="48.88553992845118" lon="2.9092598520219326">
				<ele>109.0</ele>
				<time>2013-07-20T08:08:49</time>
			</trkpt>
			<trkpt lat="48.8869599904865" lon="2.9093299247324467">
				<ele>116.0</ele>
				<time>2013-07-20T08:09:14</time>
			</trkpt>
			<trkpt lat="48.8910698890686" lon="2.9081199131906033">
				<ele>124.0</ele>
				<time>2013-07-20T08:10:27</time>
			</trkpt>
			<trkpt lat="48.891669949516654" lon="2.908269865438342">
				<ele>123.0</ele>
				<time>2013-07-20T08:10:37</time>
			</trkpt>
			<trkpt lat="48.8924499694258" lon="2.90881996974349">
				<ele>124.0</ele>
				<time>2013-07-20T08:10:52</time>
			</trkpt>
			<trkpt lat="48.893349850550294" lon="2.909199921414256">
				<ele>124.0</ele>
				<time>2013-07-20T08:11:08</time>
			</trkpt>
			<trkpt lat="48.89365989714861" lon="2.9083499126136303">
				<ele>120.0</ele>
				<time>2013-07-20T08:11:20</time>
			</trkpt>
			<trkpt lat="48.8944099098444" lon="2.907249955460429">
				<ele>112.0</ele>
				<time>2013-07-20T08:11:38</time>
			</trkpt>
			<trkpt lat="48.89494987204671" lon="2.90694996714592">
				<ele>109.0</ele>
				<time>2013-07-20T08:11:48</time>
			</trkpt>
			<trkpt lat="48.896119985729456" lon="2.9070798866450787">
				<ele>103.0</ele>
				<time>2013-07-20T08:12:08</time>
			</trkpt>
			<trkpt lat="48.89676991850138" lon="2.9068199638277292">
				<ele>97.0</ele>
				<time>2013-07-20T08:12:20</time>
			</trkpt>
			<trkpt lat="48.89729990623891" lon="2.9062399361282587">
				<ele>93.0</ele>
				<time>2013-07-20T08:12:31</time>
			</trkpt>
			<trkpt lat="48.89790985733271" lon="2.904899837449193">
				<ele>90.0</ele>
				<time>2013-07-20T08:12:50</time>
			</trkpt>
			<trkpt lat="48.898829855024815" lon="2.9024799820035696">
				<ele>91.0</ele>
				<time>2013-07-20T08:13:22</time>
			</trkpt>
			<trkpt lat="48.898849887773395" lon="2.896589934825897">
				<ele>115.0</ele>
				<time>2013-07-20T08:14:29</time>
			</trkpt>
			<trkpt lat="48.89806995168328" lon="2.8940799739211798">
				<ele>122.0</ele>
				<time>2013-07-20T08:15:01</time>
			</trkpt>
			<trkpt lat="48.89773987233639" lon="2.89098990149796">
				<ele>127.0</ele>
				<time>2013-07-20T08:15:37</time>
			</trkpt>
			<trkpt lat="48.8976098690182" lon="2.888149945065379">
				<ele>131.0</ele>
				<time>2013-07-20T08:16:09</time>
			</trkpt>
			<trkpt lat="48.897839952260256" lon="2.8851199708878994">
				<ele>130.0</ele>
				<time>2013-07-20T08:16:44</time>
			</trkpt>
			<trkpt lat="48.897859901189804" lon="2.8817098774015903">
				<ele>131.0</ele>
				<time>2013-07-20T08:17:23</time>
			</trkpt>
			<trkpt lat="48.89719991013408" lon="2.8779698722064495">
				<ele>125.0</ele>
				<time>2013-07-20T08:18:08</time>
			</trkpt>
			<trkpt lat="48.898959858343005" lon="2.873489996418357">
				<ele>126.0</ele>
				<time>2013-07-20T08:19:07</time>
			</trkpt>
			<trkpt lat="48.90087990090251" lon="2.871199892833829">
				<ele>122.0</ele>
				<time>2013-07-20T08:19:50</time>
			</trkpt>
			<trkpt lat="48.9009599480778" lon="2.8705099783837795">
				<ele>120.0</ele>
				<time>2013-07-20T08:19:58</time>
			</trkpt>
			<trkpt lat="48.90054998919368" lon="2.8693298902362585">
				<ele>120.0</ele>
				<time>2013-07-20T08:20:13</time>
			</trkpt>
			<trkpt lat="48.90066993422806" lon="2.865399867296219">
				<ele>116.0</ele>
				<time>2013-07-20T08:20:58</time>
			</trkpt>
			<trkpt lat="48.900249833241105" lon="2.861259877681732">
				<ele>111.0</ele>
				<time>2013-07-20T08:21:46</time>
			</trkpt>
			<trkpt lat="48.90030984766781" lon="2.8608899004757404">
				<ele>110.0</ele>
				<time>2013-07-20T08:21:50</time>
			</trkpt>
			<trkpt lat="48.90108995139599" lon="2.8605199232697487">
				<ele>106.0</ele>
				<time>2013-07-20T08:22:05</time>
			</trkpt>
			<trkpt lat="48.90123998746276" lon="2.8600698988884687">
				<ele>104.0</ele>
				<time>2013-07-20T08:22:10</time>
			</trkpt>
			<trkpt lat="48.90010993927717" lon="2.8562399558722973">
				<ele>104.0</ele>
				<time>2013-07-20T08:22:58</time>
			</trkpt>
			<trkpt lat="48.89988999813795" lon="2.8509399108588696">
				<ele>98.0</ele>
				<time>2013-07-20T08:23:59</time>
			</trkpt>
			<trkpt lat="48.899649856612086" lon="2.8493698965758085">
				<ele>97.0</ele>
				<time>2013-07-20T08:24:18</time>
			</trkpt>
			<trkpt lat="48.8996699731797" lon="2.847529901191592">
				<ele>87.0</ele>
				<time>2013-07-20T08:24:39</time>
			</trkpt>
			<trkpt lat="48.89831998385489" lon="2.8460799995809793">
				<ele>84.0</ele>
				<time>2013-07-20T08:25:07</time>
			</trkpt>
			<trkpt lat="48.89603993855417" lon="2.841919893398881">
				<ele>70.0</ele>
				<time>2013-07-20T08:26:09</time>
			</trkpt>
			<trkpt lat="48.89661988243461" lon="2.8394499141722918">
				<ele>73.0</ele>
				<time>2013-07-20T08:26:39</time>
			</trkpt>
			<trkpt lat="48.89776996336877" lon="2.8312099166214466">
				<ele>50.0</ele>
				<time>2013-07-20T08:28:16</time>
			</trkpt>
			<trkpt lat="48.89814999885857" lon="2.829539906233549">
				<ele>46.0</ele>
				<time>2013-07-20T08:28:36</time>
			</trkpt>
			<trkpt lat="48.8965598680079" lon="2.8287499118596315">
				<ele>45.0</ele>
				<time>2013-07-20T08:29:05</time>
			</trkpt>
			<trkpt lat="48.896269937977195" lon="2.8275699075311422">
				<ele>46.0</ele>
				<time>2013-07-20T08:29:19</time>
			</trkpt>
			<trkpt lat="48.891669949516654" lon="2.825929904356599">
				<ele>46.0</ele>
				<time>2013-07-20T08:30:42</time>
			</trkpt>
			<trkpt lat="48.89137985184789" lon="2.8256299160420895">
				<ele>46.0</ele>
				<time>2013-07-20T08:30:48</time>
			</trkpt>
			<trkpt lat="48.89178997837007" lon="2.824639929458499">
				<ele>46.0</ele>
				<time>2013-07-20T08:31:01</time>
			</trkpt>
			<trkpt lat="48.8946498837322" lon="2.820509998127818">
				<ele>47.0</ele>
				<time>2013-07-20T08:32:10</time>
			</trkpt>
			<trkpt lat="48.89621998183429" lon="2.816159874200821">
				<ele>53.0</ele>
				<time>2013-07-20T08:33:07</time>
			</trkpt>
			<trkpt lat="48.89661988243461" lon="2.8158398531377316">
				<ele>49.0</ele>
				<time>2013-07-20T08:33:15</time>
			</trkpt>
			<trkpt lat="48.896509911864996" lon="2.8152299020439386">
				<ele>52.0</ele>
				<time>2013-07-20T08:33:22</time>
			</trkpt>
			<trkpt lat="48.896609991788864" lon="2.814829833805561">
				<ele>51.0</ele>
				<time>2013-07-20T08:33:27</time>
			</trkpt>
			<trkpt lat="48.89797984622419" lon="2.81157991848886">
				<ele>50.0</ele>
				<time>2013-07-20T08:34:11</time>
			</trkpt>
			<trkpt lat="48.899579867720604" lon="2.8112499229609966">
				<ele>49.0</ele>
				<time>2013-07-20T08:34:39</time>
			</trkpt>
			<trkpt lat="48.90032988041639" lon="2.8117199800908566">
				<ele>48.0</ele>
				<time>2013-07-20T08:34:53</time>
			</trkpt>
			<trkpt lat="48.90073983930051" lon="2.8127799555659294">
				<ele>47.0</ele>
				<time>2013-07-20T08:35:07</time>
			</trkpt>
			<trkpt lat="48.90289993956685" lon="2.813019845634699">
				<ele>49.0</ele>
				<time>2013-07-20T08:35:45</time>
			</trkpt>
			<trkpt lat="48.904609931632876" lon="2.812639893963933">
				<ele>53.0</ele>
				<time>2013-07-20T08:36:15</time>
			</trkpt>
			<trkpt lat="48.905449882149696" lon="2.813739934936166">
				<ele>52.0</ele>
				<time>2013-07-20T08:36:34</time>
			</trkpt>
			<trkpt lat="48.90807995572686" lon="2.8147598449140787">
				<ele>49.0</ele>
				<time>2013-07-20T08:37:21</time>
			</trkpt>
			<trkpt lat="48.912579948082566" lon="2.8152599092572927">
				<ele>46.0</ele>
				<time>2013-07-20T08:38:40</time>
			</trkpt>
			<trkpt lat="48.913329960778356" lon="2.8156999591737986">
				<ele>46.0</ele>
				<time>2013-07-20T08:38:54</time>
			</trkpt>
			<trkpt lat="48.913439931347966" lon="2.815309949219227">
				<ele>45.0</ele>
				<time>2013-07-20T08:38:59</time>
			</trkpt>
			<trkpt lat="48.9208999928087" lon="2.81114992685616">
				<ele>44.0</ele>
				<time>2013-07-20T08:41:17</time>
			</trkpt>
			<trkpt lat="48.92786996439099" lon="2.8090298920869827">
				<ele>45.0</ele>
				<time>2013-07-20T08:43:21</time>
			</trkpt>
			<trkpt lat="48.93089993856847" lon="2.8088699653744698">
				<ele>46.0</ele>
				<time>2013-07-20T08:44:14</time>
			</trkpt>
			<trkpt lat="48.93200995400548" lon="2.8079998400062323">
				<ele>46.0</ele>
				<time>2013-07-20T08:44:35</time>
			</trkpt>
			<trkpt lat="48.93220994621515" lon="2.8081999998539686">
				<ele>46.0</ele>
				<time>2013-07-20T08:44:39</time>
			</trkpt>
			<trkpt lat="48.932989966124296" lon="2.8101799730211496">
				<ele>47.0</ele>
				<time>2013-07-20T08:45:06</time>
			</trkpt>
			<trkpt lat="48.935479978099465" lon="2.8098698426038027">
				<ele>45.0</ele>
				<time>2013-07-20T08:45:49</time>
			</trkpt>
			<trkpt lat="48.936039973050356" lon="2.8096098359674215">
				<ele>44.0</ele>
				<time>2013-07-20T08:45:59</time>
			</trkpt>
			<trkpt lat="48.93759984523058" lon="2.80841994099319">
				<ele>44.0</ele>
				<time>2013-07-20T08:46:30</time>
			</trkpt>
			<trkpt lat="48.94045991823077" lon="2.80710993334651">
				<ele>46.0</ele>
				<time>2013-07-20T08:47:22</time>
			</trkpt>
			<trkpt lat="48.9428398758173" lon="2.8056599479168653">
				<ele>49.0</ele>
				<time>2013-07-20T08:48:06</time>
			</trkpt>
			<trkpt lat="48.94304992631078" lon="2.805079836398363">
				<ele>48.0</ele>
				<time>2013-07-20T08:48:14</time>
			</trkpt>
			<trkpt lat="48.943559965118766" lon="2.804699968546629">
				<ele>48.0</ele>
				<time>2013-07-20T08:48:24</time>
			</trkpt>
			<trkpt lat="48.94333985634148" lon="2.8035099897533655">
				<ele>45.0</ele>
				<time>2013-07-20T08:48:38</time>
			</trkpt>
			<trkpt lat="48.94414988346398" lon="2.803369928151369">
				<ele>49.0</ele>
				<time>2013-07-20T08:48:52</time>
			</trkpt>
			<trkpt lat="48.94584998488426" lon="2.802679929882288">
				<ele>48.0</ele>
				<time>2013-07-20T08:49:23</time>
			</trkpt>
			<trkpt lat="48.94636991433799" lon="2.8023198433220387">
				<ele>48.0</ele>
				<time>2013-07-20T08:49:33</time>
			</trkpt>
			<trkpt lat="48.94734984263778" lon="2.801169930025935">
				<ele>49.0</ele>
				<time>2013-07-20T08:49:54</time>
			</trkpt>
			<trkpt lat="48.94872992299497" lon="2.798629878088832">
				<ele>48.0</ele>
				<time>2013-07-20T08:50:32</time>
			</trkpt>
			<trkpt lat="48.94946996122599" lon="2.7959099505096674">
				<ele>48.0</ele>
				<time>2013-07-20T08:51:06</time>
			</trkpt>
			<trkpt lat="48.94969987682998" lon="2.793489843606949">
				<ele>50.0</ele>
				<time>2013-07-20T08:51:34</time>
			</trkpt>
			<trkpt lat="48.94884995184839" lon="2.79333989135921">
				<ele>44.0</ele>
				<time>2013-07-20T08:51:49</time>
			</trkpt>
			<trkpt lat="48.94969996064901" lon="2.793489843606949">
				<ele>50.0</ele>
				<time>2013-07-20T08:52:03</time>
			</trkpt>
			<trkpt lat="48.94951991736889" lon="2.789169894531369">
				<ele>45.0</ele>
				<time>2013-07-20T08:52:53</time>
			</trkpt>
			<trkpt lat="48.949659978970885" lon="2.782779950648546">
				<ele>47.0</ele>
				<time>2013-07-20T08:54:06</time>
			</trkpt>
			<trkpt lat="48.9491599984467" lon="2.7813199907541275">
				<ele>49.0</ele>
				<time>2013-07-20T08:54:25</time>
			</trkpt>
			<trkpt lat="48.94960993900895" lon="2.780459923669696">
				<ele>54.0</ele>
				<time>2013-07-20T08:54:37</time>
			</trkpt>
			<trkpt lat="48.94970993511379" lon="2.7796799037605524">
				<ele>55.0</ele>
				<time>2013-07-20T08:54:46</time>
			</trkpt>
			<trkpt lat="48.94950985908508" lon="2.7792698610574007">
				<ele>54.0</ele>
				<time>2013-07-20T08:54:52</time>
			</trkpt>
			<trkpt lat="48.948799995705485" lon="2.7792499121278524">
				<ele>56.0</ele>
				<time>2013-07-20T08:55:05</time>
			</trkpt>
			<trkpt lat="48.94767992198467" lon="2.7781699039041996">
				<ele>61.0</ele>
				<time>2013-07-20T08:55:28</time>
			</trkpt>
			<trkpt lat="48.94865993410349" lon="2.774959970265627">
				<ele>63.0</ele>
				<time>2013-07-20T08:56:08</time>
			</trkpt>
			<trkpt lat="48.94960993900895" lon="2.7742099575698376">
				<ele>63.0</ele>
				<time>2013-07-20T08:56:27</time>
			</trkpt>
			<trkpt lat="48.950349977239966" lon="2.774099987000227">
				<ele>61.0</ele>
				<time>2013-07-20T08:56:40</time>
			</trkpt>
			<trkpt lat="48.95082992501557" lon="2.7728799171745777">
				<ele>63.0</ele>
				<time>2013-07-20T08:56:56</time>
			</trkpt>
			<trkpt lat="48.95157993771136" lon="2.771589942276478">
				<ele>65.0</ele>
				<time>2013-07-20T08:57:16</time>
			</trkpt>
			<trkpt lat="48.95284987986088" lon="2.770749991759658">
				<ele>69.0</ele>
				<time>2013-07-20T08:57:40</time>
			</trkpt>
			<trkpt lat="48.953339885920286" lon="2.7705898974090815">
				<ele>70.0</ele>
				<time>2013-07-20T08:57:48</time>
			</trkpt>
			<trkpt lat="48.9555099606514" lon="2.7705098502337933">
				<ele>76.0</ele>
				<time>2013-07-20T08:58:26</time>
			</trkpt>
			<trkpt lat="48.95667990669608" lon="2.770019927993417">
				<ele>76.0</ele>
				<time>2013-07-20T08:58:47</time>
			</trkpt>
			<trkpt lat="48.95817993208766" lon="2.76894997805357">
				<ele>78.0</ele>
				<time>2013-07-20T08:59:16</time>
			</trkpt>
			<trkpt lat="48.96015998907387" lon="2.767819846048951">
				<ele>82.0</ele>
				<time>2013-07-20T08:59:53</time>
			</trkpt>
			<trkpt lat="48.96264983341098" lon="2.767409887164831">
				<ele>84.0</ele>
				<time>2013-07-20T09:00:37</time>
			</trkpt>
			<trkpt lat="48.96666987799108" lon="2.766299955546856">
				<ele>88.0</ele>
				<time>2013-07-20T09:01:48</time>
			</trkpt>
			<trkpt lat="48.96739985793829" lon="2.7658099494874477">
				<ele>91.0</ele>
				<time>2013-07-20T09:02:02</time>
			</trkpt>
			<trkpt lat="48.968369979411364" lon="2.764499941840768">
				<ele>96.0</ele>
				<time>2013-07-20T09:02:24</time>
			</trkpt>
			<trkpt lat="48.968759905546904" lon="2.764209844172001">
				<ele>97.0</ele>
				<time>2013-07-20T09:02:32</time>
			</trkpt>
			<trkpt lat="48.97098991088569" lon="2.763919997960329">
				<ele>104.0</ele>
				<time>2013-07-20T09:03:11</time>
			</trkpt>
			<trkpt lat="48.97222992964089" lon="2.7639698702841997">
				<ele>105.0</ele>
				<time>2013-07-20T09:03:32</time>
			</trkpt>
			<trkpt lat="48.97256998345256" lon="2.7635499369353056">
				<ele>106.0</ele>
				<time>2013-07-20T09:03:40</time>
			</trkpt>
			<trkpt lat="48.972889836877584" lon="2.7635198459029198">
				<ele>105.0</ele>
				<time>2013-07-20T09:03:45</time>
			</trkpt>
			<trkpt lat="48.972909953445196" lon="2.761089848354459">
				<ele>106.0</ele>
				<time>2013-07-20T09:04:13</time>
			</trkpt>
			<trkpt lat="48.973149927333" lon="2.7595099434256554">
				<ele>109.0</ele>
				<time>2013-07-20T09:04:32</time>
			</trkpt>
			<trkpt lat="48.97353993728757" lon="2.758449884131551">
				<ele>106.0</ele>
				<time>2013-07-20T09:04:46</time>
			</trkpt>
			<trkpt lat="48.99283993989229" lon="2.7681798487901688">
				<ele>108.0</ele>
				<time>2013-07-20T09:10:39</time>
			</trkpt>
			<trkpt lat="48.993559861555696" lon="2.768229888752103">
				<ele>108.0</ele>
				<time>2013-07-20T09:10:52</time>
			</trkpt>
			<trkpt lat="48.99751989170909" lon="2.766939913854003">
				<ele>120.0</ele>
				<time>2013-07-20T09:12:02</time>
			</trkpt>
			<trkpt lat="49.00004988536239" lon="2.766909906640649">
				<ele>110.0</ele>
				<time>2013-07-20T09:12:46</time>
			</trkpt>
			<trkpt lat="49.00335998274386" lon="2.7685298770666122">
				<ele>108.0</ele>
				<time>2013-07-20T09:13:47</time>
			</trkpt>
			<trkpt lat="49.00432993657887" lon="2.768359975889325">
				<ele>107.0</ele>
				<time>2013-07-20T09:14:04</time>
			</trkpt>
			<trkpt lat="49.00534984655678" lon="2.768559968098998">
				<ele>110.0</ele>
				<time>2013-07-20T09:14:22</time>
			</trkpt>
			<trkpt lat="49.00619985535741" lon="2.7688599564135075">
				<ele>111.0</ele>
				<time>2013-07-20T09:14:37</time>
			</trkpt>
			<trkpt lat="49.00811989791691" lon="2.7699198480695486">
				<ele>110.0</ele>
				<time>2013-07-20T09:15:13</time>
			</trkpt>
			<trkpt lat="49.0082398429513" lon="2.7646699268370867">
				<ele>106.0</ele>
				<time>2013-07-20T09:16:13</time>
			</trkpt>
			<trkpt lat="49.0094899199903" lon="2.7579598780721426">
				<ele>109.0</ele>
				<time>2013-07-20T09:17:32</time>
			</trkpt>
			<trkpt lat="49.0110198687762" lon="2.7535799983888865">
				<ele>96.0</ele>
				<time>2013-07-20T09:18:29</time>
			</trkpt>
			<trkpt lat="49.01276992633939" lon="2.7452398370951414">
				<ele>89.0</ele>
				<time>2013-07-20T09:20:09</time>
			</trkpt>
			<trkpt lat="49.01365983299911" lon="2.7437598444521427">
				<ele>90.0</ele>
				<time>2013-07-20T09:20:32</time>
			</trkpt>
			<trkpt lat="49.014629954472184" lon="2.739839879795909">
				<ele>98.0</ele>
				<time>2013-07-20T09:21:20</time>
			</trkpt>
			<trkpt lat="49.01554995216429" lon="2.7372099738568068">
				<ele>100.0</ele>
				<time>2013-07-20T09:21:54</time>
			</trkpt>
			<trkpt lat="49.01620985940099" lon="2.733279950916767">
				<ele>99.0</ele>
				<time>2013-07-20T09:22:40</time>
			</trkpt>
			<trkpt lat="49.01623995043337" lon="2.7249899972230196">
				<ele>89.0</ele>
				<time>2013-07-20T09:24:15</time>
			</trkpt>
			<trkpt lat="49.01623391546309" lon="2.7249514404684305">
				<ele>89.0</ele>
				<time>2013-07-20T09:24:15</time>
			</trkpt>
			<trkpt lat="49.01623391546309" lon="2.724951356649399">
				<ele>89.0</ele>
				<time>2013-07-20T09:24:15</time>
			</trkpt>
			<trkpt lat="49.01519984006882" lon="2.7182698901742697">
				<ele>100.0</ele>
				<time>2013-07-20T09:25:33</time>
			</trkpt>
			<trkpt lat="49.015059946104884" lon="2.7110598608851433">
				<ele>89.0</ele>
				<time>2013-07-20T09:26:56</time>
			</trkpt>
			<trkpt lat="49.0136999823153" lon="2.7073398884385824">
				<ele>84.0</ele>
				<time>2013-07-20T09:27:44</time>
			</trkpt>
			<trkpt lat="49.012419981881976" lon="2.7060999535024166">
				<ele>85.0</ele>
				<time>2013-07-20T09:28:11</time>
			</trkpt>
			<trkpt lat="49.01190994307399" lon="2.705049952492118">
				<ele>86.0</ele>
				<time>2013-07-20T09:28:26</time>
			</trkpt>
			<trkpt lat="49.01090989820659" lon="2.704189969226718">
				<ele>85.0</ele>
				<time>2013-07-20T09:28:46</time>
			</trkpt>
			<trkpt lat="49.01043992489576" lon="2.6998699363321066">
				<ele>92.0</ele>
				<time>2013-07-20T09:29:36</time>
			</trkpt>
			<trkpt lat="49.01050999760628" lon="2.6993999630212784">
				<ele>93.0</ele>
				<time>2013-07-20T09:29:41</time>
			</trkpt>
			<trkpt lat="49.00279998779297" lon="2.7011399623006582">
				<ele>83.0</ele>
				<time>2013-07-20T09:31:57</time>
			</trkpt>
			<trkpt lat="49.0024599339813" lon="2.701749913394451">
				<ele>83.0</ele>
				<time>2013-07-20T09:32:06</time>
			</trkpt>
			<trkpt lat="49.001999851316214" lon="2.7037498354911804">
				<ele>78.0</ele>
				<time>2013-07-20T09:32:30</time>
			</trkpt>
			<trkpt lat="49.00144999846816" lon="2.703709853813052">
				<ele>75.0</ele>
				<time>2013-07-20T09:32:40</time>
			</trkpt>
			<trkpt lat="49.000259935855865" lon="2.7029899321496487">
				<ele>76.0</ele>
				<time>2013-07-20T09:33:02</time>
			</trkpt>
			<trkpt lat="48.999099964275956" lon="2.70197999663651">
				<ele>77.0</ele>
				<time>2013-07-20T09:33:25</time>
			</trkpt>
			<trkpt lat="48.99718998000026" lon="2.7013198379427195">
				<ele>73.0</ele>
				<time>2013-07-20T09:33:59</time>
			</trkpt>
			<trkpt lat="48.99512995965779" lon="2.699979990720749">
				<ele>69.0</ele>
				<time>2013-07-20T09:34:38</time>
			</trkpt>
			<trkpt lat="48.99276986718178" lon="2.6971698738634586">
				<ele>69.0</ele>
				<time>2013-07-20T09:35:30</time>
			</trkpt>
			<trkpt lat="48.9912698417902" lon="2.6959199644625187">
				<ele>69.0</ele>
				<time>2013-07-20T09:36:00</time>
			</trkpt>
			<trkpt lat="48.989819940179586" lon="2.6941099762916565">
				<ele>65.0</ele>
				<time>2013-07-20T09:36:33</time>
			</trkpt>
			<trkpt lat="48.98726991377771" lon="2.6935898791998625">
				<ele>66.0</ele>
				<time>2013-07-20T09:37:18</time>
			</trkpt>
			<trkpt lat="48.98694997653365" lon="2.6936199702322483">
				<ele>67.0</ele>
				<time>2013-07-20T09:37:23</time>
			</trkpt>
			<trkpt lat="48.986149840056896" lon="2.694199997931719">
				<ele>75.0</ele>
				<time>2013-07-20T09:37:39</time>
			</trkpt>
			<trkpt lat="48.983759908005595" lon="2.6963299233466387">
				<ele>87.0</ele>
				<time>2013-07-20T09:38:27</time>
			</trkpt>
			<trkpt lat="48.97830999456346" lon="2.696649944409728">
				<ele>84.0</ele>
				<time>2013-07-20T09:40:02</time>
			</trkpt>
			<trkpt lat="48.975249929353595" lon="2.6978699304163456">
				<ele>80.0</ele>
				<time>2013-07-20T09:40:57</time>
			</trkpt>
			<trkpt lat="48.96896995604038" lon="2.6987799536436796">
				<ele>75.0</ele>
				<time>2013-07-20T09:42:46</time>
			</trkpt>
			<trkpt lat="48.96650995127857" lon="2.6989198476076126">
				<ele>74.0</ele>
				<time>2013-07-20T09:43:29</time>
			</trkpt>
			<trkpt lat="48.96433996036649" lon="2.6985999941825867">
				<ele>76.0</ele>
				<time>2013-07-20T09:44:07</time>
			</trkpt>
			<trkpt lat="48.96312986500561" lon="2.6987999863922596">
				<ele>76.0</ele>
				<time>2013-07-20T09:44:28</time>
			</trkpt>
			<trkpt lat="48.960639936849475" lon="2.698569903150201">
				<ele>76.0</ele>
				<time>2013-07-20T09:45:12</time>
			</trkpt>
			<trkpt lat="48.959739888086915" lon="2.6982799731194973">
				<ele>74.0</ele>
				<time>2013-07-20T09:45:28</time>
			</trkpt>
			<trkpt lat="48.9493899140507" lon="2.692219940945506">
				<ele>64.0</ele>
				<time>2013-07-20T09:48:41</time>
			</trkpt>
			<trkpt lat="48.94743994809687" lon="2.690699966624379">
				<ele>65.0</ele>
				<time>2013-07-20T09:49:19</time>
			</trkpt>
			<trkpt lat="48.94634988158941" lon="2.6901299133896828">
				<ele>57.0</ele>
				<time>2013-07-20T09:49:39</time>
			</trkpt>
			<trkpt lat="48.945859875530005" lon="2.6894899550825357">
				<ele>53.0</ele>
				<time>2013-07-20T09:49:50</time>
			</trkpt>
			<trkpt lat="48.945820815861225" lon="2.6895907893776894">
				<ele>53.99</ele>
				<time>2013-07-20T09:49:52</time>
			</trkpt>
			<trkpt lat="48.945820815861225" lon="2.689590957015753">
				<ele>54.0</ele>
				<time>2013-07-20T09:49:52</time>
			</trkpt>
			<trkpt lat="48.94520994275808" lon="2.6911699399352074">
				<ele>52.0</ele>
				<time>2013-07-20T09:50:13</time>
			</trkpt>
			<trkpt lat="48.944959910586476" lon="2.693979972973466">
				<ele>54.0</ele>
				<time>2013-07-20T09:50:45</time>
			</trkpt>
			<trkpt lat="48.944519944489" lon="2.6960299350321293">
				<ele>53.0</ele>
				<time>2013-07-20T09:51:10</time>
			</trkpt>
			<trkpt lat="48.943619979545474" lon="2.6964799594134092">
				<ele>51.0</ele>
				<time>2013-07-20T09:51:26</time>
			</trkpt>
			<trkpt lat="48.94266989082098" lon="2.6964799594134092">
				<ele>46.0</ele>
				<time>2013-07-20T09:51:43</time>
			</trkpt>
			<trkpt lat="48.94207997247577" lon="2.696019960567355">
				<ele>48.0</ele>
				<time>2013-07-20T09:51:54</time>
			</trkpt>
			<trkpt lat="48.94147991202772" lon="2.695039948448539">
				<ele>49.0</ele>
				<time>2013-07-20T09:52:10</time>
			</trkpt>
			<trkpt lat="48.94060987047851" lon="2.6949398685246706">
				<ele>51.0</ele>
				<time>2013-07-20T09:52:25</time>
			</trkpt>
			<trkpt lat="48.940449943766" lon="2.69615993835032">
				<ele>52.0</ele>
				<time>2013-07-20T09:52:39</time>
			</trkpt>
			<trkpt lat="48.93120998516679" lon="2.716709850355983">
				<ele>56.0</ele>
				<time>2013-07-20T09:57:24</time>
			</trkpt>
			<trkpt lat="48.93013986758888" lon="2.7195399161428213">
				<ele>52.0</ele>
				<time>2013-07-20T09:58:01</time>
			</trkpt>
			<trkpt lat="48.92994984984398" lon="2.71966983564198">
				<ele>52.0</ele>
				<time>2013-07-20T09:58:05</time>
			</trkpt>
			<trkpt lat="48.929439978674054" lon="2.719549974426627">
				<ele>54.0</ele>
				<time>2013-07-20T09:58:14</time>
			</trkpt>
			<trkpt lat="48.928889874368906" lon="2.7211599703878164">
				<ele>50.0</ele>
				<time>2013-07-20T09:58:34</time>
			</trkpt>
			<trkpt lat="48.92778983339667" lon="2.7200699876993895">
				<ele>51.0</ele>
				<time>2013-07-20T09:58:57</time>
			</trkpt>
			<trkpt lat="48.92682993784547" lon="2.7196199633181095">
				<ele>53.0</ele>
				<time>2013-07-20T09:59:15</time>
			</trkpt>
			<trkpt lat="48.92652994953096" lon="2.720099911093712">
				<ele>51.0</ele>
				<time>2013-07-20T09:59:22</time>
			</trkpt>
			<trkpt lat="48.92606986686587" lon="2.7198699954897165">
				<ele>52.0</ele>
				<time>2013-07-20T09:59:31</time>
			</trkpt>
			<trkpt lat="48.925529988482594" lon="2.7215398382395506">
				<ele>48.0</ele>
				<time>2013-07-20T09:59:52</time>
			</trkpt>
			<trkpt lat="48.925039982423186" lon="2.7222599275410175">
				<ele>45.0</ele>
				<time>2013-07-20T10:00:04</time>
			</trkpt>
			<trkpt lat="48.92378990538418" lon="2.7232199907302856">
				<ele>44.0</ele>
				<time>2013-07-20T10:00:28</time>
			</trkpt>
			<trkpt lat="48.923319932073355" lon="2.7233598846942186">
				<ele>42.0</ele>
				<time>2013-07-20T10:00:37</time>
			</trkpt>
			<trkpt lat="48.92300996929407" lon="2.7238198835402727">
				<ele>41.0</ele>
				<time>2013-07-20T10:00:44</time>
			</trkpt>
			<trkpt lat="48.92107995226979" lon="2.725089993327856">
				<ele>42.0</ele>
				<time>2013-07-20T10:01:21</time>
			</trkpt>
			<trkpt lat="48.920269925147295" lon="2.7262699976563454">
				<ele>44.0</ele>
				<time>2013-07-20T10:01:40</time>
			</trkpt>
			<trkpt lat="48.91997999511659" lon="2.7276199031621218">
				<ele>42.0</ele>
				<time>2013-07-20T10:01:56</time>
			</trkpt>
			<trkpt lat="48.92010999843478" lon="2.7291299868375063">
				<ele>40.0</ele>
				<time>2013-07-20T10:02:14</time>
			</trkpt>
			<trkpt lat="48.9224299415946" lon="2.7351699862629175">
				<ele>42.0</ele>
				<time>2013-07-20T10:03:34</time>
			</trkpt>
			<trkpt lat="48.922719871625304" lon="2.7377398777753115">
				<ele>42.0</ele>
				<time>2013-07-20T10:04:04</time>
			</trkpt>
			<trkpt lat="48.922269931063056" lon="2.7419098746031523">
				<ele>41.0</ele>
				<time>2013-07-20T10:04:52</time>
			</trkpt>
			<trkpt lat="48.921669870615005" lon="2.743429848924279">
				<ele>44.0</ele>
				<time>2013-07-20T10:05:12</time>
			</trkpt>
			<trkpt lat="48.92108992673457" lon="2.7440199349075556">
				<ele>45.0</ele>
				<time>2013-07-20T10:05:24</time>
			</trkpt>
			<trkpt lat="48.920529931783676" lon="2.7442799415439367">
				<ele>47.0</ele>
				<time>2013-07-20T10:05:35</time>
			</trkpt>
			<trkpt lat="48.918829998001456" lon="2.744249850511551">
				<ele>50.0</ele>
				<time>2013-07-20T10:06:04</time>
			</trkpt>
			<trkpt lat="48.91834988258779" lon="2.7439898438751698">
				<ele>51.0</ele>
				<time>2013-07-20T10:06:13</time>
			</trkpt>
			<trkpt lat="48.91812994144857" lon="2.7442299015820026">
				<ele>51.0</ele>
				<time>2013-07-20T10:06:18</time>
			</trkpt>
			<trkpt lat="48.91850997693837" lon="2.745199855417013">
				<ele>51.0</ele>
				<time>2013-07-20T10:06:31</time>
			</trkpt>
			<trkpt lat="48.91871985979378" lon="2.74634993635118">
				<ele>52.0</ele>
				<time>2013-07-20T10:06:44</time>
			</trkpt>
			<trkpt lat="48.919409941881895" lon="2.7568499464541674">
				<ele>56.0</ele>
				<time>2013-07-20T10:08:45</time>
			</trkpt>
			<trkpt lat="48.918869979679585" lon="2.759569874033332">
				<ele>57.0</ele>
				<time>2013-07-20T10:09:18</time>
			</trkpt>
			<trkpt lat="48.91820998862386" lon="2.760679889470339">
				<ele>59.0</ele>
				<time>2013-07-20T10:09:35</time>
			</trkpt>
			<trkpt lat="48.91726995818317" lon="2.762969993054867">
				<ele>55.0</ele>
				<time>2013-07-20T10:10:06</time>
			</trkpt>
			<trkpt lat="48.915739841759205" lon="2.762569924816489">
				<ele>57.0</ele>
				<time>2013-07-20T10:10:33</time>
			</trkpt>
			<trkpt lat="48.91409992240369" lon="2.765889996662736">
				<ele>61.0</ele>
				<time>2013-07-20T10:11:20</time>
			</trkpt>
			<trkpt lat="48.91325997188687" lon="2.767179971560836">
				<ele>61.0</ele>
				<time>2013-07-20T10:11:41</time>
			</trkpt>
			<trkpt lat="48.91256997361779" lon="2.76761993765831">
				<ele>62.0</ele>
				<time>2013-07-20T10:11:54</time>
			</trkpt>
			<trkpt lat="48.909289883449674" lon="2.7683499176055193">
				<ele>67.0</ele>
				<time>2013-07-20T10:12:52</time>
			</trkpt>
			<trkpt lat="48.9088499173522" lon="2.7686098404228687">
				<ele>68.0</ele>
				<time>2013-07-20T10:13:00</time>
			</trkpt>
			<trkpt lat="48.90787996351719" lon="2.7697199396789074">
				<ele>72.0</ele>
				<time>2013-07-20T10:13:21</time>
			</trkpt>
			<trkpt lat="48.90151994302869" lon="2.771819857880473">
				<ele>77.0</ele>
				<time>2013-07-20T10:15:14</time>
			</trkpt>
			<trkpt lat="48.8999099470675" lon="2.772509939968586">
				<ele>83.0</ele>
				<time>2013-07-20T10:15:43</time>
			</trkpt>
			<trkpt lat="48.89898994937539" lon="2.7730299532413483">
				<ele>82.0</ele>
				<time>2013-07-20T10:16:00</time>
			</trkpt>
			<trkpt lat="48.89810984954238" lon="2.773889936506748">
				<ele>87.0</ele>
				<time>2013-07-20T10:16:19</time>
			</trkpt>
			<trkpt lat="48.89709999784827" lon="2.774529978632927">
				<ele>98.0</ele>
				<time>2013-07-20T10:16:38</time>
			</trkpt>
			<trkpt lat="48.895109966397285" lon="2.774529978632927">
				<ele>106.0</ele>
				<time>2013-07-20T10:17:12</time>
			</trkpt>
			<trkpt lat="48.892509900033474" lon="2.7736999187618494">
				<ele>104.0</ele>
				<time>2013-07-20T10:17:58</time>
			</trkpt>
			<trkpt lat="48.89065993018448" lon="2.7729098405689">
				<ele>104.0</ele>
				<time>2013-07-20T10:18:32</time>
			</trkpt>
			<trkpt lat="48.88913995586336" lon="2.7728799171745777">
				<ele>110.0</ele>
				<time>2013-07-20T10:18:58</time>
			</trkpt>
			<trkpt lat="48.88497993350029" lon="2.7710699290037155">
				<ele>112.0</ele>
				<time>2013-07-20T10:20:14</time>
			</trkpt>
			<trkpt lat="48.88440988026559" lon="2.77122993953526">
				<ele>114.0</ele>
				<time>2013-07-20T10:20:24</time>
			</trkpt>
			<trkpt lat="48.88329986482859" lon="2.771909963339567">
				<ele>118.0</ele>
				<time>2013-07-20T10:20:45</time>
			</trkpt>
			<trkpt lat="48.881639912724495" lon="2.77335986495018">
				<ele>117.0</ele>
				<time>2013-07-20T10:21:18</time>
			</trkpt>
			<trkpt lat="48.88115996494889" lon="2.7734399959445">
				<ele>117.0</ele>
				<time>2013-07-20T10:21:26</time>
			</trkpt>
			<trkpt lat="48.88108989223838" lon="2.773729842156172">
				<ele>117.0</ele>
				<time>2013-07-20T10:21:30</time>
			</trkpt>
			<trkpt lat="48.88132986612618" lon="2.7748598903417587">
				<ele>116.0</ele>
				<time>2013-07-20T10:21:43</time>
			</trkpt>
			<trkpt lat="48.88095988892019" lon="2.780289938673377">
				<ele>111.0</ele>
				<time>2013-07-20T10:22:46</time>
			</trkpt>
			<trkpt lat="48.87956991791725" lon="2.7805598359555006">
				<ele>114.0</ele>
				<time>2013-07-20T10:23:10</time>
			</trkpt>
			<trkpt lat="48.8789698574692" lon="2.7800099831074476">
				<ele>114.0</ele>
				<time>2013-07-20T10:23:22</time>
			</trkpt>
			<trkpt lat="48.87860985472798" lon="2.78042983263731">
				<ele>114.0</ele>
				<time>2013-07-20T10:23:30</time>
			</trkpt>
			<trkpt lat="48.878629971295595" lon="2.7808699663728476">
				<ele>114.0</ele>
				<time>2013-07-20T10:23:35</time>
			</trkpt>
			<trkpt lat="48.879079995676875" lon="2.781509840860963">
				<ele>114.0</ele>
				<time>2013-07-20T10:23:46</time>
			</trkpt>
			<trkpt lat="48.879299936816096" lon="2.7834598906338215">
				<ele>113.0</ele>
				<time>2013-07-20T10:24:09</time>
			</trkpt>
			<trkpt lat="48.87935986742377" lon="2.7880199812352657">
				<ele>117.0</ele>
				<time>2013-07-20T10:25:01</time>
			</trkpt>
			<trkpt lat="48.8787798397243" lon="2.7925698459148407">
				<ele>120.0</ele>
				<time>2013-07-20T10:25:54</time>
			</trkpt>
			<trkpt lat="48.87758994475007" lon="2.7967799082398415">
				<ele>124.0</ele>
				<time>2013-07-20T10:26:46</time>
			</trkpt>
			<trkpt lat="48.87579998932779" lon="2.8005699533969164">
				<ele>128.0</ele>
				<time>2013-07-20T10:27:40</time>
			</trkpt>
			<trkpt lat="48.87493992224336" lon="2.8019098844379187">
				<ele>124.0</ele>
				<time>2013-07-20T10:28:01</time>
			</trkpt>
			<trkpt lat="48.874249923974276" lon="2.8021698910743">
				<ele>123.0</ele>
				<time>2013-07-20T10:28:14</time>
			</trkpt>
			<trkpt lat="48.87408999726176" lon="2.8030098415911198">
				<ele>124.0</ele>
				<time>2013-07-20T10:28:24</time>
			</trkpt>
			<trkpt lat="48.87339999899268" lon="2.803809894248843">
				<ele>123.0</ele>
				<time>2013-07-20T10:28:39</time>
			</trkpt>
			<trkpt lat="48.872059900313616" lon="2.805089894682169">
				<ele>122.0</ele>
				<time>2013-07-20T10:29:06</time>
			</trkpt>
			<trkpt lat="48.87057990767062" lon="2.8061399795114994">
				<ele>123.0</ele>
				<time>2013-07-20T10:29:35</time>
			</trkpt>
			<trkpt lat="48.86914995498955" lon="2.806879850104451">
				<ele>124.0</ele>
				<time>2013-07-20T10:30:01</time>
			</trkpt>
			<trkpt lat="48.86703997850418" lon="2.80749985948205">
				<ele>127.0</ele>
				<time>2013-07-20T10:30:38</time>
			</trkpt>
			<trkpt lat="48.867029920220375" lon="2.8085899259895086">
				<ele>125.0</ele>
				<time>2013-07-20T10:30:51</time>
			</trkpt>
			<trkpt lat="48.8666399102658" lon="2.8111998829990625">
				<ele>122.0</ele>
				<time>2013-07-20T10:31:22</time>
			</trkpt>
			<trkpt lat="48.86709999293089" lon="2.8115099295973778">
				<ele>120.0</ele>
				<time>2013-07-20T10:31:30</time>
			</trkpt>
			<trkpt lat="48.86757994070649" lon="2.815569955855608">
				<ele>108.0</ele>
				<time>2013-07-20T10:32:18</time>
			</trkpt>
			<trkpt lat="48.86757994070649" lon="2.8167499601840973">
				<ele>103.0</ele>
				<time>2013-07-20T10:32:31</time>
			</trkpt>
			<trkpt lat="48.86738992296159" lon="2.81739997677505">
				<ele>102.0</ele>
				<time>2013-07-20T10:32:39</time>
			</trkpt>
			<trkpt lat="48.872209936380386" lon="2.8218298964202404">
				<ele>91.0</ele>
				<time>2013-07-20T10:34:17</time>
			</trkpt>
			<trkpt lat="48.87515986338258" lon="2.8236198518425226">
				<ele>78.0</ele>
				<time>2013-07-20T10:35:13</time>
			</trkpt>
			<trkpt lat="48.87620986439288" lon="2.8245699405670166">
				<ele>75.0</ele>
				<time>2013-07-20T10:35:34</time>
			</trkpt>
			<trkpt lat="48.876049937680364" lon="2.825479879975319">
				<ele>73.0</ele>
				<time>2013-07-20T10:35:45</time>
			</trkpt>
			<trkpt lat="48.87363997288048" lon="2.8291998524218798">
				<ele>95.0</ele>
				<time>2013-07-20T10:36:44</time>
			</trkpt>
			<trkpt lat="48.8727998547256" lon="2.8316199593245983">
				<ele>107.0</ele>
				<time>2013-07-20T10:37:16</time>
			</trkpt>
			<trkpt lat="48.87264998629689" lon="2.8322698920965195">
				<ele>107.0</ele>
				<time>2013-07-20T10:37:24</time>
			</trkpt>
			<trkpt lat="48.8727599568665" lon="2.8337798919528723">
				<ele>106.0</ele>
				<time>2013-07-20T10:37:41</time>
			</trkpt>
			<trkpt lat="48.872489891946316" lon="2.8366198483854532">
				<ele>112.0</ele>
				<time>2013-07-20T10:38:14</time>
			</trkpt>
			<trkpt lat="48.87371985241771" lon="2.837089905515313">
				<ele>101.0</ele>
				<time>2013-07-20T10:38:36</time>
			</trkpt>
			<trkpt lat="48.8740499317646" lon="2.837489889934659">
				<ele>96.0</ele>
				<time>2013-07-20T10:38:43</time>
			</trkpt>
			<trkpt lat="48.87455997057259" lon="2.8377199731767178">
				<ele>89.0</ele>
				<time>2013-07-20T10:38:53</time>
			</trkpt>
			<trkpt lat="48.874739930033684" lon="2.838189946487546">
				<ele>86.0</ele>
				<time>2013-07-20T10:38:59</time>
			</trkpt>
			<trkpt lat="48.8747098390013" lon="2.839089995250106">
				<ele>84.0</ele>
				<time>2013-07-20T10:39:09</time>
			</trkpt>
			<trkpt lat="48.87541995383799" lon="2.8395998664200306">
				<ele>76.0</ele>
				<time>2013-07-20T10:39:23</time>
			</trkpt>
			<trkpt lat="48.87599998153746" lon="2.8406298346817493">
				<ele>65.0</ele>
				<time>2013-07-20T10:39:38</time>
			</trkpt>
			<trkpt lat="48.87863994576037" lon="2.842759843915701">
				<ele>55.0</ele>
				<time>2013-07-20T10:40:30</time>
			</trkpt>
			<trkpt lat="48.87874991632998" lon="2.84315999597311">
				<ele>55.0</ele>
				<time>2013-07-20T10:40:35</time>
			</trkpt>
			<trkpt lat="48.87846996076405" lon="2.844829922541976">
				<ele>55.0</ele>
				<time>2013-07-20T10:40:55</time>
			</trkpt>
			<trkpt lat="48.87857993133366" lon="2.845229906961322">
				<ele>55.0</ele>
				<time>2013-07-20T10:41:00</time>
			</trkpt>
			<trkpt lat="48.881119983270764" lon="2.847299985587597">
				<ele>53.0</ele>
				<time>2013-07-20T10:41:50</time>
			</trkpt>
			<trkpt lat="48.88011993840337" lon="2.8495098743587732">
				<ele>52.0</ele>
				<time>2013-07-20T10:42:21</time>
			</trkpt>
			<trkpt lat="48.87985993176699" lon="2.849539965391159">
				<ele>53.0</ele>
				<time>2013-07-20T10:42:25</time>
			</trkpt>
			<trkpt lat="48.87936992570758" lon="2.8491598460823298">
				<ele>54.0</ele>
				<time>2013-07-20T10:42:35</time>
			</trkpt>
			<trkpt lat="48.87883985415101" lon="2.8511899430304766">
				<ele>52.0</ele>
				<time>2013-07-20T10:43:00</time>
			</trkpt>
			<trkpt lat="48.87947989627719" lon="2.850969834253192">
				<ele>51.0</ele>
				<time>2013-07-20T10:43:11</time>
			</trkpt>
			<trkpt lat="48.8810698594898" lon="2.85104988142848">
				<ele>49.0</ele>
				<time>2013-07-20T10:43:39</time>
			</trkpt>
			<trkpt lat="48.88033987954259" lon="2.852159980684519">
				<ele>49.0</ele>
				<time>2013-07-20T10:43:57</time>
			</trkpt>
			<trkpt lat="48.879679972305894" lon="2.8540699649602175">
				<ele>47.0</ele>
				<time>2013-07-20T10:44:22</time>
			</trkpt>
			<trkpt lat="48.87820995412767" lon="2.857029866427183">
				<ele>48.0</ele>
				<time>2013-07-20T10:45:04</time>
			</trkpt>
			<trkpt lat="48.8759599160403" lon="2.858509859070182">
				<ele>64.0</ele>
				<time>2013-07-20T10:45:47</time>
			</trkpt>
			<trkpt lat="48.8739999756217" lon="2.861509909853339">
				<ele>57.0</ele>
				<time>2013-07-20T10:46:35</time>
			</trkpt>
			<trkpt lat="48.87042995542288" lon="2.8635398391634226">
				<ele>67.0</ele>
				<time>2013-07-20T10:47:42</time>
			</trkpt>
			<trkpt lat="48.86998990550637" lon="2.8644899278879166">
				<ele>65.0</ele>
				<time>2013-07-20T10:47:55</time>
			</trkpt>
			<trkpt lat="48.867609864100814" lon="2.8682399075478315">
				<ele>52.0</ele>
				<time>2013-07-20T10:48:54</time>
			</trkpt>
			<trkpt lat="48.86650990694761" lon="2.8709199372678995">
				<ele>48.0</ele>
				<time>2013-07-20T10:49:31</time>
			</trkpt>
			<trkpt lat="48.86392987333238" lon="2.87489983253181">
				<ele>48.0</ele>
				<time>2013-07-20T10:50:35</time>
			</trkpt>
			<trkpt lat="48.86298984289169" lon="2.8775398805737495">
				<ele>50.0</ele>
				<time>2013-07-20T10:51:09</time>
			</trkpt>
			<trkpt lat="48.86011996306479" lon="2.8835398983210325">
				<ele>49.0</ele>
				<time>2013-07-20T10:52:34</time>
			</trkpt>
			<trkpt lat="48.85798987001181" lon="2.8840399626642466">
				<ele>55.0</ele>
				<time>2013-07-20T10:53:11</time>
			</trkpt>
			<trkpt lat="48.85605993680656" lon="2.8855899441987276">
				<ele>74.0</ele>
				<time>2013-07-20T10:53:49</time>
			</trkpt>
			<trkpt lat="48.8542499486357" lon="2.88651991635561">
				<ele>93.0</ele>
				<time>2013-07-20T10:54:23</time>
			</trkpt>
			<trkpt lat="48.85376991704106" lon="2.8869199845939875">
				<ele>96.0</ele>
				<time>2013-07-20T10:54:32</time>
			</trkpt>
			<trkpt lat="48.852399894967675" lon="2.8887099400162697">
				<ele>103.0</ele>
				<time>2013-07-20T10:55:04</time>
			</trkpt>
			<trkpt lat="48.8519099727273" lon="2.8896598611027002">
				<ele>106.0</ele>
				<time>2013-07-20T10:55:17</time>
			</trkpt>
			<trkpt lat="48.8505198340863" lon="2.89139986038208">
				<ele>112.0</ele>
				<time>2013-07-20T10:55:49</time>
			</trkpt>
			<trkpt lat="48.84988993406296" lon="2.893359884619713">
				<ele>112.0</ele>
				<time>2013-07-20T10:56:14</time>
			</trkpt>
			<trkpt lat="48.848619908094406" lon="2.8935199789702892">
				<ele>121.0</ele>
				<time>2013-07-20T10:56:36</time>
			</trkpt>
			<trkpt lat="48.84758993983269" lon="2.8944599255919456">
				<ele>123.0</ele>
				<time>2013-07-20T10:56:57</time>
			</trkpt>
			<trkpt lat="48.84718987159431" lon="2.895179847255349">
				<ele>124.0</ele>
				<time>2013-07-20T10:57:08</time>
			</trkpt>
			<trkpt lat="48.847228679805994" lon="2.895219912752509">
				<ele>124.0</ele>
				<time>2013-07-20T10:57:08</time>
			</trkpt>
			<trkpt lat="48.84722893126309" lon="2.895220248028636">
				<ele>124.0</ele>
				<time>2013-07-20T10:57:09</time>
			</trkpt>
			<trkpt lat="48.85006997734308" lon="2.8981599491089582">
				<ele>109.0</ele>
				<time>2013-07-20T10:58:08</time>
			</trkpt>
			<trkpt lat="48.85057984851301" lon="2.8984199557453394">
				<ele>107.0</ele>
				<time>2013-07-20T10:58:18</time>
			</trkpt>
			<trkpt lat="48.85275989770889" lon="2.8988299146294594">
				<ele>97.0</ele>
				<time>2013-07-20T10:58:56</time>
			</trkpt>
			<trkpt lat="48.853539833799005" lon="2.89938990958035">
				<ele>93.0</ele>
				<time>2013-07-20T10:59:11</time>
			</trkpt>
			<trkpt lat="48.85403998196125" lon="2.9000499844551086">
				<ele>91.0</ele>
				<time>2013-07-20T10:59:22</time>
			</trkpt>
			<trkpt lat="48.85446997359395" lon="2.9014798533171415">
				<ele>87.0</ele>
				<time>2013-07-20T10:59:40</time>
			</trkpt>
			<trkpt lat="48.85420996695757" lon="2.9068599455058575">
				<ele>77.0</ele>
				<time>2013-07-20T11:00:42</time>
			</trkpt>
			<trkpt lat="48.8546899985522" lon="2.909609964117408">
				<ele>58.0</ele>
				<time>2013-07-20T11:01:15</time>
			</trkpt>
			<trkpt lat="48.85487993247807" lon="2.909859912469983">
				<ele>55.0</ele>
				<time>2013-07-20T11:01:19</time>
			</trkpt>
			<trkpt lat="48.85549994185567" lon="2.909829905256629">
				<ele>51.0</ele>
				<time>2013-07-20T11:01:30</time>
			</trkpt>
			<trkpt lat="48.85628993622959" lon="2.91098996065557">
				<ele>51.0</ele>
				<time>2013-07-20T11:01:49</time>
			</trkpt>
			<trkpt lat="48.85678991675377" lon="2.912909835577011">
				<ele>52.0</ele>
				<time>2013-07-20T11:02:13</time>
			</trkpt>
			<trkpt lat="48.85736986063421" lon="2.9135098960250616">
				<ele>52.0</ele>
				<time>2013-07-20T11:02:25</time>
			</trkpt>
			<trkpt lat="48.858049884438515" lon="2.91360997594893">
				<ele>51.0</ele>
				<time>2013-07-20T11:02:37</time>
			</trkpt>
			<trkpt lat="48.8580456096679" lon="2.913545100018382">
				<ele>51.0</ele>
				<time>2013-07-20T11:02:38</time>
			</trkpt>
			<trkpt lat="48.8580456096679" lon="2.913544764742255">
				<ele>51.0</ele>
				<time>2013-07-20T11:02:38</time>
			</trkpt>
			<trkpt lat="48.8576898816973" lon="2.9081598948687315">
				<ele>51.0</ele>
				<time>2013-07-20T11:03:40</time>
			</trkpt>
			<trkpt lat="48.85824987664819" lon="2.9070798866450787">
				<ele>49.0</ele>
				<time>2013-07-20T11:03:55</time>
			</trkpt>
			<trkpt lat="48.85790982283652" lon="2.906889785081148">
				<ele>49.0</ele>
				<time>2013-07-20T11:04:02</time>
			</trkpt>
		</trkseg>
	</trk>
</gpx>
