<?xml version="1.0" encoding="UTF-8"?>
<gpx creator="Garmin Connect" version="1.1" xsi:schemaLocation="http://www.topografix.com/GPX/1/1 http://www.topografix.com/GPX/11.xsd" xmlns:ns3="http://www.garmin.com/xmlschemas/TrackPointExtension/v1" xmlns="http://www.topografix.com/GPX/1/1" xmlns:xsi="http://www.w3.org/2001/XMLSchema-instance" xmlns:ns2="http://www.garmin.com/xmlschemas/GpxExtensions/v3">
	<metadata>
		<name>201-G3-63 km-D 304 m-Le Moulin de la Guette et Chaudbuisson</name>
		<link href="connect.garmin.com">
			<text>Garmin Connect</text>
		</link>
		<time>2014-03-01T08:00:00</time>
	</metadata>
	<trk>
		<name>201-G3-63 km-D 304 m-Le Moulin de la Guette et Chaudbuisson</name>
		<trkseg>
			<trkpt lat="48.857889957726" lon="2.906879810616374">
				<ele>49.0</ele>
				<time>2014-03-01T08:00:00</time>
			</trkpt>
			<trkpt lat="48.858249792829156" lon="2.9070798866450787">
				<ele>49.0</ele>
				<time>2014-03-01T08:00:07</time>
			</trkpt>
			<trkpt lat="48.85824987664819" lon="2.9070798866450787">
				<ele>49.0</ele>
				<time>2014-03-01T08:00:07</time>
			</trkpt>
			<trkpt lat="48.85823990218341" lon="2.907229922711849">
				<ele>49.0</ele>
				<time>2014-03-01T08:00:08</time>
			</trkpt>
			<trkpt lat="48.856669971719384" lon="2.909989831969142">
				<ele>50.0</ele>
				<time>2014-03-01T08:00:50</time>
			</trkpt>
			<trkpt lat="48.85628993622959" lon="2.91098996065557">
				<ele>51.0</ele>
				<time>2014-03-01T08:01:03</time>
			</trkpt>
			<trkpt lat="48.85549994185567" lon="2.909829905256629">
				<ele>51.0</ele>
				<time>2014-03-01T08:01:23</time>
			</trkpt>
			<trkpt lat="48.854849841445684" lon="2.909849938005209">
				<ele>56.0</ele>
				<time>2014-03-01T08:01:34</time>
			</trkpt>
			<trkpt lat="48.854549853131175" lon="2.910249838605523">
				<ele>59.0</ele>
				<time>2014-03-01T08:01:41</time>
			</trkpt>
			<trkpt lat="48.854329995810986" lon="2.9116999078541994">
				<ele>61.0</ele>
				<time>2014-03-01T08:01:58</time>
			</trkpt>
			<trkpt lat="48.8552098441869" lon="2.9161899257451296">
				<ele>51.0</ele>
				<time>2014-03-01T08:02:51</time>
			</trkpt>
			<trkpt lat="48.855159888044" lon="2.9211998730897903">
				<ele>51.0</ele>
				<time>2014-03-01T08:03:49</time>
			</trkpt>
			<trkpt lat="48.85502988472581" lon="2.9223899357020855">
				<ele>53.0</ele>
				<time>2014-03-01T08:04:03</time>
			</trkpt>
			<trkpt lat="48.85466988198459" lon="2.9233399406075478">
				<ele>54.0</ele>
				<time>2014-03-01T08:04:15</time>
			</trkpt>
			<trkpt lat="48.854419849812984" lon="2.9236298706382513">
				<ele>55.0</ele>
				<time>2014-03-01T08:04:21</time>
			</trkpt>
			<trkpt lat="48.85382993146777" lon="2.9236999433487654">
				<ele>56.0</ele>
				<time>2014-03-01T08:04:31</time>
			</trkpt>
			<trkpt lat="48.849349888041615" lon="2.92065991088748">
				<ele>70.0</ele>
				<time>2014-03-01T08:05:56</time>
			</trkpt>
			<trkpt lat="48.847899986431" lon="2.919249990954995">
				<ele>63.0</ele>
				<time>2014-03-01T08:06:26</time>
			</trkpt>
			<trkpt lat="48.84713991545141" lon="2.91721997782588">
				<ele>58.0</ele>
				<time>2014-03-01T08:06:53</time>
			</trkpt>
			<trkpt lat="48.8466998655349" lon="2.914269967004657">
				<ele>59.0</ele>
				<time>2014-03-01T08:07:28</time>
			</trkpt>
			<trkpt lat="48.846149845048785" lon="2.912159990519285">
				<ele>58.0</ele>
				<time>2014-03-01T08:07:54</time>
			</trkpt>
			<trkpt lat="48.8444999512285" lon="2.9093099758028984">
				<ele>51.0</ele>
				<time>2014-03-01T08:08:37</time>
			</trkpt>
			<trkpt lat="48.842559875920415" lon="2.9069699998945">
				<ele>55.0</ele>
				<time>2014-03-01T08:09:20</time>
			</trkpt>
			<trkpt lat="48.84178991429508" lon="2.906559957191348">
				<ele>54.0</ele>
				<time>2014-03-01T08:09:35</time>
			</trkpt>
			<trkpt lat="48.83601997978985" lon="2.9052198585122824">
				<ele>52.0</ele>
				<time>2014-03-01T08:11:16</time>
			</trkpt>
			<trkpt lat="48.833619905635715" lon="2.90387992747128">
				<ele>52.0</ele>
				<time>2014-03-01T08:12:01</time>
			</trkpt>
			<trkpt lat="48.82982994429767" lon="2.901419922709465">
				<ele>56.0</ele>
				<time>2014-03-01T08:13:12</time>
			</trkpt>
			<trkpt lat="48.82879997603595" lon="2.9013098683208227">
				<ele>60.0</ele>
				<time>2014-03-01T08:13:30</time>
			</trkpt>
			<trkpt lat="48.82704991847277" lon="2.901719994843006">
				<ele>59.0</ele>
				<time>2014-03-01T08:14:01</time>
			</trkpt>
			<trkpt lat="48.82485989481211" lon="2.901779841631651">
				<ele>67.0</ele>
				<time>2014-03-01T08:14:39</time>
			</trkpt>
			<trkpt lat="48.824189845472574" lon="2.9023899603635073">
				<ele>60.0</ele>
				<time>2014-03-01T08:14:53</time>
			</trkpt>
			<trkpt lat="48.8228898961097" lon="2.9026499669998884">
				<ele>64.0</ele>
				<time>2014-03-01T08:15:16</time>
			</trkpt>
			<trkpt lat="48.8203099463135" lon="2.905369894579053">
				<ele>60.0</ele>
				<time>2014-03-01T08:16:10</time>
			</trkpt>
			<trkpt lat="48.820089837536216" lon="2.9060998745262623">
				<ele>57.0</ele>
				<time>2014-03-01T08:16:20</time>
			</trkpt>
			<trkpt lat="48.81962992250919" lon="2.909839879721403">
				<ele>56.0</ele>
				<time>2014-03-01T08:17:03</time>
			</trkpt>
			<trkpt lat="48.81482994183898" lon="2.921379916369915">
				<ele>82.0</ele>
				<time>2014-03-01T08:19:40</time>
			</trkpt>
			<trkpt lat="48.8060599565506" lon="2.9300098400563">
				<ele>126.0</ele>
				<time>2014-03-01T08:22:41</time>
			</trkpt>
			<trkpt lat="48.805109867826104" lon="2.930669914931059">
				<ele>130.0</ele>
				<time>2014-03-01T08:23:00</time>
			</trkpt>
			<trkpt lat="48.792559979483485" lon="2.9348799772560596">
				<ele>136.0</ele>
				<time>2014-03-01T08:26:43</time>
			</trkpt>
			<trkpt lat="48.78145999275148" lon="2.936409842222929">
				<ele>123.0</ele>
				<time>2014-03-01T08:29:57</time>
			</trkpt>
			<trkpt lat="48.77726996317506" lon="2.9357099533081055">
				<ele>125.0</ele>
				<time>2014-03-01T08:31:11</time>
			</trkpt>
			<trkpt lat="48.77652984112501" lon="2.9357599932700396">
				<ele>124.0</ele>
				<time>2014-03-01T08:31:24</time>
			</trkpt>
			<trkpt lat="48.75348991714418" lon="2.94336992315948">
				<ele>115.0</ele>
				<time>2014-03-01T08:38:14</time>
			</trkpt>
			<trkpt lat="48.75294995494187" lon="2.9438898526132107">
				<ele>119.0</ele>
				<time>2014-03-01T08:38:25</time>
			</trkpt>
			<trkpt lat="48.752429857850075" lon="2.943699834868312">
				<ele>120.0</ele>
				<time>2014-03-01T08:38:34</time>
			</trkpt>
			<trkpt lat="48.74121998436749" lon="2.9473898839205503">
				<ele>112.0</ele>
				<time>2014-03-01T08:41:54</time>
			</trkpt>
			<trkpt lat="48.74018984846771" lon="2.9480999149382114">
				<ele>112.0</ele>
				<time>2014-03-01T08:42:14</time>
			</trkpt>
			<trkpt lat="48.73949993401766" lon="2.9489598982036114">
				<ele>113.0</ele>
				<time>2014-03-01T08:42:29</time>
			</trkpt>
			<trkpt lat="48.738069981336594" lon="2.950259931385517">
				<ele>114.0</ele>
				<time>2014-03-01T08:42:58</time>
			</trkpt>
			<trkpt lat="48.73694990761578" lon="2.9519198834896088">
				<ele>116.0</ele>
				<time>2014-03-01T08:43:26</time>
			</trkpt>
			<trkpt lat="48.7366899009794" lon="2.951419986784458">
				<ele>116.0</ele>
				<time>2014-03-01T08:43:33</time>
			</trkpt>
			<trkpt lat="48.736059833317995" lon="2.95086988247931">
				<ele>117.0</ele>
				<time>2014-03-01T08:43:46</time>
			</trkpt>
			<trkpt lat="48.730939999222755" lon="2.951329965144396">
				<ele>113.0</ele>
				<time>2014-03-01T08:45:15</time>
			</trkpt>
			<trkpt lat="48.72944994829595" lon="2.9507799446582794">
				<ele>114.0</ele>
				<time>2014-03-01T08:45:41</time>
			</trkpt>
			<trkpt lat="48.71534991078079" lon="2.9593899194151163">
				<ele>110.0</ele>
				<time>2014-03-01T08:50:06</time>
			</trkpt>
			<trkpt lat="48.71404987759888" lon="2.959879841655493">
				<ele>111.0</ele>
				<time>2014-03-01T08:50:29</time>
			</trkpt>
			<trkpt lat="48.713819961994886" lon="2.960249986499548">
				<ele>111.0</ele>
				<time>2014-03-01T08:50:35</time>
			</trkpt>
			<trkpt lat="48.71028992347419" lon="2.9602998588234186">
				<ele>113.0</ele>
				<time>2014-03-01T08:51:37</time>
			</trkpt>
			<trkpt lat="48.70518995448947" lon="2.9625699296593666">
				<ele>105.0</ele>
				<time>2014-03-01T08:53:09</time>
			</trkpt>
			<trkpt lat="48.70480991899967" lon="2.962599853053689">
				<ele>105.0</ele>
				<time>2014-03-01T08:53:16</time>
			</trkpt>
			<trkpt lat="48.70385991409421" lon="2.962289974093437">
				<ele>105.0</ele>
				<time>2014-03-01T08:53:33</time>
			</trkpt>
			<trkpt lat="48.70225075632334" lon="2.9625794012099504">
				<ele>103.0</ele>
				<time>2014-03-01T08:54:01</time>
			</trkpt>
			<trkpt lat="48.70225050486624" lon="2.9625794012099504">
				<ele>102.99</ele>
				<time>2014-03-01T08:54:01</time>
			</trkpt>
			<trkpt lat="48.70196996256709" lon="2.962629860267043">
				<ele>101.0</ele>
				<time>2014-03-01T08:54:06</time>
			</trkpt>
			<trkpt lat="48.70156989432871" lon="2.9589898511767387">
				<ele>103.0</ele>
				<time>2014-03-01T08:54:48</time>
			</trkpt>
			<trkpt lat="48.70185999199748" lon="2.95705983415246">
				<ele>105.0</ele>
				<time>2014-03-01T08:55:11</time>
			</trkpt>
			<trkpt lat="48.702259892597795" lon="2.9563498869538307">
				<ele>105.0</ele>
				<time>2014-03-01T08:55:22</time>
			</trkpt>
			<trkpt lat="48.7027498986572" lon="2.9518598690629005">
				<ele>102.0</ele>
				<time>2014-03-01T08:56:14</time>
			</trkpt>
			<trkpt lat="48.70222996920347" lon="2.9474799055606127">
				<ele>103.0</ele>
				<time>2014-03-01T08:57:05</time>
			</trkpt>
			<trkpt lat="48.70567996054888" lon="2.9319199081510305">
				<ele>110.0</ele>
				<time>2014-03-01T09:00:14</time>
			</trkpt>
			<trkpt lat="48.70619989000261" lon="2.9309999104589224">
				<ele>111.0</ele>
				<time>2014-03-01T09:00:27</time>
			</trkpt>
			<trkpt lat="48.702129889279604" lon="2.9153099097311497">
				<ele>112.0</ele>
				<time>2014-03-01T09:03:41</time>
			</trkpt>
			<trkpt lat="48.70203995145857" lon="2.9125999566167593">
				<ele>113.0</ele>
				<time>2014-03-01T09:04:12</time>
			</trkpt>
			<trkpt lat="48.70148993097246" lon="2.9102299734950066">
				<ele>110.0</ele>
				<time>2014-03-01T09:04:41</time>
			</trkpt>
			<trkpt lat="48.70110687799752" lon="2.906017145141959">
				<ele>110.99</ele>
				<time>2014-03-01T09:05:30</time>
			</trkpt>
			<trkpt lat="48.70110696181655" lon="2.9060173965990543">
				<ele>111.0</ele>
				<time>2014-03-01T09:05:30</time>
			</trkpt>
			<trkpt lat="48.70103990659118" lon="2.9052798729389906">
				<ele>110.0</ele>
				<time>2014-03-01T09:05:39</time>
			</trkpt>
			<trkpt lat="48.701319862157106" lon="2.905229916796088">
				<ele>110.0</ele>
				<time>2014-03-01T09:05:43</time>
			</trkpt>
			<trkpt lat="48.70218990370631" lon="2.89803983643651">
				<ele>108.0</ele>
				<time>2014-03-01T09:07:07</time>
			</trkpt>
			<trkpt lat="48.7018899153918" lon="2.892459835857153">
				<ele>108.0</ele>
				<time>2014-03-01T09:08:12</time>
			</trkpt>
			<trkpt lat="48.70301996357739" lon="2.8858499508351088">
				<ele>107.0</ele>
				<time>2014-03-01T09:09:30</time>
			</trkpt>
			<trkpt lat="48.70467991568148" lon="2.8832598589360714">
				<ele>106.0</ele>
				<time>2014-03-01T09:10:12</time>
			</trkpt>
			<trkpt lat="48.708809930831194" lon="2.879559835419059">
				<ele>105.0</ele>
				<time>2014-03-01T09:11:35</time>
			</trkpt>
			<trkpt lat="48.71038983576" lon="2.877439884468913">
				<ele>105.0</ele>
				<time>2014-03-01T09:12:12</time>
			</trkpt>
			<trkpt lat="48.71147998608649" lon="2.875179871916771">
				<ele>106.0</ele>
				<time>2014-03-01T09:12:44</time>
			</trkpt>
			<trkpt lat="48.71216998435557" lon="2.87315983325243">
				<ele>104.0</ele>
				<time>2014-03-01T09:13:10</time>
			</trkpt>
			<trkpt lat="48.71277993544936" lon="2.869499959051609">
				<ele>104.0</ele>
				<time>2014-03-01T09:13:53</time>
			</trkpt>
			<trkpt lat="48.7169499322772" lon="2.8690899163484573">
				<ele>107.0</ele>
				<time>2014-03-01T09:15:06</time>
			</trkpt>
			<trkpt lat="48.717539850622416" lon="2.8709399700164795">
				<ele>107.0</ele>
				<time>2014-03-01T09:15:30</time>
			</trkpt>
			<trkpt lat="48.71826999820769" lon="2.8718199860304594">
				<ele>107.0</ele>
				<time>2014-03-01T09:15:46</time>
			</trkpt>
			<trkpt lat="48.718759920448065" lon="2.872129864990711">
				<ele>108.0</ele>
				<time>2014-03-01T09:15:55</time>
			</trkpt>
			<trkpt lat="48.71943994425237" lon="2.8723698388785124">
				<ele>109.0</ele>
				<time>2014-03-01T09:16:07</time>
			</trkpt>
			<trkpt lat="48.72198988683522" lon="2.872779965400696">
				<ele>108.0</ele>
				<time>2014-03-01T09:16:52</time>
			</trkpt>
			<trkpt lat="48.722629928961396" lon="2.8731699753552675">
				<ele>109.0</ele>
				<time>2014-03-01T09:17:04</time>
			</trkpt>
			<trkpt lat="48.7245999276638" lon="2.8750898502767086">
				<ele>109.0</ele>
				<time>2014-03-01T09:17:45</time>
			</trkpt>
			<trkpt lat="48.72589987702668" lon="2.8757998812943697">
				<ele>110.0</ele>
				<time>2014-03-01T09:18:09</time>
			</trkpt>
			<trkpt lat="48.727419851347804" lon="2.876039855182171">
				<ele>111.0</ele>
				<time>2014-03-01T09:18:35</time>
			</trkpt>
			<trkpt lat="48.72835988178849" lon="2.8759098518639803">
				<ele>112.0</ele>
				<time>2014-03-01T09:18:52</time>
			</trkpt>
			<trkpt lat="48.7282298784703" lon="2.873719912022352">
				<ele>111.0</ele>
				<time>2014-03-01T09:19:17</time>
			</trkpt>
			<trkpt lat="48.728319983929396" lon="2.8679099958389997">
				<ele>110.0</ele>
				<time>2014-03-01T09:20:24</time>
			</trkpt>
			<trkpt lat="48.72875995002687" lon="2.86657995544374">
				<ele>109.0</ele>
				<time>2014-03-01T09:20:41</time>
			</trkpt>
			<trkpt lat="48.72882993891835" lon="2.8655699361115694">
				<ele>108.0</ele>
				<time>2014-03-01T09:20:53</time>
			</trkpt>
			<trkpt lat="48.72861988842487" lon="2.8615598659962416">
				<ele>112.0</ele>
				<time>2014-03-01T09:21:39</time>
			</trkpt>
			<trkpt lat="48.72830992564559" lon="2.8594199661165476">
				<ele>115.0</ele>
				<time>2014-03-01T09:22:04</time>
			</trkpt>
			<trkpt lat="48.72864997945726" lon="2.857289956882596">
				<ele>112.0</ele>
				<time>2014-03-01T09:22:29</time>
			</trkpt>
			<trkpt lat="48.7294698972255" lon="2.8559698909521103">
				<ele>108.0</ele>
				<time>2014-03-01T09:22:50</time>
			</trkpt>
			<trkpt lat="48.729719845578074" lon="2.8551699221134186">
				<ele>109.0</ele>
				<time>2014-03-01T09:23:00</time>
			</trkpt>
			<trkpt lat="48.72935992665589" lon="2.847729977220297">
				<ele>107.0</ele>
				<time>2014-03-01T09:24:26</time>
			</trkpt>
			<trkpt lat="48.72950996272266" lon="2.847559992223978">
				<ele>107.0</ele>
				<time>2014-03-01T09:24:29</time>
			</trkpt>
			<trkpt lat="48.73042996041477" lon="2.8475098684430122">
				<ele>107.0</ele>
				<time>2014-03-01T09:24:45</time>
			</trkpt>
			<trkpt lat="48.731969967484474" lon="2.846479984000325">
				<ele>107.0</ele>
				<time>2014-03-01T09:25:14</time>
			</trkpt>
			<trkpt lat="48.732679914683104" lon="2.846179995685816">
				<ele>107.0</ele>
				<time>2014-03-01T09:25:27</time>
			</trkpt>
			<trkpt lat="48.73559991829097" lon="2.843899866566062">
				<ele>110.0</ele>
				<time>2014-03-01T09:26:24</time>
			</trkpt>
			<trkpt lat="48.73665997758508" lon="2.8412599861621857">
				<ele>109.0</ele>
				<time>2014-03-01T09:27:00</time>
			</trkpt>
			<trkpt lat="48.73791986145079" lon="2.83991988748312">
				<ele>110.0</ele>
				<time>2014-03-01T09:27:27</time>
			</trkpt>
			<trkpt lat="48.73979992233217" lon="2.838529832661152">
				<ele>111.0</ele>
				<time>2014-03-01T09:28:03</time>
			</trkpt>
			<trkpt lat="48.74001986347139" lon="2.83860987983644">
				<ele>111.0</ele>
				<time>2014-03-01T09:28:07</time>
			</trkpt>
			<trkpt lat="48.740799967199564" lon="2.8396499902009964">
				<ele>111.0</ele>
				<time>2014-03-01T09:28:25</time>
			</trkpt>
			<trkpt lat="48.7413299549371" lon="2.8408299945294857">
				<ele>112.0</ele>
				<time>2014-03-01T09:28:41</time>
			</trkpt>
			<trkpt lat="48.741659950464964" lon="2.8369899932295084">
				<ele>110.0</ele>
				<time>2014-03-01T09:29:26</time>
			</trkpt>
			<trkpt lat="48.74253988265991" lon="2.830949993804097">
				<ele>115.0</ele>
				<time>2014-03-01T09:30:37</time>
			</trkpt>
			<trkpt lat="48.74233997426927" lon="2.819469887763262">
				<ele>112.0</ele>
				<time>2014-03-01T09:32:49</time>
			</trkpt>
			<trkpt lat="48.74324991367757" lon="2.8164998441934586">
				<ele>111.0</ele>
				<time>2014-03-01T09:33:26</time>
			</trkpt>
			<trkpt lat="48.7436199747026" lon="2.8165599424391985">
				<ele>111.0</ele>
				<time>2014-03-01T09:33:33</time>
			</trkpt>
			<trkpt lat="48.74430997297168" lon="2.8171698935329914">
				<ele>110.0</ele>
				<time>2014-03-01T09:33:47</time>
			</trkpt>
			<trkpt lat="48.74469989910722" lon="2.8172699734568596">
				<ele>110.0</ele>
				<time>2014-03-01T09:33:53</time>
			</trkpt>
			<trkpt lat="48.75010999850929" lon="2.8162498958408833">
				<ele>113.0</ele>
				<time>2014-03-01T09:35:28</time>
			</trkpt>
			<trkpt lat="48.76160988584161" lon="2.821519933640957">
				<ele>118.0</ele>
				<time>2014-03-01T09:38:57</time>
			</trkpt>
			<trkpt lat="48.76257992349565" lon="2.823129929602146">
				<ele>116.0</ele>
				<time>2014-03-01T09:39:22</time>
			</trkpt>
			<trkpt lat="48.76865990459919" lon="2.816279986873269">
				<ele>125.0</ele>
				<time>2014-03-01T09:41:34</time>
			</trkpt>
			<trkpt lat="48.7721598520875" lon="2.8125799633562565">
				<ele>121.0</ele>
				<time>2014-03-01T09:42:49</time>
			</trkpt>
			<trkpt lat="48.76932987011969" lon="2.785209948197007">
				<ele>110.0</ele>
				<time>2014-03-01T09:48:06</time>
			</trkpt>
			<trkpt lat="48.768029836937785" lon="2.782049970701337">
				<ele>109.0</ele>
				<time>2014-03-01T09:48:49</time>
			</trkpt>
			<trkpt lat="48.7681498657912" lon="2.7810899075120687">
				<ele>110.0</ele>
				<time>2014-03-01T09:49:00</time>
			</trkpt>
			<trkpt lat="48.768859980627894" lon="2.780689839273691">
				<ele>110.0</ele>
				<time>2014-03-01T09:49:13</time>
			</trkpt>
			<trkpt lat="48.76906986348331" lon="2.7800099831074476">
				<ele>109.0</ele>
				<time>2014-03-01T09:49:22</time>
			</trkpt>
			<trkpt lat="48.7687698751688" lon="2.7757399063557386">
				<ele>106.0</ele>
				<time>2014-03-01T09:50:11</time>
			</trkpt>
			<trkpt lat="48.769979970529675" lon="2.775879967957735">
				<ele>109.0</ele>
				<time>2014-03-01T09:50:32</time>
			</trkpt>
			<trkpt lat="48.77205993980169" lon="2.775219976902008">
				<ele>110.0</ele>
				<time>2014-03-01T09:51:09</time>
			</trkpt>
			<trkpt lat="48.7751798518002" lon="2.7783599216490984">
				<ele>110.0</ele>
				<time>2014-03-01T09:52:15</time>
			</trkpt>
			<trkpt lat="48.77670996822417" lon="2.778549939393997">
				<ele>110.0</ele>
				<time>2014-03-01T09:52:41</time>
			</trkpt>
			<trkpt lat="48.77739988267422" lon="2.778459833934903">
				<ele>112.0</ele>
				<time>2014-03-01T09:52:53</time>
			</trkpt>
			<trkpt lat="48.78367993980646" lon="2.773589948192239">
				<ele>117.0</ele>
				<time>2014-03-01T09:54:56</time>
			</trkpt>
			<trkpt lat="48.7848399952054" lon="2.7714999206364155">
				<ele>121.0</ele>
				<time>2014-03-01T09:55:27</time>
			</trkpt>
			<trkpt lat="48.78524987027049" lon="2.7710799034684896">
				<ele>119.0</ele>
				<time>2014-03-01T09:55:36</time>
			</trkpt>
			<trkpt lat="48.787409886717796" lon="2.770289909094572">
				<ele>118.0</ele>
				<time>2014-03-01T09:56:15</time>
			</trkpt>
			<trkpt lat="48.78812997601926" lon="2.7693499624729156">
				<ele>115.0</ele>
				<time>2014-03-01T09:56:31</time>
			</trkpt>
			<trkpt lat="48.7887099198997" lon="2.7690299414098263">
				<ele>116.0</ele>
				<time>2014-03-01T09:56:42</time>
			</trkpt>
			<trkpt lat="48.79132993519306" lon="2.7691099047660828">
				<ele>121.0</ele>
				<time>2014-03-01T09:57:28</time>
			</trkpt>
			<trkpt lat="48.792242892086506" lon="2.7687872014939785">
				<ele>121.0</ele>
				<time>2014-03-01T09:57:44</time>
			</trkpt>
			<trkpt lat="48.79224305972457" lon="2.768787117674947">
				<ele>120.99</ele>
				<time>2014-03-01T09:57:44</time>
			</trkpt>
			<trkpt lat="48.793309992179275" lon="2.7684099320322275">
				<ele>118.0</ele>
				<time>2014-03-01T09:58:03</time>
			</trkpt>
			<trkpt lat="48.80258984863758" lon="2.78542997315526">
				<ele>124.0</ele>
				<time>2014-03-01T10:02:16</time>
			</trkpt>
			<trkpt lat="48.803409934043884" lon="2.786499923095107">
				<ele>122.0</ele>
				<time>2014-03-01T10:02:35</time>
			</trkpt>
			<trkpt lat="48.80474986508489" lon="2.7878799196332693">
				<ele>119.0</ele>
				<time>2014-03-01T10:03:03</time>
			</trkpt>
			<trkpt lat="48.80626983940601" lon="2.788399849087">
				<ele>120.0</ele>
				<time>2014-03-01T10:03:30</time>
			</trkpt>
			<trkpt lat="48.807649835944176" lon="2.7884299401193857">
				<ele>121.0</ele>
				<time>2014-03-01T10:03:54</time>
			</trkpt>
			<trkpt lat="48.810479901731014" lon="2.7876799274235964">
				<ele>119.0</ele>
				<time>2014-03-01T10:04:44</time>
			</trkpt>
			<trkpt lat="48.810839988291264" lon="2.7890398912131786">
				<ele>120.0</ele>
				<time>2014-03-01T10:05:01</time>
			</trkpt>
			<trkpt lat="48.81142990663648" lon="2.7899499144405127">
				<ele>117.0</ele>
				<time>2014-03-01T10:05:16</time>
			</trkpt>
			<trkpt lat="48.812469933182" lon="2.790509909391403">
				<ele>118.0</ele>
				<time>2014-03-01T10:05:35</time>
			</trkpt>
			<trkpt lat="48.81384992972016" lon="2.790399855002761">
				<ele>118.0</ele>
				<time>2014-03-01T10:05:59</time>
			</trkpt>
			<trkpt lat="48.81435996852815" lon="2.7905298583209515">
				<ele>117.0</ele>
				<time>2014-03-01T10:06:08</time>
			</trkpt>
			<trkpt lat="48.81501995958388" lon="2.7913299947977066">
				<ele>119.0</ele>
				<time>2014-03-01T10:06:23</time>
			</trkpt>
			<trkpt lat="48.815569980069995" lon="2.7925498969852924">
				<ele>121.0</ele>
				<time>2014-03-01T10:06:40</time>
			</trkpt>
			<trkpt lat="48.81645988672972" lon="2.795829903334379">
				<ele>121.0</ele>
				<time>2014-03-01T10:07:20</time>
			</trkpt>
			<trkpt lat="48.81601983681321" lon="2.7994499634951353">
				<ele>122.0</ele>
				<time>2014-03-01T10:08:03</time>
			</trkpt>
			<trkpt lat="48.81598991341889" lon="2.803389960899949">
				<ele>121.0</ele>
				<time>2014-03-01T10:08:48</time>
			</trkpt>
			<trkpt lat="48.816559966653585" lon="2.8077998477965593">
				<ele>120.0</ele>
				<time>2014-03-01T10:09:39</time>
			</trkpt>
			<trkpt lat="48.81767995655537" lon="2.8132398705929518">
				<ele>123.0</ele>
				<time>2014-03-01T10:10:45</time>
			</trkpt>
			<trkpt lat="48.818059992045164" lon="2.8166199568659067">
				<ele>123.0</ele>
				<time>2014-03-01T10:11:24</time>
			</trkpt>
			<trkpt lat="48.818429969251156" lon="2.818209920078516">
				<ele>123.0</ele>
				<time>2014-03-01T10:11:43</time>
			</trkpt>
			<trkpt lat="48.818259900435805" lon="2.8189699072390795">
				<ele>123.0</ele>
				<time>2014-03-01T10:11:52</time>
			</trkpt>
			<trkpt lat="48.81721987389028" lon="2.82085994258523">
				<ele>123.0</ele>
				<time>2014-03-01T10:12:21</time>
			</trkpt>
			<trkpt lat="48.81573988124728" lon="2.8277598414570093">
				<ele>126.0</ele>
				<time>2014-03-01T10:13:44</time>
			</trkpt>
			<trkpt lat="48.81498986855149" lon="2.8283699601888657">
				<ele>125.0</ele>
				<time>2014-03-01T10:13:59</time>
			</trkpt>
			<trkpt lat="48.81447999738157" lon="2.8298599272966385">
				<ele>125.0</ele>
				<time>2014-03-01T10:14:18</time>
			</trkpt>
			<trkpt lat="48.814089987426996" lon="2.829719865694642">
				<ele>125.0</ele>
				<time>2014-03-01T10:14:25</time>
			</trkpt>
			<trkpt lat="48.81497997790575" lon="2.840549871325493">
				<ele>125.0</ele>
				<time>2014-03-01T10:16:30</time>
			</trkpt>
			<trkpt lat="48.81500990130007" lon="2.8413398656994104">
				<ele>126.0</ele>
				<time>2014-03-01T10:16:39</time>
			</trkpt>
			<trkpt lat="48.81482994183898" lon="2.8420399222522974">
				<ele>126.0</ele>
				<time>2014-03-01T10:16:48</time>
			</trkpt>
			<trkpt lat="48.81515985354781" lon="2.842779876664281">
				<ele>128.0</ele>
				<time>2014-03-01T10:16:58</time>
			</trkpt>
			<trkpt lat="48.815679866820574" lon="2.847939860075712">
				<ele>132.0</ele>
				<time>2014-03-01T10:17:58</time>
			</trkpt>
			<trkpt lat="48.81851990707219" lon="2.8658899571746588">
				<ele>135.0</ele>
				<time>2014-03-01T10:21:29</time>
			</trkpt>
			<trkpt lat="48.82170989178121" lon="2.8752698935568333">
				<ele>137.0</ele>
				<time>2014-03-01T10:23:30</time>
			</trkpt>
			<trkpt lat="48.82241992279887" lon="2.8762199822813272">
				<ele>137.0</ele>
				<time>2014-03-01T10:23:47</time>
			</trkpt>
			<trkpt lat="48.82236996665597" lon="2.87721985951066">
				<ele>135.0</ele>
				<time>2014-03-01T10:23:58</time>
			</trkpt>
			<trkpt lat="48.82360998541117" lon="2.8809299413114786">
				<ele>134.0</ele>
				<time>2014-03-01T10:24:46</time>
			</trkpt>
			<trkpt lat="48.82368986494839" lon="2.8820298984646797">
				<ele>132.0</ele>
				<time>2014-03-01T10:24:58</time>
			</trkpt>
			<trkpt lat="48.82488998584449" lon="2.883559847250581">
				<ele>130.0</ele>
				<time>2014-03-01T10:25:26</time>
			</trkpt>
			<trkpt lat="48.82645983248949" lon="2.8868599701672792">
				<ele>120.0</ele>
				<time>2014-03-01T10:26:12</time>
			</trkpt>
			<trkpt lat="48.82704991847277" lon="2.888599969446659">
				<ele>117.0</ele>
				<time>2014-03-01T10:26:35</time>
			</trkpt>
			<trkpt lat="48.82879997603595" lon="2.8941898606717587">
				<ele>100.0</ele>
				<time>2014-03-01T10:27:46</time>
			</trkpt>
			<trkpt lat="48.8289599865675" lon="2.895159898325801">
				<ele>97.0</ele>
				<time>2014-03-01T10:27:57</time>
			</trkpt>
			<trkpt lat="48.82888991385698" lon="2.8976199869066477">
				<ele>89.0</ele>
				<time>2014-03-01T10:28:25</time>
			</trkpt>
			<trkpt lat="48.82909996435046" lon="2.8979498986154795">
				<ele>85.0</ele>
				<time>2014-03-01T10:28:31</time>
			</trkpt>
			<trkpt lat="48.829539846628904" lon="2.8981498908251524">
				<ele>83.0</ele>
				<time>2014-03-01T10:28:39</time>
			</trkpt>
			<trkpt lat="48.83004988543689" lon="2.900919858366251">
				<ele>61.0</ele>
				<time>2014-03-01T10:29:12</time>
			</trkpt>
			<trkpt lat="48.8303498737514" lon="2.9017298854887486">
				<ele>55.0</ele>
				<time>2014-03-01T10:29:22</time>
			</trkpt>
			<trkpt lat="48.833619905635715" lon="2.90387992747128">
				<ele>52.0</ele>
				<time>2014-03-01T10:30:24</time>
			</trkpt>
			<trkpt lat="48.83601997978985" lon="2.9052198585122824">
				<ele>52.0</ele>
				<time>2014-03-01T10:31:09</time>
			</trkpt>
			<trkpt lat="48.84178991429508" lon="2.906559957191348">
				<ele>54.0</ele>
				<time>2014-03-01T10:32:50</time>
			</trkpt>
			<trkpt lat="48.842899929732084" lon="2.9072598461061716">
				<ele>56.0</ele>
				<time>2014-03-01T10:33:11</time>
			</trkpt>
			<trkpt lat="48.84467991068959" lon="2.909579873085022">
				<ele>52.0</ele>
				<time>2014-03-01T10:33:52</time>
			</trkpt>
			<trkpt lat="48.846149845048785" lon="2.912159990519285">
				<ele>58.0</ele>
				<time>2014-03-01T10:34:31</time>
			</trkpt>
			<trkpt lat="48.84669994935393" lon="2.914269883185625">
				<ele>59.0</ele>
				<time>2014-03-01T10:34:57</time>
			</trkpt>
			<trkpt lat="48.84713991545141" lon="2.91721997782588">
				<ele>58.0</ele>
				<time>2014-03-01T10:35:32</time>
			</trkpt>
			<trkpt lat="48.847899986431" lon="2.9192499071359634">
				<ele>63.0</ele>
				<time>2014-03-01T10:35:59</time>
			</trkpt>
			<trkpt lat="48.849349888041615" lon="2.92065991088748">
				<ele>70.0</ele>
				<time>2014-03-01T10:36:29</time>
			</trkpt>
			<trkpt lat="48.85382993146777" lon="2.9236998595297337">
				<ele>56.0</ele>
				<time>2014-03-01T10:37:54</time>
			</trkpt>
			<trkpt lat="48.8545898348093" lon="2.9234899766743183">
				<ele>54.0</ele>
				<time>2014-03-01T10:38:07</time>
			</trkpt>
			<trkpt lat="48.85502988472581" lon="2.9223899357020855">
				<ele>53.0</ele>
				<time>2014-03-01T10:38:22</time>
			</trkpt>
			<trkpt lat="48.85513993911445" lon="2.9215599596500397">
				<ele>52.0</ele>
				<time>2014-03-01T10:38:32</time>
			</trkpt>
			<trkpt lat="48.8552098441869" lon="2.9161899257451296">
				<ele>51.0</ele>
				<time>2014-03-01T10:39:33</time>
			</trkpt>
			<trkpt lat="48.854329911991954" lon="2.911699991673231">
				<ele>61.0</ele>
				<time>2014-03-01T10:40:27</time>
			</trkpt>
			<trkpt lat="48.854549853131175" lon="2.910249838605523">
				<ele>59.0</ele>
				<time>2014-03-01T10:40:44</time>
			</trkpt>
			<trkpt lat="48.854849841445684" lon="2.9098498541861773">
				<ele>56.0</ele>
				<time>2014-03-01T10:40:51</time>
			</trkpt>
			<trkpt lat="48.85549994185567" lon="2.909829905256629">
				<ele>51.0</ele>
				<time>2014-03-01T10:41:02</time>
			</trkpt>
			<trkpt lat="48.85628993622959" lon="2.9109898768365383">
				<ele>51.0</ele>
				<time>2014-03-01T10:41:21</time>
			</trkpt>
			<trkpt lat="48.85673996061087" lon="2.9128398466855288">
				<ele>52.0</ele>
				<time>2014-03-01T10:41:44</time>
			</trkpt>
			<trkpt lat="48.857249999418855" lon="2.9134399071335793">
				<ele>52.0</ele>
				<time>2014-03-01T10:41:55</time>
			</trkpt>
			<trkpt lat="48.858049884438515" lon="2.91360997594893">
				<ele>51.0</ele>
				<time>2014-03-01T10:42:09</time>
			</trkpt>
			<trkpt lat="48.85777101852" lon="2.9093883465975523">
				<ele>51.99</ele>
				<time>2014-03-01T10:42:58</time>
			</trkpt>
			<trkpt lat="48.85777110233903" lon="2.9093885142356157">
				<ele>52.0</ele>
				<time>2014-03-01T10:42:58</time>
			</trkpt>
			<trkpt lat="48.8576898816973" lon="2.9081598948687315">
				<ele>51.0</ele>
				<time>2014-03-01T10:43:12</time>
			</trkpt>
			<trkpt lat="48.857952654361725" lon="2.907653208822012">
				<ele>50.0</ele>
				<time>2014-03-01T10:43:19</time>
			</trkpt>
		</trkseg>
	</trk>
</gpx>
