<?xml version="1.0" encoding="UTF-8"?>
<gpx creator="Garmin Connect" version="1.1" xsi:schemaLocation="http://www.topografix.com/GPX/1/1 http://www.topografix.com/GPX/11.xsd" xmlns:ns3="http://www.garmin.com/xmlschemas/TrackPointExtension/v1" xmlns="http://www.topografix.com/GPX/1/1" xmlns:xsi="http://www.w3.org/2001/XMLSchema-instance" xmlns:ns2="http://www.garmin.com/xmlschemas/GpxExtensions/v3">
	<metadata>
		<name>201-G1,G2-75 km-D 417 m-Le Moulin de la Guette et Chaudbuisson</name>
		<link href="connect.garmin.com">
			<text>Garmin Connect</text>
		</link>
		<time>2015-02-09T08:00:00</time>
	</metadata>
	<trk>
		<name>201-G1,G2-75 km-D 417 m-Le Moulin de la Guette et Chaudbuisson</name>
		<desc>undefined</desc>
		<trkseg>
			<trkpt lat="48.85792977176607" lon="2.906899843364954">
				<ele>50.0</ele>
				<time>2015-02-09T08:00:00</time>
			</trkpt>
			<trkpt lat="48.858249709010124" lon="2.907079802826047">
				<ele>50.99</ele>
				<time>2015-02-09T08:00:05</time>
			</trkpt>
			<trkpt lat="48.858249792829156" lon="2.9070798866450787">
				<ele>51.0</ele>
				<time>2015-02-09T08:00:05</time>
			</trkpt>
			<trkpt lat="48.85824987664819" lon="2.9070798866450787">
				<ele>51.0</ele>
				<time>2015-02-09T08:00:05</time>
			</trkpt>
			<trkpt lat="48.85823990218341" lon="2.907229922711849">
				<ele>51.0</ele>
				<time>2015-02-09T08:00:07</time>
			</trkpt>
			<trkpt lat="48.856669971719384" lon="2.9099899996072054">
				<ele>50.0</ele>
				<time>2015-02-09T08:00:45</time>
			</trkpt>
			<trkpt lat="48.85628993622959" lon="2.91098996065557">
				<ele>52.0</ele>
				<time>2015-02-09T08:00:58</time>
			</trkpt>
			<trkpt lat="48.85549994185567" lon="2.909829905256629">
				<ele>51.0</ele>
				<time>2015-02-09T08:01:15</time>
			</trkpt>
			<trkpt lat="48.854849841445684" lon="2.909849938005209">
				<ele>52.0</ele>
				<time>2015-02-09T08:01:26</time>
			</trkpt>
			<trkpt lat="48.854549853131175" lon="2.910249838605523">
				<ele>54.0</ele>
				<time>2015-02-09T08:01:32</time>
			</trkpt>
			<trkpt lat="48.854329995810986" lon="2.9116999078541994">
				<ele>57.0</ele>
				<time>2015-02-09T08:01:48</time>
			</trkpt>
			<trkpt lat="48.85517992079258" lon="2.9159499518573284">
				<ele>51.0</ele>
				<time>2015-02-09T08:02:35</time>
			</trkpt>
			<trkpt lat="48.855159888044" lon="2.9211998730897903">
				<ele>51.0</ele>
				<time>2015-02-09T08:03:30</time>
			</trkpt>
			<trkpt lat="48.85502988472581" lon="2.9223899357020855">
				<ele>53.0</ele>
				<time>2015-02-09T08:03:43</time>
			</trkpt>
			<trkpt lat="48.85466988198459" lon="2.9233399406075478">
				<ele>52.0</ele>
				<time>2015-02-09T08:03:54</time>
			</trkpt>
			<trkpt lat="48.854419849812984" lon="2.9236298706382513">
				<ele>54.0</ele>
				<time>2015-02-09T08:03:59</time>
			</trkpt>
			<trkpt lat="48.85382993146777" lon="2.9236999433487654">
				<ele>58.0</ele>
				<time>2015-02-09T08:04:09</time>
			</trkpt>
			<trkpt lat="48.849349888041615" lon="2.92065991088748">
				<ele>72.0</ele>
				<time>2015-02-09T08:05:27</time>
			</trkpt>
			<trkpt lat="48.8479398842901" lon="2.91930983774364">
				<ele>67.0</ele>
				<time>2015-02-09T08:05:54</time>
			</trkpt>
			<trkpt lat="48.84713991545141" lon="2.91721997782588">
				<ele>61.0</ele>
				<time>2015-02-09T08:06:19</time>
			</trkpt>
			<trkpt lat="48.8466998655349" lon="2.914269967004657">
				<ele>59.0</ele>
				<time>2015-02-09T08:06:51</time>
			</trkpt>
			<trkpt lat="48.846149845048785" lon="2.912159990519285">
				<ele>60.0</ele>
				<time>2015-02-09T08:07:15</time>
			</trkpt>
			<trkpt lat="48.8444999512285" lon="2.9093099758028984">
				<ele>52.0</ele>
				<time>2015-02-09T08:07:55</time>
			</trkpt>
			<trkpt lat="48.842559875920415" lon="2.9069699998945">
				<ele>55.0</ele>
				<time>2015-02-09T08:08:35</time>
			</trkpt>
			<trkpt lat="48.84178991429508" lon="2.906559957191348">
				<ele>56.0</ele>
				<time>2015-02-09T08:08:48</time>
			</trkpt>
			<trkpt lat="48.83601997978985" lon="2.9052198585122824">
				<ele>53.0</ele>
				<time>2015-02-09T08:10:21</time>
			</trkpt>
			<trkpt lat="48.833619905635715" lon="2.90387992747128">
				<ele>53.0</ele>
				<time>2015-02-09T08:11:02</time>
			</trkpt>
			<trkpt lat="48.82982994429767" lon="2.901419922709465">
				<ele>55.0</ele>
				<time>2015-02-09T08:12:08</time>
			</trkpt>
			<trkpt lat="48.829049840569496" lon="2.9012798611074686">
				<ele>57.0</ele>
				<time>2015-02-09T08:12:21</time>
			</trkpt>
			<trkpt lat="48.82704991847277" lon="2.901719994843006">
				<ele>59.0</ele>
				<time>2015-02-09T08:12:53</time>
			</trkpt>
			<trkpt lat="48.824939941987395" lon="2.9017499182373285">
				<ele>70.0</ele>
				<time>2015-02-09T08:13:27</time>
			</trkpt>
			<trkpt lat="48.824189845472574" lon="2.9023899603635073">
				<ele>61.0</ele>
				<time>2015-02-09T08:13:41</time>
			</trkpt>
			<trkpt lat="48.82325987331569" lon="2.902499930933118">
				<ele>62.0</ele>
				<time>2015-02-09T08:13:56</time>
			</trkpt>
			<trkpt lat="48.82279995828867" lon="2.902719872072339">
				<ele>64.0</ele>
				<time>2015-02-09T08:14:03</time>
			</trkpt>
			<trkpt lat="48.8203099463135" lon="2.905369894579053">
				<ele>62.0</ele>
				<time>2015-02-09T08:14:52</time>
			</trkpt>
			<trkpt lat="48.820089837536216" lon="2.9060998745262623">
				<ele>57.0</ele>
				<time>2015-02-09T08:15:01</time>
			</trkpt>
			<trkpt lat="48.81962992250919" lon="2.909839879721403">
				<ele>55.0</ele>
				<time>2015-02-09T08:15:41</time>
			</trkpt>
			<trkpt lat="48.81482994183898" lon="2.921379916369915">
				<ele>81.0</ele>
				<time>2015-02-09T08:18:05</time>
			</trkpt>
			<trkpt lat="48.8057298772037" lon="2.9303099121898413">
				<ele>128.0</ele>
				<time>2015-02-09T08:20:58</time>
			</trkpt>
			<trkpt lat="48.805109867826104" lon="2.930669914931059">
				<ele>131.0</ele>
				<time>2015-02-09T08:21:09</time>
			</trkpt>
			<trkpt lat="48.792559979483485" lon="2.9348799772560596">
				<ele>139.0</ele>
				<time>2015-02-09T08:24:34</time>
			</trkpt>
			<trkpt lat="48.78145999275148" lon="2.936409842222929">
				<ele>123.0</ele>
				<time>2015-02-09T08:27:33</time>
			</trkpt>
			<trkpt lat="48.77677995711565" lon="2.9356899205595255">
				<ele>126.0</ele>
				<time>2015-02-09T08:28:48</time>
			</trkpt>
			<trkpt lat="48.75348991714418" lon="2.94336992315948">
				<ele>116.0</ele>
				<time>2015-02-09T08:35:10</time>
			</trkpt>
			<trkpt lat="48.75294995494187" lon="2.9438898526132107">
				<ele>119.0</ele>
				<time>2015-02-09T08:35:20</time>
			</trkpt>
			<trkpt lat="48.752429857850075" lon="2.943699834868312">
				<ele>121.0</ele>
				<time>2015-02-09T08:35:29</time>
			</trkpt>
			<trkpt lat="48.74097992666066" lon="2.947499854490161">
				<ele>113.0</ele>
				<time>2015-02-09T08:38:36</time>
			</trkpt>
			<trkpt lat="48.74018984846771" lon="2.9480999149382114">
				<ele>114.0</ele>
				<time>2015-02-09T08:38:51</time>
			</trkpt>
			<trkpt lat="48.73949993401766" lon="2.9489598982036114">
				<ele>115.0</ele>
				<time>2015-02-09T08:39:05</time>
			</trkpt>
			<trkpt lat="48.738069981336594" lon="2.950259931385517">
				<ele>115.0</ele>
				<time>2015-02-09T08:39:32</time>
			</trkpt>
			<trkpt lat="48.73694990761578" lon="2.9519198834896088">
				<ele>117.0</ele>
				<time>2015-02-09T08:39:57</time>
			</trkpt>
			<trkpt lat="48.7366899009794" lon="2.951419986784458">
				<ele>117.0</ele>
				<time>2015-02-09T08:40:03</time>
			</trkpt>
			<trkpt lat="48.736059833317995" lon="2.95086988247931">
				<ele>119.0</ele>
				<time>2015-02-09T08:40:15</time>
			</trkpt>
			<trkpt lat="48.730939999222755" lon="2.951329965144396">
				<ele>114.0</ele>
				<time>2015-02-09T08:41:37</time>
			</trkpt>
			<trkpt lat="48.72944994829595" lon="2.9507799446582794">
				<ele>117.0</ele>
				<time>2015-02-09T08:42:02</time>
			</trkpt>
			<trkpt lat="48.71534991078079" lon="2.9593899194151163">
				<ele>113.0</ele>
				<time>2015-02-09T08:46:05</time>
			</trkpt>
			<trkpt lat="48.71404987759888" lon="2.959879841655493">
				<ele>112.0</ele>
				<time>2015-02-09T08:46:26</time>
			</trkpt>
			<trkpt lat="48.713819961994886" lon="2.960249986499548">
				<ele>113.0</ele>
				<time>2015-02-09T08:46:32</time>
			</trkpt>
			<trkpt lat="48.71028992347419" lon="2.9602998588234186">
				<ele>114.0</ele>
				<time>2015-02-09T08:47:28</time>
			</trkpt>
			<trkpt lat="48.70518995448947" lon="2.9625699296593666">
				<ele>107.0</ele>
				<time>2015-02-09T08:48:54</time>
			</trkpt>
			<trkpt lat="48.704749988391995" lon="2.9625899624079466">
				<ele>107.0</ele>
				<time>2015-02-09T08:49:01</time>
			</trkpt>
			<trkpt lat="48.70377995073795" lon="2.9622799158096313">
				<ele>106.0</ele>
				<time>2015-02-09T08:49:16</time>
			</trkpt>
			<trkpt lat="48.70225075632334" lon="2.9625756293535233">
				<ele>106.0</ele>
				<time>2015-02-09T08:49:41</time>
			</trkpt>
			<trkpt lat="48.70225050486624" lon="2.9625756293535233">
				<ele>105.99</ele>
				<time>2015-02-09T08:49:41</time>
			</trkpt>
			<trkpt lat="48.7021092697978" lon="2.9626029543578625">
				<ele>105.0</ele>
				<time>2015-02-09T08:49:43</time>
			</trkpt>
			<trkpt lat="48.70196996256709" lon="2.962629860267043">
				<ele>104.0</ele>
				<time>2015-02-09T08:49:46</time>
			</trkpt>
			<trkpt lat="48.70156989432871" lon="2.9589898511767387">
				<ele>105.0</ele>
				<time>2015-02-09T08:50:25</time>
			</trkpt>
			<trkpt lat="48.70185999199748" lon="2.95705983415246">
				<ele>107.0</ele>
				<time>2015-02-09T08:50:46</time>
			</trkpt>
			<trkpt lat="48.701209891587496" lon="2.95580992475152">
				<ele>107.0</ele>
				<time>2015-02-09T08:51:02</time>
			</trkpt>
			<trkpt lat="48.70031998492777" lon="2.955529885366559">
				<ele>104.0</ele>
				<time>2015-02-09T08:51:17</time>
			</trkpt>
			<trkpt lat="48.700129967182875" lon="2.9552899952977896">
				<ele>103.0</ele>
				<time>2015-02-09T08:51:21</time>
			</trkpt>
			<trkpt lat="48.69971984066069" lon="2.951829945668578">
				<ele>100.0</ele>
				<time>2015-02-09T08:51:58</time>
			</trkpt>
			<trkpt lat="48.69823984801769" lon="2.9463198501616716">
				<ele>105.0</ele>
				<time>2015-02-09T08:53:01</time>
			</trkpt>
			<trkpt lat="48.69702992029488" lon="2.94418984092772">
				<ele>101.0</ele>
				<time>2015-02-09T08:53:31</time>
			</trkpt>
			<trkpt lat="48.694959841668606" lon="2.941839974373579">
				<ele>102.0</ele>
				<time>2015-02-09T08:54:12</time>
			</trkpt>
			<trkpt lat="48.69365997612476" lon="2.9406599700450897">
				<ele>100.0</ele>
				<time>2015-02-09T08:54:36</time>
			</trkpt>
			<trkpt lat="48.68864994496107" lon="2.9381098598241806">
				<ele>105.0</ele>
				<time>2015-02-09T08:56:01</time>
			</trkpt>
			<trkpt lat="48.68643997237086" lon="2.9373798798769712">
				<ele>108.0</ele>
				<time>2015-02-09T08:56:37</time>
			</trkpt>
			<trkpt lat="48.68481991812587" lon="2.93713990598917">
				<ele>106.0</ele>
				<time>2015-02-09T08:57:03</time>
			</trkpt>
			<trkpt lat="48.6840498726815" lon="2.9367398377507925">
				<ele>105.0</ele>
				<time>2015-02-09T08:57:16</time>
			</trkpt>
			<trkpt lat="48.68411986157298" lon="2.9345999378710985">
				<ele>105.0</ele>
				<time>2015-02-09T08:57:39</time>
			</trkpt>
			<trkpt lat="48.68371996097267" lon="2.9316499270498753">
				<ele>104.0</ele>
				<time>2015-02-09T08:58:11</time>
			</trkpt>
			<trkpt lat="48.68369992822409" lon="2.930439915508032">
				<ele>104.0</ele>
				<time>2015-02-09T08:58:24</time>
			</trkpt>
			<trkpt lat="48.68398985825479" lon="2.926339991390705">
				<ele>104.0</ele>
				<time>2015-02-09T08:59:07</time>
			</trkpt>
			<trkpt lat="48.68448983877897" lon="2.925229975953698">
				<ele>105.0</ele>
				<time>2015-02-09T08:59:21</time>
			</trkpt>
			<trkpt lat="48.684599893167615" lon="2.9243899416178465">
				<ele>104.0</ele>
				<time>2015-02-09T08:59:30</time>
			</trkpt>
			<trkpt lat="48.68306986056268" lon="2.9228199273347855">
				<ele>98.0</ele>
				<time>2015-02-09T09:00:00</time>
			</trkpt>
			<trkpt lat="48.68320992216468" lon="2.9199899453669786">
				<ele>98.0</ele>
				<time>2015-02-09T09:00:30</time>
			</trkpt>
			<trkpt lat="48.6825199238956" lon="2.917329864576459">
				<ele>101.0</ele>
				<time>2015-02-09T09:01:00</time>
			</trkpt>
			<trkpt lat="48.68078989908099" lon="2.889019902795553">
				<ele>111.0</ele>
				<time>2015-02-09T09:06:01</time>
			</trkpt>
			<trkpt lat="48.68037994019687" lon="2.8768798895180225">
				<ele>108.0</ele>
				<time>2015-02-09T09:08:09</time>
			</trkpt>
			<trkpt lat="48.68007995188236" lon="2.8751299157738686">
				<ele>108.0</ele>
				<time>2015-02-09T09:08:28</time>
			</trkpt>
			<trkpt lat="48.67934997193515" lon="2.8674499969929457">
				<ele>101.0</ele>
				<time>2015-02-09T09:09:50</time>
			</trkpt>
			<trkpt lat="48.67921996861696" lon="2.866399995982647">
				<ele>104.0</ele>
				<time>2015-02-09T09:10:02</time>
			</trkpt>
			<trkpt lat="48.67885988205671" lon="2.86528998054564">
				<ele>106.0</ele>
				<time>2015-02-09T09:10:15</time>
			</trkpt>
			<trkpt lat="48.676429968327284" lon="2.8595399111509323">
				<ele>105.0</ele>
				<time>2015-02-09T09:11:27</time>
			</trkpt>
			<trkpt lat="48.67437447421253" lon="2.8521937597543">
				<ele>101.0</ele>
				<time>2015-02-09T09:12:51</time>
			</trkpt>
			<trkpt lat="48.67437455803156" lon="2.852193843573332">
				<ele>101.0</ele>
				<time>2015-02-09T09:12:51</time>
			</trkpt>
			<trkpt lat="48.67433994077146" lon="2.8520699590444565">
				<ele>102.0</ele>
				<time>2015-02-09T09:12:53</time>
			</trkpt>
			<trkpt lat="48.67431496270001" lon="2.851699646562338">
				<ele>102.0</ele>
				<time>2015-02-09T09:12:57</time>
			</trkpt>
			<trkpt lat="48.67427992634475" lon="2.8511798847466707">
				<ele>102.0</ele>
				<time>2015-02-09T09:13:02</time>
			</trkpt>
			<trkpt lat="48.674519984051585" lon="2.850129883736372">
				<ele>100.0</ele>
				<time>2015-02-09T09:13:14</time>
			</trkpt>
			<trkpt lat="48.6749198846519" lon="2.8493498638272285">
				<ele>99.0</ele>
				<time>2015-02-09T09:13:24</time>
			</trkpt>
			<trkpt lat="48.67641991004348" lon="2.850539842620492">
				<ele>99.0</ele>
				<time>2015-02-09T09:13:51</time>
			</trkpt>
			<trkpt lat="48.683949960395694" lon="2.853439897298813">
				<ele>103.0</ele>
				<time>2015-02-09T09:15:56</time>
			</trkpt>
			<trkpt lat="48.68527983315289" lon="2.8498799353837967">
				<ele>84.0</ele>
				<time>2015-02-09T09:16:39</time>
			</trkpt>
			<trkpt lat="48.6868198402226" lon="2.85018989816308">
				<ele>84.0</ele>
				<time>2015-02-09T09:17:04</time>
			</trkpt>
			<trkpt lat="48.688099924474955" lon="2.8460399340838194">
				<ele>98.0</ele>
				<time>2015-02-09T09:17:52</time>
			</trkpt>
			<trkpt lat="48.6894999537617" lon="2.846849961206317">
				<ele>100.0</ele>
				<time>2015-02-09T09:18:16</time>
			</trkpt>
			<trkpt lat="48.69037996977568" lon="2.8470598440617323">
				<ele>98.0</ele>
				<time>2015-02-09T09:18:31</time>
			</trkpt>
			<trkpt lat="48.69106996804476" lon="2.846829928457737">
				<ele>99.0</ele>
				<time>2015-02-09T09:18:42</time>
			</trkpt>
			<trkpt lat="48.6915098503232" lon="2.8469298407435417">
				<ele>100.0</ele>
				<time>2015-02-09T09:18:49</time>
			</trkpt>
			<trkpt lat="48.6937998700887" lon="2.849689917638898">
				<ele>100.0</ele>
				<time>2015-02-09T09:19:36</time>
			</trkpt>
			<trkpt lat="48.69459983892739" lon="2.850399948656559">
				<ele>98.0</ele>
				<time>2015-02-09T09:19:51</time>
			</trkpt>
			<trkpt lat="48.69683990254998" lon="2.8510298486799">
				<ele>99.0</ele>
				<time>2015-02-09T09:20:27</time>
			</trkpt>
			<trkpt lat="48.70420994237065" lon="2.8551498893648386">
				<ele>105.0</ele>
				<time>2015-02-09T09:22:33</time>
			</trkpt>
			<trkpt lat="48.70650985278189" lon="2.8573599457740784">
				<ele>102.0</ele>
				<time>2015-02-09T09:23:17</time>
			</trkpt>
			<trkpt lat="48.70698996819556" lon="2.858359906822443">
				<ele>99.0</ele>
				<time>2015-02-09T09:23:30</time>
			</trkpt>
			<trkpt lat="48.70739992707968" lon="2.8608098533004522">
				<ele>99.0</ele>
				<time>2015-02-09T09:23:56</time>
			</trkpt>
			<trkpt lat="48.70735986158252" lon="2.8620399814099073">
				<ele>103.0</ele>
				<time>2015-02-09T09:24:09</time>
			</trkpt>
			<trkpt lat="48.7086299713701" lon="2.8607699554413557">
				<ele>101.0</ele>
				<time>2015-02-09T09:24:34</time>
			</trkpt>
			<trkpt lat="48.70999999344349" lon="2.8586398623883724">
				<ele>99.0</ele>
				<time>2015-02-09T09:25:05</time>
			</trkpt>
			<trkpt lat="48.711309833452106" lon="2.857079990208149">
				<ele>102.0</ele>
				<time>2015-02-09T09:25:32</time>
			</trkpt>
			<trkpt lat="48.71147998608649" lon="2.8571699280291796">
				<ele>103.0</ele>
				<time>2015-02-09T09:25:35</time>
			</trkpt>
			<trkpt lat="48.71159993112087" lon="2.857039924710989">
				<ele>102.0</ele>
				<time>2015-02-09T09:25:37</time>
			</trkpt>
			<trkpt lat="48.71355987153947" lon="2.857939973473549">
				<ele>103.0</ele>
				<time>2015-02-09T09:26:10</time>
			</trkpt>
			<trkpt lat="48.71369993314147" lon="2.858289834111929">
				<ele>103.0</ele>
				<time>2015-02-09T09:26:14</time>
			</trkpt>
			<trkpt lat="48.71297984384" lon="2.859669914469123">
				<ele>104.0</ele>
				<time>2015-02-09T09:26:33</time>
			</trkpt>
			<trkpt lat="48.71291999705136" lon="2.860139887779951">
				<ele>104.0</ele>
				<time>2015-02-09T09:26:38</time>
			</trkpt>
			<trkpt lat="48.7129298876971" lon="2.863479992374778">
				<ele>104.0</ele>
				<time>2015-02-09T09:27:13</time>
			</trkpt>
			<trkpt lat="48.71376992203295" lon="2.8644398879259825">
				<ele>104.0</ele>
				<time>2015-02-09T09:27:30</time>
			</trkpt>
			<trkpt lat="48.7169499322772" lon="2.8690899163484573">
				<ele>109.0</ele>
				<time>2015-02-09T09:28:41</time>
			</trkpt>
			<trkpt lat="48.71739995665848" lon="2.8705699928104877">
				<ele>108.0</ele>
				<time>2015-02-09T09:28:58</time>
			</trkpt>
			<trkpt lat="48.717859871685505" lon="2.871399885043502">
				<ele>109.0</ele>
				<time>2015-02-09T09:29:10</time>
			</trkpt>
			<trkpt lat="48.71826999820769" lon="2.8718199860304594">
				<ele>107.0</ele>
				<time>2015-02-09T09:29:17</time>
			</trkpt>
			<trkpt lat="48.71915990486741" lon="2.8722899593412876">
				<ele>110.0</ele>
				<time>2015-02-09T09:29:33</time>
			</trkpt>
			<trkpt lat="48.72216984629631" lon="2.8728598449379206">
				<ele>111.0</ele>
				<time>2015-02-09T09:30:21</time>
			</trkpt>
			<trkpt lat="48.724219892174006" lon="2.874789861962199">
				<ele>109.0</ele>
				<time>2015-02-09T09:31:00</time>
			</trkpt>
			<trkpt lat="48.72566996142268" lon="2.8757198341190815">
				<ele>111.0</ele>
				<time>2015-02-09T09:31:25</time>
			</trkpt>
			<trkpt lat="48.72725992463529" lon="2.8760299645364285">
				<ele>112.0</ele>
				<time>2015-02-09T09:31:51</time>
			</trkpt>
			<trkpt lat="48.72835988178849" lon="2.8759098518639803">
				<ele>113.0</ele>
				<time>2015-02-09T09:32:08</time>
			</trkpt>
			<trkpt lat="48.7282298784703" lon="2.873719912022352">
				<ele>113.0</ele>
				<time>2015-02-09T09:32:32</time>
			</trkpt>
			<trkpt lat="48.728319983929396" lon="2.8679099958389997">
				<ele>110.0</ele>
				<time>2015-02-09T09:33:33</time>
			</trkpt>
			<trkpt lat="48.72875995002687" lon="2.86657995544374">
				<ele>110.0</ele>
				<time>2015-02-09T09:33:49</time>
			</trkpt>
			<trkpt lat="48.72882993891835" lon="2.8655699361115694">
				<ele>108.0</ele>
				<time>2015-02-09T09:33:59</time>
			</trkpt>
			<trkpt lat="48.72861988842487" lon="2.8615598659962416">
				<ele>112.0</ele>
				<time>2015-02-09T09:34:42</time>
			</trkpt>
			<trkpt lat="48.72830992564559" lon="2.8594199661165476">
				<ele>115.0</ele>
				<time>2015-02-09T09:35:05</time>
			</trkpt>
			<trkpt lat="48.72864997945726" lon="2.857289956882596">
				<ele>112.0</ele>
				<time>2015-02-09T09:35:28</time>
			</trkpt>
			<trkpt lat="48.72959990054369" lon="2.8556999936699867">
				<ele>110.0</ele>
				<time>2015-02-09T09:35:51</time>
			</trkpt>
			<trkpt lat="48.729739962145686" lon="2.854879992082715">
				<ele>111.0</ele>
				<time>2015-02-09T09:36:00</time>
			</trkpt>
			<trkpt lat="48.72935992665589" lon="2.847729977220297">
				<ele>109.0</ele>
				<time>2015-02-09T09:37:15</time>
			</trkpt>
			<trkpt lat="48.72945983894169" lon="2.8475698828697205">
				<ele>109.0</ele>
				<time>2015-02-09T09:37:18</time>
			</trkpt>
			<trkpt lat="48.73053993098438" lon="2.8474499378353357">
				<ele>108.0</ele>
				<time>2015-02-09T09:37:35</time>
			</trkpt>
			<trkpt lat="48.731969967484474" lon="2.846479984000325">
				<ele>109.0</ele>
				<time>2015-02-09T09:38:00</time>
			</trkpt>
			<trkpt lat="48.73275996185839" lon="2.84612987190485">
				<ele>108.0</ele>
				<time>2015-02-09T09:38:13</time>
			</trkpt>
			<trkpt lat="48.735519871115685" lon="2.843969939276576">
				<ele>111.0</ele>
				<time>2015-02-09T09:39:03</time>
			</trkpt>
			<trkpt lat="48.73665997758508" lon="2.8412599861621857">
				<ele>111.0</ele>
				<time>2015-02-09T09:39:37</time>
			</trkpt>
			<trkpt lat="48.73786990530789" lon="2.83995995298028">
				<ele>112.0</ele>
				<time>2015-02-09T09:40:01</time>
			</trkpt>
			<trkpt lat="48.73975985683501" lon="2.838549865409732">
				<ele>112.0</ele>
				<time>2015-02-09T09:40:35</time>
			</trkpt>
			<trkpt lat="48.74001986347139" lon="2.83860987983644">
				<ele>113.0</ele>
				<time>2015-02-09T09:40:39</time>
			</trkpt>
			<trkpt lat="48.7407099455595" lon="2.839509928599">
				<ele>112.0</ele>
				<time>2015-02-09T09:40:53</time>
			</trkpt>
			<trkpt lat="48.7413299549371" lon="2.8408299945294857">
				<ele>113.0</ele>
				<time>2015-02-09T09:41:10</time>
			</trkpt>
			<trkpt lat="48.741659950464964" lon="2.8369899932295084">
				<ele>111.0</ele>
				<time>2015-02-09T09:41:51</time>
			</trkpt>
			<trkpt lat="48.74253988265991" lon="2.830949993804097">
				<ele>117.0</ele>
				<time>2015-02-09T09:42:57</time>
			</trkpt>
			<trkpt lat="48.74233997426927" lon="2.819469887763262">
				<ele>113.0</ele>
				<time>2015-02-09T09:44:58</time>
			</trkpt>
			<trkpt lat="48.74324991367757" lon="2.8164998441934586">
				<ele>113.0</ele>
				<time>2015-02-09T09:45:33</time>
			</trkpt>
			<trkpt lat="48.7436199747026" lon="2.8165599424391985">
				<ele>111.0</ele>
				<time>2015-02-09T09:45:38</time>
			</trkpt>
			<trkpt lat="48.74425984919071" lon="2.817129911854863">
				<ele>110.0</ele>
				<time>2015-02-09T09:45:50</time>
			</trkpt>
			<trkpt lat="48.74469989910722" lon="2.8172699734568596">
				<ele>110.0</ele>
				<time>2015-02-09T09:45:58</time>
			</trkpt>
			<trkpt lat="48.749569868668914" lon="2.8163099102675915">
				<ele>113.0</ele>
				<time>2015-02-09T09:47:16</time>
			</trkpt>
			<trkpt lat="48.750279899686575" lon="2.8162999358028173">
				<ele>114.0</ele>
				<time>2015-02-09T09:47:28</time>
			</trkpt>
			<trkpt lat="48.76160988584161" lon="2.821519933640957">
				<ele>119.0</ele>
				<time>2015-02-09T09:50:37</time>
			</trkpt>
			<trkpt lat="48.76257992349565" lon="2.823129929602146">
				<ele>116.0</ele>
				<time>2015-02-09T09:51:00</time>
			</trkpt>
			<trkpt lat="48.76865990459919" lon="2.816279986873269">
				<ele>124.0</ele>
				<time>2015-02-09T09:53:01</time>
			</trkpt>
			<trkpt lat="48.7721598520875" lon="2.8125799633562565">
				<ele>120.0</ele>
				<time>2015-02-09T09:54:10</time>
			</trkpt>
			<trkpt lat="48.76932987011969" lon="2.785209948197007">
				<ele>110.0</ele>
				<time>2015-02-09T09:59:02</time>
			</trkpt>
			<trkpt lat="48.76801986247301" lon="2.781939832493663">
				<ele>110.0</ele>
				<time>2015-02-09T09:59:42</time>
			</trkpt>
			<trkpt lat="48.7681498657912" lon="2.7810899075120687">
				<ele>110.0</ele>
				<time>2015-02-09T09:59:52</time>
			</trkpt>
			<trkpt lat="48.768859980627894" lon="2.780689839273691">
				<ele>111.0</ele>
				<time>2015-02-09T10:00:04</time>
			</trkpt>
			<trkpt lat="48.76906986348331" lon="2.7800099831074476">
				<ele>109.0</ele>
				<time>2015-02-09T10:00:12</time>
			</trkpt>
			<trkpt lat="48.7687698751688" lon="2.7757399063557386">
				<ele>108.0</ele>
				<time>2015-02-09T10:00:57</time>
			</trkpt>
			<trkpt lat="48.769979970529675" lon="2.775879967957735">
				<ele>110.0</ele>
				<time>2015-02-09T10:01:17</time>
			</trkpt>
			<trkpt lat="48.771999925374985" lon="2.7751898858696222">
				<ele>111.0</ele>
				<time>2015-02-09T10:01:50</time>
			</trkpt>
			<trkpt lat="48.7751798518002" lon="2.7783599216490984">
				<ele>110.0</ele>
				<time>2015-02-09T10:02:51</time>
			</trkpt>
			<trkpt lat="48.77670996822417" lon="2.778549939393997">
				<ele>110.0</ele>
				<time>2015-02-09T10:03:15</time>
			</trkpt>
			<trkpt lat="48.77754991874099" lon="2.778389845043421">
				<ele>113.0</ele>
				<time>2015-02-09T10:03:29</time>
			</trkpt>
			<trkpt lat="48.77839984372258" lon="2.777569843456149">
				<ele>116.0</ele>
				<time>2015-02-09T10:03:45</time>
			</trkpt>
			<trkpt lat="48.78367993980646" lon="2.773589948192239">
				<ele>118.0</ele>
				<time>2015-02-09T10:05:19</time>
			</trkpt>
			<trkpt lat="48.7848399952054" lon="2.7714999206364155">
				<ele>121.0</ele>
				<time>2015-02-09T10:05:48</time>
			</trkpt>
			<trkpt lat="48.78524987027049" lon="2.7710799034684896">
				<ele>120.0</ele>
				<time>2015-02-09T10:05:56</time>
			</trkpt>
			<trkpt lat="48.787409886717796" lon="2.770289909094572">
				<ele>120.0</ele>
				<time>2015-02-09T10:06:32</time>
			</trkpt>
			<trkpt lat="48.78812997601926" lon="2.7693499624729156">
				<ele>116.0</ele>
				<time>2015-02-09T10:06:47</time>
			</trkpt>
			<trkpt lat="48.7887099198997" lon="2.7690299414098263">
				<ele>116.0</ele>
				<time>2015-02-09T10:06:57</time>
			</trkpt>
			<trkpt lat="48.79132993519306" lon="2.7691099047660828">
				<ele>120.0</ele>
				<time>2015-02-09T10:07:39</time>
			</trkpt>
			<trkpt lat="48.793309992179275" lon="2.7684099320322275">
				<ele>118.0</ele>
				<time>2015-02-09T10:08:11</time>
			</trkpt>
			<trkpt lat="48.793849954381585" lon="2.768019922077656">
				<ele>113.0</ele>
				<time>2015-02-09T10:08:21</time>
			</trkpt>
			<trkpt lat="48.7952998559922" lon="2.766749979928136">
				<ele>114.0</ele>
				<time>2015-02-09T10:08:48</time>
			</trkpt>
			<trkpt lat="48.796839863061905" lon="2.7647099923342466">
				<ele>116.0</ele>
				<time>2015-02-09T10:09:20</time>
			</trkpt>
			<trkpt lat="48.797159884124994" lon="2.7641698624938726">
				<ele>117.0</ele>
				<time>2015-02-09T10:09:28</time>
			</trkpt>
			<trkpt lat="48.797529861330986" lon="2.762729851529002">
				<ele>118.0</ele>
				<time>2015-02-09T10:09:44</time>
			</trkpt>
			<trkpt lat="48.79873995669186" lon="2.7610098849982023">
				<ele>123.0</ele>
				<time>2015-02-09T10:10:11</time>
			</trkpt>
			<trkpt lat="48.80110985599458" lon="2.7603598684072495">
				<ele>126.0</ele>
				<time>2015-02-09T10:10:49</time>
			</trkpt>
			<trkpt lat="48.80347992293537" lon="2.7608598489314318">
				<ele>127.0</ele>
				<time>2015-02-09T10:11:28</time>
			</trkpt>
			<trkpt lat="48.80594998598099" lon="2.7591699734330177">
				<ele>123.0</ele>
				<time>2015-02-09T10:12:11</time>
			</trkpt>
			<trkpt lat="48.8062999304384" lon="2.7591499406844378">
				<ele>126.0</ele>
				<time>2015-02-09T10:12:17</time>
			</trkpt>
			<trkpt lat="48.806779878214" lon="2.7586399018764496">
				<ele>131.0</ele>
				<time>2015-02-09T10:12:26</time>
			</trkpt>
			<trkpt lat="48.812799928709865" lon="2.755409935489297">
				<ele>127.0</ele>
				<time>2015-02-09T10:14:08</time>
			</trkpt>
			<trkpt lat="48.8133299164474" lon="2.7553298883140087">
				<ele>127.0</ele>
				<time>2015-02-09T10:14:17</time>
			</trkpt>
			<trkpt lat="48.81458996795118" lon="2.7558199781924486">
				<ele>127.0</ele>
				<time>2015-02-09T10:14:38</time>
			</trkpt>
			<trkpt lat="48.81775983609259" lon="2.757409941405058">
				<ele>126.0</ele>
				<time>2015-02-09T10:15:31</time>
			</trkpt>
			<trkpt lat="48.8181998860091" lon="2.7572698798030615">
				<ele>127.0</ele>
				<time>2015-02-09T10:15:38</time>
			</trkpt>
			<trkpt lat="48.82095996290445" lon="2.755449917167425">
				<ele>129.0</ele>
				<time>2015-02-09T10:16:26</time>
			</trkpt>
			<trkpt lat="48.82144804112613" lon="2.755211368203163">
				<ele>127.0</ele>
				<time>2015-02-09T10:16:35</time>
			</trkpt>
			<trkpt lat="48.82144829258323" lon="2.7552112843841314">
				<ele>127.0</ele>
				<time>2015-02-09T10:16:35</time>
			</trkpt>
			<trkpt lat="48.82208506576717" lon="2.754900148138404">
				<ele>127.0</ele>
				<time>2015-02-09T10:16:45</time>
			</trkpt>
			<trkpt lat="48.82271991111338" lon="2.7545899339020252">
				<ele>124.0</ele>
				<time>2015-02-09T10:16:56</time>
			</trkpt>
			<trkpt lat="48.82868983782828" lon="2.7557099238038063">
				<ele>130.0</ele>
				<time>2015-02-09T10:18:32</time>
			</trkpt>
			<trkpt lat="48.829539846628904" lon="2.7557099238038063">
				<ele>128.0</ele>
				<time>2015-02-09T10:18:46</time>
			</trkpt>
			<trkpt lat="48.82875991053879" lon="2.7566599287092686">
				<ele>130.0</ele>
				<time>2015-02-09T10:19:02</time>
			</trkpt>
			<trkpt lat="48.8262899313122" lon="2.7634998969733715">
				<ele>141.0</ele>
				<time>2015-02-09T10:20:24</time>
			</trkpt>
			<trkpt lat="48.82617996074259" lon="2.7642798330634832">
				<ele>141.0</ele>
				<time>2015-02-09T10:20:33</time>
			</trkpt>
			<trkpt lat="48.82662998512387" lon="2.7656898368149996">
				<ele>144.0</ele>
				<time>2015-02-09T10:20:49</time>
			</trkpt>
			<trkpt lat="48.826549937948585" lon="2.766249915584922">
				<ele>146.0</ele>
				<time>2015-02-09T10:20:55</time>
			</trkpt>
			<trkpt lat="48.82451992481947" lon="2.7686499059200287">
				<ele>139.0</ele>
				<time>2015-02-09T10:21:36</time>
			</trkpt>
			<trkpt lat="48.82219998165965" lon="2.7752898819744587">
				<ele>127.0</ele>
				<time>2015-02-09T10:22:56</time>
			</trkpt>
			<trkpt lat="48.81914997473359" lon="2.7824399806559086">
				<ele>126.0</ele>
				<time>2015-02-09T10:24:25</time>
			</trkpt>
			<trkpt lat="48.81654990836978" lon="2.789439959451556">
				<ele>118.0</ele>
				<time>2015-02-09T10:25:50</time>
			</trkpt>
			<trkpt lat="48.81645988672972" lon="2.789819911122322">
				<ele>119.0</ele>
				<time>2015-02-09T10:25:54</time>
			</trkpt>
			<trkpt lat="48.81678988225758" lon="2.791539877653122">
				<ele>121.0</ele>
				<time>2015-02-09T10:26:13</time>
			</trkpt>
			<trkpt lat="48.816769849509" lon="2.7921499963849783">
				<ele>120.0</ele>
				<time>2015-02-09T10:26:20</time>
			</trkpt>
			<trkpt lat="48.81564994342625" lon="2.7928099874407053">
				<ele>121.0</ele>
				<time>2015-02-09T10:26:39</time>
			</trkpt>
			<trkpt lat="48.8164799194783" lon="2.796009862795472">
				<ele>121.0</ele>
				<time>2015-02-09T10:27:15</time>
			</trkpt>
			<trkpt lat="48.81603986956179" lon="2.7992199640721083">
				<ele>122.0</ele>
				<time>2015-02-09T10:27:50</time>
			</trkpt>
			<trkpt lat="48.81601983681321" lon="2.8036699164658785">
				<ele>122.0</ele>
				<time>2015-02-09T10:28:37</time>
			</trkpt>
			<trkpt lat="48.816559966653585" lon="2.8077998477965593">
				<ele>121.0</ele>
				<time>2015-02-09T10:29:21</time>
			</trkpt>
			<trkpt lat="48.81767995655537" lon="2.8132398705929518">
				<ele>123.0</ele>
				<time>2015-02-09T10:30:21</time>
			</trkpt>
			<trkpt lat="48.818059992045164" lon="2.8166199568659067">
				<ele>125.0</ele>
				<time>2015-02-09T10:30:57</time>
			</trkpt>
			<trkpt lat="48.818429969251156" lon="2.818209920078516">
				<ele>123.0</ele>
				<time>2015-02-09T10:31:15</time>
			</trkpt>
			<trkpt lat="48.818259900435805" lon="2.8189699072390795">
				<ele>123.0</ele>
				<time>2015-02-09T10:31:24</time>
			</trkpt>
			<trkpt lat="48.81721987389028" lon="2.82085994258523">
				<ele>125.0</ele>
				<time>2015-02-09T10:31:50</time>
			</trkpt>
			<trkpt lat="48.81573988124728" lon="2.8277598414570093">
				<ele>128.0</ele>
				<time>2015-02-09T10:33:06</time>
			</trkpt>
			<trkpt lat="48.81498986855149" lon="2.8283699601888657">
				<ele>126.0</ele>
				<time>2015-02-09T10:33:20</time>
			</trkpt>
			<trkpt lat="48.81447999738157" lon="2.8298599272966385">
				<ele>125.0</ele>
				<time>2015-02-09T10:33:37</time>
			</trkpt>
			<trkpt lat="48.814089987426996" lon="2.829719865694642">
				<ele>126.0</ele>
				<time>2015-02-09T10:33:44</time>
			</trkpt>
			<trkpt lat="48.81500990130007" lon="2.841059910133481">
				<ele>125.0</ele>
				<time>2015-02-09T10:35:44</time>
			</trkpt>
			<trkpt lat="48.81482994183898" lon="2.8420399222522974">
				<ele>126.0</ele>
				<time>2015-02-09T10:35:55</time>
			</trkpt>
			<trkpt lat="48.81515985354781" lon="2.842779876664281">
				<ele>128.0</ele>
				<time>2015-02-09T10:36:04</time>
			</trkpt>
			<trkpt lat="48.815679866820574" lon="2.847939860075712">
				<ele>131.0</ele>
				<time>2015-02-09T10:37:00</time>
			</trkpt>
			<trkpt lat="48.81851990707219" lon="2.8658899571746588">
				<ele>136.0</ele>
				<time>2015-02-09T10:40:14</time>
			</trkpt>
			<trkpt lat="48.82170989178121" lon="2.8752698935568333">
				<ele>138.0</ele>
				<time>2015-02-09T10:42:05</time>
			</trkpt>
			<trkpt lat="48.82241992279887" lon="2.8762199822813272">
				<ele>139.0</ele>
				<time>2015-02-09T10:42:21</time>
			</trkpt>
			<trkpt lat="48.82236996665597" lon="2.87721985951066">
				<ele>135.0</ele>
				<time>2015-02-09T10:42:31</time>
			</trkpt>
			<trkpt lat="48.82360998541117" lon="2.8809299413114786">
				<ele>135.0</ele>
				<time>2015-02-09T10:43:15</time>
			</trkpt>
			<trkpt lat="48.82368986494839" lon="2.8820298984646797">
				<ele>131.0</ele>
				<time>2015-02-09T10:43:27</time>
			</trkpt>
			<trkpt lat="48.82481991313398" lon="2.88344987668097">
				<ele>129.0</ele>
				<time>2015-02-09T10:43:50</time>
			</trkpt>
			<trkpt lat="48.82645983248949" lon="2.8868599701672792">
				<ele>118.0</ele>
				<time>2015-02-09T10:44:35</time>
			</trkpt>
			<trkpt lat="48.82704991847277" lon="2.888599969446659">
				<ele>115.0</ele>
				<time>2015-02-09T10:44:55</time>
			</trkpt>
			<trkpt lat="48.82879997603595" lon="2.8941898606717587">
				<ele>100.0</ele>
				<time>2015-02-09T10:46:01</time>
			</trkpt>
			<trkpt lat="48.8289599865675" lon="2.895159898325801">
				<ele>98.0</ele>
				<time>2015-02-09T10:46:11</time>
			</trkpt>
			<trkpt lat="48.82888991385698" lon="2.8976199869066477">
				<ele>89.0</ele>
				<time>2015-02-09T10:46:37</time>
			</trkpt>
			<trkpt lat="48.82909996435046" lon="2.8979498986154795">
				<ele>86.0</ele>
				<time>2015-02-09T10:46:42</time>
			</trkpt>
			<trkpt lat="48.829539846628904" lon="2.8981498908251524">
				<ele>83.0</ele>
				<time>2015-02-09T10:46:49</time>
			</trkpt>
			<trkpt lat="48.83004988543689" lon="2.900919858366251">
				<ele>61.0</ele>
				<time>2015-02-09T10:47:20</time>
			</trkpt>
			<trkpt lat="48.8303498737514" lon="2.9017298854887486">
				<ele>54.0</ele>
				<time>2015-02-09T10:47:29</time>
			</trkpt>
			<trkpt lat="48.833619905635715" lon="2.90387992747128">
				<ele>53.0</ele>
				<time>2015-02-09T10:48:26</time>
			</trkpt>
			<trkpt lat="48.83601997978985" lon="2.9052198585122824">
				<ele>53.0</ele>
				<time>2015-02-09T10:49:07</time>
			</trkpt>
			<trkpt lat="48.84178991429508" lon="2.906559957191348">
				<ele>56.0</ele>
				<time>2015-02-09T10:50:41</time>
			</trkpt>
			<trkpt lat="48.842899929732084" lon="2.9072598461061716">
				<ele>57.0</ele>
				<time>2015-02-09T10:51:00</time>
			</trkpt>
			<trkpt lat="48.84467991068959" lon="2.909579873085022">
				<ele>53.0</ele>
				<time>2015-02-09T10:51:38</time>
			</trkpt>
			<trkpt lat="48.846149845048785" lon="2.912159990519285">
				<ele>60.0</ele>
				<time>2015-02-09T10:52:14</time>
			</trkpt>
			<trkpt lat="48.84669994935393" lon="2.914269883185625">
				<ele>59.0</ele>
				<time>2015-02-09T10:52:38</time>
			</trkpt>
			<trkpt lat="48.84713991545141" lon="2.91721997782588">
				<ele>61.0</ele>
				<time>2015-02-09T10:53:09</time>
			</trkpt>
			<trkpt lat="48.847899986431" lon="2.919249990954995">
				<ele>67.0</ele>
				<time>2015-02-09T10:53:34</time>
			</trkpt>
			<trkpt lat="48.849349888041615" lon="2.92065991088748">
				<ele>72.0</ele>
				<time>2015-02-09T10:54:02</time>
			</trkpt>
			<trkpt lat="48.85382993146777" lon="2.9236998595297337">
				<ele>58.0</ele>
				<time>2015-02-09T10:55:20</time>
			</trkpt>
			<trkpt lat="48.8545898348093" lon="2.9234899766743183">
				<ele>53.0</ele>
				<time>2015-02-09T10:55:33</time>
			</trkpt>
			<trkpt lat="48.85502988472581" lon="2.9223899357020855">
				<ele>53.0</ele>
				<time>2015-02-09T10:55:46</time>
			</trkpt>
			<trkpt lat="48.85513993911445" lon="2.9215599596500397">
				<ele>52.0</ele>
				<time>2015-02-09T10:55:55</time>
			</trkpt>
			<trkpt lat="48.8552098441869" lon="2.9161899257451296">
				<ele>51.0</ele>
				<time>2015-02-09T10:56:52</time>
			</trkpt>
			<trkpt lat="48.854329995810986" lon="2.9116999078541994">
				<ele>57.0</ele>
				<time>2015-02-09T10:57:41</time>
			</trkpt>
			<trkpt lat="48.854549853131175" lon="2.910249838605523">
				<ele>54.0</ele>
				<time>2015-02-09T10:57:57</time>
			</trkpt>
			<trkpt lat="48.854849841445684" lon="2.909849938005209">
				<ele>52.0</ele>
				<time>2015-02-09T10:58:03</time>
			</trkpt>
			<trkpt lat="48.85549994185567" lon="2.909829905256629">
				<ele>51.0</ele>
				<time>2015-02-09T10:58:13</time>
			</trkpt>
			<trkpt lat="48.85628993622959" lon="2.91098996065557">
				<ele>52.0</ele>
				<time>2015-02-09T10:58:31</time>
			</trkpt>
			<trkpt lat="48.85673996061087" lon="2.9128398466855288">
				<ele>53.0</ele>
				<time>2015-02-09T10:58:52</time>
			</trkpt>
			<trkpt lat="48.857249999418855" lon="2.9134399071335793">
				<ele>52.0</ele>
				<time>2015-02-09T10:59:02</time>
			</trkpt>
			<trkpt lat="48.858049884438515" lon="2.91360997594893">
				<ele>53.0</ele>
				<time>2015-02-09T10:59:15</time>
			</trkpt>
			<trkpt lat="48.8578003551811" lon="2.9098309110850096">
				<ele>53.0</ele>
				<time>2015-02-09T10:59:55</time>
			</trkpt>
			<trkpt lat="48.85770035907626" lon="2.908317307010293">
				<ele>51.0</ele>
				<time>2015-02-09T11:00:11</time>
			</trkpt>
			<trkpt lat="48.8576898816973" lon="2.9081598948687315">
				<ele>51.0</ele>
				<time>2015-02-09T11:00:13</time>
			</trkpt>
			<trkpt lat="48.85783530771732" lon="2.90787935256958">
				<ele>51.0</ele>
				<time>2015-02-09T11:00:17</time>
			</trkpt>
		</trkseg>
	</trk>
</gpx>
