<?xml version="1.0" encoding="UTF-8"?>
<gpx creator="Garmin Connect" version="1.1" xsi:schemaLocation="http://www.topografix.com/GPX/1/1 http://www.topografix.com/GPX/11.xsd" xmlns:ns3="http://www.garmin.com/xmlschemas/TrackPointExtension/v1" xmlns="http://www.topografix.com/GPX/1/1" xmlns:xsi="http://www.w3.org/2001/XMLSchema-instance" xmlns:ns2="http://www.garmin.com/xmlschemas/GpxExtensions/v3">
	<metadata>
		<name>202-G3-63 km-D 614 m-Ru de Vrou</name>
		<link href="connect.garmin.com">
			<text>Garmin Connect</text>
		</link>
		<time>2021-02-25T08:00:00</time>
	</metadata>
	<trk>
		<name>202-G3-63 km-D 614 m-Ru de Vrou</name>
		<trkseg>
			<trkpt lat="48.85794997215271" lon="2.906899843364954">
				<ele>50.0</ele>
				<time>2021-02-25T08:00:00</time>
			</trkpt>
			<trkpt lat="48.85824996046722" lon="2.9070799704641104">
				<ele>51.0</ele>
				<time>2021-02-25T08:00:06</time>
			</trkpt>
			<trkpt lat="48.858239986002445" lon="2.907229922711849">
				<ele>51.0</ele>
				<time>2021-02-25T08:00:07</time>
			</trkpt>
			<trkpt lat="48.8591299764812" lon="2.9071199521422386">
				<ele>51.0</ele>
				<time>2021-02-25T08:00:23</time>
			</trkpt>
			<trkpt lat="48.85987998917699" lon="2.90692993439734">
				<ele>53.0</ele>
				<time>2021-02-25T08:00:36</time>
			</trkpt>
			<trkpt lat="48.86120994575322" lon="2.906129965558648">
				<ele>59.0</ele>
				<time>2021-02-25T08:01:01</time>
			</trkpt>
			<trkpt lat="48.86129996739328" lon="2.9052899312227964">
				<ele>58.0</ele>
				<time>2021-02-25T08:01:11</time>
			</trkpt>
			<trkpt lat="48.86174999177456" lon="2.9021699354052544">
				<ele>58.0</ele>
				<time>2021-02-25T08:01:47</time>
			</trkpt>
			<trkpt lat="48.862129943445325" lon="2.89895991794765">
				<ele>61.0</ele>
				<time>2021-02-25T08:02:25</time>
			</trkpt>
			<trkpt lat="48.86237997561693" lon="2.8978099208325148">
				<ele>65.0</ele>
				<time>2021-02-25T08:02:39</time>
			</trkpt>
			<trkpt lat="48.862429931759834" lon="2.896319953724742">
				<ele>70.0</ele>
				<time>2021-02-25T08:02:56</time>
			</trkpt>
			<trkpt lat="48.86248994618654" lon="2.89594997651875">
				<ele>71.0</ele>
				<time>2021-02-25T08:03:00</time>
			</trkpt>
			<trkpt lat="48.862839974462986" lon="2.8946899250149727">
				<ele>78.0</ele>
				<time>2021-02-25T08:03:16</time>
			</trkpt>
			<trkpt lat="48.86314993724227" lon="2.8926699701696634">
				<ele>83.0</ele>
				<time>2021-02-25T08:03:39</time>
			</trkpt>
			<trkpt lat="48.86364991776645" lon="2.890559993684292">
				<ele>83.0</ele>
				<time>2021-02-25T08:04:05</time>
			</trkpt>
			<trkpt lat="48.8642399199307" lon="2.888339962810278">
				<ele>85.0</ele>
				<time>2021-02-25T08:04:32</time>
			</trkpt>
			<trkpt lat="48.86450998485088" lon="2.886789981275797">
				<ele>91.0</ele>
				<time>2021-02-25T08:04:51</time>
			</trkpt>
			<trkpt lat="48.864559940993786" lon="2.8867199923843145">
				<ele>92.0</ele>
				<time>2021-02-25T08:04:52</time>
			</trkpt>
			<trkpt lat="48.864769991487265" lon="2.886329982429743">
				<ele>95.0</ele>
				<time>2021-02-25T08:04:58</time>
			</trkpt>
			<trkpt lat="48.86516997590661" lon="2.8857999946922064">
				<ele>97.0</ele>
				<time>2021-02-25T08:05:07</time>
			</trkpt>
			<trkpt lat="48.86563994921744" lon="2.885009916499257">
				<ele>99.0</ele>
				<time>2021-02-25T08:05:19</time>
			</trkpt>
			<trkpt lat="48.86643991805613" lon="2.88391993381083">
				<ele>98.0</ele>
				<time>2021-02-25T08:05:38</time>
			</trkpt>
			<trkpt lat="48.86712991632521" lon="2.8833299316465855">
				<ele>98.0</ele>
				<time>2021-02-25T08:05:52</time>
			</trkpt>
			<trkpt lat="48.868019990623" lon="2.8829499799758196">
				<ele>96.0</ele>
				<time>2021-02-25T08:06:08</time>
			</trkpt>
			<trkpt lat="48.86873999610543" lon="2.8822899889200926">
				<ele>99.0</ele>
				<time>2021-02-25T08:06:22</time>
			</trkpt>
			<trkpt lat="48.86988999322057" lon="2.8809799812734127">
				<ele>101.0</ele>
				<time>2021-02-25T08:06:47</time>
			</trkpt>
			<trkpt lat="48.87045996263623" lon="2.880419986322522">
				<ele>100.0</ele>
				<time>2021-02-25T08:06:59</time>
			</trkpt>
			<trkpt lat="48.87174993753433" lon="2.8787299431860447">
				<ele>99.0</ele>
				<time>2021-02-25T08:07:29</time>
			</trkpt>
			<trkpt lat="48.87205998413265" lon="2.878419980406761">
				<ele>97.0</ele>
				<time>2021-02-25T08:07:35</time>
			</trkpt>
			<trkpt lat="48.87268996797502" lon="2.877929974347353">
				<ele>94.0</ele>
				<time>2021-02-25T08:07:48</time>
			</trkpt>
			<trkpt lat="48.874119920656085" lon="2.876389967277646">
				<ele>89.0</ele>
				<time>2021-02-25T08:08:18</time>
			</trkpt>
			<trkpt lat="48.87434992007911" lon="2.8762599639594555">
				<ele>87.0</ele>
				<time>2021-02-25T08:08:22</time>
			</trkpt>
			<trkpt lat="48.874379927292466" lon="2.876539919525385">
				<ele>88.0</ele>
				<time>2021-02-25T08:08:26</time>
			</trkpt>
			<trkpt lat="48.874589977785945" lon="2.877449942752719">
				<ele>90.0</ele>
				<time>2021-02-25T08:08:37</time>
			</trkpt>
			<trkpt lat="48.87472995556891" lon="2.877879934385419">
				<ele>90.0</ele>
				<time>2021-02-25T08:08:42</time>
			</trkpt>
			<trkpt lat="48.875639978796244" lon="2.879229923710227">
				<ele>93.0</ele>
				<time>2021-02-25T08:09:04</time>
			</trkpt>
			<trkpt lat="48.87580996379256" lon="2.8796199336647987">
				<ele>93.0</ele>
				<time>2021-02-25T08:09:10</time>
			</trkpt>
			<trkpt lat="48.876139959320426" lon="2.880809996277094">
				<ele>94.0</ele>
				<time>2021-02-25T08:09:24</time>
			</trkpt>
			<trkpt lat="48.87637993320823" lon="2.8819499351084232">
				<ele>95.0</ele>
				<time>2021-02-25T08:09:38</time>
			</trkpt>
			<trkpt lat="48.87677991762757" lon="2.883419953286648">
				<ele>94.0</ele>
				<time>2021-02-25T08:09:56</time>
			</trkpt>
			<trkpt lat="48.8770099170506" lon="2.884129984304309">
				<ele>95.0</ele>
				<time>2021-02-25T08:10:05</time>
			</trkpt>
			<trkpt lat="48.87765993364155" lon="2.885829918086529">
				<ele>97.0</ele>
				<time>2021-02-25T08:10:28</time>
			</trkpt>
			<trkpt lat="48.877919940277934" lon="2.886379938572645">
				<ele>95.0</ele>
				<time>2021-02-25T08:10:36</time>
			</trkpt>
			<trkpt lat="48.87799998745322" lon="2.8879799600690603">
				<ele>95.0</ele>
				<time>2021-02-25T08:10:54</time>
			</trkpt>
			<trkpt lat="48.87803996913135" lon="2.890379950404167">
				<ele>89.0</ele>
				<time>2021-02-25T08:11:22</time>
			</trkpt>
			<trkpt lat="48.87810995802283" lon="2.89102996699512">
				<ele>90.0</ele>
				<time>2021-02-25T08:11:29</time>
			</trkpt>
			<trkpt lat="48.87816997244954" lon="2.891229959204793">
				<ele>91.0</ele>
				<time>2021-02-25T08:11:32</time>
			</trkpt>
			<trkpt lat="48.87833995744586" lon="2.8922499530017376">
				<ele>92.0</ele>
				<time>2021-02-25T08:11:44</time>
			</trkpt>
			<trkpt lat="48.878419920802116" lon="2.8937499783933163">
				<ele>95.0</ele>
				<time>2021-02-25T08:12:01</time>
			</trkpt>
			<trkpt lat="48.878609938547015" lon="2.8950899932533503">
				<ele>97.0</ele>
				<time>2021-02-25T08:12:17</time>
			</trkpt>
			<trkpt lat="48.87858998961747" lon="2.895489977672696">
				<ele>99.0</ele>
				<time>2021-02-25T08:12:21</time>
			</trkpt>
			<trkpt lat="48.87827994301915" lon="2.897229976952076">
				<ele>98.0</ele>
				<time>2021-02-25T08:12:42</time>
			</trkpt>
			<trkpt lat="48.87812999077141" lon="2.8988399729132652">
				<ele>93.0</ele>
				<time>2021-02-25T08:13:00</time>
			</trkpt>
			<trkpt lat="48.877939973026514" lon="2.901899954304099">
				<ele>99.0</ele>
				<time>2021-02-25T08:13:36</time>
			</trkpt>
			<trkpt lat="48.877859925851226" lon="2.9026299342513084">
				<ele>99.0</ele>
				<time>2021-02-25T08:13:44</time>
			</trkpt>
			<trkpt lat="48.87768994085491" lon="2.9035699646919966">
				<ele>99.0</ele>
				<time>2021-02-25T08:13:55</time>
			</trkpt>
			<trkpt lat="48.87754996307194" lon="2.904079919680953">
				<ele>99.0</ele>
				<time>2021-02-25T08:14:02</time>
			</trkpt>
			<trkpt lat="48.87726992368698" lon="2.9047999251633883">
				<ele>99.0</ele>
				<time>2021-02-25T08:14:11</time>
			</trkpt>
			<trkpt lat="48.878179946914315" lon="2.9060299694538116">
				<ele>93.0</ele>
				<time>2021-02-25T08:14:32</time>
			</trkpt>
			<trkpt lat="48.87837993912399" lon="2.9060199949890375">
				<ele>92.0</ele>
				<time>2021-02-25T08:14:36</time>
			</trkpt>
			<trkpt lat="48.879509987309575" lon="2.905679941177368">
				<ele>91.0</ele>
				<time>2021-02-25T08:14:56</time>
			</trkpt>
			<trkpt lat="48.88056996278465" lon="2.9057299811393023">
				<ele>93.0</ele>
				<time>2021-02-25T08:15:14</time>
			</trkpt>
			<trkpt lat="48.88113993220031" lon="2.9059499222785234">
				<ele>95.0</ele>
				<time>2021-02-25T08:15:25</time>
			</trkpt>
			<trkpt lat="48.88161996379495" lon="2.906359964981675">
				<ele>95.0</ele>
				<time>2021-02-25T08:15:34</time>
			</trkpt>
			<trkpt lat="48.88206998817623" lon="2.9066699277609587">
				<ele>97.0</ele>
				<time>2021-02-25T08:15:43</time>
			</trkpt>
			<trkpt lat="48.88265999034047" lon="2.907239980995655">
				<ele>99.0</ele>
				<time>2021-02-25T08:15:55</time>
			</trkpt>
			<trkpt lat="48.88304991647601" lon="2.9077199287712574">
				<ele>100.0</ele>
				<time>2021-02-25T08:16:04</time>
			</trkpt>
			<trkpt lat="48.88435992412269" lon="2.9095399752259254">
				<ele>105.0</ele>
				<time>2021-02-25T08:16:34</time>
			</trkpt>
			<trkpt lat="48.884429996833205" lon="2.9095699824392796">
				<ele>105.0</ele>
				<time>2021-02-25T08:16:36</time>
			</trkpt>
			<trkpt lat="48.88475999236107" lon="2.910249922424555">
				<ele>108.0</ele>
				<time>2021-02-25T08:16:45</time>
			</trkpt>
			<trkpt lat="48.88491991907358" lon="2.9106899723410606">
				<ele>107.0</ele>
				<time>2021-02-25T08:16:51</time>
			</trkpt>
			<trkpt lat="48.887159982696176" lon="2.9170899745076895">
				<ele>121.0</ele>
				<time>2021-02-25T08:18:14</time>
			</trkpt>
			<trkpt lat="48.890169924125075" lon="2.925649993121624">
				<ele>149.0</ele>
				<time>2021-02-25T08:20:05</time>
			</trkpt>
			<trkpt lat="48.8910199329257" lon="2.9279999434947968">
				<ele>153.0</ele>
				<time>2021-02-25T08:20:36</time>
			</trkpt>
			<trkpt lat="48.89111992903054" lon="2.9282199684530497">
				<ele>154.0</ele>
				<time>2021-02-25T08:20:39</time>
			</trkpt>
			<trkpt lat="48.891179943457246" lon="2.928269924595952">
				<ele>154.0</ele>
				<time>2021-02-25T08:20:40</time>
			</trkpt>
			<trkpt lat="48.89111992903054" lon="2.9286499600857496">
				<ele>152.0</ele>
				<time>2021-02-25T08:20:45</time>
			</trkpt>
			<trkpt lat="48.890359941869974" lon="2.931549930945039">
				<ele>153.0</ele>
				<time>2021-02-25T08:21:20</time>
			</trkpt>
			<trkpt lat="48.89107994735241" lon="2.9321699403226376">
				<ele>153.0</ele>
				<time>2021-02-25T08:21:35</time>
			</trkpt>
			<trkpt lat="48.89113996177912" lon="2.9323599580675364">
				<ele>153.0</ele>
				<time>2021-02-25T08:21:37</time>
			</trkpt>
			<trkpt lat="48.8911599945277" lon="2.9328099824488163">
				<ele>154.0</ele>
				<time>2021-02-25T08:21:42</time>
			</trkpt>
			<trkpt lat="48.8910199329257" lon="2.9342299606651068">
				<ele>154.0</ele>
				<time>2021-02-25T08:21:59</time>
			</trkpt>
			<trkpt lat="48.8910199329257" lon="2.934669926762581">
				<ele>152.0</ele>
				<time>2021-02-25T08:22:04</time>
			</trkpt>
			<trkpt lat="48.891649916768074" lon="2.9348799772560596">
				<ele>155.0</ele>
				<time>2021-02-25T08:22:15</time>
			</trkpt>
			<trkpt lat="48.89186994172633" lon="2.935149958357215">
				<ele>156.0</ele>
				<time>2021-02-25T08:22:20</time>
			</trkpt>
			<trkpt lat="48.892039926722646" lon="2.935189940035343">
				<ele>156.0</ele>
				<time>2021-02-25T08:22:23</time>
			</trkpt>
			<trkpt lat="48.89230999164283" lon="2.9354599211364985">
				<ele>156.0</ele>
				<time>2021-02-25T08:22:29</time>
			</trkpt>
			<trkpt lat="48.893839940428734" lon="2.9386499896645546">
				<ele>153.0</ele>
				<time>2021-02-25T08:23:14</time>
			</trkpt>
			<trkpt lat="48.894209917634726" lon="2.9393099807202816">
				<ele>154.0</ele>
				<time>2021-02-25T08:23:24</time>
			</trkpt>
			<trkpt lat="48.89446992427111" lon="2.9396499507129192">
				<ele>154.0</ele>
				<time>2021-02-25T08:23:30</time>
			</trkpt>
			<trkpt lat="48.895389921963215" lon="2.9408399295061827">
				<ele>157.0</ele>
				<time>2021-02-25T08:23:51</time>
			</trkpt>
			<trkpt lat="48.89587992802262" lon="2.940499959513545">
				<ele>157.0</ele>
				<time>2021-02-25T08:24:00</time>
			</trkpt>
			<trkpt lat="48.89592996798456" lon="2.9408299550414085">
				<ele>158.0</ele>
				<time>2021-02-25T08:24:04</time>
			</trkpt>
			<trkpt lat="48.8958999607712" lon="2.941559934988618">
				<ele>158.0</ele>
				<time>2021-02-25T08:24:12</time>
			</trkpt>
			<trkpt lat="48.89576995745301" lon="2.942749997600913">
				<ele>159.0</ele>
				<time>2021-02-25T08:24:26</time>
			</trkpt>
			<trkpt lat="48.89575998298824" lon="2.9435699991881847">
				<ele>158.0</ele>
				<time>2021-02-25T08:24:35</time>
			</trkpt>
			<trkpt lat="48.896029964089394" lon="2.946189930662513">
				<ele>156.0</ele>
				<time>2021-02-25T08:25:06</time>
			</trkpt>
			<trkpt lat="48.89612996019423" lon="2.9467699583619833">
				<ele>157.0</ele>
				<time>2021-02-25T08:25:13</time>
			</trkpt>
			<trkpt lat="48.8963299524039" lon="2.9474299494177103">
				<ele>159.0</ele>
				<time>2021-02-25T08:25:21</time>
			</trkpt>
			<trkpt lat="48.89636993408203" lon="2.948099998757243">
				<ele>160.0</ele>
				<time>2021-02-25T08:25:29</time>
			</trkpt>
			<trkpt lat="48.89630991965532" lon="2.948469975963235">
				<ele>159.0</ele>
				<time>2021-02-25T08:25:33</time>
			</trkpt>
			<trkpt lat="48.89625996351242" lon="2.9485899209976196">
				<ele>159.0</ele>
				<time>2021-02-25T08:25:35</time>
			</trkpt>
			<trkpt lat="48.89577993191779" lon="2.94916994869709">
				<ele>158.0</ele>
				<time>2021-02-25T08:25:45</time>
			</trkpt>
			<trkpt lat="48.895689994096756" lon="2.9494499880820513">
				<ele>158.0</ele>
				<time>2021-02-25T08:25:49</time>
			</trkpt>
			<trkpt lat="48.89563995413482" lon="2.9501399863511324">
				<ele>158.0</ele>
				<time>2021-02-25T08:25:57</time>
			</trkpt>
			<trkpt lat="48.89552998356521" lon="2.9506299924105406">
				<ele>159.0</ele>
				<time>2021-02-25T08:26:03</time>
			</trkpt>
			<trkpt lat="48.89545999467373" lon="2.9512199945747852">
				<ele>159.0</ele>
				<time>2021-02-25T08:26:10</time>
			</trkpt>
			<trkpt lat="48.89556996524334" lon="2.9523999989032745">
				<ele>161.0</ele>
				<time>2021-02-25T08:26:23</time>
			</trkpt>
			<trkpt lat="48.896009931340814" lon="2.95223998837173">
				<ele>160.0</ele>
				<time>2021-02-25T08:26:31</time>
			</trkpt>
			<trkpt lat="48.89621998183429" lon="2.95221995562315">
				<ele>159.0</ele>
				<time>2021-02-25T08:26:35</time>
			</trkpt>
			<trkpt lat="48.89680998399854" lon="2.95221995562315">
				<ele>158.0</ele>
				<time>2021-02-25T08:26:45</time>
			</trkpt>
			<trkpt lat="48.89747994951904" lon="2.9521799739450216">
				<ele>155.0</ele>
				<time>2021-02-25T08:26:57</time>
			</trkpt>
			<trkpt lat="48.89779997058213" lon="2.9523199517279863">
				<ele>155.0</ele>
				<time>2021-02-25T08:27:03</time>
			</trkpt>
			<trkpt lat="48.89808998443186" lon="2.9527499433606863">
				<ele>155.0</ele>
				<time>2021-02-25T08:27:10</time>
			</trkpt>
			<trkpt lat="48.89859993942082" lon="2.953149927780032">
				<ele>153.0</ele>
				<time>2021-02-25T08:27:20</time>
			</trkpt>
			<trkpt lat="48.89860010705888" lon="2.953150263056159">
				<ele>152.99</ele>
				<time>2021-02-25T08:27:20</time>
			</trkpt>
			<trkpt lat="48.89915993437171" lon="2.954079983755946">
				<ele>152.0</ele>
				<time>2021-02-25T08:27:34</time>
			</trkpt>
			<trkpt lat="48.89979997649789" lon="2.9544399864971638">
				<ele>152.0</ele>
				<time>2021-02-25T08:27:46</time>
			</trkpt>
			<trkpt lat="48.90001991763711" lon="2.9548299964517355">
				<ele>152.0</ele>
				<time>2021-02-25T08:27:52</time>
			</trkpt>
			<trkpt lat="48.900609919801354" lon="2.9569599218666553">
				<ele>149.0</ele>
				<time>2021-02-25T08:28:18</time>
			</trkpt>
			<trkpt lat="48.900759955868125" lon="2.957369964569807">
				<ele>148.0</ele>
				<time>2021-02-25T08:28:24</time>
			</trkpt>
			<trkpt lat="48.901039995253086" lon="2.9579499922692776">
				<ele>146.0</ele>
				<time>2021-02-25T08:28:32</time>
			</trkpt>
			<trkpt lat="48.901189947500825" lon="2.9583799839019775">
				<ele>145.0</ele>
				<time>2021-02-25T08:28:37</time>
			</trkpt>
			<trkpt lat="48.901619939133525" lon="2.960279993712902">
				<ele>147.0</ele>
				<time>2021-02-25T08:29:00</time>
			</trkpt>
			<trkpt lat="48.906409945338964" lon="2.961129918694496">
				<ele>165.0</ele>
				<time>2021-02-25T08:30:24</time>
			</trkpt>
			<trkpt lat="48.90705996192992" lon="2.961349943652749">
				<ele>167.0</ele>
				<time>2021-02-25T08:30:36</time>
			</trkpt>
			<trkpt lat="48.90787996351719" lon="2.961799968034029">
				<ele>170.0</ele>
				<time>2021-02-25T08:30:51</time>
			</trkpt>
			<trkpt lat="48.90929994173348" lon="2.9620799235999584">
				<ele>168.0</ele>
				<time>2021-02-25T08:31:16</time>
			</trkpt>
			<trkpt lat="48.91060994938016" lon="2.9625499807298183">
				<ele>169.0</ele>
				<time>2021-02-25T08:31:39</time>
			</trkpt>
			<trkpt lat="48.911309922114015" lon="2.9624199774116278">
				<ele>171.0</ele>
				<time>2021-02-25T08:31:52</time>
			</trkpt>
			<trkpt lat="48.912919918075204" lon="2.9619599785655737">
				<ele>166.0</ele>
				<time>2021-02-25T08:32:20</time>
			</trkpt>
			<trkpt lat="48.91323993913829" lon="2.961989985778928">
				<ele>166.0</ele>
				<time>2021-02-25T08:32:26</time>
			</trkpt>
			<trkpt lat="48.91344998963177" lon="2.962199952453375">
				<ele>166.0</ele>
				<time>2021-02-25T08:32:30</time>
			</trkpt>
			<trkpt lat="48.9135399274528" lon="2.9623899701982737">
				<ele>165.0</ele>
				<time>2021-02-25T08:32:33</time>
			</trkpt>
			<trkpt lat="48.91397997736931" lon="2.9650699999183416">
				<ele>166.0</ele>
				<time>2021-02-25T08:33:04</time>
			</trkpt>
			<trkpt lat="48.91414996236563" lon="2.965329922735691">
				<ele>167.0</ele>
				<time>2021-02-25T08:33:09</time>
			</trkpt>
			<trkpt lat="48.91487994231284" lon="2.9660799354314804">
				<ele>170.0</ele>
				<time>2021-02-25T08:33:24</time>
			</trkpt>
			<trkpt lat="48.91530993394554" lon="2.966439938172698">
				<ele>169.0</ele>
				<time>2021-02-25T08:33:33</time>
			</trkpt>
			<trkpt lat="48.91552995890379" lon="2.9665499925613403">
				<ele>167.0</ele>
				<time>2021-02-25T08:33:37</time>
			</trkpt>
			<trkpt lat="48.91659999266267" lon="2.9670499730855227">
				<ele>164.0</ele>
				<time>2021-02-25T08:33:56</time>
			</trkpt>
			<trkpt lat="48.91909997910261" lon="2.968199970200658">
				<ele>157.0</ele>
				<time>2021-02-25T08:34:41</time>
			</trkpt>
			<trkpt lat="48.91964999958873" lon="2.9684999585151672">
				<ele>153.0</ele>
				<time>2021-02-25T08:34:52</time>
			</trkpt>
			<trkpt lat="48.92016992904246" lon="2.968949982896447">
				<ele>151.0</ele>
				<time>2021-02-25T08:35:02</time>
			</trkpt>
			<trkpt lat="48.92034997232258" lon="2.96914997510612">
				<ele>151.0</ele>
				<time>2021-02-25T08:35:06</time>
			</trkpt>
			<trkpt lat="48.920609978958964" lon="2.96955993399024">
				<ele>153.0</ele>
				<time>2021-02-25T08:35:12</time>
			</trkpt>
			<trkpt lat="48.92081994563341" lon="2.969749951735139">
				<ele>151.0</ele>
				<time>2021-02-25T08:35:17</time>
			</trkpt>
			<trkpt lat="48.92108992673457" lon="2.9704799316823483">
				<ele>154.0</ele>
				<time>2021-02-25T08:35:26</time>
			</trkpt>
			<trkpt lat="48.92105991952121" lon="2.9707299638539553">
				<ele>156.0</ele>
				<time>2021-02-25T08:35:29</time>
			</trkpt>
			<trkpt lat="48.92108992673457" lon="2.971929917111993">
				<ele>157.0</ele>
				<time>2021-02-25T08:35:43</time>
			</trkpt>
			<trkpt lat="48.92138999886811" lon="2.973839985206723">
				<ele>152.0</ele>
				<time>2021-02-25T08:36:05</time>
			</trkpt>
			<trkpt lat="48.92145998775959" lon="2.974659986793995">
				<ele>149.0</ele>
				<time>2021-02-25T08:36:15</time>
			</trkpt>
			<trkpt lat="48.92154992558062" lon="2.9752599634230137">
				<ele>146.0</ele>
				<time>2021-02-25T08:36:22</time>
			</trkpt>
			<trkpt lat="48.921709936112165" lon="2.9757399950176477">
				<ele>144.0</ele>
				<time>2021-02-25T08:36:28</time>
			</trkpt>
			<trkpt lat="48.9217599760741" lon="2.9760299250483513">
				<ele>142.0</ele>
				<time>2021-02-25T08:36:31</time>
			</trkpt>
			<trkpt lat="48.921749917790294" lon="2.9762599244713783">
				<ele>141.0</ele>
				<time>2021-02-25T08:36:34</time>
			</trkpt>
			<trkpt lat="48.92168998718262" lon="2.9764799494296312">
				<ele>141.0</ele>
				<time>2021-02-25T08:36:37</time>
			</trkpt>
			<trkpt lat="48.92136996611953" lon="2.977269943803549">
				<ele>140.0</ele>
				<time>2021-02-25T08:36:47</time>
			</trkpt>
			<trkpt lat="48.920719949528575" lon="2.978679947555065">
				<ele>140.0</ele>
				<time>2021-02-25T08:37:07</time>
			</trkpt>
			<trkpt lat="48.92006993293762" lon="2.9794599674642086">
				<ele>142.0</ele>
				<time>2021-02-25T08:37:22</time>
			</trkpt>
			<trkpt lat="48.91885992139578" lon="2.9804599285125732">
				<ele>150.0</ele>
				<time>2021-02-25T08:37:46</time>
			</trkpt>
			<trkpt lat="48.91872991807759" lon="2.980679953470826">
				<ele>151.0</ele>
				<time>2021-02-25T08:37:49</time>
			</trkpt>
			<trkpt lat="48.91870996914804" lon="2.9808099567890167">
				<ele>153.0</ele>
				<time>2021-02-25T08:37:50</time>
			</trkpt>
			<trkpt lat="48.91876998357475" lon="2.9812599811702967">
				<ele>156.0</ele>
				<time>2021-02-25T08:37:56</time>
			</trkpt>
			<trkpt lat="48.919149935245514" lon="2.98285991884768">
				<ele>157.0</ele>
				<time>2021-02-25T08:38:15</time>
			</trkpt>
			<trkpt lat="48.919409941881895" lon="2.9841299448162317">
				<ele>162.0</ele>
				<time>2021-02-25T08:38:30</time>
			</trkpt>
			<trkpt lat="48.920099940150976" lon="2.9885799810290337">
				<ele>165.0</ele>
				<time>2021-02-25T08:39:23</time>
			</trkpt>
			<trkpt lat="48.92018996179104" lon="2.989329993724823">
				<ele>165.0</ele>
				<time>2021-02-25T08:39:31</time>
			</trkpt>
			<trkpt lat="48.92014998011291" lon="2.990799928084016">
				<ele>165.0</ele>
				<time>2021-02-25T08:39:48</time>
			</trkpt>
			<trkpt lat="48.92016992904246" lon="2.991509959101677">
				<ele>164.0</ele>
				<time>2021-02-25T08:39:56</time>
			</trkpt>
			<trkpt lat="48.92029993236065" lon="2.9927099961787462">
				<ele>163.0</ele>
				<time>2021-02-25T08:40:10</time>
			</trkpt>
			<trkpt lat="48.92040998674929" lon="2.993259932845831">
				<ele>162.0</ele>
				<time>2021-02-25T08:40:17</time>
			</trkpt>
			<trkpt lat="48.92063998617232" lon="2.994179930537939">
				<ele>161.0</ele>
				<time>2021-02-25T08:40:28</time>
			</trkpt>
			<trkpt lat="48.92251996323466" lon="3.000849997624755">
				<ele>159.0</ele>
				<time>2021-02-25T08:41:51</time>
			</trkpt>
			<trkpt lat="48.923619920387864" lon="3.0043099634349346">
				<ele>166.0</ele>
				<time>2021-02-25T08:42:35</time>
			</trkpt>
			<trkpt lat="48.92405997030437" lon="3.003889946267009">
				<ele>167.0</ele>
				<time>2021-02-25T08:42:44</time>
			</trkpt>
			<trkpt lat="48.9245299436152" lon="3.003349984064698">
				<ele>168.0</ele>
				<time>2021-02-25T08:42:54</time>
			</trkpt>
			<trkpt lat="48.92551993019879" lon="3.0018599331378937">
				<ele>167.0</ele>
				<time>2021-02-25T08:43:19</time>
			</trkpt>
			<trkpt lat="48.92579996958375" lon="3.001499930396676">
				<ele>167.0</ele>
				<time>2021-02-25T08:43:25</time>
			</trkpt>
			<trkpt lat="48.92701995559037" lon="3.0039099790155888">
				<ele>162.0</ele>
				<time>2021-02-25T08:44:00</time>
			</trkpt>
			<trkpt lat="48.92719999887049" lon="3.0042599234730005">
				<ele>162.0</ele>
				<time>2021-02-25T08:44:05</time>
			</trkpt>
			<trkpt lat="48.930689971894026" lon="3.0096299573779106">
				<ele>170.0</ele>
				<time>2021-02-25T08:45:31</time>
			</trkpt>
			<trkpt lat="48.93089993856847" lon="3.0096799973398447">
				<ele>171.0</ele>
				<time>2021-02-25T08:45:35</time>
			</trkpt>
			<trkpt lat="48.93178992904723" lon="3.009289987385273">
				<ele>173.0</ele>
				<time>2021-02-25T08:45:51</time>
			</trkpt>
			<trkpt lat="48.93189998343587" lon="3.0093099363148212">
				<ele>174.0</ele>
				<time>2021-02-25T08:45:53</time>
			</trkpt>
			<trkpt lat="48.93249996006489" lon="3.010149970650673">
				<ele>172.0</ele>
				<time>2021-02-25T08:46:07</time>
			</trkpt>
			<trkpt lat="48.93314997665584" lon="3.0109499394893646">
				<ele>171.0</ele>
				<time>2021-02-25T08:46:22</time>
			</trkpt>
			<trkpt lat="48.933419957756996" lon="3.01121992059052">
				<ele>169.0</ele>
				<time>2021-02-25T08:46:27</time>
			</trkpt>
			<trkpt lat="48.935909969732165" lon="3.0128799565136433">
				<ele>160.0</ele>
				<time>2021-02-25T08:47:15</time>
			</trkpt>
			<trkpt lat="48.93694999627769" lon="3.013419918715954">
				<ele>156.0</ele>
				<time>2021-02-25T08:47:34</time>
			</trkpt>
			<trkpt lat="48.93956992775202" lon="3.0146299302577972">
				<ele>150.0</ele>
				<time>2021-02-25T08:48:21</time>
			</trkpt>
			<trkpt lat="48.94059997983277" lon="3.0148999951779842">
				<ele>148.0</ele>
				<time>2021-02-25T08:48:40</time>
			</trkpt>
			<trkpt lat="48.940379954874516" lon="3.0156199168413877">
				<ele>148.0</ele>
				<time>2021-02-25T08:48:49</time>
			</trkpt>
			<trkpt lat="48.940249951556325" lon="3.0163099989295006">
				<ele>149.0</ele>
				<time>2021-02-25T08:48:57</time>
			</trkpt>
			<trkpt lat="48.94015992991626" lon="3.0168599355965853">
				<ele>150.0</ele>
				<time>2021-02-25T08:49:03</time>
			</trkpt>
			<trkpt lat="48.93997997045517" lon="3.0185199715197086">
				<ele>154.0</ele>
				<time>2021-02-25T08:49:23</time>
			</trkpt>
			<trkpt lat="48.93991995602846" lon="3.019229918718338">
				<ele>155.0</ele>
				<time>2021-02-25T08:49:31</time>
			</trkpt>
			<trkpt lat="48.93997997045517" lon="3.0195699725300074">
				<ele>155.0</ele>
				<time>2021-02-25T08:49:35</time>
			</trkpt>
			<trkpt lat="48.940079966560006" lon="3.019739957526326">
				<ele>155.0</ele>
				<time>2021-02-25T08:49:37</time>
			</trkpt>
			<trkpt lat="48.940569972619414" lon="3.020099960267544">
				<ele>154.0</ele>
				<time>2021-02-25T08:49:47</time>
			</trkpt>
			<trkpt lat="48.94081992097199" lon="3.0204399302601814">
				<ele>155.0</ele>
				<time>2021-02-25T08:49:53</time>
			</trkpt>
			<trkpt lat="48.940959982573986" lon="3.0207099951803684">
				<ele>155.0</ele>
				<time>2021-02-25T08:49:57</time>
			</trkpt>
			<trkpt lat="48.94107992760837" lon="3.0210999213159084">
				<ele>155.0</ele>
				<time>2021-02-25T08:50:02</time>
			</trkpt>
			<trkpt lat="48.94137999974191" lon="3.022539932280779">
				<ele>158.0</ele>
				<time>2021-02-25T08:50:19</time>
			</trkpt>
			<trkpt lat="48.94148997031152" lon="3.022759957239032">
				<ele>158.0</ele>
				<time>2021-02-25T08:50:22</time>
			</trkpt>
			<trkpt lat="48.94159994088113" lon="3.0228699278086424">
				<ele>158.0</ele>
				<time>2021-02-25T08:50:24</time>
			</trkpt>
			<trkpt lat="48.94175995141268" lon="3.0229599494487047">
				<ele>157.0</ele>
				<time>2021-02-25T08:50:27</time>
			</trkpt>
			<trkpt lat="48.9419399946928" lon="3.0229799821972847">
				<ele>157.0</ele>
				<time>2021-02-25T08:50:30</time>
			</trkpt>
			<trkpt lat="48.94204996526241" lon="3.023219956085086">
				<ele>157.0</ele>
				<time>2021-02-25T08:50:34</time>
			</trkpt>
			<trkpt lat="48.94207997247577" lon="3.0235699843615294">
				<ele>158.0</ele>
				<time>2021-02-25T08:50:38</time>
			</trkpt>
			<trkpt lat="48.94203999079764" lon="3.025229936465621">
				<ele>157.0</ele>
				<time>2021-02-25T08:50:57</time>
			</trkpt>
			<trkpt lat="48.941929936409" lon="3.026379933580756">
				<ele>154.0</ele>
				<time>2021-02-25T08:51:10</time>
			</trkpt>
			<trkpt lat="48.941969918087125" lon="3.027249975129962">
				<ele>150.0</ele>
				<time>2021-02-25T08:51:20</time>
			</trkpt>
			<trkpt lat="48.94189992919564" lon="3.0272999312728643">
				<ele>150.0</ele>
				<time>2021-02-25T08:51:21</time>
			</trkpt>
			<trkpt lat="48.9413099270314" lon="3.0273399967700243">
				<ele>146.0</ele>
				<time>2021-02-25T08:51:32</time>
			</trkpt>
			<trkpt lat="48.94049998372793" lon="3.0271099973469973">
				<ele>143.0</ele>
				<time>2021-02-25T08:51:46</time>
			</trkpt>
			<trkpt lat="48.940419936552644" lon="3.0271299462765455">
				<ele>143.0</ele>
				<time>2021-02-25T08:51:47</time>
			</trkpt>
			<trkpt lat="48.9402599260211" lon="3.02728995680809">
				<ele>143.0</ele>
				<time>2021-02-25T08:51:51</time>
			</trkpt>
			<trkpt lat="48.940059933811426" lon="3.0280099622905254">
				<ele>140.0</ele>
				<time>2021-02-25T08:52:00</time>
			</trkpt>
			<trkpt lat="48.939969995990396" lon="3.028139965608716">
				<ele>139.0</ele>
				<time>2021-02-25T08:52:02</time>
			</trkpt>
			<trkpt lat="48.939649974927306" lon="3.0282399617135525">
				<ele>139.0</ele>
				<time>2021-02-25T08:52:07</time>
			</trkpt>
			<trkpt lat="48.93903994001448" lon="3.0280199367552996">
				<ele>143.0</ele>
				<time>2021-02-25T08:52:18</time>
			</trkpt>
			<trkpt lat="48.93845999613404" lon="3.0279599223285913">
				<ele>146.0</ele>
				<time>2021-02-25T08:52:28</time>
			</trkpt>
			<trkpt lat="48.937909975647926" lon="3.0278199445456266">
				<ele>149.0</ele>
				<time>2021-02-25T08:52:38</time>
			</trkpt>
			<trkpt lat="48.93658999353647" lon="3.027259949594736">
				<ele>156.0</ele>
				<time>2021-02-25T08:53:02</time>
			</trkpt>
			<trkpt lat="48.935649963095784" lon="3.0270899645984173">
				<ele>158.0</ele>
				<time>2021-02-25T08:53:19</time>
			</trkpt>
			<trkpt lat="48.93524997867644" lon="3.0269399285316467">
				<ele>158.0</ele>
				<time>2021-02-25T08:53:26</time>
			</trkpt>
			<trkpt lat="48.93494999036193" lon="3.026969935745001">
				<ele>158.0</ele>
				<time>2021-02-25T08:53:31</time>
			</trkpt>
			<trkpt lat="48.93325994722545" lon="3.029279988259077">
				<ele>157.0</ele>
				<time>2021-02-25T08:54:10</time>
			</trkpt>
			<trkpt lat="48.933179983869195" lon="3.0295199621468782">
				<ele>158.0</ele>
				<time>2021-02-25T08:54:14</time>
			</trkpt>
			<trkpt lat="48.93307998776436" lon="3.030139971524477">
				<ele>163.0</ele>
				<time>2021-02-25T08:54:21</time>
			</trkpt>
			<trkpt lat="48.93290991894901" lon="3.031709985807538">
				<ele>162.0</ele>
				<time>2021-02-25T08:54:39</time>
			</trkpt>
			<trkpt lat="48.932909835129976" lon="3.03171057254076">
				<ele>161.99</ele>
				<time>2021-02-25T08:54:39</time>
			</trkpt>
			<trkpt lat="48.932839930057526" lon="3.034579949453473">
				<ele>159.0</ele>
				<time>2021-02-25T08:55:12</time>
			</trkpt>
			<trkpt lat="48.93280992284417" lon="3.0360499676316977">
				<ele>165.0</ele>
				<time>2021-02-25T08:55:29</time>
			</trkpt>
			<trkpt lat="48.93278997391462" lon="3.0364299193024635">
				<ele>163.0</ele>
				<time>2021-02-25T08:55:33</time>
			</trkpt>
			<trkpt lat="48.93271998502314" lon="3.036859994754195">
				<ele>163.0</ele>
				<time>2021-02-25T08:55:38</time>
			</trkpt>
			<trkpt lat="48.932559974491596" lon="3.037659963592887">
				<ele>165.0</ele>
				<time>2021-02-25T08:55:48</time>
			</trkpt>
			<trkpt lat="48.93196997232735" lon="3.039439944550395">
				<ele>162.0</ele>
				<time>2021-02-25T08:56:10</time>
			</trkpt>
			<trkpt lat="48.93175992183387" lon="3.0409299954771996">
				<ele>164.0</ele>
				<time>2021-02-25T08:56:28</time>
			</trkpt>
			<trkpt lat="48.93120998516679" lon="3.0437899846583605">
				<ele>164.0</ele>
				<time>2021-02-25T08:57:02</time>
			</trkpt>
			<trkpt lat="48.93118995241821" lon="3.0441699363291264">
				<ele>163.0</ele>
				<time>2021-02-25T08:57:06</time>
			</trkpt>
			<trkpt lat="48.93134996294975" lon="3.0455499328672886">
				<ele>161.0</ele>
				<time>2021-02-25T08:57:22</time>
			</trkpt>
			<trkpt lat="48.93142992630601" lon="3.0466399993747473">
				<ele>160.0</ele>
				<time>2021-02-25T08:57:35</time>
			</trkpt>
			<trkpt lat="48.931399919092655" lon="3.0482599698007107">
				<ele>157.0</ele>
				<time>2021-02-25T08:57:53</time>
			</trkpt>
			<trkpt lat="48.93133998848498" lon="3.0488799791783094">
				<ele>156.0</ele>
				<time>2021-02-25T08:58:01</time>
			</trkpt>
			<trkpt lat="48.93123999238014" lon="3.0494599230587482">
				<ele>154.0</ele>
				<time>2021-02-25T08:58:07</time>
			</trkpt>
			<trkpt lat="48.93104997463524" lon="3.0502999573946">
				<ele>151.0</ele>
				<time>2021-02-25T08:58:18</time>
			</trkpt>
			<trkpt lat="48.93075996078551" lon="3.0513099767267704">
				<ele>147.0</ele>
				<time>2021-02-25T08:58:30</time>
			</trkpt>
			<trkpt lat="48.93048997968435" lon="3.052959954366088">
				<ele>142.0</ele>
				<time>2021-02-25T08:58:50</time>
			</trkpt>
			<trkpt lat="48.930279929190874" lon="3.055139919742942">
				<ele>134.0</ele>
				<time>2021-02-25T08:59:15</time>
			</trkpt>
			<trkpt lat="48.93011991865933" lon="3.055879957973957">
				<ele>133.0</ele>
				<time>2021-02-25T08:59:24</time>
			</trkpt>
			<trkpt lat="48.929869970306754" lon="3.056739941239357">
				<ele>129.0</ele>
				<time>2021-02-25T08:59:34</time>
			</trkpt>
			<trkpt lat="48.92979998141527" lon="3.057179991155863">
				<ele>127.0</ele>
				<time>2021-02-25T08:59:40</time>
			</trkpt>
			<trkpt lat="48.92977994866669" lon="3.057429939508438">
				<ele>127.0</ele>
				<time>2021-02-25T08:59:43</time>
			</trkpt>
			<trkpt lat="48.929829988628626" lon="3.058759979903698">
				<ele>125.0</ele>
				<time>2021-02-25T08:59:58</time>
			</trkpt>
			<trkpt lat="48.92975999973714" lon="3.0595199670642614">
				<ele>121.0</ele>
				<time>2021-02-25T09:00:07</time>
			</trkpt>
			<trkpt lat="48.92957995645702" lon="3.0606199242174625">
				<ele>118.0</ele>
				<time>2021-02-25T09:00:20</time>
			</trkpt>
			<trkpt lat="48.92946998588741" lon="3.0610599741339684">
				<ele>115.0</ele>
				<time>2021-02-25T09:00:25</time>
			</trkpt>
			<trkpt lat="48.928969921544194" lon="3.0629299767315388">
				<ele>104.0</ele>
				<time>2021-02-25T09:00:48</time>
			</trkpt>
			<trkpt lat="48.928389977663755" lon="3.064289940521121">
				<ele>96.0</ele>
				<time>2021-02-25T09:01:07</time>
			</trkpt>
			<trkpt lat="48.92833993770182" lon="3.0644999910146">
				<ele>96.0</ele>
				<time>2021-02-25T09:01:09</time>
			</trkpt>
			<trkpt lat="48.92832996323705" lon="3.0646599177271128">
				<ele>96.0</ele>
				<time>2021-02-25T09:01:11</time>
			</trkpt>
			<trkpt lat="48.928389977663755" lon="3.0649299826472998">
				<ele>96.0</ele>
				<time>2021-02-25T09:01:14</time>
			</trkpt>
			<trkpt lat="48.92895994707942" lon="3.0666999891400337">
				<ele>94.0</ele>
				<time>2021-02-25T09:01:37</time>
			</trkpt>
			<trkpt lat="48.928949972614646" lon="3.0668999813497066">
				<ele>94.0</ele>
				<time>2021-02-25T09:01:39</time>
			</trkpt>
			<trkpt lat="48.928689965978265" lon="3.067179936915636">
				<ele>92.0</ele>
				<time>2021-02-25T09:01:45</time>
			</trkpt>
			<trkpt lat="48.92861997708678" lon="3.0673299729824066">
				<ele>92.0</ele>
				<time>2021-02-25T09:01:47</time>
			</trkpt>
			<trkpt lat="48.92824999988079" lon="3.067429969087243">
				<ele>91.0</ele>
				<time>2021-02-25T09:01:53</time>
			</trkpt>
			<trkpt lat="48.9279299788177" lon="3.0675899796187878">
				<ele>92.0</ele>
				<time>2021-02-25T09:01:59</time>
			</trkpt>
			<trkpt lat="48.92757995054126" lon="3.0682499706745148">
				<ele>94.0</ele>
				<time>2021-02-25T09:02:09</time>
			</trkpt>
			<trkpt lat="48.92740996554494" lon="3.0680099967867136">
				<ele>94.0</ele>
				<time>2021-02-25T09:02:13</time>
			</trkpt>
			<trkpt lat="48.92641997896135" lon="3.066139994189143">
				<ele>99.0</ele>
				<time>2021-02-25T09:02:40</time>
			</trkpt>
			<trkpt lat="48.92622996121645" lon="3.06636999361217">
				<ele>101.0</ele>
				<time>2021-02-25T09:02:44</time>
			</trkpt>
			<trkpt lat="48.926019994542" lon="3.0670499335974455">
				<ele>103.0</ele>
				<time>2021-02-25T09:02:53</time>
			</trkpt>
			<trkpt lat="48.9255799446255" lon="3.068459937348962">
				<ele>98.0</ele>
				<time>2021-02-25T09:03:11</time>
			</trkpt>
			<trkpt lat="48.924999916926026" lon="3.070009918883443">
				<ele>98.0</ele>
				<time>2021-02-25T09:03:31</time>
			</trkpt>
			<trkpt lat="48.92468995414674" lon="3.070479976013303">
				<ele>98.0</ele>
				<time>2021-02-25T09:03:39</time>
			</trkpt>
			<trkpt lat="48.92446992918849" lon="3.070699917152524">
				<ele>97.0</ele>
				<time>2021-02-25T09:03:44</time>
			</trkpt>
			<trkpt lat="48.92403993755579" lon="3.071609940379858">
				<ele>98.0</ele>
				<time>2021-02-25T09:03:56</time>
			</trkpt>
			<trkpt lat="48.9237199164927" lon="3.072079997509718">
				<ele>100.0</ele>
				<time>2021-02-25T09:04:04</time>
			</trkpt>
			<trkpt lat="48.92351992428303" lon="3.0725899524986744">
				<ele>101.0</ele>
				<time>2021-02-25T09:04:11</time>
			</trkpt>
			<trkpt lat="48.92326997593045" lon="3.0735699646174908">
				<ele>102.0</ele>
				<time>2021-02-25T09:04:23</time>
			</trkpt>
			<trkpt lat="48.923059925436974" lon="3.0739399418234825">
				<ele>104.0</ele>
				<time>2021-02-25T09:04:28</time>
			</trkpt>
			<trkpt lat="48.92265994101763" lon="3.0742499884217978">
				<ele>105.0</ele>
				<time>2021-02-25T09:04:36</time>
			</trkpt>
			<trkpt lat="48.92136996611953" lon="3.075459999963641">
				<ele>111.0</ele>
				<time>2021-02-25T09:05:03</time>
			</trkpt>
			<trkpt lat="48.919579926878214" lon="3.0763999465852976">
				<ele>123.0</ele>
				<time>2021-02-25T09:05:36</time>
			</trkpt>
			<trkpt lat="48.918809965252876" lon="3.0768799781799316">
				<ele>128.0</ele>
				<time>2021-02-25T09:05:50</time>
			</trkpt>
			<trkpt lat="48.918569991365075" lon="3.0769099853932858">
				<ele>130.0</ele>
				<time>2021-02-25T09:05:54</time>
			</trkpt>
			<trkpt lat="48.91857996582985" lon="3.077149959281087">
				<ele>130.0</ele>
				<time>2021-02-25T09:05:57</time>
			</trkpt>
			<trkpt lat="48.918739976361394" lon="3.0779599864035845">
				<ele>130.0</ele>
				<time>2021-02-25T09:06:07</time>
			</trkpt>
			<trkpt lat="48.91876998357475" lon="3.079169997945428">
				<ele>131.0</ele>
				<time>2021-02-25T09:06:21</time>
			</trkpt>
			<trkpt lat="48.91874995082617" lon="3.080929946154356">
				<ele>143.0</ele>
				<time>2021-02-25T09:06:41</time>
			</trkpt>
			<trkpt lat="48.91911992803216" lon="3.0832299403846264">
				<ele>147.0</ele>
				<time>2021-02-25T09:07:08</time>
			</trkpt>
			<trkpt lat="48.91943994909525" lon="3.084469959139824">
				<ele>147.0</ele>
				<time>2021-02-25T09:07:23</time>
			</trkpt>
			<trkpt lat="48.921019937843084" lon="3.0907999724149704">
				<ele>143.0</ele>
				<time>2021-02-25T09:08:40</time>
			</trkpt>
			<trkpt lat="48.92121993005276" lon="3.092219950631261">
				<ele>135.0</ele>
				<time>2021-02-25T09:08:57</time>
			</trkpt>
			<trkpt lat="48.92238995991647" lon="3.092929981648922">
				<ele>128.0</ele>
				<time>2021-02-25T09:09:19</time>
			</trkpt>
			<trkpt lat="48.92255994491279" lon="3.093159981071949">
				<ele>127.0</ele>
				<time>2021-02-25T09:09:23</time>
			</trkpt>
			<trkpt lat="48.923619920387864" lon="3.0954299680888653">
				<ele>127.0</ele>
				<time>2021-02-25T09:09:55</time>
			</trkpt>
			<trkpt lat="48.92383994534612" lon="3.0962699186056852">
				<ele>128.0</ele>
				<time>2021-02-25T09:10:05</time>
			</trkpt>
			<trkpt lat="48.92484996467829" lon="3.0979799944907427">
				<ele>136.0</ele>
				<time>2021-02-25T09:10:31</time>
			</trkpt>
			<trkpt lat="48.925339970737696" lon="3.098899992182851">
				<ele>139.0</ele>
				<time>2021-02-25T09:10:45</time>
			</trkpt>
			<trkpt lat="48.92583995126188" lon="3.099569957703352">
				<ele>142.0</ele>
				<time>2021-02-25T09:10:57</time>
			</trkpt>
			<trkpt lat="48.92612996511161" lon="3.1000999454408884">
				<ele>142.0</ele>
				<time>2021-02-25T09:11:04</time>
			</trkpt>
			<trkpt lat="48.926239935681224" lon="3.100429940968752">
				<ele>141.0</ele>
				<time>2021-02-25T09:11:09</time>
			</trkpt>
			<trkpt lat="48.92641997896135" lon="3.101569963619113">
				<ele>142.0</ele>
				<time>2021-02-25T09:11:22</time>
			</trkpt>
			<trkpt lat="48.92648996785283" lon="3.10179996304214">
				<ele>141.0</ele>
				<time>2021-02-25T09:11:25</time>
			</trkpt>
			<trkpt lat="48.926689960062504" lon="3.1018399447202682">
				<ele>142.0</ele>
				<time>2021-02-25T09:11:28</time>
			</trkpt>
			<trkpt lat="48.92856993712485" lon="3.1009999942034483">
				<ele>146.0</ele>
				<time>2021-02-25T09:12:03</time>
			</trkpt>
			<trkpt lat="48.92874998040497" lon="3.1009999942034483">
				<ele>145.0</ele>
				<time>2021-02-25T09:12:06</time>
			</trkpt>
			<trkpt lat="48.92880999483168" lon="3.1014899164438248">
				<ele>146.0</ele>
				<time>2021-02-25T09:12:11</time>
			</trkpt>
			<trkpt lat="48.92905994318426" lon="3.1050299294292927">
				<ele>147.0</ele>
				<time>2021-02-25T09:12:52</time>
			</trkpt>
			<trkpt lat="48.929309975355864" lon="3.106519980356097">
				<ele>145.0</ele>
				<time>2021-02-25T09:13:10</time>
			</trkpt>
			<trkpt lat="48.92938993871212" lon="3.1079599913209677">
				<ele>145.0</ele>
				<time>2021-02-25T09:13:26</time>
			</trkpt>
			<trkpt lat="48.92919992096722" lon="3.1112099904567003">
				<ele>143.0</ele>
				<time>2021-02-25T09:14:04</time>
			</trkpt>
			<trkpt lat="48.92908995039761" lon="3.1118799559772015">
				<ele>144.0</ele>
				<time>2021-02-25T09:14:11</time>
			</trkpt>
			<trkpt lat="48.92906991764903" lon="3.112199977040291">
				<ele>144.0</ele>
				<time>2021-02-25T09:14:15</time>
			</trkpt>
			<trkpt lat="48.929139990359545" lon="3.113039927557111">
				<ele>142.0</ele>
				<time>2021-02-25T09:14:25</time>
			</trkpt>
			<trkpt lat="48.92912993207574" lon="3.113329941406846">
				<ele>142.0</ele>
				<time>2021-02-25T09:14:28</time>
			</trkpt>
			<trkpt lat="48.92905994318426" lon="3.1137399841099977">
				<ele>143.0</ele>
				<time>2021-02-25T09:14:33</time>
			</trkpt>
			<trkpt lat="48.92830993048847" lon="3.1167299766093493">
				<ele>144.0</ele>
				<time>2021-02-25T09:15:10</time>
			</trkpt>
			<trkpt lat="48.92819995991886" lon="3.1173899676650763">
				<ele>144.0</ele>
				<time>2021-02-25T09:15:17</time>
			</trkpt>
			<trkpt lat="48.92818998545408" lon="3.117729937657714">
				<ele>145.0</ele>
				<time>2021-02-25T09:15:21</time>
			</trkpt>
			<trkpt lat="48.928259974345565" lon="3.1181499548256397">
				<ele>145.0</ele>
				<time>2021-02-25T09:15:26</time>
			</trkpt>
			<trkpt lat="48.92852995544672" lon="3.119309926405549">
				<ele>148.0</ele>
				<time>2021-02-25T09:15:40</time>
			</trkpt>
			<trkpt lat="48.92852995544672" lon="3.1203299202024937">
				<ele>149.0</ele>
				<time>2021-02-25T09:15:52</time>
			</trkpt>
			<trkpt lat="48.92834999598563" lon="3.1216099206358194">
				<ele>150.0</ele>
				<time>2021-02-25T09:16:07</time>
			</trkpt>
			<trkpt lat="48.928109938278794" lon="3.122679954394698">
				<ele>152.0</ele>
				<time>2021-02-25T09:16:20</time>
			</trkpt>
			<trkpt lat="48.927959986031055" lon="3.1242699176073074">
				<ele>150.0</ele>
				<time>2021-02-25T09:16:38</time>
			</trkpt>
			<trkpt lat="48.927999967709184" lon="3.124399920925498">
				<ele>149.0</ele>
				<time>2021-02-25T09:16:40</time>
			</trkpt>
			<trkpt lat="48.92848997376859" lon="3.1251699663698673">
				<ele>147.0</ele>
				<time>2021-02-25T09:16:52</time>
			</trkpt>
			<trkpt lat="48.929359931498766" lon="3.1263599451631308">
				<ele>138.0</ele>
				<time>2021-02-25T09:17:12</time>
			</trkpt>
			<trkpt lat="48.92815997824073" lon="3.1276999600231647">
				<ele>141.0</ele>
				<time>2021-02-25T09:17:38</time>
			</trkpt>
			<trkpt lat="48.92801991663873" lon="3.127999948337674">
				<ele>141.0</ele>
				<time>2021-02-25T09:17:43</time>
			</trkpt>
			<trkpt lat="48.92768992111087" lon="3.1291799526661634">
				<ele>142.0</ele>
				<time>2021-02-25T09:17:57</time>
			</trkpt>
			<trkpt lat="48.92731994390488" lon="3.1300299614667892">
				<ele>144.0</ele>
				<time>2021-02-25T09:18:09</time>
			</trkpt>
			<trkpt lat="48.92719999887049" lon="3.130199946463108">
				<ele>145.0</ele>
				<time>2021-02-25T09:18:12</time>
			</trkpt>
			<trkpt lat="48.927209973335266" lon="3.1303199753165245">
				<ele>145.0</ele>
				<time>2021-02-25T09:18:13</time>
			</trkpt>
			<trkpt lat="48.927059937268496" lon="3.131299987435341">
				<ele>144.0</ele>
				<time>2021-02-25T09:18:25</time>
			</trkpt>
			<trkpt lat="48.92685994505882" lon="3.1325499806553125">
				<ele>143.0</ele>
				<time>2021-02-25T09:18:39</time>
			</trkpt>
			<trkpt lat="48.92678995616734" lon="3.1327699217945337">
				<ele>143.0</ele>
				<time>2021-02-25T09:18:42</time>
			</trkpt>
			<trkpt lat="48.92642995342612" lon="3.1326999329030514">
				<ele>144.0</ele>
				<time>2021-02-25T09:18:48</time>
			</trkpt>
			<trkpt lat="48.92622996121645" lon="3.1331299245357513">
				<ele>144.0</ele>
				<time>2021-02-25T09:18:54</time>
			</trkpt>
			<trkpt lat="48.923619920387864" lon="3.135029934346676">
				<ele>149.0</ele>
				<time>2021-02-25T09:19:45</time>
			</trkpt>
			<trkpt lat="48.92201998271048" lon="3.1367799919098616">
				<ele>149.0</ele>
				<time>2021-02-25T09:20:19</time>
			</trkpt>
			<trkpt lat="48.92136996611953" lon="3.1376299168914557">
				<ele>151.0</ele>
				<time>2021-02-25T09:20:34</time>
			</trkpt>
			<trkpt lat="48.920609978958964" lon="3.138389987871051">
				<ele>154.0</ele>
				<time>2021-02-25T09:20:50</time>
			</trkpt>
			<trkpt lat="48.920049984008074" lon="3.139039920642972">
				<ele>153.0</ele>
				<time>2021-02-25T09:21:02</time>
			</trkpt>
			<trkpt lat="48.91976994462311" lon="3.139519952237606">
				<ele>151.0</ele>
				<time>2021-02-25T09:21:09</time>
			</trkpt>
			<trkpt lat="48.919219924136996" lon="3.141089966520667">
				<ele>150.0</ele>
				<time>2021-02-25T09:21:30</time>
			</trkpt>
			<trkpt lat="48.91863998025656" lon="3.1429999507963657">
				<ele>151.0</ele>
				<time>2021-02-25T09:21:54</time>
			</trkpt>
			<trkpt lat="48.91863972879946" lon="3.1430005375295877">
				<ele>151.0</ele>
				<time>2021-02-25T09:21:54</time>
			</trkpt>
			<trkpt lat="48.91847996972501" lon="3.14343991689384">
				<ele>151.0</ele>
				<time>2021-02-25T09:22:00</time>
			</trkpt>
			<trkpt lat="48.916939962655306" lon="3.1460499577224255">
				<ele>143.0</ele>
				<time>2021-02-25T09:22:40</time>
			</trkpt>
			<trkpt lat="48.91649999655783" lon="3.14665999263525">
				<ele>141.0</ele>
				<time>2021-02-25T09:22:50</time>
			</trkpt>
			<trkpt lat="48.91595995053649" lon="3.147009937092662">
				<ele>142.0</ele>
				<time>2021-02-25T09:23:00</time>
			</trkpt>
			<trkpt lat="48.91588996164501" lon="3.146119946613908">
				<ele>143.0</ele>
				<time>2021-02-25T09:23:11</time>
			</trkpt>
			<trkpt lat="48.9156399294734" lon="3.144689993932843">
				<ele>143.0</ele>
				<time>2021-02-25T09:23:28</time>
			</trkpt>
			<trkpt lat="48.9153999555856" lon="3.144779931753874">
				<ele>142.0</ele>
				<time>2021-02-25T09:23:32</time>
			</trkpt>
			<trkpt lat="48.91484993509948" lon="3.1451399344950914">
				<ele>141.0</ele>
				<time>2021-02-25T09:23:42</time>
			</trkpt>
			<trkpt lat="48.91395994462073" lon="3.1456199660897255">
				<ele>144.0</ele>
				<time>2021-02-25T09:23:59</time>
			</trkpt>
			<trkpt lat="48.91401995904744" lon="3.1460499577224255">
				<ele>143.0</ele>
				<time>2021-02-25T09:24:04</time>
			</trkpt>
			<trkpt lat="48.91335996799171" lon="3.146359920501709">
				<ele>143.0</ele>
				<time>2021-02-25T09:24:16</time>
			</trkpt>
			<trkpt lat="48.91272998414934" lon="3.1464899238198996">
				<ele>141.0</ele>
				<time>2021-02-25T09:24:27</time>
			</trkpt>
			<trkpt lat="48.91065998934209" lon="3.1462899316102266">
				<ele>142.0</ele>
				<time>2021-02-25T09:25:03</time>
			</trkpt>
			<trkpt lat="48.90950999222696" lon="3.14618993550539">
				<ele>140.0</ele>
				<time>2021-02-25T09:25:23</time>
			</trkpt>
			<trkpt lat="48.90847994014621" lon="3.1458399910479784">
				<ele>138.0</ele>
				<time>2021-02-25T09:25:41</time>
			</trkpt>
			<trkpt lat="48.90820995904505" lon="3.1456599477678537">
				<ele>139.0</ele>
				<time>2021-02-25T09:25:46</time>
			</trkpt>
			<trkpt lat="48.90742993913591" lon="3.144819997251034">
				<ele>140.0</ele>
				<time>2021-02-25T09:26:03</time>
			</trkpt>
			<trkpt lat="48.90723992139101" lon="3.144849920645356">
				<ele>139.0</ele>
				<time>2021-02-25T09:26:06</time>
			</trkpt>
			<trkpt lat="48.906729966402054" lon="3.1451799999922514">
				<ele>135.0</ele>
				<time>2021-02-25T09:26:16</time>
			</trkpt>
			<trkpt lat="48.9060799498111" lon="3.1453999411314726">
				<ele>134.0</ele>
				<time>2021-02-25T09:26:28</time>
			</trkpt>
			<trkpt lat="48.90585992485285" lon="3.1453099194914103">
				<ele>133.0</ele>
				<time>2021-02-25T09:26:32</time>
			</trkpt>
			<trkpt lat="48.9056499581784" lon="3.1449699494987726">
				<ele>132.0</ele>
				<time>2021-02-25T09:26:37</time>
			</trkpt>
			<trkpt lat="48.905249973759055" lon="3.144189929589629">
				<ele>135.0</ele>
				<time>2021-02-25T09:26:48</time>
			</trkpt>
			<trkpt lat="48.90484998933971" lon="3.1436599418520927">
				<ele>139.0</ele>
				<time>2021-02-25T09:26:57</time>
			</trkpt>
			<trkpt lat="48.903939966112375" lon="3.1422999780625105">
				<ele>143.0</ele>
				<time>2021-02-25T09:27:20</time>
			</trkpt>
			<trkpt lat="48.903809962794185" lon="3.142209956422448">
				<ele>143.0</ele>
				<time>2021-02-25T09:27:22</time>
			</trkpt>
			<trkpt lat="48.903359938412905" lon="3.1422999780625105">
				<ele>143.0</ele>
				<time>2021-02-25T09:27:30</time>
			</trkpt>
			<trkpt lat="48.90325994230807" lon="3.1422599963843822">
				<ele>143.0</ele>
				<time>2021-02-25T09:27:32</time>
			</trkpt>
			<trkpt lat="48.90288996510208" lon="3.14126992598176">
				<ele>144.0</ele>
				<time>2021-02-25T09:27:45</time>
			</trkpt>
			<trkpt lat="48.90183996409178" lon="3.1423199269920588">
				<ele>147.0</ele>
				<time>2021-02-25T09:28:07</time>
			</trkpt>
			<trkpt lat="48.899319944903255" lon="3.1441299989819527">
				<ele>151.0</ele>
				<time>2021-02-25T09:28:55</time>
			</trkpt>
			<trkpt lat="48.89850991778076" lon="3.144889986142516">
				<ele>151.0</ele>
				<time>2021-02-25T09:29:12</time>
			</trkpt>
			<trkpt lat="48.89777993783355" lon="3.145519969984889">
				<ele>152.0</ele>
				<time>2021-02-25T09:29:26</time>
			</trkpt>
			<trkpt lat="48.89728993177414" lon="3.1460199505090714">
				<ele>153.0</ele>
				<time>2021-02-25T09:29:37</time>
			</trkpt>
			<trkpt lat="48.89706999063492" lon="3.1463299971073866">
				<ele>154.0</ele>
				<time>2021-02-25T09:29:42</time>
			</trkpt>
			<trkpt lat="48.89688994735479" lon="3.1467199232429266">
				<ele>154.0</ele>
				<time>2021-02-25T09:29:47</time>
			</trkpt>
			<trkpt lat="48.89638996683061" lon="3.1485499441623688">
				<ele>154.0</ele>
				<time>2021-02-25T09:30:10</time>
			</trkpt>
			<trkpt lat="48.89617991633713" lon="3.1491799280047417">
				<ele>154.0</ele>
				<time>2021-02-25T09:30:18</time>
			</trkpt>
			<trkpt lat="48.89575998298824" lon="3.150149965658784">
				<ele>155.0</ele>
				<time>2021-02-25T09:30:31</time>
			</trkpt>
			<trkpt lat="48.895579939708114" lon="3.1507399678230286">
				<ele>154.0</ele>
				<time>2021-02-25T09:30:39</time>
			</trkpt>
			<trkpt lat="48.895029919222" lon="3.1531899981200695">
				<ele>154.0</ele>
				<time>2021-02-25T09:31:08</time>
			</trkpt>
			<trkpt lat="48.89472993090749" lon="3.155099982395768">
				<ele>153.0</ele>
				<time>2021-02-25T09:31:31</time>
			</trkpt>
			<trkpt lat="48.8937399443239" lon="3.1544699985533953">
				<ele>152.0</ele>
				<time>2021-02-25T09:31:50</time>
			</trkpt>
			<trkpt lat="48.892919942736626" lon="3.153979992493987">
				<ele>150.0</ele>
				<time>2021-02-25T09:32:05</time>
			</trkpt>
			<trkpt lat="48.89233999885619" lon="3.153499960899353">
				<ele>151.0</ele>
				<time>2021-02-25T09:32:16</time>
			</trkpt>
			<trkpt lat="48.89223991893232" lon="3.153489986434579">
				<ele>151.0</ele>
				<time>2021-02-25T09:32:18</time>
			</trkpt>
			<trkpt lat="48.89118991792202" lon="3.1529999803751707">
				<ele>151.0</ele>
				<time>2021-02-25T09:32:37</time>
			</trkpt>
			<trkpt lat="48.89013991691172" lon="3.152829995378852">
				<ele>151.0</ele>
				<time>2021-02-25T09:32:56</time>
			</trkpt>
			<trkpt lat="48.88989994302392" lon="3.152829995378852">
				<ele>150.0</ele>
				<time>2021-02-25T09:33:00</time>
			</trkpt>
			<trkpt lat="48.88941999524832" lon="3.1529799476265907">
				<ele>148.0</ele>
				<time>2021-02-25T09:33:08</time>
			</trkpt>
			<trkpt lat="48.88795995153487" lon="3.153939926996827">
				<ele>149.0</ele>
				<time>2021-02-25T09:33:36</time>
			</trkpt>
			<trkpt lat="48.886879943311214" lon="3.1543199624866247">
				<ele>148.0</ele>
				<time>2021-02-25T09:33:55</time>
			</trkpt>
			<trkpt lat="48.884429996833205" lon="3.1537699420005083">
				<ele>149.0</ele>
				<time>2021-02-25T09:34:38</time>
			</trkpt>
			<trkpt lat="48.88286995701492" lon="3.153679920360446">
				<ele>144.0</ele>
				<time>2021-02-25T09:35:06</time>
			</trkpt>
			<trkpt lat="48.88252998702228" lon="3.153699953109026">
				<ele>144.0</ele>
				<time>2021-02-25T09:35:12</time>
			</trkpt>
			<trkpt lat="48.88235991820693" lon="3.15417998470366">
				<ele>145.0</ele>
				<time>2021-02-25T09:35:18</time>
			</trkpt>
			<trkpt lat="48.881999999284744" lon="3.1565099861472845">
				<ele>145.0</ele>
				<time>2021-02-25T09:35:45</time>
			</trkpt>
			<trkpt lat="48.881849963217974" lon="3.1569499522447586">
				<ele>144.0</ele>
				<time>2021-02-25T09:35:51</time>
			</trkpt>
			<trkpt lat="48.88171995989978" lon="3.1571999844163656">
				<ele>143.0</ele>
				<time>2021-02-25T09:35:55</time>
			</trkpt>
			<trkpt lat="48.88132994994521" lon="3.1577999610453844">
				<ele>144.0</ele>
				<time>2021-02-25T09:36:04</time>
			</trkpt>
			<trkpt lat="48.88118997216225" lon="3.157949997112155">
				<ele>144.0</ele>
				<time>2021-02-25T09:36:07</time>
			</trkpt>
			<trkpt lat="48.88088998384774" lon="3.158139931038022">
				<ele>144.0</ele>
				<time>2021-02-25T09:36:13</time>
			</trkpt>
			<trkpt lat="48.878349931910634" lon="3.1591899320483208">
				<ele>145.0</ele>
				<time>2021-02-25T09:36:59</time>
			</trkpt>
			<trkpt lat="48.878049943596125" lon="3.1591499503701925">
				<ele>145.0</ele>
				<time>2021-02-25T09:37:04</time>
			</trkpt>
			<trkpt lat="48.87756999582052" lon="3.1589299254119396">
				<ele>145.0</ele>
				<time>2021-02-25T09:37:13</time>
			</trkpt>
			<trkpt lat="48.87696993537247" lon="3.1589599326252937">
				<ele>145.0</ele>
				<time>2021-02-25T09:37:23</time>
			</trkpt>
			<trkpt lat="48.876569950953126" lon="3.1593899242579937">
				<ele>146.0</ele>
				<time>2021-02-25T09:37:32</time>
			</trkpt>
			<trkpt lat="48.87510999105871" lon="3.160309921950102">
				<ele>143.0</ele>
				<time>2021-02-25T09:37:59</time>
			</trkpt>
			<trkpt lat="48.87427993118763" lon="3.1607199646532536">
				<ele>141.0</ele>
				<time>2021-02-25T09:38:14</time>
			</trkpt>
			<trkpt lat="48.87388992123306" lon="3.1609799712896347">
				<ele>139.0</ele>
				<time>2021-02-25T09:38:22</time>
			</trkpt>
			<trkpt lat="48.872639928013086" lon="3.162329960614443">
				<ele>141.0</ele>
				<time>2021-02-25T09:38:48</time>
			</trkpt>
			<trkpt lat="48.8716599997133" lon="3.163529997691512">
				<ele>146.0</ele>
				<time>2021-02-25T09:39:10</time>
			</trkpt>
			<trkpt lat="48.87064998038113" lon="3.1622399389743805">
				<ele>147.0</ele>
				<time>2021-02-25T09:39:33</time>
			</trkpt>
			<trkpt lat="48.87036994099617" lon="3.1619799323379993">
				<ele>147.0</ele>
				<time>2021-02-25T09:39:39</time>
			</trkpt>
			<trkpt lat="48.87006995268166" lon="3.1618899945169687">
				<ele>147.0</ele>
				<time>2021-02-25T09:39:44</time>
			</trkpt>
			<trkpt lat="48.869349947199225" lon="3.161939950659871">
				<ele>148.0</ele>
				<time>2021-02-25T09:39:57</time>
			</trkpt>
			<trkpt lat="48.86817991733551" lon="3.1620899867266417">
				<ele>146.0</ele>
				<time>2021-02-25T09:40:17</time>
			</trkpt>
			<trkpt lat="48.86797992512584" lon="3.1622299645096064">
				<ele>147.0</ele>
				<time>2021-02-25T09:40:21</time>
			</trkpt>
			<trkpt lat="48.86756996624172" lon="3.1627099961042404">
				<ele>149.0</ele>
				<time>2021-02-25T09:40:30</time>
			</trkpt>
			<trkpt lat="48.86608997359872" lon="3.1636099610477686">
				<ele>146.0</ele>
				<time>2021-02-25T09:40:58</time>
			</trkpt>
			<trkpt lat="48.86559996753931" lon="3.1639999710023403">
				<ele>144.0</ele>
				<time>2021-02-25T09:41:07</time>
			</trkpt>
			<trkpt lat="48.86539997532964" lon="3.1628699228167534">
				<ele>142.0</ele>
				<time>2021-02-25T09:41:21</time>
			</trkpt>
			<trkpt lat="48.86503997258842" lon="3.1615499407052994">
				<ele>144.0</ele>
				<time>2021-02-25T09:41:37</time>
			</trkpt>
			<trkpt lat="48.864769991487265" lon="3.1605199724435806">
				<ele>142.0</ele>
				<time>2021-02-25T09:41:50</time>
			</trkpt>
			<trkpt lat="48.86408996768296" lon="3.1585199665278196">
				<ele>139.0</ele>
				<time>2021-02-25T09:42:16</time>
			</trkpt>
			<trkpt lat="48.86398997157812" lon="3.1583099998533726">
				<ele>139.0</ele>
				<time>2021-02-25T09:42:19</time>
			</trkpt>
			<trkpt lat="48.86361999437213" lon="3.1577699538320303">
				<ele>139.0</ele>
				<time>2021-02-25T09:42:28</time>
			</trkpt>
			<trkpt lat="48.86340994387865" lon="3.1575599871575832">
				<ele>139.0</ele>
				<time>2021-02-25T09:42:32</time>
			</trkpt>
			<trkpt lat="48.86316996999085" lon="3.1573999766260386">
				<ele>138.0</ele>
				<time>2021-02-25T09:42:36</time>
			</trkpt>
			<trkpt lat="48.86308992281556" lon="3.1571199372410774">
				<ele>138.0</ele>
				<time>2021-02-25T09:42:40</time>
			</trkpt>
			<trkpt lat="48.86216992512345" lon="3.1548799574375153">
				<ele>137.0</ele>
				<time>2021-02-25T09:43:10</time>
			</trkpt>
			<trkpt lat="48.86176994070411" lon="3.1542999297380447">
				<ele>137.0</ele>
				<time>2021-02-25T09:43:20</time>
			</trkpt>
			<trkpt lat="48.86132997460663" lon="3.153919978067279">
				<ele>137.0</ele>
				<time>2021-02-25T09:43:29</time>
			</trkpt>
			<trkpt lat="48.860219959169626" lon="3.1516799982637167">
				<ele>135.0</ele>
				<time>2021-02-25T09:44:01</time>
			</trkpt>
			<trkpt lat="48.859939919784665" lon="3.151239948347211">
				<ele>134.0</ele>
				<time>2021-02-25T09:44:08</time>
			</trkpt>
			<trkpt lat="48.85880995541811" lon="3.1507699750363827">
				<ele>132.0</ele>
				<time>2021-02-25T09:44:28</time>
			</trkpt>
			<trkpt lat="48.85860996320844" lon="3.150639971718192">
				<ele>131.0</ele>
				<time>2021-02-25T09:44:32</time>
			</trkpt>
			<trkpt lat="48.8582699932158" lon="3.1502799689769745">
				<ele>131.0</ele>
				<time>2021-02-25T09:44:39</time>
			</trkpt>
			<trkpt lat="48.857979979366064" lon="3.15009992569685">
				<ele>132.0</ele>
				<time>2021-02-25T09:44:45</time>
			</trkpt>
			<trkpt lat="48.85550991632044" lon="3.1494099274277687">
				<ele>131.0</ele>
				<time>2021-02-25T09:45:28</time>
			</trkpt>
			<trkpt lat="48.85504991747439" lon="3.1491699535399675">
				<ele>130.0</ele>
				<time>2021-02-25T09:45:37</time>
			</trkpt>
			<trkpt lat="48.85440995916724" lon="3.1484499480575323">
				<ele>126.0</ele>
				<time>2021-02-25T09:45:51</time>
			</trkpt>
			<trkpt lat="48.85225991718471" lon="3.1456799805164337">
				<ele>129.0</ele>
				<time>2021-02-25T09:46:40</time>
			</trkpt>
			<trkpt lat="48.8516699988395" lon="3.1454199738800526">
				<ele>127.0</ele>
				<time>2021-02-25T09:46:50</time>
			</trkpt>
			<trkpt lat="48.85105996392667" lon="3.145059971138835">
				<ele>126.0</ele>
				<time>2021-02-25T09:47:02</time>
			</trkpt>
			<trkpt lat="48.85074991732836" lon="3.1447699572890997">
				<ele>125.0</ele>
				<time>2021-02-25T09:47:08</time>
			</trkpt>
			<trkpt lat="48.8504299800843" lon="3.144119940698147">
				<ele>125.0</ele>
				<time>2021-02-25T09:47:17</time>
			</trkpt>
			<trkpt lat="48.850329983979464" lon="3.1440599262714386">
				<ele>125.0</ele>
				<time>2021-02-25T09:47:19</time>
			</trkpt>
			<trkpt lat="48.85035999119282" lon="3.143259957432747">
				<ele>127.0</ele>
				<time>2021-02-25T09:47:28</time>
			</trkpt>
			<trkpt lat="48.85052997618914" lon="3.1419099681079388">
				<ele>125.0</ele>
				<time>2021-02-25T09:47:44</time>
			</trkpt>
			<trkpt lat="48.85068998672068" lon="3.1406999565660954">
				<ele>127.0</ele>
				<time>2021-02-25T09:47:58</time>
			</trkpt>
			<trkpt lat="48.85074991732836" lon="3.14040994271636">
				<ele>127.0</ele>
				<time>2021-02-25T09:48:02</time>
			</trkpt>
			<trkpt lat="48.85093993507326" lon="3.1398799549788237">
				<ele>129.0</ele>
				<time>2021-02-25T09:48:09</time>
			</trkpt>
			<trkpt lat="48.850699961185455" lon="3.1382499262690544">
				<ele>129.0</ele>
				<time>2021-02-25T09:48:28</time>
			</trkpt>
			<trkpt lat="48.850459987297654" lon="3.1378099601715803">
				<ele>129.0</ele>
				<time>2021-02-25T09:48:34</time>
			</trkpt>
			<trkpt lat="48.850379940122366" lon="3.137489939108491">
				<ele>130.0</ele>
				<time>2021-02-25T09:48:38</time>
			</trkpt>
			<trkpt lat="48.850419921800494" lon="3.1365199852734804">
				<ele>133.0</ele>
				<time>2021-02-25T09:48:49</time>
			</trkpt>
			<trkpt lat="48.850399972870946" lon="3.136399956420064">
				<ele>133.0</ele>
				<time>2021-02-25T09:48:51</time>
			</trkpt>
			<trkpt lat="48.850269969552755" lon="3.136209938675165">
				<ele>133.0</ele>
				<time>2021-02-25T09:48:54</time>
			</trkpt>
			<trkpt lat="48.849899992346764" lon="3.135889917612076">
				<ele>134.0</ele>
				<time>2021-02-25T09:49:01</time>
			</trkpt>
			<trkpt lat="48.849579971283674" lon="3.1353999953716993">
				<ele>135.0</ele>
				<time>2021-02-25T09:49:09</time>
			</trkpt>
			<trkpt lat="48.84957971982658" lon="3.135399743914604">
				<ele>135.0</ele>
				<time>2021-02-25T09:49:09</time>
			</trkpt>
			<trkpt lat="48.84919993579388" lon="3.1349999271333218">
				<ele>136.0</ele>
				<time>2021-02-25T09:49:17</time>
			</trkpt>
			<trkpt lat="48.84903992526233" lon="3.134879982098937">
				<ele>137.0</ele>
				<time>2021-02-25T09:49:20</time>
			</trkpt>
			<trkpt lat="48.848189916461706" lon="3.1345399282872677">
				<ele>137.0</ele>
				<time>2021-02-25T09:49:36</time>
			</trkpt>
			<trkpt lat="48.84780996479094" lon="3.1342699471861124">
				<ele>135.0</ele>
				<time>2021-02-25T09:49:43</time>
			</trkpt>
			<trkpt lat="48.84747996926308" lon="3.1338999699801207">
				<ele>134.0</ele>
				<time>2021-02-25T09:49:50</time>
			</trkpt>
			<trkpt lat="48.84711996652186" lon="3.1333499494940042">
				<ele>134.0</ele>
				<time>2021-02-25T09:49:59</time>
			</trkpt>
			<trkpt lat="48.84696993045509" lon="3.1330399867147207">
				<ele>135.0</ele>
				<time>2021-02-25T09:50:04</time>
			</trkpt>
			<trkpt lat="48.84611992165446" lon="3.130829930305481">
				<ele>136.0</ele>
				<time>2021-02-25T09:50:33</time>
			</trkpt>
			<trkpt lat="48.84574994444847" lon="3.1300999503582716">
				<ele>138.0</ele>
				<time>2021-02-25T09:50:43</time>
			</trkpt>
			<trkpt lat="48.84542992338538" lon="3.1294599920511246">
				<ele>138.0</ele>
				<time>2021-02-25T09:50:53</time>
			</trkpt>
			<trkpt lat="48.84488996118307" lon="3.1280499882996082">
				<ele>138.0</ele>
				<time>2021-02-25T09:51:11</time>
			</trkpt>
			<trkpt lat="48.8447399251163" lon="3.1276199966669083">
				<ele>139.0</ele>
				<time>2021-02-25T09:51:17</time>
			</trkpt>
			<trkpt lat="48.84469994343817" lon="3.127289917320013">
				<ele>139.0</ele>
				<time>2021-02-25T09:51:21</time>
			</trkpt>
			<trkpt lat="48.8447399251163" lon="3.1267399806529284">
				<ele>140.0</ele>
				<time>2021-02-25T09:51:27</time>
			</trkpt>
			<trkpt lat="48.844789965078235" lon="3.1265799701213837">
				<ele>140.0</ele>
				<time>2021-02-25T09:51:29</time>
			</trkpt>
			<trkpt lat="48.84533998556435" lon="3.125339951366186">
				<ele>140.0</ele>
				<time>2021-02-25T09:51:46</time>
			</trkpt>
			<trkpt lat="48.84541994892061" lon="3.124619945883751">
				<ele>142.0</ele>
				<time>2021-02-25T09:51:55</time>
			</trkpt>
			<trkpt lat="48.84548993781209" lon="3.1243099831044674">
				<ele>142.0</ele>
				<time>2021-02-25T09:51:58</time>
			</trkpt>
			<trkpt lat="48.84469994343817" lon="3.1220999266952276">
				<ele>139.0</ele>
				<time>2021-02-25T09:52:27</time>
			</trkpt>
			<trkpt lat="48.84442996233702" lon="3.121159980073571">
				<ele>137.0</ele>
				<time>2021-02-25T09:52:39</time>
			</trkpt>
			<trkpt lat="48.8444499950856" lon="3.1209799367934465">
				<ele>137.0</ele>
				<time>2021-02-25T09:52:41</time>
			</trkpt>
			<trkpt lat="48.84453993290663" lon="3.1207399629056454">
				<ele>137.0</ele>
				<time>2021-02-25T09:52:44</time>
			</trkpt>
			<trkpt lat="48.84475995786488" lon="3.120499989017844">
				<ele>137.0</ele>
				<time>2021-02-25T09:52:49</time>
			</trkpt>
			<trkpt lat="48.84493991732597" lon="3.120179967954755">
				<ele>137.0</ele>
				<time>2021-02-25T09:52:54</time>
			</trkpt>
			<trkpt lat="48.845089953392744" lon="3.119559958577156">
				<ele>135.0</ele>
				<time>2021-02-25T09:53:01</time>
			</trkpt>
			<trkpt lat="48.845069920644164" lon="3.119049919769168">
				<ele>135.0</ele>
				<time>2021-02-25T09:53:07</time>
			</trkpt>
			<trkpt lat="48.84481997229159" lon="3.1179399881511927">
				<ele>133.0</ele>
				<time>2021-02-25T09:53:21</time>
			</trkpt>
			<trkpt lat="48.844679994508624" lon="3.1170599721372128">
				<ele>131.0</ele>
				<time>2021-02-25T09:53:31</time>
			</trkpt>
			<trkpt lat="48.84450992569327" lon="3.115499932318926">
				<ele>129.0</ele>
				<time>2021-02-25T09:53:49</time>
			</trkpt>
			<trkpt lat="48.844469944015145" lon="3.114429982379079">
				<ele>126.0</ele>
				<time>2021-02-25T09:54:01</time>
			</trkpt>
			<trkpt lat="48.84501996450126" lon="3.111099936068058">
				<ele>131.0</ele>
				<time>2021-02-25T09:54:41</time>
			</trkpt>
			<trkpt lat="48.845199923962355" lon="3.1105999555438757">
				<ele>132.0</ele>
				<time>2021-02-25T09:54:47</time>
			</trkpt>
			<trkpt lat="48.845539977774024" lon="3.1100899167358875">
				<ele>132.0</ele>
				<time>2021-02-25T09:54:55</time>
			</trkpt>
			<trkpt lat="48.84563997387886" lon="3.1098499428480864">
				<ele>134.0</ele>
				<time>2021-02-25T09:54:59</time>
			</trkpt>
			<trkpt lat="48.84568993002176" lon="3.1096599251031876">
				<ele>135.0</ele>
				<time>2021-02-25T09:55:01</time>
			</trkpt>
			<trkpt lat="48.84568993002176" lon="3.109089955687523">
				<ele>136.0</ele>
				<time>2021-02-25T09:55:08</time>
			</trkpt>
			<trkpt lat="48.84561994113028" lon="3.108219997957349">
				<ele>134.0</ele>
				<time>2021-02-25T09:55:18</time>
			</trkpt>
			<trkpt lat="48.84550997056067" lon="3.1075299996882677">
				<ele>135.0</ele>
				<time>2021-02-25T09:55:26</time>
			</trkpt>
			<trkpt lat="48.845029938966036" lon="3.106679990887642">
				<ele>135.0</ele>
				<time>2021-02-25T09:55:39</time>
			</trkpt>
			<trkpt lat="48.84495995007455" lon="3.1064199842512608">
				<ele>135.0</ele>
				<time>2021-02-25T09:55:42</time>
			</trkpt>
			<trkpt lat="48.844789965078235" lon="3.104449985548854">
				<ele>137.0</ele>
				<time>2021-02-25T09:56:05</time>
			</trkpt>
			<trkpt lat="48.844809997826815" lon="3.1034699734300375">
				<ele>138.0</ele>
				<time>2021-02-25T09:56:16</time>
			</trkpt>
			<trkpt lat="48.84477999061346" lon="3.1030699890106916">
				<ele>138.0</ele>
				<time>2021-02-25T09:56:20</time>
			</trkpt>
			<trkpt lat="48.844639929011464" lon="3.102689953520894">
				<ele>138.0</ele>
				<time>2021-02-25T09:56:25</time>
			</trkpt>
			<trkpt lat="48.844169955700636" lon="3.1020899768918753">
				<ele>135.0</ele>
				<time>2021-02-25T09:56:36</time>
			</trkpt>
			<trkpt lat="48.84404992684722" lon="3.101829970255494">
				<ele>135.0</ele>
				<time>2021-02-25T09:56:40</time>
			</trkpt>
			<trkpt lat="48.843309972435236" lon="3.0972199235111475">
				<ele>137.0</ele>
				<time>2021-02-25T09:57:34</time>
			</trkpt>
			<trkpt lat="48.843199918046594" lon="3.096419954672456">
				<ele>140.0</ele>
				<time>2021-02-25T09:57:43</time>
			</trkpt>
			<trkpt lat="48.84314996190369" lon="3.0957099236547947">
				<ele>139.0</ele>
				<time>2021-02-25T09:57:52</time>
			</trkpt>
			<trkpt lat="48.8432099763304" lon="3.095379928126931">
				<ele>139.0</ele>
				<time>2021-02-25T09:57:55</time>
			</trkpt>
			<trkpt lat="48.843689924106" lon="3.0936399288475513">
				<ele>138.0</ele>
				<time>2021-02-25T09:58:17</time>
			</trkpt>
			<trkpt lat="48.84295994415879" lon="3.0908099468797445">
				<ele>129.0</ele>
				<time>2021-02-25T09:58:52</time>
			</trkpt>
			<trkpt lat="48.842899929732084" lon="3.0904099624603987">
				<ele>128.0</ele>
				<time>2021-02-25T09:58:57</time>
			</trkpt>
			<trkpt lat="48.843159936368465" lon="3.0892299581319094">
				<ele>122.0</ele>
				<time>2021-02-25T09:59:11</time>
			</trkpt>
			<trkpt lat="48.84351993910968" lon="3.0883199349045753">
				<ele>127.0</ele>
				<time>2021-02-25T09:59:23</time>
			</trkpt>
			<trkpt lat="48.843589928001165" lon="3.08804995380342">
				<ele>127.0</ele>
				<time>2021-02-25T09:59:26</time>
			</trkpt>
			<trkpt lat="48.84421999566257" lon="3.0863399617373943">
				<ele>123.0</ele>
				<time>2021-02-25T09:59:49</time>
			</trkpt>
			<trkpt lat="48.84460992179811" lon="3.0855099856853485">
				<ele>126.0</ele>
				<time>2021-02-25T10:00:00</time>
			</trkpt>
			<trkpt lat="48.845109986141324" lon="3.0841999780386686">
				<ele>129.0</ele>
				<time>2021-02-25T10:00:18</time>
			</trkpt>
			<trkpt lat="48.84527997113764" lon="3.0833099875599146">
				<ele>127.0</ele>
				<time>2021-02-25T10:00:28</time>
			</trkpt>
			<trkpt lat="48.84572999551892" lon="3.0803099367767572">
				<ele>126.0</ele>
				<time>2021-02-25T10:01:04</time>
			</trkpt>
			<trkpt lat="48.845799984410405" lon="3.08009997010231">
				<ele>126.0</ele>
				<time>2021-02-25T10:01:06</time>
			</trkpt>
			<trkpt lat="48.84656994603574" lon="3.0796999856829643">
				<ele>125.0</ele>
				<time>2021-02-25T10:01:21</time>
			</trkpt>
			<trkpt lat="48.84686993435025" lon="3.079399997368455">
				<ele>126.0</ele>
				<time>2021-02-25T10:01:27</time>
			</trkpt>
			<trkpt lat="48.84711996652186" lon="3.0792199540883303">
				<ele>127.0</ele>
				<time>2021-02-25T10:01:32</time>
			</trkpt>
			<trkpt lat="48.847409980371594" lon="3.079119957983494">
				<ele>128.0</ele>
				<time>2021-02-25T10:01:37</time>
			</trkpt>
			<trkpt lat="48.84780996479094" lon="3.079129932448268">
				<ele>132.0</ele>
				<time>2021-02-25T10:01:44</time>
			</trkpt>
			<trkpt lat="48.84793996810913" lon="3.0790799763053656">
				<ele>133.0</ele>
				<time>2021-02-25T10:01:46</time>
			</trkpt>
			<trkpt lat="48.848589984700084" lon="3.078269949182868">
				<ele>129.0</ele>
				<time>2021-02-25T10:02:01</time>
			</trkpt>
			<trkpt lat="48.849859926849604" lon="3.0766199715435505">
				<ele>132.0</ele>
				<time>2021-02-25T10:02:30</time>
			</trkpt>
			<trkpt lat="48.85014994069934" lon="3.0763699393719435">
				<ele>135.0</ele>
				<time>2021-02-25T10:02:36</time>
			</trkpt>
			<trkpt lat="48.85074991732836" lon="3.0754899233579636">
				<ele>134.0</ele>
				<time>2021-02-25T10:02:50</time>
			</trkpt>
			<trkpt lat="48.85091998614371" lon="3.07517996057868">
				<ele>133.0</ele>
				<time>2021-02-25T10:02:55</time>
			</trkpt>
			<trkpt lat="48.85098997503519" lon="3.074739994481206">
				<ele>132.0</ele>
				<time>2021-02-25T10:03:00</time>
			</trkpt>
			<trkpt lat="48.850979916751385" lon="3.074279995635152">
				<ele>133.0</ele>
				<time>2021-02-25T10:03:05</time>
			</trkpt>
			<trkpt lat="48.85083993896842" lon="3.073179954662919">
				<ele>135.0</ele>
				<time>2021-02-25T10:03:18</time>
			</trkpt>
			<trkpt lat="48.850869946181774" lon="3.072549970820546">
				<ele>137.0</ele>
				<time>2021-02-25T10:03:25</time>
			</trkpt>
			<trkpt lat="48.85098997503519" lon="3.071689987555146">
				<ele>137.0</ele>
				<time>2021-02-25T10:03:35</time>
			</trkpt>
			<trkpt lat="48.850979916751385" lon="3.071199981495738">
				<ele>137.0</ele>
				<time>2021-02-25T10:03:41</time>
			</trkpt>
			<trkpt lat="48.850849997252226" lon="3.069349927827716">
				<ele>138.0</ele>
				<time>2021-02-25T10:04:02</time>
			</trkpt>
			<trkpt lat="48.85064992122352" lon="3.0684199556708336">
				<ele>139.0</ele>
				<time>2021-02-25T10:04:13</time>
			</trkpt>
			<trkpt lat="48.850549925118685" lon="3.0676699429750443">
				<ele>139.0</ele>
				<time>2021-02-25T10:04:22</time>
			</trkpt>
			<trkpt lat="48.85055998340249" lon="3.0670399591326714">
				<ele>139.0</ele>
				<time>2021-02-25T10:04:29</time>
			</trkpt>
			<trkpt lat="48.85068998672068" lon="3.0658999364823103">
				<ele>142.0</ele>
				<time>2021-02-25T10:04:43</time>
			</trkpt>
			<trkpt lat="48.850739942863584" lon="3.064769972115755">
				<ele>139.0</ele>
				<time>2021-02-25T10:04:56</time>
			</trkpt>
			<trkpt lat="48.850719993934035" lon="3.0628399550914764">
				<ele>142.0</ele>
				<time>2021-02-25T10:05:18</time>
			</trkpt>
			<trkpt lat="48.85034993290901" lon="3.060729978606105">
				<ele>142.0</ele>
				<time>2021-02-25T10:05:43</time>
			</trkpt>
			<trkpt lat="48.85033995844424" lon="3.060329994186759">
				<ele>142.0</ele>
				<time>2021-02-25T10:05:47</time>
			</trkpt>
			<trkpt lat="48.85038999840617" lon="3.059909977018833">
				<ele>142.0</ele>
				<time>2021-02-25T10:05:52</time>
			</trkpt>
			<trkpt lat="48.85046996176243" lon="3.0595799814909697">
				<ele>141.0</ele>
				<time>2021-02-25T10:05:56</time>
			</trkpt>
			<trkpt lat="48.85091998614371" lon="3.058509947732091">
				<ele>140.0</ele>
				<time>2021-02-25T10:06:11</time>
			</trkpt>
			<trkpt lat="48.851149985566735" lon="3.057829923927784">
				<ele>142.0</ele>
				<time>2021-02-25T10:06:20</time>
			</trkpt>
			<trkpt lat="48.851279988884926" lon="3.057159958407283">
				<ele>142.0</ele>
				<time>2021-02-25T10:06:28</time>
			</trkpt>
			<trkpt lat="48.85156991891563" lon="3.055169926956296">
				<ele>140.0</ele>
				<time>2021-02-25T10:06:51</time>
			</trkpt>
			<trkpt lat="48.851709980517626" lon="3.054559975862503">
				<ele>141.0</ele>
				<time>2021-02-25T10:06:58</time>
			</trkpt>
			<trkpt lat="48.85194995440543" lon="3.0537299998104572">
				<ele>141.0</ele>
				<time>2021-02-25T10:07:09</time>
			</trkpt>
			<trkpt lat="48.85240995325148" lon="3.0523799266666174">
				<ele>141.0</ele>
				<time>2021-02-25T10:07:26</time>
			</trkpt>
			<trkpt lat="48.85279996320605" lon="3.0508999340236187">
				<ele>142.0</ele>
				<time>2021-02-25T10:07:44</time>
			</trkpt>
			<trkpt lat="48.85290993377566" lon="3.0501899868249893">
				<ele>142.0</ele>
				<time>2021-02-25T10:07:53</time>
			</trkpt>
			<trkpt lat="48.852999955415726" lon="3.049019956961274">
				<ele>143.0</ele>
				<time>2021-02-25T10:08:06</time>
			</trkpt>
			<trkpt lat="48.853039937093854" lon="3.045269977301359">
				<ele>145.0</ele>
				<time>2021-02-25T10:08:49</time>
			</trkpt>
			<trkpt lat="48.85308997705579" lon="3.0444399174302816">
				<ele>145.0</ele>
				<time>2021-02-25T10:08:59</time>
			</trkpt>
			<trkpt lat="48.85325996205211" lon="3.043699963018298">
				<ele>146.0</ele>
				<time>2021-02-25T10:09:08</time>
			</trkpt>
			<trkpt lat="48.853489961475134" lon="3.0429399758577347">
				<ele>147.0</ele>
				<time>2021-02-25T10:09:17</time>
			</trkpt>
			<trkpt lat="48.85380998253822" lon="3.042339999228716">
				<ele>147.0</ele>
				<time>2021-02-25T10:09:26</time>
			</trkpt>
			<trkpt lat="48.853859938681126" lon="3.042179988697171">
				<ele>147.0</ele>
				<time>2021-02-25T10:09:28</time>
			</trkpt>
			<trkpt lat="48.853019988164306" lon="3.04187991656363">
				<ele>146.0</ele>
				<time>2021-02-25T10:09:43</time>
			</trkpt>
			<trkpt lat="48.852699967101216" lon="3.041699957102537">
				<ele>146.0</ele>
				<time>2021-02-25T10:09:49</time>
			</trkpt>
			<trkpt lat="48.852269975468516" lon="3.041269965469837">
				<ele>147.0</ele>
				<time>2021-02-25T10:09:58</time>
			</trkpt>
			<trkpt lat="48.851299937814474" lon="3.040069928392768">
				<ele>145.0</ele>
				<time>2021-02-25T10:10:20</time>
			</trkpt>
			<trkpt lat="48.849069932475686" lon="3.037379924207926">
				<ele>146.0</ele>
				<time>2021-02-25T10:11:09</time>
			</trkpt>
			<trkpt lat="48.84376997128129" lon="3.031279994174838">
				<ele>133.0</ele>
				<time>2021-02-25T10:13:05</time>
			</trkpt>
			<trkpt lat="48.84185998700559" lon="3.028589989989996">
				<ele>133.0</ele>
				<time>2021-02-25T10:13:50</time>
			</trkpt>
			<trkpt lat="48.84165999479592" lon="3.0284599866718054">
				<ele>135.0</ele>
				<time>2021-02-25T10:13:54</time>
			</trkpt>
			<trkpt lat="48.84185998700559" lon="3.027709973976016">
				<ele>133.0</ele>
				<time>2021-02-25T10:14:03</time>
			</trkpt>
			<trkpt lat="48.84187993593514" lon="3.0273799784481525">
				<ele>134.0</ele>
				<time>2021-02-25T10:14:07</time>
			</trkpt>
			<trkpt lat="48.841759990900755" lon="3.026989968493581">
				<ele>134.0</ele>
				<time>2021-02-25T10:14:12</time>
			</trkpt>
			<trkpt lat="48.84150995872915" lon="3.0265299696475267">
				<ele>134.0</ele>
				<time>2021-02-25T10:14:19</time>
			</trkpt>
			<trkpt lat="48.84150995872915" lon="3.0262399557977915">
				<ele>133.0</ele>
				<time>2021-02-25T10:14:22</time>
			</trkpt>
			<trkpt lat="48.84267998859286" lon="3.0240899976342916">
				<ele>138.0</ele>
				<time>2021-02-25T10:14:54</time>
			</trkpt>
			<trkpt lat="48.84283999912441" lon="3.023709962144494">
				<ele>138.0</ele>
				<time>2021-02-25T10:14:59</time>
			</trkpt>
			<trkpt lat="48.84298995137215" lon="3.0227499827742577">
				<ele>139.0</ele>
				<time>2021-02-25T10:15:11</time>
			</trkpt>
			<trkpt lat="48.84346998296678" lon="3.0202199891209602">
				<ele>140.0</ele>
				<time>2021-02-25T10:15:41</time>
			</trkpt>
			<trkpt lat="48.84352999739349" lon="3.019229918718338">
				<ele>136.0</ele>
				<time>2021-02-25T10:15:52</time>
			</trkpt>
			<trkpt lat="48.84361993521452" lon="3.019009977579117">
				<ele>135.0</ele>
				<time>2021-02-25T10:15:55</time>
			</trkpt>
			<trkpt lat="48.84374993853271" lon="3.0189399886876345">
				<ele>135.0</ele>
				<time>2021-02-25T10:15:58</time>
			</trkpt>
			<trkpt lat="48.84417993016541" lon="3.0188999231904745">
				<ele>135.0</ele>
				<time>2021-02-25T10:16:05</time>
			</trkpt>
			<trkpt lat="48.854309963062406" lon="3.018419975414872">
				<ele>142.0</ele>
				<time>2021-02-25T10:19:02</time>
			</trkpt>
			<trkpt lat="48.85431004688144" lon="3.0184198915958405">
				<ele>142.0</ele>
				<time>2021-02-25T10:19:02</time>
			</trkpt>
			<trkpt lat="48.85459997691214" lon="3.018369935452938">
				<ele>144.0</ele>
				<time>2021-02-25T10:19:07</time>
			</trkpt>
			<trkpt lat="48.854739954695106" lon="3.0182899720966816">
				<ele>145.0</ele>
				<time>2021-02-25T10:19:09</time>
			</trkpt>
			<trkpt lat="48.855039943009615" lon="3.017939943820238">
				<ele>148.0</ele>
				<time>2021-02-25T10:19:16</time>
			</trkpt>
			<trkpt lat="48.85744999162853" lon="3.0136399436742067">
				<ele>152.0</ele>
				<time>2021-02-25T10:20:21</time>
			</trkpt>
			<trkpt lat="48.864189963787794" lon="3.00199999473989">
				<ele>148.0</ele>
				<time>2021-02-25T10:23:18</time>
			</trkpt>
			<trkpt lat="48.86417998932302" lon="3.0011599604040384">
				<ele>147.0</ele>
				<time>2021-02-25T10:23:28</time>
			</trkpt>
			<trkpt lat="48.86417998932302" lon="3.0005399510264397">
				<ele>146.0</ele>
				<time>2021-02-25T10:23:35</time>
			</trkpt>
			<trkpt lat="48.864129949361086" lon="3.0003299843519926">
				<ele>146.0</ele>
				<time>2021-02-25T10:23:37</time>
			</trkpt>
			<trkpt lat="48.86404998600483" lon="3.000199981033802">
				<ele>146.0</ele>
				<time>2021-02-25T10:23:39</time>
			</trkpt>
			<trkpt lat="48.86376994661987" lon="2.9997899383306503">
				<ele>145.0</ele>
				<time>2021-02-25T10:23:46</time>
			</trkpt>
			<trkpt lat="48.86363994330168" lon="2.9996799677610397">
				<ele>144.0</ele>
				<time>2021-02-25T10:23:49</time>
			</trkpt>
			<trkpt lat="48.86309998109937" lon="2.9994099866598845">
				<ele>144.0</ele>
				<time>2021-02-25T10:23:59</time>
			</trkpt>
			<trkpt lat="48.86299998499453" lon="2.999299932271242">
				<ele>145.0</ele>
				<time>2021-02-25T10:24:01</time>
			</trkpt>
			<trkpt lat="48.862469997256994" lon="2.998399967327714">
				<ele>147.0</ele>
				<time>2021-02-25T10:24:15</time>
			</trkpt>
			<trkpt lat="48.86269999668002" lon="2.997719943523407">
				<ele>148.0</ele>
				<time>2021-02-25T10:24:23</time>
			</trkpt>
			<trkpt lat="48.86273997835815" lon="2.9973999224603176">
				<ele>148.0</ele>
				<time>2021-02-25T10:24:27</time>
			</trkpt>
			<trkpt lat="48.86271994560957" lon="2.991249952465296">
				<ele>142.0</ele>
				<time>2021-02-25T10:25:38</time>
			</trkpt>
			<trkpt lat="48.86256999336183" lon="2.9907199647277594">
				<ele>140.0</ele>
				<time>2021-02-25T10:25:44</time>
			</trkpt>
			<trkpt lat="48.86243999004364" lon="2.990449983626604">
				<ele>138.0</ele>
				<time>2021-02-25T10:25:48</time>
			</trkpt>
			<trkpt lat="48.86239992454648" lon="2.9895799420773983">
				<ele>137.0</ele>
				<time>2021-02-25T10:25:58</time>
			</trkpt>
			<trkpt lat="48.86250997893512" lon="2.988399937748909">
				<ele>141.0</ele>
				<time>2021-02-25T10:26:12</time>
			</trkpt>
			<trkpt lat="48.862469997256994" lon="2.9864899534732103">
				<ele>144.0</ele>
				<time>2021-02-25T10:26:33</time>
			</trkpt>
			<trkpt lat="48.8625199533999" lon="2.9843299370259047">
				<ele>142.0</ele>
				<time>2021-02-25T10:26:58</time>
			</trkpt>
			<trkpt lat="48.86278993450105" lon="2.9822699166834354">
				<ele>142.0</ele>
				<time>2021-02-25T10:27:22</time>
			</trkpt>
			<trkpt lat="48.86307994835079" lon="2.981019923463464">
				<ele>144.0</ele>
				<time>2021-02-25T10:27:37</time>
			</trkpt>
			<trkpt lat="48.86333995498717" lon="2.979589970782399">
				<ele>145.0</ele>
				<time>2021-02-25T10:27:54</time>
			</trkpt>
			<trkpt lat="48.86389994993806" lon="2.9724799375981092">
				<ele>148.0</ele>
				<time>2021-02-25T10:29:16</time>
			</trkpt>
			<trkpt lat="48.864129949361086" lon="2.9696299228817225">
				<ele>151.0</ele>
				<time>2021-02-25T10:29:49</time>
			</trkpt>
			<trkpt lat="48.86684996075928" lon="2.964029973372817">
				<ele>146.0</ele>
				<time>2021-02-25T10:31:09</time>
			</trkpt>
			<trkpt lat="48.868229957297444" lon="2.9601699393242598">
				<ele>148.0</ele>
				<time>2021-02-25T10:31:59</time>
			</trkpt>
			<trkpt lat="48.86608997359872" lon="2.9550399631261826">
				<ele>150.0</ele>
				<time>2021-02-25T10:33:09</time>
			</trkpt>
			<trkpt lat="48.865999951958656" lon="2.954689934849739">
				<ele>150.0</ele>
				<time>2021-02-25T10:33:13</time>
			</trkpt>
			<trkpt lat="48.86585997417569" lon="2.9539199732244015">
				<ele>150.0</ele>
				<time>2021-02-25T10:33:22</time>
			</trkpt>
			<trkpt lat="48.86544993147254" lon="2.95090994797647">
				<ele>139.0</ele>
				<time>2021-02-25T10:33:57</time>
			</trkpt>
			<trkpt lat="48.86535999365151" lon="2.9488099459558725">
				<ele>135.0</ele>
				<time>2021-02-25T10:34:22</time>
			</trkpt>
			<trkpt lat="48.8644899521023" lon="2.942989971488714">
				<ele>104.0</ele>
				<time>2021-02-25T10:35:30</time>
			</trkpt>
			<trkpt lat="48.864279985427856" lon="2.9419099632650614">
				<ele>103.0</ele>
				<time>2021-02-25T10:35:43</time>
			</trkpt>
			<trkpt lat="48.86397999711335" lon="2.940719984471798">
				<ele>98.0</ele>
				<time>2021-02-25T10:35:57</time>
			</trkpt>
			<trkpt lat="48.863609936088324" lon="2.9394799657166004">
				<ele>98.0</ele>
				<time>2021-02-25T10:36:13</time>
			</trkpt>
			<trkpt lat="48.862429931759834" lon="2.9359299782663584">
				<ele>94.0</ele>
				<time>2021-02-25T10:36:59</time>
			</trkpt>
			<trkpt lat="48.86168997734785" lon="2.933579944074154">
				<ele>94.0</ele>
				<time>2021-02-25T10:37:28</time>
			</trkpt>
			<trkpt lat="48.86082999408245" lon="2.927659973502159">
				<ele>83.0</ele>
				<time>2021-02-25T10:38:38</time>
			</trkpt>
			<trkpt lat="48.86076997965574" lon="2.926139999181032">
				<ele>80.0</ele>
				<time>2021-02-25T10:38:55</time>
			</trkpt>
			<trkpt lat="48.86063997633755" lon="2.925229975953698">
				<ele>79.0</ele>
				<time>2021-02-25T10:39:06</time>
			</trkpt>
			<trkpt lat="48.86044995859265" lon="2.9246999882161617">
				<ele>78.0</ele>
				<time>2021-02-25T10:39:13</time>
			</trkpt>
			<trkpt lat="48.85973992757499" lon="2.9237699322402477">
				<ele>73.0</ele>
				<time>2021-02-25T10:39:29</time>
			</trkpt>
			<trkpt lat="48.859399957582355" lon="2.923199962824583">
				<ele>73.0</ele>
				<time>2021-02-25T10:39:38</time>
			</trkpt>
			<trkpt lat="48.85905998758972" lon="2.9222199507057667">
				<ele>65.0</ele>
				<time>2021-02-25T10:39:51</time>
			</trkpt>
			<trkpt lat="48.85897994041443" lon="2.921679988503456">
				<ele>63.0</ele>
				<time>2021-02-25T10:39:57</time>
			</trkpt>
			<trkpt lat="48.8589399587363" lon="2.9204299952834845">
				<ele>57.0</ele>
				<time>2021-02-25T10:40:11</time>
			</trkpt>
			<trkpt lat="48.858949933201075" lon="2.919619968160987">
				<ele>56.0</ele>
				<time>2021-02-25T10:40:21</time>
			</trkpt>
			<trkpt lat="48.859079936519265" lon="2.918549934402108">
				<ele>57.0</ele>
				<time>2021-02-25T10:40:33</time>
			</trkpt>
			<trkpt lat="48.85908999480307" lon="2.9181899316608906">
				<ele>56.0</ele>
				<time>2021-02-25T10:40:37</time>
			</trkpt>
			<trkpt lat="48.85904992930591" lon="2.9180199466645718">
				<ele>56.0</ele>
				<time>2021-02-25T10:40:39</time>
			</trkpt>
			<trkpt lat="48.85940993204713" lon="2.9159699846059084">
				<ele>58.0</ele>
				<time>2021-02-25T10:41:03</time>
			</trkpt>
			<trkpt lat="48.859529960900545" lon="2.9146199952811003">
				<ele>56.0</ele>
				<time>2021-02-25T10:41:19</time>
			</trkpt>
			<trkpt lat="48.85961998254061" lon="2.9102099407464266">
				<ele>53.0</ele>
				<time>2021-02-25T10:42:10</time>
			</trkpt>
			<trkpt lat="48.85973992757499" lon="2.906979974359274">
				<ele>53.0</ele>
				<time>2021-02-25T10:42:47</time>
			</trkpt>
			<trkpt lat="48.858839962631464" lon="2.9071699921041727">
				<ele>51.0</ele>
				<time>2021-02-25T10:43:02</time>
			</trkpt>
			<trkpt lat="48.858239986002445" lon="2.907229922711849">
				<ele>51.0</ele>
				<time>2021-02-25T10:43:13</time>
			</trkpt>
			<trkpt lat="48.85824996046722" lon="2.9070799704641104">
				<ele>51.0</ele>
				<time>2021-02-25T10:43:15</time>
			</trkpt>
			<trkpt lat="48.85794988833368" lon="2.906899843364954">
				<ele>50.0</ele>
				<time>2021-02-25T10:43:20</time>
			</trkpt>
		</trkseg>
	</trk>
</gpx>
