<?xml version="1.0" encoding="UTF-8"?>
<gpx creator="Garmin Connect" version="1.1" schemaLocation="http://www.topografix.com/GPX/1/1 http://www.topografix.com/GPX/11.xsd" xmlns="http://www.topografix.com/GPX/1/1" xmlns:xsi="http://www.w3.org/2001/XMLSchema-instance" xsi:schemaLocation="http://www.topografix.com/GPX/1/1 http://www.topografix.com/GPX/1/1/gpx.xsd http://www.garmin.com/xmlschemas/GpxExtensions/v3 http://www.garmin.com/xmlschemas/GpxExtensionsv3.xsd http://www.garmin.com/xmlschemas/TrackPointExtension/v1 http://www.garmin.com/xmlschemas/TrackPointExtensionv1.xsd http://www.garmin.com/xmlschemas/PowerExtension/v1 http://www.garmin.com/xmlschemas/PowerExtensionv1.xsd http://www.topografix.com/GPX/gpx_style/0/2 http://www.topografix.com/GPX/gpx_style/0/2/gpx_style.xsd" xmlns:gpxtpx="http://www.garmin.com/xmlschemas/TrackPointExtension/v1" xmlns:gpxx="http://www.garmin.com/xmlschemas/GpxExtensions/v3" xmlns:gpxpx="http://www.garmin.com/xmlschemas/PowerExtension/v1" xmlns:gpx_style="http://www.topografix.com/GPX/gpx_style/0/2">
  <metadata>
    <name>202-G2-75 km-D 621 m-Ru de Vrou</name>
    <author>
      <name>gpx.studio</name>
      <link href="https://gpx.studio"/>
    </author>
    <link href="connect.garmin.com">
      <text>Garmin Connect</text>
    </link>
    <time>2013-07-12T15:15:06.000Z</time>
  </metadata>
  <trk>
    <name>202-G2-75 km-D 621 m-Ru de Vrou</name>
    <trkseg>
      <trkpt lat="48.85790999047458" lon="2.90688986890018">
        <ele>49</ele>
        <time>2013-07-12T15:15:06.000Z</time>
      </trkpt>
      <trkpt lat="48.85824987664819" lon="2.9070798866450787">
        <ele>49</ele>
        <time>2013-07-12T15:15:06.006Z</time>
      </trkpt>
      <trkpt lat="48.85823990218341" lon="2.907229922711849">
        <ele>49</ele>
        <time>2013-07-12T15:15:06.013Z</time>
      </trkpt>
      <trkpt lat="48.8591299764812" lon="2.9071199521422386">
        <ele>51</ele>
        <time>2013-07-12T15:15:06.035Z</time>
      </trkpt>
      <trkpt lat="48.85987998917699" lon="2.90692993439734">
        <ele>52</ele>
        <time>2013-07-12T15:15:06.069Z</time>
      </trkpt>
      <trkpt lat="48.861209861934185" lon="2.906129965558648">
        <ele>59</ele>
        <time>2013-07-12T15:15:06.126Z</time>
      </trkpt>
      <trkpt lat="48.8623798917979" lon="2.897809837013483">
        <ele>64</ele>
        <time>2013-07-12T15:15:06.273Z</time>
      </trkpt>
      <trkpt lat="48.86248986236751" lon="2.89594997651875">
        <ele>69</ele>
        <time>2013-07-12T15:15:06.439Z</time>
      </trkpt>
      <trkpt lat="48.86450998485088" lon="2.886789981275797">
        <ele>85</ele>
        <time>2013-07-12T15:15:06.707Z</time>
      </trkpt>
      <trkpt lat="48.8664398342371" lon="2.88391993381083">
        <ele>96</ele>
        <time>2013-07-12T15:15:07.019Z</time>
      </trkpt>
      <trkpt lat="48.86712983250618" lon="2.8833299316465855">
        <ele>97</ele>
        <time>2013-07-12T15:15:07.343Z</time>
      </trkpt>
      <trkpt lat="48.868019990623" lon="2.8829499799758196">
        <ele>95</ele>
        <time>2013-07-12T15:15:07.682Z</time>
      </trkpt>
      <trkpt lat="48.86866983957589" lon="2.882359893992543">
        <ele>97</ele>
        <time>2013-07-12T15:15:08.033Z</time>
      </trkpt>
      <trkpt lat="48.8704598788172" lon="2.8804199025034904">
        <ele>99</ele>
        <time>2013-07-12T15:15:08.420Z</time>
      </trkpt>
      <trkpt lat="48.8717498537153" lon="2.878729859367013">
        <ele>96</ele>
        <time>2013-07-12T15:15:08.834Z</time>
      </trkpt>
      <trkpt lat="48.874307591468096" lon="2.8763000294566154">
        <ele>87.15</ele>
        <time>2013-07-12T15:15:09.296Z</time>
      </trkpt>
      <trkpt lat="48.87434983626008" lon="2.8762599639594555">
        <ele>87</ele>
        <time>2013-07-12T15:15:09.759Z</time>
      </trkpt>
      <trkpt lat="48.87472987174988" lon="2.877879934385419">
        <ele>91</ele>
        <time>2013-07-12T15:15:10.240Z</time>
      </trkpt>
      <trkpt lat="48.87580996379256" lon="2.8796199336647987">
        <ele>93</ele>
        <time>2013-07-12T15:15:10.746Z</time>
      </trkpt>
      <trkpt lat="48.87677991762757" lon="2.883419953286648">
        <ele>93</ele>
        <time>2013-07-12T15:15:11.295Z</time>
      </trkpt>
      <trkpt lat="48.8779198564589" lon="2.886379938572645">
        <ele>96</ele>
        <time>2013-07-12T15:15:11.881Z</time>
      </trkpt>
      <trkpt lat="48.87803996913135" lon="2.890379950404167">
        <ele>90</ele>
        <time>2013-07-12T15:15:12.509Z</time>
      </trkpt>
      <trkpt lat="48.87860985472798" lon="2.8950899094343185">
        <ele>97</ele>
        <time>2013-07-12T15:15:13.188Z</time>
      </trkpt>
      <trkpt lat="48.87826996855438" lon="2.897349838167429">
        <ele>98</ele>
        <time>2013-07-12T15:15:13.891Z</time>
      </trkpt>
      <trkpt lat="48.877859842032194" lon="2.9026299342513084">
        <ele>98</ele>
        <time>2013-07-12T15:15:14.650Z</time>
      </trkpt>
      <trkpt lat="48.87726992368698" lon="2.9047999251633883">
        <ele>98</ele>
        <time>2013-07-12T15:15:15.434Z</time>
      </trkpt>
      <trkpt lat="48.87817986309528" lon="2.90602988563478">
        <ele>94</ele>
        <time>2013-07-12T15:15:16.238Z</time>
      </trkpt>
      <trkpt lat="48.87965985573828" lon="2.9056698828935623">
        <ele>91</ele>
        <time>2013-07-12T15:15:17.066Z</time>
      </trkpt>
      <trkpt lat="48.8806398678571" lon="2.9057399556040764">
        <ele>92</ele>
        <time>2013-07-12T15:15:17.909Z</time>
      </trkpt>
      <trkpt lat="48.88113984838128" lon="2.9059498384594917">
        <ele>94</ele>
        <time>2013-07-12T15:15:18.761Z</time>
      </trkpt>
      <trkpt lat="48.88265999034047" lon="2.907239980995655">
        <ele>98</ele>
        <time>2013-07-12T15:15:19.640Z</time>
      </trkpt>
      <trkpt lat="48.88442991301417" lon="2.9095699824392796">
        <ele>105</ele>
        <time>2013-07-12T15:15:20.557Z</time>
      </trkpt>
      <trkpt lat="48.88475999236107" lon="2.910249838605523">
        <ele>105</ele>
        <time>2013-07-12T15:15:21.483Z</time>
      </trkpt>
      <trkpt lat="48.891179859638214" lon="2.9282698407769203">
        <ele>150</ele>
        <time>2013-07-12T15:15:22.625Z</time>
      </trkpt>
      <trkpt lat="48.890359941869974" lon="2.931549930945039">
        <ele>151</ele>
        <time>2013-07-12T15:15:23.804Z</time>
      </trkpt>
      <trkpt lat="48.891139877960086" lon="2.9323599580675364">
        <ele>152</ele>
        <time>2013-07-12T15:15:24.998Z</time>
      </trkpt>
      <trkpt lat="48.8910199329257" lon="2.934669842943549">
        <ele>152</ele>
        <time>2013-07-12T15:15:26.217Z</time>
      </trkpt>
      <trkpt lat="48.891649916768074" lon="2.9348799772560596">
        <ele>154</ele>
        <time>2013-07-12T15:15:27.446Z</time>
      </trkpt>
      <trkpt lat="48.8923099078238" lon="2.9354599211364985">
        <ele>154</ele>
        <time>2013-07-12T15:15:28.687Z</time>
      </trkpt>
      <trkpt lat="48.894209833815694" lon="2.93930989690125">
        <ele>153</ele>
        <time>2013-07-12T15:15:29.979Z</time>
      </trkpt>
      <trkpt lat="48.89538983814418" lon="2.940839845687151">
        <ele>156</ele>
        <time>2013-07-12T15:15:31.296Z</time>
      </trkpt>
      <trkpt lat="48.89587984420359" lon="2.940499959513545">
        <ele>156</ele>
        <time>2013-07-12T15:15:32.622Z</time>
      </trkpt>
      <trkpt lat="48.89575989916921" lon="2.943569915369153">
        <ele>157</ele>
        <time>2013-07-12T15:15:33.980Z</time>
      </trkpt>
      <trkpt lat="48.896369850263" lon="2.9480999149382114">
        <ele>159</ele>
        <time>2013-07-12T15:15:35.387Z</time>
      </trkpt>
      <trkpt lat="48.89625987969339" lon="2.9485899209976196">
        <ele>158</ele>
        <time>2013-07-12T15:15:36.799Z</time>
      </trkpt>
      <trkpt lat="48.89571991749108" lon="2.949309842661023">
        <ele>158</ele>
        <time>2013-07-12T15:15:38.223Z</time>
      </trkpt>
      <trkpt lat="48.8954599108547" lon="2.9512199945747852">
        <ele>159</ele>
        <time>2013-07-12T15:15:39.667Z</time>
      </trkpt>
      <trkpt lat="48.89556988142431" lon="2.952399915084243">
        <ele>160</ele>
        <time>2013-07-12T15:15:41.124Z</time>
      </trkpt>
      <trkpt lat="48.89621998183429" lon="2.95221995562315">
        <ele>160</ele>
        <time>2013-07-12T15:15:42.592Z</time>
      </trkpt>
      <trkpt lat="48.897689916193485" lon="2.9522498790174723">
        <ele>156</ele>
        <time>2013-07-12T15:15:44.083Z</time>
      </trkpt>
      <trkpt lat="48.89859985560179" lon="2.9531498439610004">
        <ele>154</ele>
        <time>2013-07-12T15:15:45.592Z</time>
      </trkpt>
      <trkpt lat="48.89915985055268" lon="2.954079983755946">
        <ele>153</ele>
        <time>2013-07-12T15:15:47.114Z</time>
      </trkpt>
      <trkpt lat="48.89979997649789" lon="2.954439902678132">
        <ele>151</ele>
        <time>2013-07-12T15:15:48.647Z</time>
      </trkpt>
      <trkpt lat="48.901259852573276" lon="2.9586399905383587">
        <ele>144</ele>
        <time>2013-07-12T15:15:50.230Z</time>
      </trkpt>
      <trkpt lat="48.90161985531449" lon="2.9602799098938704">
        <ele>147</ele>
        <time>2013-07-12T15:15:51.831Z</time>
      </trkpt>
      <trkpt lat="48.906409945338964" lon="2.961129918694496">
        <ele>163</ele>
        <time>2013-07-12T15:15:53.509Z</time>
      </trkpt>
      <trkpt lat="48.90787996351719" lon="2.961799968034029">
        <ele>168</ele>
        <time>2013-07-12T15:15:55.212Z</time>
      </trkpt>
      <trkpt lat="48.90929994173348" lon="2.9620799235999584">
        <ele>167</ele>
        <time>2013-07-12T15:15:56.938Z</time>
      </trkpt>
      <trkpt lat="48.91060994938016" lon="2.9625499807298183">
        <ele>168</ele>
        <time>2013-07-12T15:15:58.686Z</time>
      </trkpt>
      <trkpt lat="48.91323993913829" lon="2.961989985778928">
        <ele>165</ele>
        <time>2013-07-12T15:16:00.476Z</time>
      </trkpt>
      <trkpt lat="48.9135399274528" lon="2.962389886379242">
        <ele>165</ele>
        <time>2013-07-12T15:16:02.272Z</time>
      </trkpt>
      <trkpt lat="48.91397989355028" lon="2.96506991609931">
        <ele>167</ele>
        <time>2013-07-12T15:16:04.098Z</time>
      </trkpt>
      <trkpt lat="48.914879858493805" lon="2.9660798516124487">
        <ele>168</ele>
        <time>2013-07-12T15:16:05.942Z</time>
      </trkpt>
      <trkpt lat="48.915309850126505" lon="2.966439938172698">
        <ele>167</ele>
        <time>2013-07-12T15:16:07.793Z</time>
      </trkpt>
      <trkpt lat="48.91932989470661" lon="2.9683099407702684">
        <ele>156</ele>
        <time>2013-07-12T15:16:09.712Z</time>
      </trkpt>
      <trkpt lat="48.919989969581366" lon="2.9687599651515484">
        <ele>153</ele>
        <time>2013-07-12T15:16:11.642Z</time>
      </trkpt>
      <trkpt lat="48.92081986181438" lon="2.969749951735139">
        <ele>152</ele>
        <time>2013-07-12T15:16:13.589Z</time>
      </trkpt>
      <trkpt lat="48.92108992673457" lon="2.9704799316823483">
        <ele>154</ele>
        <time>2013-07-12T15:16:15.545Z</time>
      </trkpt>
      <trkpt lat="48.92108992673457" lon="2.971929833292961">
        <ele>158</ele>
        <time>2013-07-12T15:16:17.516Z</time>
      </trkpt>
      <trkpt lat="48.921749917790294" lon="2.9762599244713783">
        <ele>142</ele>
        <time>2013-07-12T15:16:19.534Z</time>
      </trkpt>
      <trkpt lat="48.920719949528575" lon="2.978679947555065">
        <ele>141</ele>
        <time>2013-07-12T15:16:21.583Z</time>
      </trkpt>
      <trkpt lat="48.92006984911859" lon="2.9794599674642086">
        <ele>143</ele>
        <time>2013-07-12T15:16:23.645Z</time>
      </trkpt>
      <trkpt lat="48.91885992139578" lon="2.9804598446935415">
        <ele>151</ele>
        <time>2013-07-12T15:16:25.729Z</time>
      </trkpt>
      <trkpt lat="48.91870988532901" lon="2.9808099567890167">
        <ele>152</ele>
        <time>2013-07-12T15:16:27.817Z</time>
      </trkpt>
      <trkpt lat="48.919409941881895" lon="2.9841298609972">
        <ele>161</ele>
        <time>2013-07-12T15:16:29.942Z</time>
      </trkpt>
      <trkpt lat="48.920159954577684" lon="2.9889699909836054">
        <ele>164</ele>
        <time>2013-07-12T15:16:32.120Z</time>
      </trkpt>
      <trkpt lat="48.92016992904246" lon="2.991509959101677">
        <ele>163</ele>
        <time>2013-07-12T15:16:34.324Z</time>
      </trkpt>
      <trkpt lat="48.92040998674929" lon="2.993259849026799">
        <ele>162</ele>
        <time>2013-07-12T15:16:36.547Z</time>
      </trkpt>
      <trkpt lat="48.923619920387864" lon="3.004309879615903">
        <ele>165</ele>
        <time>2013-07-12T15:16:38.898Z</time>
      </trkpt>
      <trkpt lat="48.9245299436152" lon="3.003349984064698">
        <ele>165</ele>
        <time>2013-07-12T15:16:41.267Z</time>
      </trkpt>
      <trkpt lat="48.92579988576472" lon="3.001499930396676">
        <ele>165</ele>
        <time>2013-07-12T15:16:43.664Z</time>
      </trkpt>
      <trkpt lat="48.92719999887049" lon="3.004259839653969">
        <ele>162</ele>
        <time>2013-07-12T15:16:46.097Z</time>
      </trkpt>
      <trkpt lat="48.93061989918351" lon="3.0095499102026224">
        <ele>169</ele>
        <time>2013-07-12T15:16:48.609Z</time>
      </trkpt>
      <trkpt lat="48.93089993856847" lon="3.009679913520813">
        <ele>170</ele>
        <time>2013-07-12T15:16:51.125Z</time>
      </trkpt>
      <trkpt lat="48.93189998343587" lon="3.0093098524957895">
        <ele>171</ele>
        <time>2013-07-12T15:16:53.658Z</time>
      </trkpt>
      <trkpt lat="48.93345985561609" lon="3.01125998608768">
        <ele>168</ele>
        <time>2013-07-12T15:16:56.223Z</time>
      </trkpt>
      <trkpt lat="48.93621984869242" lon="3.0130698904395103">
        <ele>158</ele>
        <time>2013-07-12T15:16:58.836Z</time>
      </trkpt>
      <trkpt lat="48.939569843932986" lon="3.0146299302577972">
        <ele>150</ele>
        <time>2013-07-12T15:17:01.505Z</time>
      </trkpt>
      <trkpt lat="48.94059997983277" lon="3.0148999113589525">
        <ele>148</ele>
        <time>2013-07-12T15:17:04.191Z</time>
      </trkpt>
      <trkpt lat="48.94015992991626" lon="3.0168599355965853">
        <ele>149</ele>
        <time>2013-07-12T15:17:06.899Z</time>
      </trkpt>
      <trkpt lat="48.93991995602846" lon="3.0192598421126604">
        <ele>154</ele>
        <time>2013-07-12T15:17:09.633Z</time>
      </trkpt>
      <trkpt lat="48.940079882740974" lon="3.019739957526326">
        <ele>154</ele>
        <time>2013-07-12T15:17:12.372Z</time>
      </trkpt>
      <trkpt lat="48.94056988880038" lon="3.020099876448512">
        <ele>153</ele>
        <time>2013-07-12T15:17:15.120Z</time>
      </trkpt>
      <trkpt lat="48.940959982573986" lon="3.0207099951803684">
        <ele>153</ele>
        <time>2013-07-12T15:17:17.877Z</time>
      </trkpt>
      <trkpt lat="48.94148988649249" lon="3.02275987342">
        <ele>157</ele>
        <time>2013-07-12T15:17:20.657Z</time>
      </trkpt>
      <trkpt lat="48.941822396591306" lon="3.0229223985224962">
        <ele>156.26</ele>
        <time>2013-07-12T15:17:23.443Z</time>
      </trkpt>
      <trkpt lat="48.9419399946928" lon="3.022979898378253">
        <ele>156</ele>
        <time>2013-07-12T15:17:26.231Z</time>
      </trkpt>
      <trkpt lat="48.94204988144338" lon="3.023219956085086">
        <ele>156</ele>
        <time>2013-07-12T15:17:29.022Z</time>
      </trkpt>
      <trkpt lat="48.94189984537661" lon="3.0272998474538326">
        <ele>149</ele>
        <time>2013-07-12T15:17:31.856Z</time>
      </trkpt>
      <trkpt lat="48.9413099270314" lon="3.0273399129509926">
        <ele>146</ele>
        <time>2013-07-12T15:17:34.699Z</time>
      </trkpt>
      <trkpt lat="48.94041985273361" lon="3.0271299462765455">
        <ele>146</ele>
        <time>2013-07-12T15:17:37.557Z</time>
      </trkpt>
      <trkpt lat="48.940059849992394" lon="3.0280099622905254">
        <ele>141</ele>
        <time>2013-07-12T15:17:40.426Z</time>
      </trkpt>
      <trkpt lat="48.93973999656737" lon="3.0282398778945208">
        <ele>141</ele>
        <time>2013-07-12T15:17:43.300Z</time>
      </trkpt>
      <trkpt lat="48.937909891828895" lon="3.0278199445456266">
        <ele>150</ele>
        <time>2013-07-12T15:17:46.204Z</time>
      </trkpt>
      <trkpt lat="48.93658999353647" lon="3.027259949594736">
        <ele>156</ele>
        <time>2013-07-12T15:17:49.130Z</time>
      </trkpt>
      <trkpt lat="48.9349499065429" lon="3.026969851925969">
        <ele>157</ele>
        <time>2013-07-12T15:17:52.082Z</time>
      </trkpt>
      <trkpt lat="48.93333991058171" lon="3.029139842838049">
        <ele>157</ele>
        <time>2013-07-12T15:17:55.069Z</time>
      </trkpt>
      <trkpt lat="48.932909835129976" lon="3.031709985807538">
        <ele>161</ele>
        <time>2013-07-12T15:17:58.084Z</time>
      </trkpt>
      <trkpt lat="48.93278989009559" lon="3.036429835483432">
        <ele>163</ele>
        <time>2013-07-12T15:18:01.149Z</time>
      </trkpt>
      <trkpt lat="48.93194993957877" lon="3.0395398568361998">
        <ele>161</ele>
        <time>2013-07-12T15:18:04.249Z</time>
      </trkpt>
      <trkpt lat="48.9311798941344" lon="3.04402987472713">
        <ele>163</ele>
        <time>2013-07-12T15:18:07.398Z</time>
      </trkpt>
      <trkpt lat="48.93142984248698" lon="3.0466399993747473">
        <ele>159</ele>
        <time>2013-07-12T15:18:10.575Z</time>
      </trkpt>
      <trkpt lat="48.93133998848498" lon="3.0488799791783094">
        <ele>155</ele>
        <time>2013-07-12T15:18:13.776Z</time>
      </trkpt>
      <trkpt lat="48.930759876966476" lon="3.0513098929077387">
        <ele>147</ele>
        <time>2013-07-12T15:18:17.004Z</time>
      </trkpt>
      <trkpt lat="48.930279929190874" lon="3.05513983592391">
        <ele>132</ele>
        <time>2013-07-12T15:18:20.273Z</time>
      </trkpt>
      <trkpt lat="48.92979998141527" lon="3.057179907336831">
        <ele>127</ele>
        <time>2013-07-12T15:18:23.565Z</time>
      </trkpt>
      <trkpt lat="48.929829904809594" lon="3.058759979903698">
        <ele>125</ele>
        <time>2013-07-12T15:18:26.874Z</time>
      </trkpt>
      <trkpt lat="48.92957987263799" lon="3.060619840398431">
        <ele>118</ele>
        <time>2013-07-12T15:18:30.203Z</time>
      </trkpt>
      <trkpt lat="48.928969921544194" lon="3.0629299767315388">
        <ele>102</ele>
        <time>2013-07-12T15:18:33.558Z</time>
      </trkpt>
      <trkpt lat="48.92833985388279" lon="3.0644999910146">
        <ele>96</ele>
        <time>2013-07-12T15:18:36.932Z</time>
      </trkpt>
      <trkpt lat="48.928949888795614" lon="3.0668999813497066">
        <ele>93</ele>
        <time>2013-07-12T15:18:40.333Z</time>
      </trkpt>
      <trkpt lat="48.92861997708678" lon="3.0673299729824066">
        <ele>91</ele>
        <time>2013-07-12T15:18:43.741Z</time>
      </trkpt>
      <trkpt lat="48.9279299788177" lon="3.0675899796187878">
        <ele>92</ele>
        <time>2013-07-12T15:18:47.161Z</time>
      </trkpt>
      <trkpt lat="48.92757995054126" lon="3.068249886855483">
        <ele>93</ele>
        <time>2013-07-12T15:18:50.590Z</time>
      </trkpt>
      <trkpt lat="48.92641989514232" lon="3.0661399103701115">
        <ele>100</ele>
        <time>2013-07-12T15:18:54.048Z</time>
      </trkpt>
      <trkpt lat="48.924999833106995" lon="3.070009835064411">
        <ele>100</ele>
        <time>2013-07-12T15:18:57.553Z</time>
      </trkpt>
      <trkpt lat="48.9237199164927" lon="3.072079997509718">
        <ele>99</ele>
        <time>2013-07-12T15:19:01.087Z</time>
      </trkpt>
      <trkpt lat="48.923059925436974" lon="3.073939858004451">
        <ele>104</ele>
        <time>2013-07-12T15:19:04.644Z</time>
      </trkpt>
      <trkpt lat="48.921369882300496" lon="3.0754599161446095">
        <ele>112</ele>
        <time>2013-07-12T15:19:08.232Z</time>
      </trkpt>
      <trkpt lat="48.918569991365075" lon="3.0769099853932858">
        <ele>129</ele>
        <time>2013-07-12T15:19:11.868Z</time>
      </trkpt>
      <trkpt lat="48.918739976361394" lon="3.0779599025845528">
        <ele>130</ele>
        <time>2013-07-12T15:19:15.515Z</time>
      </trkpt>
      <trkpt lat="48.91874995082617" lon="3.080929946154356">
        <ele>141</ele>
        <time>2013-07-12T15:19:19.193Z</time>
      </trkpt>
      <trkpt lat="48.91911992803216" lon="3.0832299403846264">
        <ele>146</ele>
        <time>2013-07-12T15:19:22.896Z</time>
      </trkpt>
      <trkpt lat="48.921019937843084" lon="3.0907998885959387">
        <ele>143</ele>
        <time>2013-07-12T15:19:26.685Z</time>
      </trkpt>
      <trkpt lat="48.92121993005276" lon="3.092219866812229">
        <ele>135</ele>
        <time>2013-07-12T15:19:30.489Z</time>
      </trkpt>
      <trkpt lat="48.92255994491279" lon="3.093159981071949">
        <ele>127</ele>
        <time>2013-07-12T15:19:34.317Z</time>
      </trkpt>
      <trkpt lat="48.923619920387864" lon="3.0954299680888653">
        <ele>126</ele>
        <time>2013-07-12T15:19:38.174Z</time>
      </trkpt>
      <trkpt lat="48.923839861527085" lon="3.0962699186056852">
        <ele>128</ele>
        <time>2013-07-12T15:19:42.041Z</time>
      </trkpt>
      <trkpt lat="48.92612988129258" lon="3.1000999454408884">
        <ele>141</ele>
        <time>2013-07-12T15:19:45.962Z</time>
      </trkpt>
      <trkpt lat="48.9264898840338" lon="3.10179996304214">
        <ele>140</ele>
        <time>2013-07-12T15:19:49.902Z</time>
      </trkpt>
      <trkpt lat="48.92668987624347" lon="3.1018399447202682">
        <ele>141</ele>
        <time>2013-07-12T15:19:53.845Z</time>
      </trkpt>
      <trkpt lat="48.92874998040497" lon="3.1009999942034483">
        <ele>144</ele>
        <time>2013-07-12T15:19:57.823Z</time>
      </trkpt>
      <trkpt lat="48.92938985489309" lon="3.1079599913209677">
        <ele>144</ele>
        <time>2013-07-12T15:20:01.875Z</time>
      </trkpt>
      <trkpt lat="48.92906983383" lon="3.112199893221259">
        <ele>143</ele>
        <time>2013-07-12T15:20:05.972Z</time>
      </trkpt>
      <trkpt lat="48.92912984825671" lon="3.113329941406846">
        <ele>142</ele>
        <time>2013-07-12T15:20:10.081Z</time>
      </trkpt>
      <trkpt lat="48.92819995991886" lon="3.1173899676650763">
        <ele>144</ele>
        <time>2013-07-12T15:20:14.235Z</time>
      </trkpt>
      <trkpt lat="48.928539929911494" lon="3.1201998330652714">
        <ele>148</ele>
        <time>2013-07-12T15:20:18.419Z</time>
      </trkpt>
      <trkpt lat="48.927959986031055" lon="3.1242699176073074">
        <ele>149</ele>
        <time>2013-07-12T15:20:22.647Z</time>
      </trkpt>
      <trkpt lat="48.929359931498766" lon="3.126359861344099">
        <ele>139</ele>
        <time>2013-07-12T15:20:26.907Z</time>
      </trkpt>
      <trkpt lat="48.9280198328197" lon="3.1279998645186424">
        <ele>143</ele>
        <time>2013-07-12T15:20:31.194Z</time>
      </trkpt>
      <trkpt lat="48.92768992111087" lon="3.1291798688471317">
        <ele>141</ele>
        <time>2013-07-12T15:20:35.495Z</time>
      </trkpt>
      <trkpt lat="48.92719999887049" lon="3.130199946463108">
        <ele>142</ele>
        <time>2013-07-12T15:20:39.809Z</time>
      </trkpt>
      <trkpt lat="48.92678987234831" lon="3.132769837975502">
        <ele>142</ele>
        <time>2013-07-12T15:20:44.151Z</time>
      </trkpt>
      <trkpt lat="48.92642986960709" lon="3.1326998490840197">
        <ele>142</ele>
        <time>2013-07-12T15:20:48.499Z</time>
      </trkpt>
      <trkpt lat="48.92622987739742" lon="3.1331298407167196">
        <ele>143</ele>
        <time>2013-07-12T15:20:52.852Z</time>
      </trkpt>
      <trkpt lat="48.923619920387864" lon="3.135029934346676">
        <ele>148</ele>
        <time>2013-07-12T15:20:57.252Z</time>
      </trkpt>
      <trkpt lat="48.920049984008074" lon="3.1390398368239403">
        <ele>152</ele>
        <time>2013-07-12T15:21:01.723Z</time>
      </trkpt>
      <trkpt lat="48.91976986080408" lon="3.139519952237606">
        <ele>151</ele>
        <time>2013-07-12T15:21:06.200Z</time>
      </trkpt>
      <trkpt lat="48.91847988590598" lon="3.14343991689384">
        <ele>148</ele>
        <time>2013-07-12T15:21:10.724Z</time>
      </trkpt>
      <trkpt lat="48.91636990942061" lon="3.146769879385829">
        <ele>141</ele>
        <time>2013-07-12T15:21:15.296Z</time>
      </trkpt>
      <trkpt lat="48.91595995053649" lon="3.14700985327363">
        <ele>140</ele>
        <time>2013-07-12T15:21:19.875Z</time>
      </trkpt>
      <trkpt lat="48.9156399294734" lon="3.1446899101138115">
        <ele>142</ele>
        <time>2013-07-12T15:21:24.480Z</time>
      </trkpt>
      <trkpt lat="48.9139598608017" lon="3.1456199660897255">
        <ele>143</ele>
        <time>2013-07-12T15:21:29.113Z</time>
      </trkpt>
      <trkpt lat="48.914019875228405" lon="3.1460499577224255">
        <ele>142</ele>
        <time>2013-07-12T15:21:33.751Z</time>
      </trkpt>
      <trkpt lat="48.912729900330305" lon="3.1464899238198996">
        <ele>140</ele>
        <time>2013-07-12T15:21:38.410Z</time>
      </trkpt>
      <trkpt lat="48.909399854019284" lon="3.146159928292036">
        <ele>139</ele>
        <time>2013-07-12T15:21:43.122Z</time>
      </trkpt>
      <trkpt lat="48.90833987854421" lon="3.14575994387269">
        <ele>137</ele>
        <time>2013-07-12T15:21:47.852Z</time>
      </trkpt>
      <trkpt lat="48.90742985531688" lon="3.144819913432002">
        <ele>138</ele>
        <time>2013-07-12T15:21:52.600Z</time>
      </trkpt>
      <trkpt lat="48.9060799498111" lon="3.145399857312441">
        <ele>132</ele>
        <time>2013-07-12T15:21:57.370Z</time>
      </trkpt>
      <trkpt lat="48.905859841033816" lon="3.1453098356723785">
        <ele>131</ele>
        <time>2013-07-12T15:22:02.144Z</time>
      </trkpt>
      <trkpt lat="48.903939966112375" lon="3.1422998942434788">
        <ele>142</ele>
        <time>2013-07-12T15:22:06.962Z</time>
      </trkpt>
      <trkpt lat="48.90325994230807" lon="3.1422599125653505">
        <ele>142</ele>
        <time>2013-07-12T15:22:11.791Z</time>
      </trkpt>
      <trkpt lat="48.90288996510208" lon="3.14126992598176">
        <ele>143</ele>
        <time>2013-07-12T15:22:16.632Z</time>
      </trkpt>
      <trkpt lat="48.90183996409178" lon="3.1423199269920588">
        <ele>146</ele>
        <time>2013-07-12T15:22:21.493Z</time>
      </trkpt>
      <trkpt lat="48.899319944903255" lon="3.144129915162921">
        <ele>150</ele>
        <time>2013-07-12T15:22:26.399Z</time>
      </trkpt>
      <trkpt lat="48.897149953991175" lon="3.146199993789196">
        <ele>151</ele>
        <time>2013-07-12T15:22:30.531Z</time>
      </trkpt>
      <trkpt lat="48.897155" lon="3.146207">
        <ele>151.25</ele>
        <time>2013-07-12T15:22:30.542Z</time>
      </trkpt>
      <trkpt lat="48.897032" lon="3.1464">
        <ele>151.5</ele>
        <time>2013-07-12T15:22:30.827Z</time>
      </trkpt>
      <trkpt lat="48.897002" lon="3.146466">
        <ele>151.75</ele>
        <time>2013-07-12T15:22:30.912Z</time>
      </trkpt>
      <trkpt lat="48.89696" lon="3.146558">
        <ele>151.75</ele>
        <time>2013-07-12T15:22:31.030Z</time>
      </trkpt>
      <trkpt lat="48.896811" lon="3.146995">
        <ele>152.5</ele>
        <time>2013-07-12T15:22:31.552Z</time>
      </trkpt>
      <trkpt lat="48.896593" lon="3.147769">
        <ele>153</ele>
        <time>2013-07-12T15:22:32.445Z</time>
      </trkpt>
      <trkpt lat="48.896306" lon="3.148827">
        <ele>152.25</ele>
        <time>2013-07-12T15:22:33.658Z</time>
      </trkpt>
      <trkpt lat="48.896167" lon="3.149216">
        <ele>152.5</ele>
        <time>2013-07-12T15:22:34.127Z</time>
      </trkpt>
      <trkpt lat="48.895978" lon="3.149643">
        <ele>153.25</ele>
        <time>2013-07-12T15:22:34.672Z</time>
      </trkpt>
      <trkpt lat="48.895726" lon="3.150243">
        <ele>153.5</ele>
        <time>2013-07-12T15:22:35.427Z</time>
      </trkpt>
      <trkpt lat="48.895528" lon="3.150974">
        <ele>152.75</ele>
        <time>2013-07-12T15:22:36.265Z</time>
      </trkpt>
      <trkpt lat="48.895186" lon="3.152481">
        <ele>152.75</ele>
        <time>2013-07-12T15:22:37.955Z</time>
      </trkpt>
      <trkpt lat="48.895029" lon="3.153228">
        <ele>153.75</ele>
        <time>2013-07-12T15:22:38.786Z</time>
      </trkpt>
      <trkpt lat="48.894858" lon="3.154286">
        <ele>152</ele>
        <time>2013-07-12T15:22:40.431Z</time>
      </trkpt>
      <trkpt lat="48.894858" lon="3.154286">
        <ele>152.75</ele>
        <time>2013-07-12T15:22:40.431Z</time>
      </trkpt>
      <trkpt lat="48.894726" lon="3.155106">
        <ele>152</ele>
        <time>2013-07-12T15:22:41.706Z</time>
      </trkpt>
      <trkpt lat="48.894399" lon="3.157261">
        <ele>150.5</ele>
        <time>2013-07-12T15:22:45.047Z</time>
      </trkpt>
      <trkpt lat="48.894258" lon="3.158031">
        <ele>149.25</ele>
        <time>2013-07-12T15:22:46.254Z</time>
      </trkpt>
      <trkpt lat="48.894073" lon="3.158794">
        <ele>148.5</ele>
        <time>2013-07-12T15:22:47.482Z</time>
      </trkpt>
      <trkpt lat="48.893912" lon="3.15953">
        <ele>148.25</ele>
        <time>2013-07-12T15:22:48.653Z</time>
      </trkpt>
      <trkpt lat="48.893883" lon="3.159783">
        <ele>148</ele>
        <time>2013-07-12T15:22:49.040Z</time>
      </trkpt>
      <trkpt lat="48.89388" lon="3.159895">
        <ele>148</ele>
        <time>2013-07-12T15:22:49.209Z</time>
      </trkpt>
      <trkpt lat="48.893912" lon="3.160202">
        <ele>147.75</ele>
        <time>2013-07-12T15:22:49.678Z</time>
      </trkpt>
      <trkpt lat="48.894" lon="3.160518">
        <ele>147.5</ele>
        <time>2013-07-12T15:22:50.196Z</time>
      </trkpt>
      <trkpt lat="48.894135" lon="3.160832">
        <ele>147</ele>
        <time>2013-07-12T15:22:50.762Z</time>
      </trkpt>
      <trkpt lat="48.894439" lon="3.161346">
        <ele>146</ele>
        <time>2013-07-12T15:22:51.806Z</time>
      </trkpt>
      <trkpt lat="48.894788" lon="3.161985">
        <ele>144.75</ele>
        <time>2013-07-12T15:22:53.060Z</time>
      </trkpt>
      <trkpt lat="48.894125" lon="3.164379">
        <ele>150.75</ele>
        <time>2013-07-12T15:22:56.984Z</time>
      </trkpt>
      <trkpt lat="48.894112" lon="3.164427">
        <ele>150.5</ele>
        <time>2013-07-12T15:22:57.062Z</time>
      </trkpt>
      <trkpt lat="48.893883" lon="3.165256">
        <ele>150.75</ele>
        <time>2013-07-12T15:22:58.420Z</time>
      </trkpt>
      <trkpt lat="48.893466" lon="3.1667">
        <ele>154.25</ele>
        <time>2013-07-12T15:23:00.802Z</time>
      </trkpt>
      <trkpt lat="48.894095" lon="3.166997">
        <ele>152.25</ele>
        <time>2013-07-12T15:23:02.315Z</time>
      </trkpt>
      <trkpt lat="48.894193" lon="3.167043">
        <ele>152.25</ele>
        <time>2013-07-12T15:23:02.550Z</time>
      </trkpt>
      <trkpt lat="48.895098" lon="3.167427">
        <ele>150.5</ele>
        <time>2013-07-12T15:23:04.708Z</time>
      </trkpt>
      <trkpt lat="48.896343" lon="3.167954">
        <ele>146.5</ele>
        <time>2013-07-12T15:23:07.677Z</time>
      </trkpt>
      <trkpt lat="48.896816" lon="3.168161">
        <ele>144</ele>
        <time>2013-07-12T15:23:08.807Z</time>
      </trkpt>
      <trkpt lat="48.89731" lon="3.168373">
        <ele>140.75</ele>
        <time>2013-07-12T15:23:09.986Z</time>
      </trkpt>
      <trkpt lat="48.897418" lon="3.168419">
        <ele>140</ele>
        <time>2013-07-12T15:23:10.243Z</time>
      </trkpt>
      <trkpt lat="48.900116" lon="3.169577">
        <ele>128.75</ele>
        <time>2013-07-12T15:23:16.684Z</time>
      </trkpt>
      <trkpt lat="48.900546" lon="3.169775">
        <ele>126.5</ele>
        <time>2013-07-12T15:23:17.716Z</time>
      </trkpt>
      <trkpt lat="48.90084" lon="3.170023">
        <ele>126</ele>
        <time>2013-07-12T15:23:18.488Z</time>
      </trkpt>
      <trkpt lat="48.900982" lon="3.170159">
        <ele>125.25</ele>
        <time>2013-07-12T15:23:18.873Z</time>
      </trkpt>
      <trkpt lat="48.900999845936894" lon="3.170119933784008">
        <ele>126</ele>
        <time>2013-07-12T15:23:18.944Z</time>
      </trkpt>
      <trkpt lat="48.90349991619587" lon="3.1728499196469784">
        <ele>113</ele>
        <time>2013-07-12T15:23:26.015Z</time>
      </trkpt>
      <trkpt lat="48.90600987710059" lon="3.1793099362403154">
        <ele>82</ele>
        <time>2013-07-12T15:23:31.455Z</time>
      </trkpt>
      <trkpt lat="48.907749960199" lon="3.181369872763753">
        <ele>70</ele>
        <time>2013-07-12T15:23:36.930Z</time>
      </trkpt>
      <trkpt lat="48.908089846372604" lon="3.1815099343657494">
        <ele>67</ele>
        <time>2013-07-12T15:23:42.411Z</time>
      </trkpt>
      <trkpt lat="48.90814986079931" lon="3.182769985869527">
        <ele>66</ele>
        <time>2013-07-12T15:23:47.905Z</time>
      </trkpt>
      <trkpt lat="48.90790988691151" lon="3.1833299808204174">
        <ele>66</ele>
        <time>2013-07-12T15:23:53.406Z</time>
      </trkpt>
      <trkpt lat="48.907489869743586" lon="3.183639859780669">
        <ele>65</ele>
        <time>2013-07-12T15:23:58.915Z</time>
      </trkpt>
      <trkpt lat="48.9064599853009" lon="3.183719990774989">
        <ele>65</ele>
        <time>2013-07-12T15:24:04.440Z</time>
      </trkpt>
      <trkpt lat="48.904609931632876" lon="3.1941698770970106">
        <ele>75</ele>
        <time>2013-07-12T15:24:10.080Z</time>
      </trkpt>
      <trkpt lat="48.903469908982515" lon="3.1957299169152975">
        <ele>63</ele>
        <time>2013-07-12T15:24:15.744Z</time>
      </trkpt>
      <trkpt lat="48.903169836848974" lon="3.1992699299007654">
        <ele>64</ele>
        <time>2013-07-12T15:24:21.446Z</time>
      </trkpt>
      <trkpt lat="48.902389984577894" lon="3.20073994807899">
        <ele>64</ele>
        <time>2013-07-12T15:24:27.168Z</time>
      </trkpt>
      <trkpt lat="48.90364986844361" lon="3.2054698560386896">
        <ele>66</ele>
        <time>2013-07-12T15:24:32.944Z</time>
      </trkpt>
      <trkpt lat="48.9043599832803" lon="3.207139950245619">
        <ele>71</ele>
        <time>2013-07-12T15:24:38.741Z</time>
      </trkpt>
      <trkpt lat="48.905769903212786" lon="3.2088299933820963">
        <ele>70</ele>
        <time>2013-07-12T15:24:44.566Z</time>
      </trkpt>
      <trkpt lat="48.90706993639469" lon="3.2108198571950197">
        <ele>70</ele>
        <time>2013-07-12T15:24:50.421Z</time>
      </trkpt>
      <trkpt lat="48.909229952842" lon="3.2128299213945866">
        <ele>66</ele>
        <time>2013-07-12T15:24:56.316Z</time>
      </trkpt>
      <trkpt lat="48.90948995947838" lon="3.2136998791247606">
        <ele>67</ele>
        <time>2013-07-12T15:25:02.222Z</time>
      </trkpt>
      <trkpt lat="48.90837994404137" lon="3.2175099570304155">
        <ele>66</ele>
        <time>2013-07-12T15:25:08.172Z</time>
      </trkpt>
      <trkpt lat="48.907189881429076" lon="3.220839835703373">
        <ele>69</ele>
        <time>2013-07-12T15:25:14.162Z</time>
      </trkpt>
      <trkpt lat="48.90598984435201" lon="3.2253898680210114">
        <ele>77</ele>
        <time>2013-07-12T15:25:20.203Z</time>
      </trkpt>
      <trkpt lat="48.904499961063266" lon="3.229369930922985">
        <ele>82</ele>
        <time>2013-07-12T15:25:26.293Z</time>
      </trkpt>
      <trkpt lat="48.9032999239862" lon="3.22866995818913">
        <ele>75</ele>
        <time>2013-07-12T15:25:32.403Z</time>
      </trkpt>
      <trkpt lat="48.90239995904267" lon="3.2287499215453863">
        <ele>71</ele>
        <time>2013-07-12T15:25:38.528Z</time>
      </trkpt>
      <trkpt lat="48.901559840887785" lon="3.2275499682873487">
        <ele>69</ele>
        <time>2013-07-12T15:25:44.671Z</time>
      </trkpt>
      <trkpt lat="48.90006987378001" lon="3.226989973336458">
        <ele>68</ele>
        <time>2013-07-12T15:25:50.839Z</time>
      </trkpt>
      <trkpt lat="48.899409882724285" lon="3.226469960063696">
        <ele>75</ele>
        <time>2013-07-12T15:25:57.019Z</time>
      </trkpt>
      <trkpt lat="48.898309925571084" lon="3.230179874226451">
        <ele>92</ele>
        <time>2013-07-12T15:26:03.242Z</time>
      </trkpt>
      <trkpt lat="48.8980398606509" lon="3.230609865859151">
        <ele>98</ele>
        <time>2013-07-12T15:26:09.471Z</time>
      </trkpt>
      <trkpt lat="48.89778999611735" lon="3.2305799424648285">
        <ele>103</ele>
        <time>2013-07-12T15:26:15.704Z</time>
      </trkpt>
      <trkpt lat="48.897599978372455" lon="3.230059929192066">
        <ele>109</ele>
        <time>2013-07-12T15:26:21.943Z</time>
      </trkpt>
      <trkpt lat="48.89771983958781" lon="3.2267899811267853">
        <ele>123</ele>
        <time>2013-07-12T15:26:28.217Z</time>
      </trkpt>
      <trkpt lat="48.89758983626962" lon="3.2265498396009207">
        <ele>126</ele>
        <time>2013-07-12T15:26:34.494Z</time>
      </trkpt>
      <trkpt lat="48.8969898596406" lon="3.228719914332032">
        <ele>132</ele>
        <time>2013-07-12T15:26:40.796Z</time>
      </trkpt>
      <trkpt lat="48.896099952980876" lon="3.230239888653159">
        <ele>135</ele>
        <time>2013-07-12T15:26:47.119Z</time>
      </trkpt>
      <trkpt lat="48.89544985257089" lon="3.2309498358517885">
        <ele>138</ele>
        <time>2013-07-12T15:26:53.455Z</time>
      </trkpt>
      <trkpt lat="48.8951697293669" lon="3.231074307113886">
        <ele>139.13</ele>
        <time>2013-07-12T15:26:59.796Z</time>
      </trkpt>
      <trkpt lat="48.8944598659873" lon="3.231389969587326">
        <ele>142</ele>
        <time>2013-07-12T15:27:06.149Z</time>
      </trkpt>
      <trkpt lat="48.89251995831728" lon="3.2310299668461084">
        <ele>154</ele>
        <time>2013-07-12T15:27:12.533Z</time>
      </trkpt>
      <trkpt lat="48.89224989339709" lon="3.2303098775446415">
        <ele>157</ele>
        <time>2013-07-12T15:27:18.926Z</time>
      </trkpt>
      <trkpt lat="48.89236983843148" lon="3.230019947513938">
        <ele>158</ele>
        <time>2013-07-12T15:27:25.322Z</time>
      </trkpt>
      <trkpt lat="48.89427990652621" lon="3.2287998776882887">
        <ele>161</ele>
        <time>2013-07-12T15:27:31.751Z</time>
      </trkpt>
      <trkpt lat="48.89472993090749" lon="3.2279599271714687">
        <ele>160</ele>
        <time>2013-07-12T15:27:38.192Z</time>
      </trkpt>
      <trkpt lat="48.8946498837322" lon="3.226919984444976">
        <ele>165</ele>
        <time>2013-07-12T15:27:44.644Z</time>
      </trkpt>
      <trkpt lat="48.89412995427847" lon="3.2256298419088125">
        <ele>169</ele>
        <time>2013-07-12T15:27:51.112Z</time>
      </trkpt>
      <trkpt lat="48.893799874931574" lon="3.2254498824477196">
        <ele>171</ele>
        <time>2013-07-12T15:27:57.585Z</time>
      </trkpt>
      <trkpt lat="48.893349850550294" lon="3.2254699151962996">
        <ele>173</ele>
        <time>2013-07-12T15:28:04.066Z</time>
      </trkpt>
      <trkpt lat="48.89308984391391" lon="3.2252399157732725">
        <ele>174</ele>
        <time>2013-07-12T15:28:10.552Z</time>
      </trkpt>
      <trkpt lat="48.89227998442948" lon="3.2230498921126127">
        <ele>175</ele>
        <time>2013-07-12T15:28:17.064Z</time>
      </trkpt>
      <trkpt lat="48.8916399423033" lon="3.222189908847213">
        <ele>175</ele>
        <time>2013-07-12T15:28:23.590Z</time>
      </trkpt>
      <trkpt lat="48.890989841893315" lon="3.2207098323851824">
        <ele>176</ele>
        <time>2013-07-12T15:28:30.135Z</time>
      </trkpt>
      <trkpt lat="48.8890599925071" lon="3.2188299391418695">
        <ele>178</ele>
        <time>2013-07-12T15:28:36.716Z</time>
      </trkpt>
      <trkpt lat="48.88963985256851" lon="3.2170699071139097">
        <ele>179</ele>
        <time>2013-07-12T15:28:43.318Z</time>
      </trkpt>
      <trkpt lat="48.88630989007652" lon="3.213839940726757">
        <ele>178</ele>
        <time>2013-07-12T15:28:49.983Z</time>
      </trkpt>
      <trkpt lat="48.886709958314896" lon="3.210219880566001">
        <ele>176</ele>
        <time>2013-07-12T15:28:56.687Z</time>
      </trkpt>
      <trkpt lat="48.88733994215727" lon="3.2099499832838774">
        <ele>176</ele>
        <time>2013-07-12T15:29:03.402Z</time>
      </trkpt>
      <trkpt lat="48.88744991272688" lon="3.2096598856151104">
        <ele>175</ele>
        <time>2013-07-12T15:29:10.120Z</time>
      </trkpt>
      <trkpt lat="48.88655983842909" lon="3.203819878399372">
        <ele>174</ele>
        <time>2013-07-12T15:29:28.088Z</time>
      </trkpt>
      <trkpt lat="48.886556" lon="3.203822">
        <ele>173.5</ele>
        <time>2013-07-12T15:29:28.106Z</time>
      </trkpt>
      <trkpt lat="48.886491" lon="3.203687">
        <ele>173.5</ele>
        <time>2013-07-12T15:29:28.607Z</time>
      </trkpt>
      <trkpt lat="48.886282" lon="3.203425">
        <ele>173.75</ele>
        <time>2013-07-12T15:29:29.841Z</time>
      </trkpt>
      <trkpt lat="48.884831" lon="3.203105">
        <ele>175.75</ele>
        <time>2013-07-12T15:29:36.524Z</time>
      </trkpt>
      <trkpt lat="48.883216" lon="3.202534">
        <ele>177</ele>
        <time>2013-07-12T15:29:44.082Z</time>
      </trkpt>
      <trkpt lat="48.882792" lon="3.201492">
        <ele>177.25</ele>
        <time>2013-07-12T15:29:47.755Z</time>
      </trkpt>
      <trkpt lat="48.882042" lon="3.200326">
        <ele>177.75</ele>
        <time>2013-07-12T15:29:52.644Z</time>
      </trkpt>
      <trkpt lat="48.879448" lon="3.197846">
        <ele>173.75</ele>
        <time>2013-07-12T15:30:06.611Z</time>
      </trkpt>
      <trkpt lat="48.878486" lon="3.196896">
        <ele>172</ele>
        <time>2013-07-12T15:30:11.839Z</time>
      </trkpt>
      <trkpt lat="48.87794" lon="3.196357">
        <ele>171.5</ele>
        <time>2013-07-12T15:30:14.806Z</time>
      </trkpt>
      <trkpt lat="48.87772" lon="3.196215">
        <ele>171.25</ele>
        <time>2013-07-12T15:30:15.895Z</time>
      </trkpt>
      <trkpt lat="48.876836" lon="3.196015">
        <ele>169.5</ele>
        <time>2013-07-12T15:30:19.969Z</time>
      </trkpt>
      <trkpt lat="48.876529" lon="3.195892">
        <ele>168.5</ele>
        <time>2013-07-12T15:30:21.416Z</time>
      </trkpt>
      <trkpt lat="48.87618" lon="3.195705">
        <ele>167.5</ele>
        <time>2013-07-12T15:30:23.102Z</time>
      </trkpt>
      <trkpt lat="48.876124" lon="3.195695">
        <ele>167.25</ele>
        <time>2013-07-12T15:30:23.359Z</time>
      </trkpt>
      <trkpt lat="48.876026" lon="3.195685">
        <ele>167</ele>
        <time>2013-07-12T15:30:23.806Z</time>
      </trkpt>
      <trkpt lat="48.8759" lon="3.195636">
        <ele>166.75</ele>
        <time>2013-07-12T15:30:24.398Z</time>
      </trkpt>
      <trkpt lat="48.875395" lon="3.195242">
        <ele>165</ele>
        <time>2013-07-12T15:30:26.985Z</time>
      </trkpt>
      <trkpt lat="48.874748" lon="3.194803">
        <ele>163</ele>
        <time>2013-07-12T15:30:30.214Z</time>
      </trkpt>
      <trkpt lat="48.874614" lon="3.194693">
        <ele>162.5</ele>
        <time>2013-07-12T15:30:30.908Z</time>
      </trkpt>
      <trkpt lat="48.87459" lon="3.194632">
        <ele>162.5</ele>
        <time>2013-07-12T15:30:31.117Z</time>
      </trkpt>
      <trkpt lat="48.87459" lon="3.194632">
        <ele>162.5</ele>
        <time>2013-07-12T15:30:31.117Z</time>
      </trkpt>
      <trkpt lat="48.875694" lon="3.193001">
        <ele>161.75</ele>
        <time>2013-07-12T15:30:38.001Z</time>
      </trkpt>
      <trkpt lat="48.87644" lon="3.191899">
        <ele>162.25</ele>
        <time>2013-07-12T15:30:42.652Z</time>
      </trkpt>
      <trkpt lat="48.876402" lon="3.191861">
        <ele>162</ele>
        <time>2013-07-12T15:30:42.855Z</time>
      </trkpt>
      <trkpt lat="48.876251" lon="3.191711">
        <ele>161.5</ele>
        <time>2013-07-12T15:30:43.661Z</time>
      </trkpt>
      <trkpt lat="48.875621" lon="3.191291">
        <ele>160</ele>
        <time>2013-07-12T15:30:46.737Z</time>
      </trkpt>
      <trkpt lat="48.875462" lon="3.191186">
        <ele>160</ele>
        <time>2013-07-12T15:30:47.512Z</time>
      </trkpt>
      <trkpt lat="48.874425" lon="3.189654">
        <ele>158.25</ele>
        <time>2013-07-12T15:30:53.978Z</time>
      </trkpt>
      <trkpt lat="48.874265" lon="3.189332">
        <ele>157.5</ele>
        <time>2013-07-12T15:30:55.165Z</time>
      </trkpt>
      <trkpt lat="48.874026" lon="3.188768">
        <ele>156.75</ele>
        <time>2013-07-12T15:30:57.138Z</time>
      </trkpt>
      <trkpt lat="48.873823" lon="3.188072">
        <ele>155.75</ele>
        <time>2013-07-12T15:30:59.377Z</time>
      </trkpt>
      <trkpt lat="48.873329" lon="3.185814">
        <ele>150.75</ele>
        <time>2013-07-12T15:31:06.377Z</time>
      </trkpt>
      <trkpt lat="48.873278" lon="3.185551">
        <ele>150.75</ele>
        <time>2013-07-12T15:31:07.183Z</time>
      </trkpt>
      <trkpt lat="48.873247" lon="3.18529">
        <ele>150.75</ele>
        <time>2013-07-12T15:31:07.963Z</time>
      </trkpt>
      <trkpt lat="48.873232" lon="3.184805">
        <ele>150.25</ele>
        <time>2013-07-12T15:31:09.391Z</time>
      </trkpt>
      <trkpt lat="48.873208" lon="3.184613">
        <ele>149.75</ele>
        <time>2013-07-12T15:31:09.965Z</time>
      </trkpt>
      <trkpt lat="48.873158" lon="3.184537">
        <ele>149.75</ele>
        <time>2013-07-12T15:31:10.281Z</time>
      </trkpt>
      <trkpt lat="48.873127" lon="3.184488">
        <ele>149.5</ele>
        <time>2013-07-12T15:31:10.481Z</time>
      </trkpt>
      <trkpt lat="48.872996" lon="3.184406">
        <ele>149.25</ele>
        <time>2013-07-12T15:31:11.114Z</time>
      </trkpt>
      <trkpt lat="48.872523" lon="3.184205">
        <ele>149</ele>
        <time>2013-07-12T15:31:13.310Z</time>
      </trkpt>
      <trkpt lat="48.872306" lon="3.184081">
        <ele>148.25</ele>
        <time>2013-07-12T15:31:14.346Z</time>
      </trkpt>
      <trkpt lat="48.872249" lon="3.183981">
        <ele>148</ele>
        <time>2013-07-12T15:31:14.735Z</time>
      </trkpt>
      <trkpt lat="48.872243" lon="3.183796">
        <ele>147.75</ele>
        <time>2013-07-12T15:31:15.279Z</time>
      </trkpt>
      <trkpt lat="48.872322" lon="3.182708">
        <ele>147.25</ele>
        <time>2013-07-12T15:31:18.499Z</time>
      </trkpt>
      <trkpt lat="48.872347" lon="3.182208">
        <ele>146.75</ele>
        <time>2013-07-12T15:31:19.974Z</time>
      </trkpt>
      <trkpt lat="48.872327" lon="3.181992">
        <ele>146.25</ele>
        <time>2013-07-12T15:31:20.615Z</time>
      </trkpt>
      <trkpt lat="48.872285" lon="3.181728">
        <ele>145.5</ele>
        <time>2013-07-12T15:31:21.414Z</time>
      </trkpt>
      <trkpt lat="48.87201" lon="3.180497">
        <ele>145</ele>
        <time>2013-07-12T15:31:25.238Z</time>
      </trkpt>
      <trkpt lat="48.871909" lon="3.180187">
        <ele>145.5</ele>
        <time>2013-07-12T15:31:26.255Z</time>
      </trkpt>
      <trkpt lat="48.869068" lon="3.173124">
        <ele>144.25</ele>
        <time>2013-07-12T15:31:50.610Z</time>
      </trkpt>
      <trkpt lat="48.868905" lon="3.172884">
        <ele>144.75</ele>
        <time>2013-07-12T15:31:51.624Z</time>
      </trkpt>
      <trkpt lat="48.867868" lon="3.171804">
        <ele>144.5</ele>
        <time>2013-07-12T15:31:57.245Z</time>
      </trkpt>
      <trkpt lat="48.8677" lon="3.171567">
        <ele>144.5</ele>
        <time>2013-07-12T15:31:58.270Z</time>
      </trkpt>
      <trkpt lat="48.867284" lon="3.17083">
        <ele>144</ele>
        <time>2013-07-12T15:32:01.127Z</time>
      </trkpt>
      <trkpt lat="48.86701" lon="3.170187">
        <ele>145.25</ele>
        <time>2013-07-12T15:32:03.380Z</time>
      </trkpt>
      <trkpt lat="48.866994" lon="3.17014">
        <ele>146</ele>
        <time>2013-07-12T15:32:03.535Z</time>
      </trkpt>
      <trkpt lat="48.867009887471795" lon="3.170129908248782">
        <ele>144</ele>
        <time>2013-07-12T15:32:03.612Z</time>
      </trkpt>
      <trkpt lat="48.865939853712916" lon="3.1660599913448095">
        <ele>144</ele>
        <time>2013-07-12T15:32:13.706Z</time>
      </trkpt>
      <trkpt lat="48.865459905937314" lon="3.163149878382683">
        <ele>141</ele>
        <time>2013-07-12T15:32:21.091Z</time>
      </trkpt>
      <trkpt lat="48.864769991487265" lon="3.160519888624549">
        <ele>139</ele>
        <time>2013-07-12T15:32:28.506Z</time>
      </trkpt>
      <trkpt lat="48.86398988775909" lon="3.158309916034341">
        <ele>137</ele>
        <time>2013-07-12T15:32:35.948Z</time>
      </trkpt>
      <trkpt lat="48.86316988617182" lon="3.1573999766260386">
        <ele>137</ele>
        <time>2013-07-12T15:32:43.406Z</time>
      </trkpt>
      <trkpt lat="48.86216992512345" lon="3.1548799574375153">
        <ele>136</ele>
        <time>2013-07-12T15:32:50.895Z</time>
      </trkpt>
      <trkpt lat="48.86135998181999" lon="3.153959959745407">
        <ele>135</ele>
        <time>2013-07-12T15:32:58.400Z</time>
      </trkpt>
      <trkpt lat="48.859939919784665" lon="3.151239864528179">
        <ele>134</ele>
        <time>2013-07-12T15:33:05.942Z</time>
      </trkpt>
      <trkpt lat="48.85880987159908" lon="3.150769891217351">
        <ele>132</ele>
        <time>2013-07-12T15:33:13.503Z</time>
      </trkpt>
      <trkpt lat="48.85783991776407" lon="3.1500399112701416">
        <ele>134</ele>
        <time>2013-07-12T15:33:21.081Z</time>
      </trkpt>
      <trkpt lat="48.85504991747439" lon="3.1491699535399675">
        <ele>127</ele>
        <time>2013-07-12T15:33:28.705Z</time>
      </trkpt>
      <trkpt lat="48.85225983336568" lon="3.145679896697402">
        <ele>128</ele>
        <time>2013-07-12T15:33:36.387Z</time>
      </trkpt>
      <trkpt lat="48.85074991732836" lon="3.1447699572890997">
        <ele>124</ele>
        <time>2013-07-12T15:33:44.095Z</time>
      </trkpt>
      <trkpt lat="48.850329983979464" lon="3.1440599262714386">
        <ele>124</ele>
        <time>2013-07-12T15:33:51.813Z</time>
      </trkpt>
      <trkpt lat="48.850359907373786" lon="3.143259957432747">
        <ele>124</ele>
        <time>2013-07-12T15:33:59.539Z</time>
      </trkpt>
      <trkpt lat="48.85059988126159" lon="3.1412298604846">
        <ele>125</ele>
        <time>2013-07-12T15:34:07.287Z</time>
      </trkpt>
      <trkpt lat="48.85093993507326" lon="3.139879871159792">
        <ele>127</ele>
        <time>2013-07-12T15:34:15.050Z</time>
      </trkpt>
      <trkpt lat="48.850699961185455" lon="3.1382498424500227">
        <ele>128</ele>
        <time>2013-07-12T15:34:22.831Z</time>
      </trkpt>
      <trkpt lat="48.850379940122366" lon="3.1374898552894592">
        <ele>130</ele>
        <time>2013-07-12T15:34:30.621Z</time>
      </trkpt>
      <trkpt lat="48.850399889051914" lon="3.1363998726010323">
        <ele>132</ele>
        <time>2013-07-12T15:34:38.423Z</time>
      </trkpt>
      <trkpt lat="48.84919993579388" lon="3.13499984331429">
        <ele>135</ele>
        <time>2013-07-12T15:34:46.249Z</time>
      </trkpt>
      <trkpt lat="48.84780988097191" lon="3.1342698633670807">
        <ele>133</ele>
        <time>2013-07-12T15:34:54.099Z</time>
      </trkpt>
      <trkpt lat="48.84711996652186" lon="3.1333498656749725">
        <ele>134</ele>
        <time>2013-07-12T15:35:01.963Z</time>
      </trkpt>
      <trkpt lat="48.84542992338538" lon="3.129459908232093">
        <ele>137</ele>
        <time>2013-07-12T15:35:09.877Z</time>
      </trkpt>
      <trkpt lat="48.84469994343817" lon="3.1272898335009813">
        <ele>137</ele>
        <time>2013-07-12T15:35:17.816Z</time>
      </trkpt>
      <trkpt lat="48.8447898812592" lon="3.126579886302352">
        <ele>138</ele>
        <time>2013-07-12T15:35:25.763Z</time>
      </trkpt>
      <trkpt lat="48.84533998556435" lon="3.125339951366186">
        <ele>138</ele>
        <time>2013-07-12T15:35:33.726Z</time>
      </trkpt>
      <trkpt lat="48.84548993781209" lon="3.1243099831044674">
        <ele>139</ele>
        <time>2013-07-12T15:35:41.700Z</time>
      </trkpt>
      <trkpt lat="48.844429878517985" lon="3.1211598962545395">
        <ele>136</ele>
        <time>2013-07-12T15:35:49.711Z</time>
      </trkpt>
      <trkpt lat="48.84493991732597" lon="3.120179884135723">
        <ele>135</ele>
        <time>2013-07-12T15:35:57.736Z</time>
      </trkpt>
      <trkpt lat="48.84508986957371" lon="3.119519976899028">
        <ele>134</ele>
        <time>2013-07-12T15:36:05.768Z</time>
      </trkpt>
      <trkpt lat="48.84467991068959" lon="3.117059888318181">
        <ele>130</ele>
        <time>2013-07-12T15:36:13.827Z</time>
      </trkpt>
      <trkpt lat="48.844469860196114" lon="3.114429982379079">
        <ele>125</ele>
        <time>2013-07-12T15:36:21.914Z</time>
      </trkpt>
      <trkpt lat="48.84501996450126" lon="3.111099936068058">
        <ele>129</ele>
        <time>2013-07-12T15:36:30.037Z</time>
      </trkpt>
      <trkpt lat="48.84563997387886" lon="3.1098499428480864">
        <ele>132</ele>
        <time>2013-07-12T15:36:38.177Z</time>
      </trkpt>
      <trkpt lat="48.84568993002176" lon="3.109089871868491">
        <ele>133</ele>
        <time>2013-07-12T15:36:46.325Z</time>
      </trkpt>
      <trkpt lat="48.84550997056067" lon="3.1075299996882677">
        <ele>133</ele>
        <time>2013-07-12T15:36:54.489Z</time>
      </trkpt>
      <trkpt lat="48.84495995007455" lon="3.106419900432229">
        <ele>134</ele>
        <time>2013-07-12T15:37:02.668Z</time>
      </trkpt>
      <trkpt lat="48.84477999061346" lon="3.10306990519166">
        <ele>136</ele>
        <time>2013-07-12T15:37:10.883Z</time>
      </trkpt>
      <trkpt lat="48.84404984302819" lon="3.1018298864364624">
        <ele>134</ele>
        <time>2013-07-12T15:37:19.115Z</time>
      </trkpt>
      <trkpt lat="48.843309888616204" lon="3.0972199235111475">
        <ele>137</ele>
        <time>2013-07-12T15:37:27.397Z</time>
      </trkpt>
      <trkpt lat="48.84314996190369" lon="3.095709839835763">
        <ele>139</ele>
        <time>2013-07-12T15:37:35.695Z</time>
      </trkpt>
      <trkpt lat="48.843689924106" lon="3.0936398450285196">
        <ele>136</ele>
        <time>2013-07-12T15:37:44.017Z</time>
      </trkpt>
      <trkpt lat="48.842899929732084" lon="3.0904099624603987">
        <ele>125</ele>
        <time>2013-07-12T15:37:52.375Z</time>
      </trkpt>
      <trkpt lat="48.843159936368465" lon="3.0892299581319094">
        <ele>120</ele>
        <time>2013-07-12T15:38:00.747Z</time>
      </trkpt>
      <trkpt lat="48.84510990232229" lon="3.0841999780386686">
        <ele>126</ele>
        <time>2013-07-12T15:38:09.180Z</time>
      </trkpt>
      <trkpt lat="48.84579990059137" lon="3.08009997010231">
        <ele>124</ele>
        <time>2013-07-12T15:38:17.658Z</time>
      </trkpt>
      <trkpt lat="48.84711996652186" lon="3.0792198702692986">
        <ele>126</ele>
        <time>2013-07-12T15:38:26.159Z</time>
      </trkpt>
      <trkpt lat="48.8479398842901" lon="3.0790799763053656">
        <ele>130</ele>
        <time>2013-07-12T15:38:34.673Z</time>
      </trkpt>
      <trkpt lat="48.85014985688031" lon="3.0763698555529118">
        <ele>132</ele>
        <time>2013-07-12T15:38:43.233Z</time>
      </trkpt>
      <trkpt lat="48.85091990232468" lon="3.07517996057868">
        <ele>132</ele>
        <time>2013-07-12T15:38:51.810Z</time>
      </trkpt>
      <trkpt lat="48.85083985514939" lon="3.073179954662919">
        <ele>134</ele>
        <time>2013-07-12T15:39:00.409Z</time>
      </trkpt>
      <trkpt lat="48.850979916751385" lon="3.071199981495738">
        <ele>136</ele>
        <time>2013-07-12T15:39:09.029Z</time>
      </trkpt>
      <trkpt lat="48.850549925118685" lon="3.0676698591560125">
        <ele>138</ele>
        <time>2013-07-12T15:39:17.687Z</time>
      </trkpt>
      <trkpt lat="48.850719910115004" lon="3.0628399550914764">
        <ele>140</ele>
        <time>2013-07-12T15:39:26.396Z</time>
      </trkpt>
      <trkpt lat="48.850339874625206" lon="3.060329994186759">
        <ele>140</ele>
        <time>2013-07-12T15:39:35.132Z</time>
      </trkpt>
      <trkpt lat="48.8504698779434" lon="3.0595799814909697">
        <ele>140</ele>
        <time>2013-07-12T15:39:43.876Z</time>
      </trkpt>
      <trkpt lat="48.8511499017477" lon="3.0578298401087523">
        <ele>140</ele>
        <time>2013-07-12T15:39:52.642Z</time>
      </trkpt>
      <trkpt lat="48.851709896698594" lon="3.0545598920434713">
        <ele>139</ele>
        <time>2013-07-12T15:40:01.443Z</time>
      </trkpt>
      <trkpt lat="48.85279996320605" lon="3.0508999340236187">
        <ele>141</ele>
        <time>2013-07-12T15:40:10.287Z</time>
      </trkpt>
      <trkpt lat="48.852999871596694" lon="3.0490198731422424">
        <ele>142</ele>
        <time>2013-07-12T15:40:19.151Z</time>
      </trkpt>
      <trkpt lat="48.85308997705579" lon="3.04443983361125">
        <ele>145</ele>
        <time>2013-07-12T15:40:28.063Z</time>
      </trkpt>
      <trkpt lat="48.8534898776561" lon="3.042939892038703">
        <ele>146</ele>
        <time>2013-07-12T15:40:36.992Z</time>
      </trkpt>
      <trkpt lat="48.853859854862094" lon="3.0421799048781395">
        <ele>145</ele>
        <time>2013-07-12T15:40:45.931Z</time>
      </trkpt>
      <trkpt lat="48.85285997763276" lon="3.041799869388342">
        <ele>145</ele>
        <time>2013-07-12T15:40:54.887Z</time>
      </trkpt>
      <trkpt lat="48.852269891649485" lon="3.041269965469837">
        <ele>145</ele>
        <time>2013-07-12T15:41:03.854Z</time>
      </trkpt>
      <trkpt lat="48.84376997128129" lon="3.031279994174838">
        <ele>132</ele>
        <time>2013-07-12T15:41:12.993Z</time>
      </trkpt>
      <trkpt lat="48.84165991097689" lon="3.0284599866718054">
        <ele>133</ele>
        <time>2013-07-12T15:41:22.177Z</time>
      </trkpt>
      <trkpt lat="48.84180625900626" lon="3.027741154655814">
        <ele>133</ele>
        <time>2013-07-12T15:41:31.369Z</time>
      </trkpt>
      <trkpt lat="48.84187985211611" lon="3.027379894629121">
        <ele>133</ele>
        <time>2013-07-12T15:41:40.565Z</time>
      </trkpt>
      <trkpt lat="48.841509874910116" lon="3.0262398719787598">
        <ele>133</ele>
        <time>2013-07-12T15:41:49.774Z</time>
      </trkpt>
      <trkpt lat="48.842789959162474" lon="3.0238699726760387">
        <ele>136</ele>
        <time>2013-07-12T15:41:59.016Z</time>
      </trkpt>
      <trkpt lat="48.843659833073616" lon="3.018979886546731">
        <ele>135</ele>
        <time>2013-07-12T15:42:08.311Z</time>
      </trkpt>
      <trkpt lat="48.854309879243374" lon="3.0184198915958405">
        <ele>142</ele>
        <time>2013-07-12T15:42:17.777Z</time>
      </trkpt>
      <trkpt lat="48.854869958013296" lon="3.018169943243265">
        <ele>145</ele>
        <time>2013-07-12T15:42:27.252Z</time>
      </trkpt>
      <trkpt lat="48.864189963787794" lon="3.00199999473989">
        <ele>147</ele>
        <time>2013-07-12T15:42:36.954Z</time>
      </trkpt>
      <trkpt lat="48.864129949361086" lon="3.000329900532961">
        <ele>144</ele>
        <time>2013-07-12T15:42:46.674Z</time>
      </trkpt>
      <trkpt lat="48.86376994661987" lon="2.9997898545116186">
        <ele>144</ele>
        <time>2013-07-12T15:42:56.402Z</time>
      </trkpt>
      <trkpt lat="48.8629999011755" lon="2.9992998484522104">
        <ele>144</ele>
        <time>2013-07-12T15:43:06.143Z</time>
      </trkpt>
      <trkpt lat="48.862469997256994" lon="2.9983998835086823">
        <ele>146</ele>
        <time>2013-07-12T15:43:15.897Z</time>
      </trkpt>
      <trkpt lat="48.86273989453912" lon="2.9973999224603176">
        <ele>148</ele>
        <time>2013-07-12T15:43:25.663Z</time>
      </trkpt>
      <trkpt lat="48.86271994560957" lon="2.991249952465296">
        <ele>141</ele>
        <time>2013-07-12T15:43:35.494Z</time>
      </trkpt>
      <trkpt lat="48.86243990622461" lon="2.9904498998075724">
        <ele>139</ele>
        <time>2013-07-12T15:43:45.334Z</time>
      </trkpt>
      <trkpt lat="48.86239992454648" lon="2.9895799420773983">
        <ele>137</ele>
        <time>2013-07-12T15:43:55.183Z</time>
      </trkpt>
      <trkpt lat="48.8625199533999" lon="2.984329853206873">
        <ele>140</ele>
        <time>2013-07-12T15:44:05.088Z</time>
      </trkpt>
      <trkpt lat="48.86333995498717" lon="2.979589970782399">
        <ele>145</ele>
        <time>2013-07-12T15:44:15.045Z</time>
      </trkpt>
      <trkpt lat="48.864129949361086" lon="2.9696298390626907">
        <ele>150</ele>
        <time>2013-07-12T15:44:25.108Z</time>
      </trkpt>
      <trkpt lat="48.86688985861838" lon="2.963929893448949">
        <ele>145</ele>
        <time>2013-07-12T15:44:35.245Z</time>
      </trkpt>
      <trkpt lat="48.86822987347841" lon="2.9601699393242598">
        <ele>148</ele>
        <time>2013-07-12T15:44:45.427Z</time>
      </trkpt>
      <trkpt lat="48.865999951958656" lon="2.954689934849739">
        <ele>148</ele>
        <time>2013-07-12T15:44:55.677Z</time>
      </trkpt>
      <trkpt lat="48.86544984765351" lon="2.95090994797647">
        <ele>139</ele>
        <time>2013-07-12T15:45:05.968Z</time>
      </trkpt>
      <trkpt lat="48.86535990983248" lon="2.948809862136841">
        <ele>136</ele>
        <time>2013-07-12T15:45:16.282Z</time>
      </trkpt>
      <trkpt lat="48.864279985427856" lon="2.9419098794460297">
        <ele>104</ele>
        <time>2013-07-12T15:45:26.671Z</time>
      </trkpt>
      <trkpt lat="48.86168997734785" lon="2.933579860255122">
        <ele>91</ele>
        <time>2013-07-12T15:45:37.157Z</time>
      </trkpt>
      <trkpt lat="48.86082999408245" lon="2.927659973502159">
        <ele>81</ele>
        <time>2013-07-12T15:45:47.707Z</time>
      </trkpt>
      <trkpt lat="48.86063997633755" lon="2.925229975953698">
        <ele>77</ele>
        <time>2013-07-12T15:45:58.283Z</time>
      </trkpt>
      <trkpt lat="48.86044995859265" lon="2.92469990439713">
        <ele>75</ele>
        <time>2013-07-12T15:46:08.865Z</time>
      </trkpt>
      <trkpt lat="48.859399957582355" lon="2.9231998790055513">
        <ele>69</ele>
        <time>2013-07-12T15:46:19.470Z</time>
      </trkpt>
      <trkpt lat="48.859059903770685" lon="2.9222199507057667">
        <ele>65</ele>
        <time>2013-07-12T15:46:21.714Z</time>
      </trkpt>
      <trkpt lat="48.859051" lon="2.922223">
        <ele>68.25</ele>
        <time>2013-07-12T15:46:21.742Z</time>
      </trkpt>
      <trkpt lat="48.859028" lon="2.922121">
        <ele>68</ele>
        <time>2013-07-12T15:46:21.960Z</time>
      </trkpt>
      <trkpt lat="48.858961" lon="2.92178">
        <ele>66.5</ele>
        <time>2013-07-12T15:46:22.680Z</time>
      </trkpt>
      <trkpt lat="48.858946" lon="2.920185">
        <ele>62.5</ele>
        <time>2013-07-12T15:46:25.911Z</time>
      </trkpt>
      <trkpt lat="48.858943" lon="2.919824">
        <ele>61</ele>
        <time>2013-07-12T15:46:26.642Z</time>
      </trkpt>
      <trkpt lat="48.859094" lon="2.918309">
        <ele>60</ele>
        <time>2013-07-12T15:46:29.746Z</time>
      </trkpt>
      <trkpt lat="48.859089" lon="2.918163">
        <ele>59.75</ele>
        <time>2013-07-12T15:46:30.042Z</time>
      </trkpt>
      <trkpt lat="48.85908" lon="2.918116">
        <ele>59.5</ele>
        <time>2013-07-12T15:46:30.141Z</time>
      </trkpt>
      <trkpt lat="48.859062" lon="2.918075">
        <ele>59.25</ele>
        <time>2013-07-12T15:46:30.240Z</time>
      </trkpt>
      <trkpt lat="48.859178" lon="2.91736">
        <ele>59.5</ele>
        <time>2013-07-12T15:46:31.731Z</time>
      </trkpt>
      <trkpt lat="48.859377" lon="2.916204">
        <ele>60.25</ele>
        <time>2013-07-12T15:46:34.151Z</time>
      </trkpt>
      <trkpt lat="48.85943" lon="2.91569">
        <ele>60</ele>
        <time>2013-07-12T15:46:35.204Z</time>
      </trkpt>
      <trkpt lat="48.859426" lon="2.915604">
        <ele>59.5</ele>
        <time>2013-07-12T15:46:35.378Z</time>
      </trkpt>
      <trkpt lat="48.859465" lon="2.915155">
        <ele>59</ele>
        <time>2013-07-12T15:46:36.295Z</time>
      </trkpt>
      <trkpt lat="48.85944" lon="2.915027">
        <ele>58.25</ele>
        <time>2013-07-12T15:46:36.565Z</time>
      </trkpt>
      <trkpt lat="48.859388" lon="2.914976">
        <ele>57.25</ele>
        <time>2013-07-12T15:46:36.755Z</time>
      </trkpt>
      <trkpt lat="48.859257" lon="2.914831">
        <ele>55.25</ele>
        <time>2013-07-12T15:46:37.253Z</time>
      </trkpt>
      <trkpt lat="48.859208" lon="2.914777">
        <ele>54.5</ele>
        <time>2013-07-12T15:46:37.439Z</time>
      </trkpt>
      <trkpt lat="48.85907" lon="2.914607">
        <ele>53.5</ele>
        <time>2013-07-12T15:46:37.985Z</time>
      </trkpt>
      <trkpt lat="48.858664" lon="2.914179">
        <ele>52</ele>
        <time>2013-07-12T15:46:39.506Z</time>
      </trkpt>
      <trkpt lat="48.858535" lon="2.914037">
        <ele>51.75</ele>
        <time>2013-07-12T15:46:39.996Z</time>
      </trkpt>
      <trkpt lat="48.858487" lon="2.913991">
        <ele>51.5</ele>
        <time>2013-07-12T15:46:40.170Z</time>
      </trkpt>
      <trkpt lat="48.858481" lon="2.913986">
        <ele>51.5</ele>
        <time>2013-07-12T15:46:40.191Z</time>
      </trkpt>
      <trkpt lat="48.858458" lon="2.913964">
        <ele>51.5</ele>
        <time>2013-07-12T15:46:40.274Z</time>
      </trkpt>
      <trkpt lat="48.858301" lon="2.91382">
        <ele>51.25</ele>
        <time>2013-07-12T15:46:40.838Z</time>
      </trkpt>
      <trkpt lat="48.858266" lon="2.913789">
        <ele>51.25</ele>
        <time>2013-07-12T15:46:40.962Z</time>
      </trkpt>
      <trkpt lat="48.858164" lon="2.9137">
        <ele>51.5</ele>
        <time>2013-07-12T15:46:41.324Z</time>
      </trkpt>
      <trkpt lat="48.858033" lon="2.913539">
        <ele>51.75</ele>
        <time>2013-07-12T15:46:41.842Z</time>
      </trkpt>
      <trkpt lat="48.85802" lon="2.913445">
        <ele>51.75</ele>
        <time>2013-07-12T15:46:42.036Z</time>
      </trkpt>
      <trkpt lat="48.857957" lon="2.911816">
        <ele>52</ele>
        <time>2013-07-12T15:46:45.341Z</time>
      </trkpt>
      <trkpt lat="48.857937" lon="2.911335">
        <ele>52</ele>
        <time>2013-07-12T15:46:46.317Z</time>
      </trkpt>
      <trkpt lat="48.857925" lon="2.911015">
        <ele>52</ele>
        <time>2013-07-12T15:46:46.966Z</time>
      </trkpt>
      <trkpt lat="48.857918" lon="2.91087">
        <ele>52</ele>
        <time>2013-07-12T15:46:47.260Z</time>
      </trkpt>
      <trkpt lat="48.857885" lon="2.910172">
        <ele>52</ele>
        <time>2013-07-12T15:46:48.677Z</time>
      </trkpt>
      <trkpt lat="48.857846" lon="2.909356">
        <ele>52</ele>
        <time>2013-07-12T15:46:50.334Z</time>
      </trkpt>
      <trkpt lat="48.85779" lon="2.908911">
        <ele>51.75</ele>
        <time>2013-07-12T15:46:51.251Z</time>
      </trkpt>
      <trkpt lat="48.857784" lon="2.908822">
        <ele>51.5</ele>
        <time>2013-07-12T15:46:51.432Z</time>
      </trkpt>
      <trkpt lat="48.857761" lon="2.908606">
        <ele>51.5</ele>
        <time>2013-07-12T15:46:51.875Z</time>
      </trkpt>
      <trkpt lat="48.857714" lon="2.908284">
        <ele>51</ele>
        <time>2013-07-12T15:46:52.543Z</time>
      </trkpt>
      <trkpt lat="48.857706" lon="2.908212">
        <ele>51</ele>
        <time>2013-07-12T15:46:52.690Z</time>
      </trkpt>
      <trkpt lat="48.857711" lon="2.908129">
        <ele>51</ele>
        <time>2013-07-12T15:46:52.858Z</time>
      </trkpt>
      <trkpt lat="48.857769" lon="2.907997">
        <ele>51</ele>
        <time>2013-07-12T15:46:53.179Z</time>
      </trkpt>
      <trkpt lat="48.857993" lon="2.907575">
        <ele>50.5</ele>
        <time>2013-07-12T15:46:54.277Z</time>
      </trkpt>
      <trkpt lat="48.858034" lon="2.907496">
        <ele>50.25</ele>
        <time>2013-07-12T15:46:54.480Z</time>
      </trkpt>
      <trkpt lat="48.858003" lon="2.9074">
        <ele>50.25</ele>
        <time>2013-07-12T15:46:54.696Z</time>
      </trkpt>
      <trkpt lat="48.858038" lon="2.907221">
        <ele>50</ele>
        <time>2013-07-12T15:46:55.074Z</time>
      </trkpt>
      <trkpt lat="48.858082" lon="2.90716">
        <ele>50</ele>
        <time>2013-07-12T15:46:55.257Z</time>
      </trkpt>
      <trkpt lat="48.858098" lon="2.907071">
        <ele>49.75</ele>
        <time>2013-07-12T15:46:55.443Z</time>
      </trkpt>
      <trkpt lat="48.858113" lon="2.906985">
        <ele>49.75</ele>
        <time>2013-07-12T15:46:55.623Z</time>
      </trkpt>
      <trkpt lat="48.857904" lon="2.906917">
        <ele>49.25</ele>
        <time>2013-07-12T15:46:56.281Z</time>
      </trkpt>
    </trkseg>
  </trk>
</gpx>
