<?xml version="1.0" encoding="UTF-8"?>
<gpx creator="Garmin Connect" version="1.1" xsi:schemaLocation="http://www.topografix.com/GPX/1/1 http://www.topografix.com/GPX/11.xsd" xmlns:ns3="http://www.garmin.com/xmlschemas/TrackPointExtension/v1" xmlns="http://www.topografix.com/GPX/1/1" xmlns:xsi="http://www.w3.org/2001/XMLSchema-instance" xmlns:ns2="http://www.garmin.com/xmlschemas/GpxExtensions/v3">
	<metadata>
		<name>203-G3-59 km-D 447 m-Chauffry et Amillis</name>
		<link href="connect.garmin.com">
			<text>Garmin Connect</text>
		</link>
		<time>2021-02-25T08:00:00</time>
	</metadata>
	<trk>
		<name>203-G3-59 km-D 447 m-Chauffry et Amillis</name>
		<trkseg>
			<trkpt lat="48.85816999711096" lon="2.907159933820367">
				<ele>49.0</ele>
				<time>2021-02-25T08:00:00</time>
			</trkpt>
			<trkpt lat="48.85667994618416" lon="2.909909952431917">
				<ele>50.0</ele>
				<time>2021-02-25T08:00:41</time>
			</trkpt>
			<trkpt lat="48.85626998730004" lon="2.910999935120344">
				<ele>51.0</ele>
				<time>2021-02-25T08:00:55</time>
			</trkpt>
			<trkpt lat="48.856609957292676" lon="2.9122099466621876">
				<ele>52.0</ele>
				<time>2021-02-25T08:01:10</time>
			</trkpt>
			<trkpt lat="48.85680994950235" lon="2.912789974361658">
				<ele>52.0</ele>
				<time>2021-02-25T08:01:18</time>
			</trkpt>
			<trkpt lat="48.85719995945692" lon="2.9133299365639687">
				<ele>52.0</ele>
				<time>2021-02-25T08:01:27</time>
			</trkpt>
			<trkpt lat="48.85756993666291" lon="2.9135499615222216">
				<ele>52.0</ele>
				<time>2021-02-25T08:01:34</time>
			</trkpt>
			<trkpt lat="48.858069917187095" lon="2.913639983162284">
				<ele>51.0</ele>
				<time>2021-02-25T08:01:43</time>
			</trkpt>
			<trkpt lat="48.858889918774366" lon="2.914329981431365">
				<ele>52.0</ele>
				<time>2021-02-25T08:01:59</time>
			</trkpt>
			<trkpt lat="48.859359975904226" lon="2.9148499947041273">
				<ele>53.0</ele>
				<time>2021-02-25T08:02:09</time>
			</trkpt>
			<trkpt lat="48.859399957582355" lon="2.914989972487092">
				<ele>54.0</ele>
				<time>2021-02-25T08:02:11</time>
			</trkpt>
			<trkpt lat="48.85940993204713" lon="2.9153199680149555">
				<ele>54.0</ele>
				<time>2021-02-25T08:02:15</time>
			</trkpt>
			<trkpt lat="48.859269954264164" lon="2.9163999762386084">
				<ele>56.0</ele>
				<time>2021-02-25T08:02:27</time>
			</trkpt>
			<trkpt lat="48.85901992209256" lon="2.9176699183881283">
				<ele>55.0</ele>
				<time>2021-02-25T08:02:42</time>
			</trkpt>
			<trkpt lat="48.859099969267845" lon="2.9177699983119965">
				<ele>56.0</ele>
				<time>2021-02-25T08:02:44</time>
			</trkpt>
			<trkpt lat="48.85913995094597" lon="2.9180599283427">
				<ele>57.0</ele>
				<time>2021-02-25T08:02:48</time>
			</trkpt>
			<trkpt lat="48.858949933201075" lon="2.919859942048788">
				<ele>58.0</ele>
				<time>2021-02-25T08:03:08</time>
			</trkpt>
			<trkpt lat="48.85897994041443" lon="2.9213499929755926">
				<ele>62.0</ele>
				<time>2021-02-25T08:03:25</time>
			</trkpt>
			<trkpt lat="48.85902998037636" lon="2.921909987926483">
				<ele>64.0</ele>
				<time>2021-02-25T08:03:32</time>
			</trkpt>
			<trkpt lat="48.859099969267845" lon="2.922259932383895">
				<ele>65.0</ele>
				<time>2021-02-25T08:03:36</time>
			</trkpt>
			<trkpt lat="48.859509928151965" lon="2.9233399406075478">
				<ele>70.0</ele>
				<time>2021-02-25T08:03:50</time>
			</trkpt>
			<trkpt lat="48.86046999134123" lon="2.924689929932356">
				<ele>76.0</ele>
				<time>2021-02-25T08:04:13</time>
			</trkpt>
			<trkpt lat="48.860669983550906" lon="2.925159987062216">
				<ele>77.0</ele>
				<time>2021-02-25T08:04:20</time>
			</trkpt>
			<trkpt lat="48.86073997244239" lon="2.9254699498414993">
				<ele>78.0</ele>
				<time>2021-02-25T08:04:23</time>
			</trkpt>
			<trkpt lat="48.86082999408245" lon="2.926269918680191">
				<ele>79.0</ele>
				<time>2021-02-25T08:04:33</time>
			</trkpt>
			<trkpt lat="48.86086997576058" lon="2.9276799224317074">
				<ele>81.0</ele>
				<time>2021-02-25T08:04:49</time>
			</trkpt>
			<trkpt lat="48.86159995570779" lon="2.9328199569135904">
				<ele>90.0</ele>
				<time>2021-02-25T08:05:49</time>
			</trkpt>
			<trkpt lat="48.861809922382236" lon="2.933839950710535">
				<ele>93.0</ele>
				<time>2021-02-25T08:06:01</time>
			</trkpt>
			<trkpt lat="48.863289998844266" lon="2.9383299686014652">
				<ele>96.0</ele>
				<time>2021-02-25T08:06:59</time>
			</trkpt>
			<trkpt lat="48.86396993882954" lon="2.940529966726899">
				<ele>99.0</ele>
				<time>2021-02-25T08:07:27</time>
			</trkpt>
			<trkpt lat="48.86464996263385" lon="2.943829922005534">
				<ele>107.0</ele>
				<time>2021-02-25T08:08:06</time>
			</trkpt>
			<trkpt lat="48.86537994258106" lon="2.948499983176589">
				<ele>135.0</ele>
				<time>2021-02-25T08:09:01</time>
			</trkpt>
			<trkpt lat="48.86551992036402" lon="2.9512199945747852">
				<ele>140.0</ele>
				<time>2021-02-25T08:09:32</time>
			</trkpt>
			<trkpt lat="48.866059966385365" lon="2.954669985920191">
				<ele>148.0</ele>
				<time>2021-02-25T08:10:13</time>
			</trkpt>
			<trkpt lat="48.86627999134362" lon="2.9552899952977896">
				<ele>149.0</ele>
				<time>2021-02-25T08:10:21</time>
			</trkpt>
			<trkpt lat="48.86828997172415" lon="2.9601499903947115">
				<ele>148.0</ele>
				<time>2021-02-25T08:11:27</time>
			</trkpt>
			<trkpt lat="48.86810992844403" lon="2.9605999309569597">
				<ele>148.0</ele>
				<time>2021-02-25T08:11:33</time>
			</trkpt>
			<trkpt lat="48.8672099635005" lon="2.963309967890382">
				<ele>145.0</ele>
				<time>2021-02-25T08:12:08</time>
			</trkpt>
			<trkpt lat="48.866859935224056" lon="2.9641699511557817">
				<ele>145.0</ele>
				<time>2021-02-25T08:12:19</time>
			</trkpt>
			<trkpt lat="48.86507995426655" lon="2.9676899313926697">
				<ele>149.0</ele>
				<time>2021-02-25T08:13:10</time>
			</trkpt>
			<trkpt lat="48.864189963787794" lon="2.9696199484169483">
				<ele>150.0</ele>
				<time>2021-02-25T08:13:37</time>
			</trkpt>
			<trkpt lat="48.864109916612506" lon="2.9701299872249365">
				<ele>150.0</ele>
				<time>2021-02-25T08:13:43</time>
			</trkpt>
			<trkpt lat="48.86359996162355" lon="2.9763999860733747">
				<ele>147.0</ele>
				<time>2021-02-25T08:14:55</time>
			</trkpt>
			<trkpt lat="48.86348999105394" lon="2.9773699399083853">
				<ele>147.0</ele>
				<time>2021-02-25T08:15:07</time>
			</trkpt>
			<trkpt lat="48.863309947773814" lon="2.9796599596738815">
				<ele>145.0</ele>
				<time>2021-02-25T08:15:33</time>
			</trkpt>
			<trkpt lat="48.862709971144795" lon="2.9827699810266495">
				<ele>140.0</ele>
				<time>2021-02-25T08:16:10</time>
			</trkpt>
			<trkpt lat="48.862579967826605" lon="2.984159952029586">
				<ele>140.0</ele>
				<time>2021-02-25T08:16:26</time>
			</trkpt>
			<trkpt lat="48.86247997172177" lon="2.9860599618405104">
				<ele>142.0</ele>
				<time>2021-02-25T08:16:48</time>
			</trkpt>
			<trkpt lat="48.86249992065132" lon="2.988409996032715">
				<ele>139.0</ele>
				<time>2021-02-25T08:17:15</time>
			</trkpt>
			<trkpt lat="48.862369917333126" lon="2.989929970353842">
				<ele>137.0</ele>
				<time>2021-02-25T08:17:32</time>
			</trkpt>
			<trkpt lat="48.86241995729506" lon="2.9905799869447947">
				<ele>139.0</ele>
				<time>2021-02-25T08:17:40</time>
			</trkpt>
			<trkpt lat="48.86248994618654" lon="2.990619968622923">
				<ele>139.0</ele>
				<time>2021-02-25T08:17:41</time>
			</trkpt>
			<trkpt lat="48.862579967826605" lon="2.99082993529737">
				<ele>140.0</ele>
				<time>2021-02-25T08:17:44</time>
			</trkpt>
			<trkpt lat="48.86269999668002" lon="2.99127995967865">
				<ele>140.0</ele>
				<time>2021-02-25T08:17:50</time>
			</trkpt>
			<trkpt lat="48.862689938396215" lon="2.993539972230792">
				<ele>143.0</ele>
				<time>2021-02-25T08:18:16</time>
			</trkpt>
			<trkpt lat="48.862689938396215" lon="2.995919929817319">
				<ele>146.0</ele>
				<time>2021-02-25T08:18:43</time>
			</trkpt>
			<trkpt lat="48.86267996393144" lon="2.9976299218833447">
				<ele>147.0</ele>
				<time>2021-02-25T08:19:02</time>
			</trkpt>
			<trkpt lat="48.86264995671809" lon="2.9977899324148893">
				<ele>147.0</ele>
				<time>2021-02-25T08:19:04</time>
			</trkpt>
			<trkpt lat="48.86239992454648" lon="2.998429974541068">
				<ele>146.0</ele>
				<time>2021-02-25T08:19:13</time>
			</trkpt>
			<trkpt lat="48.86259991675615" lon="2.99881998449564">
				<ele>145.0</ele>
				<time>2021-02-25T08:19:18</time>
			</trkpt>
			<trkpt lat="48.86297995224595" lon="2.9993899539113045">
				<ele>144.0</ele>
				<time>2021-02-25T08:19:28</time>
			</trkpt>
			<trkpt lat="48.863139962777495" lon="2.999529931694269">
				<ele>144.0</ele>
				<time>2021-02-25T08:19:31</time>
			</trkpt>
			<trkpt lat="48.863609936088324" lon="2.999729923903942">
				<ele>144.0</ele>
				<time>2021-02-25T08:19:39</time>
			</trkpt>
			<trkpt lat="48.86407999321818" lon="3.0003599915653467">
				<ele>144.0</ele>
				<time>2021-02-25T08:19:50</time>
			</trkpt>
			<trkpt lat="48.86411997489631" lon="3.00199999473989">
				<ele>147.0</ele>
				<time>2021-02-25T08:20:09</time>
			</trkpt>
			<trkpt lat="48.86344992555678" lon="3.0031699407845736">
				<ele>147.0</ele>
				<time>2021-02-25T08:20:27</time>
			</trkpt>
			<trkpt lat="48.86034996248782" lon="3.0085399746894836">
				<ele>144.0</ele>
				<time>2021-02-25T08:21:49</time>
			</trkpt>
			<trkpt lat="48.85710993781686" lon="3.01441996358335">
				<ele>148.0</ele>
				<time>2021-02-25T08:23:17</time>
			</trkpt>
			<trkpt lat="48.85620997287333" lon="3.015939937904477">
				<ele>144.0</ele>
				<time>2021-02-25T08:23:40</time>
			</trkpt>
			<trkpt lat="48.85545996017754" lon="3.0173199344426394">
				<ele>146.0</ele>
				<time>2021-02-25T08:24:00</time>
			</trkpt>
			<trkpt lat="48.85504991747439" lon="3.017959976568818">
				<ele>146.0</ele>
				<time>2021-02-25T08:24:11</time>
			</trkpt>
			<trkpt lat="48.854719921946526" lon="3.018589960411191">
				<ele>142.0</ele>
				<time>2021-02-25T08:24:20</time>
			</trkpt>
			<trkpt lat="48.85368995368481" lon="3.018569927662611">
				<ele>139.0</ele>
				<time>2021-02-25T08:24:38</time>
			</trkpt>
			<trkpt lat="48.85030081495643" lon="3.0186898726969957">
				<ele>136.0</ele>
				<time>2021-02-25T08:25:37</time>
			</trkpt>
			<trkpt lat="48.85029997676611" lon="3.0186899565160275">
				<ele>136.0</ele>
				<time>2021-02-25T08:25:37</time>
			</trkpt>
			<trkpt lat="48.847519950941205" lon="3.018869999796152">
				<ele>134.0</ele>
				<time>2021-02-25T08:26:25</time>
			</trkpt>
			<trkpt lat="48.843649942427874" lon="3.019029926508665">
				<ele>135.0</ele>
				<time>2021-02-25T08:27:33</time>
			</trkpt>
			<trkpt lat="48.84346998296678" lon="3.0191099736839533">
				<ele>136.0</ele>
				<time>2021-02-25T08:27:36</time>
			</trkpt>
			<trkpt lat="48.84338993579149" lon="3.019259925931692">
				<ele>136.0</ele>
				<time>2021-02-25T08:27:38</time>
			</trkpt>
			<trkpt lat="48.843369986861944" lon="3.0194299947470427">
				<ele>137.0</ele>
				<time>2021-02-25T08:27:40</time>
			</trkpt>
			<trkpt lat="48.84329999797046" lon="3.020579991862178">
				<ele>140.0</ele>
				<time>2021-02-25T08:27:53</time>
			</trkpt>
			<trkpt lat="48.84268996305764" lon="3.023889921605587">
				<ele>137.0</ele>
				<time>2021-02-25T08:28:33</time>
			</trkpt>
			<trkpt lat="48.8425899669528" lon="3.024149928241968">
				<ele>136.0</ele>
				<time>2021-02-25T08:28:36</time>
			</trkpt>
			<trkpt lat="48.84198999032378" lon="3.0251899547874928">
				<ele>133.0</ele>
				<time>2021-02-25T08:28:52</time>
			</trkpt>
			<trkpt lat="48.84136998094618" lon="3.026109952479601">
				<ele>134.0</ele>
				<time>2021-02-25T08:29:07</time>
			</trkpt>
			<trkpt lat="48.8412999920547" lon="3.026339951902628">
				<ele>134.0</ele>
				<time>2021-02-25T08:29:10</time>
			</trkpt>
			<trkpt lat="48.841309966519475" lon="3.026649998500943">
				<ele>133.0</ele>
				<time>2021-02-25T08:29:14</time>
			</trkpt>
			<trkpt lat="48.84161992929876" lon="3.0271199718117714">
				<ele>133.0</ele>
				<time>2021-02-25T08:29:21</time>
			</trkpt>
			<trkpt lat="48.84182997979224" lon="3.0277499556541443">
				<ele>133.0</ele>
				<time>2021-02-25T08:29:29</time>
			</trkpt>
			<trkpt lat="48.8417299836874" lon="3.028079951182008">
				<ele>133.0</ele>
				<time>2021-02-25T08:29:33</time>
			</trkpt>
			<trkpt lat="48.84150995872915" lon="3.0284499283879995">
				<ele>133.0</ele>
				<time>2021-02-25T08:29:39</time>
			</trkpt>
			<trkpt lat="48.84133997373283" lon="3.028539950028062">
				<ele>134.0</ele>
				<time>2021-02-25T08:29:42</time>
			</trkpt>
			<trkpt lat="48.84114995598793" lon="3.028819989413023">
				<ele>134.0</ele>
				<time>2021-02-25T08:29:47</time>
			</trkpt>
			<trkpt lat="48.84088994935155" lon="3.029259955510497">
				<ele>133.0</ele>
				<time>2021-02-25T08:29:54</time>
			</trkpt>
			<trkpt lat="48.840429950505495" lon="3.029859932139516">
				<ele>132.0</ele>
				<time>2021-02-25T08:30:04</time>
			</trkpt>
			<trkpt lat="48.83960994891822" lon="3.03074992261827">
				<ele>131.0</ele>
				<time>2021-02-25T08:30:22</time>
			</trkpt>
			<trkpt lat="48.83798997849226" lon="3.0318099819123745">
				<ele>130.0</ele>
				<time>2021-02-25T08:30:52</time>
			</trkpt>
			<trkpt lat="48.83591998368502" lon="3.0334999412298203">
				<ele>131.0</ele>
				<time>2021-02-25T08:31:33</time>
			</trkpt>
			<trkpt lat="48.83538999594748" lon="3.0338399950414896">
				<ele>129.0</ele>
				<time>2021-02-25T08:31:43</time>
			</trkpt>
			<trkpt lat="48.83458994328976" lon="3.0341599322855473">
				<ele>128.0</ele>
				<time>2021-02-25T08:31:58</time>
			</trkpt>
			<trkpt lat="48.83323995396495" lon="3.034519935026765">
				<ele>127.0</ele>
				<time>2021-02-25T08:32:22</time>
			</trkpt>
			<trkpt lat="48.83256998844445" lon="3.034579949453473">
				<ele>125.0</ele>
				<time>2021-02-25T08:32:33</time>
			</trkpt>
			<trkpt lat="48.831279929727316" lon="3.0344299972057343">
				<ele>125.0</ele>
				<time>2021-02-25T08:32:56</time>
			</trkpt>
			<trkpt lat="48.83108999580145" lon="3.034989992156625">
				<ele>124.0</ele>
				<time>2021-02-25T08:33:03</time>
			</trkpt>
			<trkpt lat="48.83095999248326" lon="3.0350899882614613">
				<ele>123.0</ele>
				<time>2021-02-25T08:33:06</time>
			</trkpt>
			<trkpt lat="48.83006991818547" lon="3.0351399444043636">
				<ele>121.0</ele>
				<time>2021-02-25T08:33:21</time>
			</trkpt>
			<trkpt lat="48.82879997603595" lon="3.0356199759989977">
				<ele>116.0</ele>
				<time>2021-02-25T08:33:44</time>
			</trkpt>
			<trkpt lat="48.82816999219358" lon="3.0357399210333824">
				<ele>114.0</ele>
				<time>2021-02-25T08:33:55</time>
			</trkpt>
			<trkpt lat="48.827839996665716" lon="3.035859949886799">
				<ele>111.0</ele>
				<time>2021-02-25T08:34:01</time>
			</trkpt>
			<trkpt lat="48.82698998786509" lon="3.037009947001934">
				<ele>105.0</ele>
				<time>2021-02-25T08:34:21</time>
			</trkpt>
			<trkpt lat="48.826699974015355" lon="3.037179931998253">
				<ele>103.0</ele>
				<time>2021-02-25T08:34:26</time>
			</trkpt>
			<trkpt lat="48.82610997185111" lon="3.0373999569565058">
				<ele>98.0</ele>
				<time>2021-02-25T08:34:37</time>
			</trkpt>
			<trkpt lat="48.82526993751526" lon="3.037629956379533">
				<ele>94.0</ele>
				<time>2021-02-25T08:34:51</time>
			</trkpt>
			<trkpt lat="48.82358995266259" lon="3.0377099197357893">
				<ele>81.0</ele>
				<time>2021-02-25T08:35:21</time>
			</trkpt>
			<trkpt lat="48.82148995064199" lon="3.0377099197357893">
				<ele>71.0</ele>
				<time>2021-02-25T08:35:57</time>
			</trkpt>
			<trkpt lat="48.8215499650687" lon="3.0373999569565058">
				<ele>71.0</ele>
				<time>2021-02-25T08:36:01</time>
			</trkpt>
			<trkpt lat="48.82112994790077" lon="3.0373399425297976">
				<ele>69.0</ele>
				<time>2021-02-25T08:36:08</time>
			</trkpt>
			<trkpt lat="48.82080992683768" lon="3.0373599752783775">
				<ele>67.0</ele>
				<time>2021-02-25T08:36:14</time>
			</trkpt>
			<trkpt lat="48.82067992351949" lon="3.03740993142128">
				<ele>66.0</ele>
				<time>2021-02-25T08:36:16</time>
			</trkpt>
			<trkpt lat="48.820579927414656" lon="3.037609923630953">
				<ele>66.0</ele>
				<time>2021-02-25T08:36:19</time>
			</trkpt>
			<trkpt lat="48.82037993520498" lon="3.03740993142128">
				<ele>64.0</ele>
				<time>2021-02-25T08:36:23</time>
			</trkpt>
			<trkpt lat="48.81940998136997" lon="3.0370799358934164">
				<ele>62.0</ele>
				<time>2021-02-25T08:36:41</time>
			</trkpt>
			<trkpt lat="48.81905995309353" lon="3.037039954215288">
				<ele>62.0</ele>
				<time>2021-02-25T08:36:47</time>
			</trkpt>
			<trkpt lat="48.818709924817085" lon="3.0371599830687046">
				<ele>62.0</ele>
				<time>2021-02-25T08:36:53</time>
			</trkpt>
			<trkpt lat="48.81783996708691" lon="3.037909995764494">
				<ele>70.0</ele>
				<time>2021-02-25T08:37:10</time>
			</trkpt>
			<trkpt lat="48.817439982667565" lon="3.0389099568128586">
				<ele>75.0</ele>
				<time>2021-02-25T08:37:24</time>
			</trkpt>
			<trkpt lat="48.81720998324454" lon="3.0397399328649044">
				<ele>78.0</ele>
				<time>2021-02-25T08:37:34</time>
			</trkpt>
			<trkpt lat="48.816989958286285" lon="3.040319960564375">
				<ele>77.0</ele>
				<time>2021-02-25T08:37:42</time>
			</trkpt>
			<trkpt lat="48.816729951649904" lon="3.040759926661849">
				<ele>77.0</ele>
				<time>2021-02-25T08:37:48</time>
			</trkpt>
			<trkpt lat="48.81628998555243" lon="3.0413299798965454">
				<ele>78.0</ele>
				<time>2021-02-25T08:37:59</time>
			</trkpt>
			<trkpt lat="48.8160499278456" lon="3.041519997641444">
				<ele>79.0</ele>
				<time>2021-02-25T08:38:03</time>
			</trkpt>
			<trkpt lat="48.81507997401059" lon="3.0420099198818207">
				<ele>85.0</ele>
				<time>2021-02-25T08:38:21</time>
			</trkpt>
			<trkpt lat="48.81435996852815" lon="3.0425099842250347">
				<ele>86.0</ele>
				<time>2021-02-25T08:38:35</time>
			</trkpt>
			<trkpt lat="48.813809948042035" lon="3.04449993185699">
				<ele>84.0</ele>
				<time>2021-02-25T08:39:00</time>
			</trkpt>
			<trkpt lat="48.813619930297136" lon="3.044779971241951">
				<ele>84.0</ele>
				<time>2021-02-25T08:39:04</time>
			</trkpt>
			<trkpt lat="48.81338993087411" lon="3.0448499601334333">
				<ele>84.0</ele>
				<time>2021-02-25T08:39:08</time>
			</trkpt>
			<trkpt lat="48.8128499686718" lon="3.044549971818924">
				<ele>84.0</ele>
				<time>2021-02-25T08:39:18</time>
			</trkpt>
			<trkpt lat="48.81091995164752" lon="3.043489996343851">
				<ele>92.0</ele>
				<time>2021-02-25T08:39:54</time>
			</trkpt>
			<trkpt lat="48.810499934479594" lon="3.0434799380600452">
				<ele>93.0</ele>
				<time>2021-02-25T08:40:01</time>
			</trkpt>
			<trkpt lat="48.80998997949064" lon="3.0437299702316523">
				<ele>94.0</ele>
				<time>2021-02-25T08:40:11</time>
			</trkpt>
			<trkpt lat="48.80794999189675" lon="3.0463999416679144">
				<ele>110.0</ele>
				<time>2021-02-25T08:40:57</time>
			</trkpt>
			<trkpt lat="48.80711993202567" lon="3.04767994210124">
				<ele>109.0</ele>
				<time>2021-02-25T08:41:18</time>
			</trkpt>
			<trkpt lat="48.80649992264807" lon="3.048549983650446">
				<ele>113.0</ele>
				<time>2021-02-25T08:41:33</time>
			</trkpt>
			<trkpt lat="48.80632993765175" lon="3.0489399936050177">
				<ele>116.0</ele>
				<time>2021-02-25T08:41:38</time>
			</trkpt>
			<trkpt lat="48.806159952655435" lon="3.0500399507582188">
				<ele>121.0</ele>
				<time>2021-02-25T08:41:51</time>
			</trkpt>
			<trkpt lat="48.8060599565506" lon="3.051429921761155">
				<ele>121.0</ele>
				<time>2021-02-25T08:42:07</time>
			</trkpt>
			<trkpt lat="48.8060599565506" lon="3.0519199278205633">
				<ele>122.0</ele>
				<time>2021-02-25T08:42:13</time>
			</trkpt>
			<trkpt lat="48.80592995323241" lon="3.053239993751049">
				<ele>125.0</ele>
				<time>2021-02-25T08:42:28</time>
			</trkpt>
			<trkpt lat="48.805709928274155" lon="3.054529968649149">
				<ele>127.0</ele>
				<time>2021-02-25T08:42:43</time>
			</trkpt>
			<trkpt lat="48.805439947173" lon="3.0555099807679653">
				<ele>128.0</ele>
				<time>2021-02-25T08:42:55</time>
			</trkpt>
			<trkpt lat="48.805439947173" lon="3.055839976295829">
				<ele>128.0</ele>
				<time>2021-02-25T08:42:59</time>
			</trkpt>
			<trkpt lat="48.80550993606448" lon="3.056309949606657">
				<ele>128.0</ele>
				<time>2021-02-25T08:43:05</time>
			</trkpt>
			<trkpt lat="48.805729961022735" lon="3.057229947298765">
				<ele>127.0</ele>
				<time>2021-02-25T08:43:16</time>
			</trkpt>
			<trkpt lat="48.80588997155428" lon="3.057669997215271">
				<ele>127.0</ele>
				<time>2021-02-25T08:43:22</time>
			</trkpt>
			<trkpt lat="48.80594998598099" lon="3.0579499527812004">
				<ele>126.0</ele>
				<time>2021-02-25T08:43:25</time>
			</trkpt>
			<trkpt lat="48.80612994544208" lon="3.0584099516272545">
				<ele>125.0</ele>
				<time>2021-02-25T08:43:31</time>
			</trkpt>
			<trkpt lat="48.80623999983072" lon="3.0591499898582697">
				<ele>125.0</ele>
				<time>2021-02-25T08:43:40</time>
			</trkpt>
			<trkpt lat="48.8060599565506" lon="3.0604199320077896">
				<ele>127.0</ele>
				<time>2021-02-25T08:43:55</time>
			</trkpt>
			<trkpt lat="48.80601997487247" lon="3.0612899735569954">
				<ele>126.0</ele>
				<time>2021-02-25T08:44:05</time>
			</trkpt>
			<trkpt lat="48.805599957704544" lon="3.061209926381707">
				<ele>128.0</ele>
				<time>2021-02-25T08:44:12</time>
			</trkpt>
			<trkpt lat="48.80498992279172" lon="3.061249991878867">
				<ele>131.0</ele>
				<time>2021-02-25T08:44:23</time>
			</trkpt>
			<trkpt lat="48.80480996333063" lon="3.061369936913252">
				<ele>131.0</ele>
				<time>2021-02-25T08:44:26</time>
			</trkpt>
			<trkpt lat="48.804549956694245" lon="3.061679983511567">
				<ele>131.0</ele>
				<time>2021-02-25T08:44:32</time>
			</trkpt>
			<trkpt lat="48.80446999333799" lon="3.061869917437434">
				<ele>131.0</ele>
				<time>2021-02-25T08:44:35</time>
			</trkpt>
			<trkpt lat="48.804419953376055" lon="3.0621599312871695">
				<ele>132.0</ele>
				<time>2021-02-25T08:44:38</time>
			</trkpt>
			<trkpt lat="48.80451994948089" lon="3.062789998948574">
				<ele>132.0</ele>
				<time>2021-02-25T08:44:45</time>
			</trkpt>
			<trkpt lat="48.803559970110655" lon="3.0639499705284834">
				<ele>136.0</ele>
				<time>2021-02-25T08:45:07</time>
			</trkpt>
			<trkpt lat="48.80347992293537" lon="3.0641699954867363">
				<ele>136.0</ele>
				<time>2021-02-25T08:45:10</time>
			</trkpt>
			<trkpt lat="48.803409934043884" lon="3.0645999871194363">
				<ele>137.0</ele>
				<time>2021-02-25T08:45:15</time>
			</trkpt>
			<trkpt lat="48.803539937362075" lon="3.065619980916381">
				<ele>139.0</ele>
				<time>2021-02-25T08:45:27</time>
			</trkpt>
			<trkpt lat="48.80350993014872" lon="3.0657199770212173">
				<ele>139.0</ele>
				<time>2021-02-25T08:45:28</time>
			</trkpt>
			<trkpt lat="48.80287994630635" lon="3.0668499413877726">
				<ele>139.0</ele>
				<time>2021-02-25T08:45:45</time>
			</trkpt>
			<trkpt lat="48.80272999405861" lon="3.067199969664216">
				<ele>140.0</ele>
				<time>2021-02-25T08:45:50</time>
			</trkpt>
			<trkpt lat="48.80245992913842" lon="3.0683999229222536">
				<ele>141.0</ele>
				<time>2021-02-25T08:46:04</time>
			</trkpt>
			<trkpt lat="48.8022399879992" lon="3.0699999444186687">
				<ele>143.0</ele>
				<time>2021-02-25T08:46:23</time>
			</trkpt>
			<trkpt lat="48.80071992985904" lon="3.072009924799204">
				<ele>142.0</ele>
				<time>2021-02-25T08:46:58</time>
			</trkpt>
			<trkpt lat="48.80030997097492" lon="3.0724199675023556">
				<ele>144.0</ele>
				<time>2021-02-25T08:47:07</time>
			</trkpt>
			<trkpt lat="48.798769963905215" lon="3.0734999757260084">
				<ele>147.0</ele>
				<time>2021-02-25T08:47:36</time>
			</trkpt>
			<trkpt lat="48.79822991788387" lon="3.0739799235016108">
				<ele>150.0</ele>
				<time>2021-02-25T08:47:47</time>
			</trkpt>
			<trkpt lat="48.797479989007115" lon="3.0739699490368366">
				<ele>153.0</ele>
				<time>2021-02-25T08:48:00</time>
			</trkpt>
			<trkpt lat="48.79714999347925" lon="3.073799964040518">
				<ele>153.0</ele>
				<time>2021-02-25T08:48:06</time>
			</trkpt>
			<trkpt lat="48.79685997962952" lon="3.0739299673587084">
				<ele>153.0</ele>
				<time>2021-02-25T08:48:11</time>
			</trkpt>
			<trkpt lat="48.79679996520281" lon="3.0737699568271637">
				<ele>153.0</ele>
				<time>2021-02-25T08:48:14</time>
			</trkpt>
			<trkpt lat="48.796659987419844" lon="3.073619920760393">
				<ele>153.0</ele>
				<time>2021-02-25T08:48:16</time>
			</trkpt>
			<trkpt lat="48.79653995856643" lon="3.073579939082265">
				<ele>153.0</ele>
				<time>2021-02-25T08:48:19</time>
			</trkpt>
			<trkpt lat="48.79636997357011" lon="3.0736499279737473">
				<ele>152.0</ele>
				<time>2021-02-25T08:48:22</time>
			</trkpt>
			<trkpt lat="48.796279951930046" lon="3.0737599823623896">
				<ele>152.0</ele>
				<time>2021-02-25T08:48:24</time>
			</trkpt>
			<trkpt lat="48.796209963038564" lon="3.0739999562501907">
				<ele>152.0</ele>
				<time>2021-02-25T08:48:27</time>
			</trkpt>
			<trkpt lat="48.79619998857379" lon="3.0741799995303154">
				<ele>152.0</ele>
				<time>2021-02-25T08:48:29</time>
			</trkpt>
			<trkpt lat="48.796279951930046" lon="3.0744299478828907">
				<ele>152.0</ele>
				<time>2021-02-25T08:48:32</time>
			</trkpt>
			<trkpt lat="48.79579992033541" lon="3.0748699977993965">
				<ele>150.0</ele>
				<time>2021-02-25T08:48:42</time>
			</trkpt>
			<trkpt lat="48.79522995091975" lon="3.075119946151972">
				<ele>151.0</ele>
				<time>2021-02-25T08:48:52</time>
			</trkpt>
			<trkpt lat="48.793419962748885" lon="3.075659992173314">
				<ele>148.0</ele>
				<time>2021-02-25T08:49:24</time>
			</trkpt>
			<trkpt lat="48.79297999665141" lon="3.0757199227809906">
				<ele>146.0</ele>
				<time>2021-02-25T08:49:32</time>
			</trkpt>
			<trkpt lat="48.79218991845846" lon="3.0757199227809906">
				<ele>146.0</ele>
				<time>2021-02-25T08:49:46</time>
			</trkpt>
			<trkpt lat="48.79031999967992" lon="3.0761799216270447">
				<ele>145.0</ele>
				<time>2021-02-25T08:50:19</time>
			</trkpt>
			<trkpt lat="48.78998992033303" lon="3.0763599649071693">
				<ele>145.0</ele>
				<time>2021-02-25T08:50:25</time>
			</trkpt>
			<trkpt lat="48.789619943127036" lon="3.0766599532216787">
				<ele>145.0</ele>
				<time>2021-02-25T08:50:32</time>
			</trkpt>
			<trkpt lat="48.788369949907064" lon="3.078029975295067">
				<ele>142.0</ele>
				<time>2021-02-25T08:50:59</time>
			</trkpt>
			<trkpt lat="48.7884699460119" lon="3.0784499924629927">
				<ele>142.0</ele>
				<time>2021-02-25T08:51:04</time>
			</trkpt>
			<trkpt lat="48.789020888507366" lon="3.08014296926558">
				<ele>141.0</ele>
				<time>2021-02-25T08:51:26</time>
			</trkpt>
			<trkpt lat="48.78901996649802" lon="3.0801399517804384">
				<ele>141.0</ele>
				<time>2021-02-25T08:51:26</time>
			</trkpt>
			<trkpt lat="48.78904997371137" lon="3.0803599767386913">
				<ele>141.0</ele>
				<time>2021-02-25T08:51:28</time>
			</trkpt>
			<trkpt lat="48.78901996649802" lon="3.0805699434131384">
				<ele>141.0</ele>
				<time>2021-02-25T08:51:31</time>
			</trkpt>
			<trkpt lat="48.78895995207131" lon="3.080709921196103">
				<ele>141.0</ele>
				<time>2021-02-25T08:51:33</time>
			</trkpt>
			<trkpt lat="48.78829996101558" lon="3.0817399732768536">
				<ele>140.0</ele>
				<time>2021-02-25T08:51:49</time>
			</trkpt>
			<trkpt lat="48.78812997601926" lon="3.0821899976581335">
				<ele>141.0</ele>
				<time>2021-02-25T08:51:55</time>
			</trkpt>
			<trkpt lat="48.78801992163062" lon="3.08267991989851">
				<ele>142.0</ele>
				<time>2021-02-25T08:52:01</time>
			</trkpt>
			<trkpt lat="48.78802997991443" lon="3.0832999292761087">
				<ele>141.0</ele>
				<time>2021-02-25T08:52:08</time>
			</trkpt>
			<trkpt lat="48.7877999804914" lon="3.084019934758544">
				<ele>141.0</ele>
				<time>2021-02-25T08:52:17</time>
			</trkpt>
			<trkpt lat="48.78783996216953" lon="3.0848199874162674">
				<ele>142.0</ele>
				<time>2021-02-25T08:52:26</time>
			</trkpt>
			<trkpt lat="48.787769973278046" lon="3.0848899763077497">
				<ele>142.0</ele>
				<time>2021-02-25T08:52:28</time>
			</trkpt>
			<trkpt lat="48.7867499794811" lon="3.085379982367158">
				<ele>144.0</ele>
				<time>2021-02-25T08:52:46</time>
			</trkpt>
			<trkpt lat="48.78384992480278" lon="3.0865999683737755">
				<ele>141.0</ele>
				<time>2021-02-25T08:53:39</time>
			</trkpt>
			<trkpt lat="48.78175998106599" lon="3.087329948320985">
				<ele>138.0</ele>
				<time>2021-02-25T08:54:16</time>
			</trkpt>
			<trkpt lat="48.77982996404171" lon="3.0876999255269766">
				<ele>136.0</ele>
				<time>2021-02-25T08:54:50</time>
			</trkpt>
			<trkpt lat="48.77916997298598" lon="3.0879599321633577">
				<ele>136.0</ele>
				<time>2021-02-25T08:55:02</time>
			</trkpt>
			<trkpt lat="48.77887995913625" lon="3.0879999976605177">
				<ele>137.0</ele>
				<time>2021-02-25T08:55:07</time>
			</trkpt>
			<trkpt lat="48.77860997803509" lon="3.0879499576985836">
				<ele>137.0</ele>
				<time>2021-02-25T08:55:12</time>
			</trkpt>
			<trkpt lat="48.778119971975684" lon="3.08761996217072">
				<ele>137.0</ele>
				<time>2021-02-25T08:55:21</time>
			</trkpt>
			<trkpt lat="48.77791997976601" lon="3.0875399988144636">
				<ele>137.0</ele>
				<time>2021-02-25T08:55:25</time>
			</trkpt>
			<trkpt lat="48.777479929849505" lon="3.087589954957366">
				<ele>137.0</ele>
				<time>2021-02-25T08:55:32</time>
			</trkpt>
			<trkpt lat="48.77701993100345" lon="3.0878799688071012">
				<ele>138.0</ele>
				<time>2021-02-25T08:55:41</time>
			</trkpt>
			<trkpt lat="48.77623999491334" lon="3.088879929855466">
				<ele>139.0</ele>
				<time>2021-02-25T08:55:59</time>
			</trkpt>
			<trkpt lat="48.77599993720651" lon="3.089129962027073">
				<ele>139.0</ele>
				<time>2021-02-25T08:56:04</time>
			</trkpt>
			<trkpt lat="48.774939961731434" lon="3.0896799825131893">
				<ele>139.0</ele>
				<time>2021-02-25T08:56:23</time>
			</trkpt>
			<trkpt lat="48.77430997788906" lon="3.090309966355562">
				<ele>139.0</ele>
				<time>2021-02-25T08:56:36</time>
			</trkpt>
			<trkpt lat="48.77380999736488" lon="3.0906499363482">
				<ele>138.0</ele>
				<time>2021-02-25T08:56:46</time>
			</trkpt>
			<trkpt lat="48.77349995076656" lon="3.090759990736842">
				<ele>138.0</ele>
				<time>2021-02-25T08:56:52</time>
			</trkpt>
			<trkpt lat="48.77304992638528" lon="3.0907799396663904">
				<ele>137.0</ele>
				<time>2021-02-25T08:56:59</time>
			</trkpt>
			<trkpt lat="48.772429917007685" lon="3.090469976887107">
				<ele>137.0</ele>
				<time>2021-02-25T08:57:11</time>
			</trkpt>
			<trkpt lat="48.77191996201873" lon="3.090449944138527">
				<ele>137.0</ele>
				<time>2021-02-25T08:57:20</time>
			</trkpt>
			<trkpt lat="48.76927999779582" lon="3.092669975012541">
				<ele>130.0</ele>
				<time>2021-02-25T08:58:12</time>
			</trkpt>
			<trkpt lat="48.7676699180156" lon="3.0932699516415596">
				<ele>131.0</ele>
				<time>2021-02-25T08:58:41</time>
			</trkpt>
			<trkpt lat="48.7659499514848" lon="3.0941099859774113">
				<ele>131.0</ele>
				<time>2021-02-25T08:59:12</time>
			</trkpt>
			<trkpt lat="48.765619955956936" lon="3.094079978764057">
				<ele>130.0</ele>
				<time>2021-02-25T08:59:18</time>
			</trkpt>
			<trkpt lat="48.76501997932792" lon="3.092069998383522">
				<ele>129.0</ele>
				<time>2021-02-25T08:59:44</time>
			</trkpt>
			<trkpt lat="48.764479933306575" lon="3.0899599380791187">
				<ele>126.0</ele>
				<time>2021-02-25T09:00:09</time>
			</trkpt>
			<trkpt lat="48.76407994888723" lon="3.089139936491847">
				<ele>125.0</ele>
				<time>2021-02-25T09:00:21</time>
			</trkpt>
			<trkpt lat="48.76402999274433" lon="3.088969951495528">
				<ele>125.0</ele>
				<time>2021-02-25T09:00:23</time>
			</trkpt>
			<trkpt lat="48.76395992003381" lon="3.0885199271142483">
				<ele>124.0</ele>
				<time>2021-02-25T09:00:29</time>
			</trkpt>
			<trkpt lat="48.76395992003381" lon="3.087329948320985">
				<ele>126.0</ele>
				<time>2021-02-25T09:00:42</time>
			</trkpt>
			<trkpt lat="48.763939971104264" lon="3.087149988859892">
				<ele>126.0</ele>
				<time>2021-02-25T09:00:44</time>
			</trkpt>
			<trkpt lat="48.763769986107945" lon="3.086529979482293">
				<ele>126.0</ele>
				<time>2021-02-25T09:00:52</time>
			</trkpt>
			<trkpt lat="48.76327998004854" lon="3.0867899861186743">
				<ele>125.0</ele>
				<time>2021-02-25T09:01:01</time>
			</trkpt>
			<trkpt lat="48.763209991157055" lon="3.0868599750101566">
				<ele>125.0</ele>
				<time>2021-02-25T09:01:03</time>
			</trkpt>
			<trkpt lat="48.7629899661988" lon="3.0872999411076307">
				<ele>124.0</ele>
				<time>2021-02-25T09:01:09</time>
			</trkpt>
			<trkpt lat="48.76283993013203" lon="3.087759939953685">
				<ele>124.0</ele>
				<time>2021-02-25T09:01:15</time>
			</trkpt>
			<trkpt lat="48.76276994124055" lon="3.0881499499082565">
				<ele>124.0</ele>
				<time>2021-02-25T09:01:19</time>
			</trkpt>
			<trkpt lat="48.7627999484539" lon="3.089579986408353">
				<ele>127.0</ele>
				<time>2021-02-25T09:01:36</time>
			</trkpt>
			<trkpt lat="48.76269995234907" lon="3.0901899375021458">
				<ele>128.0</ele>
				<time>2021-02-25T09:01:43</time>
			</trkpt>
			<trkpt lat="48.76092994585633" lon="3.0943299271166325">
				<ele>134.0</ele>
				<time>2021-02-25T09:02:40</time>
			</trkpt>
			<trkpt lat="48.75747995451093" lon="3.1026399973779917">
				<ele>127.0</ele>
				<time>2021-02-25T09:04:32</time>
			</trkpt>
			<trkpt lat="48.75631998293102" lon="3.105519935488701">
				<ele>129.0</ele>
				<time>2021-02-25T09:05:11</time>
			</trkpt>
			<trkpt lat="48.75612996518612" lon="3.105829982087016">
				<ele>131.0</ele>
				<time>2021-02-25T09:05:16</time>
			</trkpt>
			<trkpt lat="48.75584992580116" lon="3.1061699520796537">
				<ele>130.0</ele>
				<time>2021-02-25T09:05:22</time>
			</trkpt>
			<trkpt lat="48.755369978025556" lon="3.106629950925708">
				<ele>127.0</ele>
				<time>2021-02-25T09:05:32</time>
			</trkpt>
			<trkpt lat="48.75431997701526" lon="3.107779948040843">
				<ele>125.0</ele>
				<time>2021-02-25T09:05:55</time>
			</trkpt>
			<trkpt lat="48.754099952057004" lon="3.10802998021245">
				<ele>125.0</ele>
				<time>2021-02-25T09:05:59</time>
			</trkpt>
			<trkpt lat="48.75391999259591" lon="3.1083299685269594">
				<ele>125.0</ele>
				<time>2021-02-25T09:06:04</time>
			</trkpt>
			<trkpt lat="48.7517499178648" lon="3.1141299940645695">
				<ele>126.0</ele>
				<time>2021-02-25T09:07:21</time>
			</trkpt>
			<trkpt lat="48.75164992175996" lon="3.1145999673753977">
				<ele>126.0</ele>
				<time>2021-02-25T09:07:26</time>
			</trkpt>
			<trkpt lat="48.75163994729519" lon="3.1158899422734976">
				<ele>126.0</ele>
				<time>2021-02-25T09:07:41</time>
			</trkpt>
			<trkpt lat="48.75108992680907" lon="3.117789952084422">
				<ele>124.0</ele>
				<time>2021-02-25T09:08:05</time>
			</trkpt>
			<trkpt lat="48.750489950180054" lon="3.1183999869972467">
				<ele>119.0</ele>
				<time>2021-02-25T09:08:17</time>
			</trkpt>
			<trkpt lat="48.74937993474305" lon="3.1198499724268913">
				<ele>108.0</ele>
				<time>2021-02-25T09:08:43</time>
			</trkpt>
			<trkpt lat="48.746409974992275" lon="3.1233999598771334">
				<ele>120.0</ele>
				<time>2021-02-25T09:09:49</time>
			</trkpt>
			<trkpt lat="48.745849980041385" lon="3.1242699176073074">
				<ele>119.0</ele>
				<time>2021-02-25T09:10:03</time>
			</trkpt>
			<trkpt lat="48.745229970663786" lon="3.125759968534112">
				<ele>108.0</ele>
				<time>2021-02-25T09:10:23</time>
			</trkpt>
			<trkpt lat="48.74497993849218" lon="3.1264999229460955">
				<ele>105.0</ele>
				<time>2021-02-25T09:10:32</time>
			</trkpt>
			<trkpt lat="48.74424995854497" lon="3.128159958869219">
				<ele>106.0</ele>
				<time>2021-02-25T09:10:55</time>
			</trkpt>
			<trkpt lat="48.74388995580375" lon="3.128799917176366">
				<ele>106.0</ele>
				<time>2021-02-25T09:11:05</time>
			</trkpt>
			<trkpt lat="48.743379916995764" lon="3.1293799448758364">
				<ele>106.0</ele>
				<time>2021-02-25T09:11:16</time>
			</trkpt>
			<trkpt lat="48.7432399392128" lon="3.1296099442988634">
				<ele>107.0</ele>
				<time>2021-02-25T09:11:20</time>
			</trkpt>
			<trkpt lat="48.742669969797134" lon="3.1291999854147434">
				<ele>107.0</ele>
				<time>2021-02-25T09:11:31</time>
			</trkpt>
			<trkpt lat="48.741769921034575" lon="3.1285599432885647">
				<ele>108.0</ele>
				<time>2021-02-25T09:11:48</time>
			</trkpt>
			<trkpt lat="48.74069997109473" lon="3.127309950068593">
				<ele>107.0</ele>
				<time>2021-02-25T09:12:11</time>
			</trkpt>
			<trkpt lat="48.74104999937117" lon="3.1249499414116144">
				<ele>111.0</ele>
				<time>2021-02-25T09:12:39</time>
			</trkpt>
			<trkpt lat="48.740849923342466" lon="3.1238099187612534">
				<ele>113.0</ele>
				<time>2021-02-25T09:12:53</time>
			</trkpt>
			<trkpt lat="48.74056996777654" lon="3.122649947181344">
				<ele>115.0</ele>
				<time>2021-02-25T09:13:07</time>
			</trkpt>
			<trkpt lat="48.740419931709766" lon="3.120909947901964">
				<ele>123.0</ele>
				<time>2021-02-25T09:13:27</time>
			</trkpt>
			<trkpt lat="48.74007996171713" lon="3.11769993044436">
				<ele>122.0</ele>
				<time>2021-02-25T09:14:04</time>
			</trkpt>
			<trkpt lat="48.74007996171713" lon="3.1173699349164963">
				<ele>122.0</ele>
				<time>2021-02-25T09:14:08</time>
			</trkpt>
			<trkpt lat="48.740369975566864" lon="3.1152399256825447">
				<ele>125.0</ele>
				<time>2021-02-25T09:14:33</time>
			</trkpt>
			<trkpt lat="48.740479946136475" lon="3.1141299940645695">
				<ele>128.0</ele>
				<time>2021-02-25T09:14:46</time>
			</trkpt>
			<trkpt lat="48.74054993502796" lon="3.111519953235984">
				<ele>131.0</ele>
				<time>2021-02-25T09:15:16</time>
			</trkpt>
			<trkpt lat="48.74063995666802" lon="3.1101599894464016">
				<ele>132.0</ele>
				<time>2021-02-25T09:15:32</time>
			</trkpt>
			<trkpt lat="48.7407099455595" lon="3.1092199590057135">
				<ele>130.0</ele>
				<time>2021-02-25T09:15:43</time>
			</trkpt>
			<trkpt lat="48.74181996099651" lon="3.104659952223301">
				<ele>130.0</ele>
				<time>2021-02-25T09:16:38</time>
			</trkpt>
			<trkpt lat="48.742260597646236" lon="3.1029672268778086">
				<ele>129.0</ele>
				<time>2021-02-25T09:16:59</time>
			</trkpt>
			<trkpt lat="48.74225992709398" lon="3.102969992905855">
				<ele>129.0</ele>
				<time>2021-02-25T09:16:59</time>
			</trkpt>
			<trkpt lat="48.74543993733823" lon="3.0916599556803703">
				<ele>118.0</ele>
				<time>2021-02-25T09:19:20</time>
			</trkpt>
			<trkpt lat="48.745719976723194" lon="3.0905899219214916">
				<ele>117.0</ele>
				<time>2021-02-25T09:19:34</time>
			</trkpt>
			<trkpt lat="48.746069921180606" lon="3.08890993706882">
				<ele>113.0</ele>
				<time>2021-02-25T09:19:54</time>
			</trkpt>
			<trkpt lat="48.74633998610079" lon="3.087129956111312">
				<ele>116.0</ele>
				<time>2021-02-25T09:20:15</time>
			</trkpt>
			<trkpt lat="48.74647996388376" lon="3.085379982367158">
				<ele>115.0</ele>
				<time>2021-02-25T09:20:35</time>
			</trkpt>
			<trkpt lat="48.74642992392182" lon="3.082669945433736">
				<ele>115.0</ele>
				<time>2021-02-25T09:21:06</time>
			</trkpt>
			<trkpt lat="48.7464499566704" lon="3.078259974718094">
				<ele>112.0</ele>
				<time>2021-02-25T09:21:57</time>
			</trkpt>
			<trkpt lat="48.74641994945705" lon="3.076259968802333">
				<ele>115.0</ele>
				<time>2021-02-25T09:22:20</time>
			</trkpt>
			<trkpt lat="48.74643998220563" lon="3.0746299400925636">
				<ele>113.0</ele>
				<time>2021-02-25T09:22:38</time>
			</trkpt>
			<trkpt lat="48.74678992666304" lon="3.073189929127693">
				<ele>112.0</ele>
				<time>2021-02-25T09:22:56</time>
			</trkpt>
			<trkpt lat="48.74981998465955" lon="3.064079973846674">
				<ele>117.0</ele>
				<time>2021-02-25T09:24:53</time>
			</trkpt>
			<trkpt lat="48.74996993690729" lon="3.0633099284023046">
				<ele>118.0</ele>
				<time>2021-02-25T09:25:02</time>
			</trkpt>
			<trkpt lat="48.750189961865544" lon="3.060329994186759">
				<ele>116.0</ele>
				<time>2021-02-25T09:25:37</time>
			</trkpt>
			<trkpt lat="48.75038995407522" lon="3.055819943547249">
				<ele>119.0</ele>
				<time>2021-02-25T09:26:29</time>
			</trkpt>
			<trkpt lat="48.750599920749664" lon="3.052999936044216">
				<ele>124.0</ele>
				<time>2021-02-25T09:27:01</time>
			</trkpt>
			<trkpt lat="48.750559939071536" lon="3.0517299938946962">
				<ele>123.0</ele>
				<time>2021-02-25T09:27:16</time>
			</trkpt>
			<trkpt lat="48.75035994686186" lon="3.0497099552303553">
				<ele>119.0</ele>
				<time>2021-02-25T09:27:39</time>
			</trkpt>
			<trkpt lat="48.7504099868238" lon="3.048499943688512">
				<ele>116.0</ele>
				<time>2021-02-25T09:27:53</time>
			</trkpt>
			<trkpt lat="48.75060997903347" lon="3.0467199627310038">
				<ele>114.0</ele>
				<time>2021-02-25T09:28:14</time>
			</trkpt>
			<trkpt lat="48.75058994628489" lon="3.0459599755704403">
				<ele>114.0</ele>
				<time>2021-02-25T09:28:23</time>
			</trkpt>
			<trkpt lat="48.750469917431474" lon="3.0450899340212345">
				<ele>116.0</ele>
				<time>2021-02-25T09:28:33</time>
			</trkpt>
			<trkpt lat="48.7498399335891" lon="3.0430799536406994">
				<ele>119.0</ele>
				<time>2021-02-25T09:28:58</time>
			</trkpt>
			<trkpt lat="48.74974999576807" lon="3.0425999220460653">
				<ele>120.0</ele>
				<time>2021-02-25T09:29:04</time>
			</trkpt>
			<trkpt lat="48.7497899774462" lon="3.042069934308529">
				<ele>120.0</ele>
				<time>2021-02-25T09:29:10</time>
			</trkpt>
			<trkpt lat="48.74993992969394" lon="3.041239958256483">
				<ele>121.0</ele>
				<time>2021-02-25T09:29:20</time>
			</trkpt>
			<trkpt lat="48.750129947438836" lon="3.0404799710959196">
				<ele>121.0</ele>
				<time>2021-02-25T09:29:29</time>
			</trkpt>
			<trkpt lat="48.75103997066617" lon="3.0368799436837435">
				<ele>114.0</ele>
				<time>2021-02-25T09:30:14</time>
			</trkpt>
			<trkpt lat="48.75113996677101" lon="3.0362599343061447">
				<ele>113.0</ele>
				<time>2021-02-25T09:30:21</time>
			</trkpt>
			<trkpt lat="48.751009963452816" lon="3.0344699788838625">
				<ele>114.0</ele>
				<time>2021-02-25T09:30:42</time>
			</trkpt>
			<trkpt lat="48.75094994902611" lon="3.0328699573874474">
				<ele>113.0</ele>
				<time>2021-02-25T09:31:00</time>
			</trkpt>
			<trkpt lat="48.75099998898804" lon="3.0295899510383606">
				<ele>112.0</ele>
				<time>2021-02-25T09:31:38</time>
			</trkpt>
			<trkpt lat="48.75097995623946" lon="3.0291799921542406">
				<ele>113.0</ele>
				<time>2021-02-25T09:31:42</time>
			</trkpt>
			<trkpt lat="48.750899992883205" lon="3.0286999605596066">
				<ele>113.0</ele>
				<time>2021-02-25T09:31:48</time>
			</trkpt>
			<trkpt lat="48.75079999677837" lon="3.028359990566969">
				<ele>113.0</ele>
				<time>2021-02-25T09:31:52</time>
			</trkpt>
			<trkpt lat="48.750189961865544" lon="3.0268699396401644">
				<ele>112.0</ele>
				<time>2021-02-25T09:32:12</time>
			</trkpt>
			<trkpt lat="48.75013992190361" lon="3.026619991287589">
				<ele>112.0</ele>
				<time>2021-02-25T09:32:15</time>
			</trkpt>
			<trkpt lat="48.749889973551035" lon="3.0227099172770977">
				<ele>113.0</ele>
				<time>2021-02-25T09:33:01</time>
			</trkpt>
			<trkpt lat="48.74963994137943" lon="3.0217699706554413">
				<ele>112.0</ele>
				<time>2021-02-25T09:33:12</time>
			</trkpt>
			<trkpt lat="48.749199975281954" lon="3.020419981330633">
				<ele>114.0</ele>
				<time>2021-02-25T09:33:29</time>
			</trkpt>
			<trkpt lat="48.74848994426429" lon="3.019309965893626">
				<ele>110.0</ele>
				<time>2021-02-25T09:33:47</time>
			</trkpt>
			<trkpt lat="48.745419988408685" lon="3.015479939058423">
				<ele>108.0</ele>
				<time>2021-02-25T09:34:56</time>
			</trkpt>
			<trkpt lat="48.74495998956263" lon="3.014989932999015">
				<ele>109.0</ele>
				<time>2021-02-25T09:35:06</time>
			</trkpt>
			<trkpt lat="48.74387998133898" lon="3.01398997195065">
				<ele>109.0</ele>
				<time>2021-02-25T09:35:28</time>
			</trkpt>
			<trkpt lat="48.74268991872668" lon="3.013039967045188">
				<ele>109.0</ele>
				<time>2021-02-25T09:35:52</time>
			</trkpt>
			<trkpt lat="48.74142995104194" lon="3.012389950454235">
				<ele>109.0</ele>
				<time>2021-02-25T09:36:15</time>
			</trkpt>
			<trkpt lat="48.73911998234689" lon="3.0116599705070257">
				<ele>107.0</ele>
				<time>2021-02-25T09:36:56</time>
			</trkpt>
			<trkpt lat="48.73795992694795" lon="3.0116299632936716">
				<ele>109.0</ele>
				<time>2021-02-25T09:37:16</time>
			</trkpt>
			<trkpt lat="48.73526992276311" lon="3.0113799311220646">
				<ele>113.0</ele>
				<time>2021-02-25T09:38:03</time>
			</trkpt>
			<trkpt lat="48.73524997383356" lon="3.010399919003248">
				<ele>112.0</ele>
				<time>2021-02-25T09:38:14</time>
			</trkpt>
			<trkpt lat="48.73543999157846" lon="3.0087599996477365">
				<ele>114.0</ele>
				<time>2021-02-25T09:38:33</time>
			</trkpt>
			<trkpt lat="48.73535994440317" lon="3.005709992721677">
				<ele>111.0</ele>
				<time>2021-02-25T09:39:08</time>
			</trkpt>
			<trkpt lat="48.73531996272504" lon="3.00457994453609">
				<ele>110.0</ele>
				<time>2021-02-25T09:39:21</time>
			</trkpt>
			<trkpt lat="48.73517998494208" lon="2.9886099882423878">
				<ele>111.0</ele>
				<time>2021-02-25T09:42:25</time>
			</trkpt>
			<trkpt lat="48.73541953973472" lon="2.988789612427354">
				<ele>111.0</ele>
				<time>2021-02-25T09:42:29</time>
			</trkpt>
			<trkpt lat="48.73541995882988" lon="2.9887899477034807">
				<ele>111.0</ele>
				<time>2021-02-25T09:42:29</time>
			</trkpt>
			<trkpt lat="48.73554996214807" lon="2.9887899477034807">
				<ele>111.0</ele>
				<time>2021-02-25T09:42:32</time>
			</trkpt>
			<trkpt lat="48.735819943249226" lon="2.98865994438529">
				<ele>111.0</ele>
				<time>2021-02-25T09:42:36</time>
			</trkpt>
			<trkpt lat="48.73604994267225" lon="2.9883099999278784">
				<ele>111.0</ele>
				<time>2021-02-25T09:42:42</time>
			</trkpt>
			<trkpt lat="48.736289916560054" lon="2.9876299761235714">
				<ele>111.0</ele>
				<time>2021-02-25T09:42:51</time>
			</trkpt>
			<trkpt lat="48.73648999258876" lon="2.9873999767005444">
				<ele>109.0</ele>
				<time>2021-02-25T09:42:55</time>
			</trkpt>
			<trkpt lat="48.738739946857095" lon="2.986819949001074">
				<ele>110.0</ele>
				<time>2021-02-25T09:43:35</time>
			</trkpt>
			<trkpt lat="48.738739946857095" lon="2.9860799945890903">
				<ele>111.0</ele>
				<time>2021-02-25T09:43:44</time>
			</trkpt>
			<trkpt lat="48.73878998681903" lon="2.9858399368822575">
				<ele>111.0</ele>
				<time>2021-02-25T09:43:46</time>
			</trkpt>
			<trkpt lat="48.74069997109473" lon="2.98332997597754">
				<ele>108.0</ele>
				<time>2021-02-25T09:44:30</time>
			</trkpt>
			<trkpt lat="48.74115996994078" lon="2.98287995159626">
				<ele>108.0</ele>
				<time>2021-02-25T09:44:40</time>
			</trkpt>
			<trkpt lat="48.743919963017106" lon="2.9807499423623085">
				<ele>109.0</ele>
				<time>2021-02-25T09:45:34</time>
			</trkpt>
			<trkpt lat="48.7492199242115" lon="2.9774799942970276">
				<ele>110.0</ele>
				<time>2021-02-25T09:47:13</time>
			</trkpt>
			<trkpt lat="48.75511994585395" lon="2.9742899257689714">
				<ele>112.0</ele>
				<time>2021-02-25T09:49:03</time>
			</trkpt>
			<trkpt lat="48.761579962447286" lon="2.9696599300950766">
				<ele>114.0</ele>
				<time>2021-02-25T09:51:07</time>
			</trkpt>
			<trkpt lat="48.7672399263829" lon="2.9656999837607145">
				<ele>116.0</ele>
				<time>2021-02-25T09:52:55</time>
			</trkpt>
			<trkpt lat="48.768649930134416" lon="2.964429957792163">
				<ele>114.0</ele>
				<time>2021-02-25T09:53:24</time>
			</trkpt>
			<trkpt lat="48.76940991729498" lon="2.9638499300926924">
				<ele>113.0</ele>
				<time>2021-02-25T09:53:39</time>
			</trkpt>
			<trkpt lat="48.77078999765217" lon="2.96293999068439">
				<ele>114.0</ele>
				<time>2021-02-25T09:54:05</time>
			</trkpt>
			<trkpt lat="48.77314992249012" lon="2.9612699802964926">
				<ele>116.0</ele>
				<time>2021-02-25T09:54:50</time>
			</trkpt>
			<trkpt lat="48.77432992681861" lon="2.9606099892407656">
				<ele>115.0</ele>
				<time>2021-02-25T09:55:12</time>
			</trkpt>
			<trkpt lat="48.77675992436707" lon="2.9594299849122763">
				<ele>117.0</ele>
				<time>2021-02-25T09:55:56</time>
			</trkpt>
			<trkpt lat="48.77802995033562" lon="2.9588399827480316">
				<ele>120.0</ele>
				<time>2021-02-25T09:56:20</time>
			</trkpt>
			<trkpt lat="48.78051996231079" lon="2.9578899778425694">
				<ele>122.0</ele>
				<time>2021-02-25T09:57:04</time>
			</trkpt>
			<trkpt lat="48.78092992119491" lon="2.957629971206188">
				<ele>122.0</ele>
				<time>2021-02-25T09:57:12</time>
			</trkpt>
			<trkpt lat="48.7821099255234" lon="2.9564999230206013">
				<ele>120.0</ele>
				<time>2021-02-25T09:57:36</time>
			</trkpt>
			<trkpt lat="48.783299988135695" lon="2.955129984766245">
				<ele>120.0</ele>
				<time>2021-02-25T09:58:02</time>
			</trkpt>
			<trkpt lat="48.783749928697944" lon="2.954509975388646">
				<ele>119.0</ele>
				<time>2021-02-25T09:58:13</time>
			</trkpt>
			<trkpt lat="48.784309923648834" lon="2.953569944947958">
				<ele>120.0</ele>
				<time>2021-02-25T09:58:27</time>
			</trkpt>
			<trkpt lat="48.78446993418038" lon="2.9534299671649933">
				<ele>121.0</ele>
				<time>2021-02-25T09:58:31</time>
			</trkpt>
			<trkpt lat="48.786029973998666" lon="2.952969968318939">
				<ele>121.0</ele>
				<time>2021-02-25T09:58:58</time>
			</trkpt>
			<trkpt lat="48.78756998106837" lon="2.952309977263212">
				<ele>123.0</ele>
				<time>2021-02-25T09:59:26</time>
			</trkpt>
			<trkpt lat="48.78958993591368" lon="2.9521699994802475">
				<ele>125.0</ele>
				<time>2021-02-25T10:00:01</time>
			</trkpt>
			<trkpt lat="48.79018999636173" lon="2.952059945091605">
				<ele>126.0</ele>
				<time>2021-02-25T10:00:12</time>
			</trkpt>
			<trkpt lat="48.79052996635437" lon="2.9518999345600605">
				<ele>126.0</ele>
				<time>2021-02-25T10:00:18</time>
			</trkpt>
			<trkpt lat="48.7905699480325" lon="2.951649986207485">
				<ele>127.0</ele>
				<time>2021-02-25T10:00:21</time>
			</trkpt>
			<trkpt lat="48.790559973567724" lon="2.9507499374449253">
				<ele>127.0</ele>
				<time>2021-02-25T10:00:31</time>
			</trkpt>
			<trkpt lat="48.790669944137335" lon="2.9489499237388372">
				<ele>130.0</ele>
				<time>2021-02-25T10:00:52</time>
			</trkpt>
			<trkpt lat="48.7907599657774" lon="2.9488599859178066">
				<ele>131.0</ele>
				<time>2021-02-25T10:00:54</time>
			</trkpt>
			<trkpt lat="48.79088996909559" lon="2.9488199204206467">
				<ele>131.0</ele>
				<time>2021-02-25T10:00:56</time>
			</trkpt>
			<trkpt lat="48.791979951784015" lon="2.94875998981297">
				<ele>130.0</ele>
				<time>2021-02-25T10:01:15</time>
			</trkpt>
			<trkpt lat="48.79318996332586" lon="2.9489799309521914">
				<ele>129.0</ele>
				<time>2021-02-25T10:01:36</time>
			</trkpt>
			<trkpt lat="48.79433996044099" lon="2.9492899775505066">
				<ele>128.0</ele>
				<time>2021-02-25T10:01:57</time>
			</trkpt>
			<trkpt lat="48.79464992322028" lon="2.949399948120117">
				<ele>128.0</ele>
				<time>2021-02-25T10:02:02</time>
			</trkpt>
			<trkpt lat="48.79437994211912" lon="2.9479099810123444">
				<ele>130.0</ele>
				<time>2021-02-25T10:02:20</time>
			</trkpt>
			<trkpt lat="48.796229995787144" lon="2.9463799484074116">
				<ele>129.0</ele>
				<time>2021-02-25T10:02:57</time>
			</trkpt>
			<trkpt lat="48.79739994183183" lon="2.945599928498268">
				<ele>130.0</ele>
				<time>2021-02-25T10:03:19</time>
			</trkpt>
			<trkpt lat="48.798079965636134" lon="2.945349980145693">
				<ele>130.0</ele>
				<time>2021-02-25T10:03:31</time>
			</trkpt>
			<trkpt lat="48.79955995827913" lon="2.9450699407607317">
				<ele>132.0</ele>
				<time>2021-02-25T10:03:57</time>
			</trkpt>
			<trkpt lat="48.80109996534884" lon="2.945369929075241">
				<ele>133.0</ele>
				<time>2021-02-25T10:04:24</time>
			</trkpt>
			<trkpt lat="48.80109996534884" lon="2.943869987502694">
				<ele>135.0</ele>
				<time>2021-02-25T10:04:41</time>
			</trkpt>
			<trkpt lat="48.801109939813614" lon="2.9437399841845036">
				<ele>135.0</ele>
				<time>2021-02-25T10:04:43</time>
			</trkpt>
			<trkpt lat="48.80114992149174" lon="2.9436999186873436">
				<ele>135.0</ele>
				<time>2021-02-25T10:04:44</time>
			</trkpt>
			<trkpt lat="48.80133993923664" lon="2.943669995293021">
				<ele>135.0</ele>
				<time>2021-02-25T10:04:47</time>
			</trkpt>
			<trkpt lat="48.80225993692875" lon="2.943809973075986">
				<ele>135.0</ele>
				<time>2021-02-25T10:05:03</time>
			</trkpt>
			<trkpt lat="48.802959993481636" lon="2.9437499586492777">
				<ele>136.0</ele>
				<time>2021-02-25T10:05:15</time>
			</trkpt>
			<trkpt lat="48.80315998569131" lon="2.943669995293021">
				<ele>137.0</ele>
				<time>2021-02-25T10:05:19</time>
			</trkpt>
			<trkpt lat="48.80351998843253" lon="2.9436299297958612">
				<ele>137.0</ele>
				<time>2021-02-25T10:05:25</time>
			</trkpt>
			<trkpt lat="48.80429992452264" lon="2.943619955331087">
				<ele>138.0</ele>
				<time>2021-02-25T10:05:39</time>
			</trkpt>
			<trkpt lat="48.804269917309284" lon="2.9430299531668425">
				<ele>138.0</ele>
				<time>2021-02-25T10:05:45</time>
			</trkpt>
			<trkpt lat="48.80405995063484" lon="2.9426299687474966">
				<ele>138.0</ele>
				<time>2021-02-25T10:05:51</time>
			</trkpt>
			<trkpt lat="48.803989961743355" lon="2.942329980432987">
				<ele>138.0</ele>
				<time>2021-02-25T10:05:55</time>
			</trkpt>
			<trkpt lat="48.80394998006523" lon="2.937639970332384">
				<ele>135.0</ele>
				<time>2021-02-25T10:06:49</time>
			</trkpt>
			<trkpt lat="48.80389994010329" lon="2.9356799460947514">
				<ele>134.0</ele>
				<time>2021-02-25T10:07:11</time>
			</trkpt>
			<trkpt lat="48.80339995957911" lon="2.934029968455434">
				<ele>132.0</ele>
				<time>2021-02-25T10:07:32</time>
			</trkpt>
			<trkpt lat="48.80306912586093" lon="2.931363182142377">
				<ele>133.99</ele>
				<time>2021-02-25T10:08:03</time>
			</trkpt>
			<trkpt lat="48.80306996405125" lon="2.931369971483946">
				<ele>134.0</ele>
				<time>2021-02-25T10:08:03</time>
			</trkpt>
			<trkpt lat="48.80528999492526" lon="2.930529937148094">
				<ele>130.0</ele>
				<time>2021-02-25T10:08:43</time>
			</trkpt>
			<trkpt lat="48.80601997487247" lon="2.9299399349838495">
				<ele>126.0</ele>
				<time>2021-02-25T10:08:57</time>
			</trkpt>
			<trkpt lat="48.81010992452502" lon="2.925909999758005">
				<ele>100.0</ele>
				<time>2021-02-25T10:10:22</time>
			</trkpt>
			<trkpt lat="48.81243992596865" lon="2.9236999433487654">
				<ele>91.0</ele>
				<time>2021-02-25T10:11:10</time>
			</trkpt>
			<trkpt lat="48.814429957419634" lon="2.9217699263244867">
				<ele>84.0</ele>
				<time>2021-02-25T10:11:51</time>
			</trkpt>
			<trkpt lat="48.814819967374206" lon="2.9212899785488844">
				<ele>82.0</ele>
				<time>2021-02-25T10:12:00</time>
			</trkpt>
			<trkpt lat="48.81697998382151" lon="2.9161599185317755">
				<ele>62.0</ele>
				<time>2021-02-25T10:13:10</time>
			</trkpt>
			<trkpt lat="48.81956999190152" lon="2.909839963540435">
				<ele>56.0</ele>
				<time>2021-02-25T10:14:35</time>
			</trkpt>
			<trkpt lat="48.819759925827384" lon="2.9090599436312914">
				<ele>53.0</ele>
				<time>2021-02-25T10:14:45</time>
			</trkpt>
			<trkpt lat="48.82009997963905" lon="2.9059399478137493">
				<ele>57.0</ele>
				<time>2021-02-25T10:15:21</time>
			</trkpt>
			<trkpt lat="48.82021992467344" lon="2.9054599162191153">
				<ele>60.0</ele>
				<time>2021-02-25T10:15:27</time>
			</trkpt>
			<trkpt lat="48.82040994241834" lon="2.9051199462264776">
				<ele>62.0</ele>
				<time>2021-02-25T10:15:32</time>
			</trkpt>
			<trkpt lat="48.821799997240305" lon="2.9037199169397354">
				<ele>62.0</ele>
				<time>2021-02-25T10:16:01</time>
			</trkpt>
			<trkpt lat="48.82269996218383" lon="2.9028799664229155">
				<ele>62.0</ele>
				<time>2021-02-25T10:16:19</time>
			</trkpt>
			<trkpt lat="48.82298997603357" lon="2.9026599414646626">
				<ele>63.0</ele>
				<time>2021-02-25T10:16:25</time>
			</trkpt>
			<trkpt lat="48.82337998598814" lon="2.902519963681698">
				<ele>60.0</ele>
				<time>2021-02-25T10:16:32</time>
			</trkpt>
			<trkpt lat="48.82408993318677" lon="2.9023899603635073">
				<ele>60.0</ele>
				<time>2021-02-25T10:16:44</time>
			</trkpt>
			<trkpt lat="48.82500993087888" lon="2.9017999581992626">
				<ele>67.0</ele>
				<time>2021-02-25T10:17:02</time>
			</trkpt>
			<trkpt lat="48.82543992251158" lon="2.9017299693077803">
				<ele>66.0</ele>
				<time>2021-02-25T10:17:09</time>
			</trkpt>
			<trkpt lat="48.82718998007476" lon="2.901689987629652">
				<ele>59.0</ele>
				<time>2021-02-25T10:17:40</time>
			</trkpt>
			<trkpt lat="48.827729942277074" lon="2.9015999659895897">
				<ele>60.0</ele>
				<time>2021-02-25T10:17:49</time>
			</trkpt>
			<trkpt lat="48.829019917175174" lon="2.901239963248372">
				<ele>60.0</ele>
				<time>2021-02-25T10:18:12</time>
			</trkpt>
			<trkpt lat="48.82928998209536" lon="2.901239963248372">
				<ele>58.0</ele>
				<time>2021-02-25T10:18:17</time>
			</trkpt>
			<trkpt lat="48.82980999536812" lon="2.9013399593532085">
				<ele>57.0</ele>
				<time>2021-02-25T10:18:26</time>
			</trkpt>
			<trkpt lat="48.83025993593037" lon="2.9015799332410097">
				<ele>55.0</ele>
				<time>2021-02-25T10:18:34</time>
			</trkpt>
			<trkpt lat="48.833919977769256" lon="2.90389996021986">
				<ele>52.0</ele>
				<time>2021-02-25T10:19:43</time>
			</trkpt>
			<trkpt lat="48.83600992150605" lon="2.9050799645483494">
				<ele>52.0</ele>
				<time>2021-02-25T10:20:22</time>
			</trkpt>
			<trkpt lat="48.83630999363959" lon="2.905179960653186">
				<ele>52.0</ele>
				<time>2021-02-25T10:20:27</time>
			</trkpt>
			<trkpt lat="48.84152999147773" lon="2.906319983303547">
				<ele>55.0</ele>
				<time>2021-02-25T10:21:59</time>
			</trkpt>
			<trkpt lat="48.842059979215264" lon="2.906509917229414">
				<ele>57.0</ele>
				<time>2021-02-25T10:22:08</time>
			</trkpt>
			<trkpt lat="48.84250991977751" lon="2.906749974936247">
				<ele>57.0</ele>
				<time>2021-02-25T10:22:17</time>
			</trkpt>
			<trkpt lat="48.84294996969402" lon="2.9071099776774645">
				<ele>57.0</ele>
				<time>2021-02-25T10:22:25</time>
			</trkpt>
			<trkpt lat="48.84488996118307" lon="2.9097199346870184">
				<ele>54.0</ele>
				<time>2021-02-25T10:23:11</time>
			</trkpt>
			<trkpt lat="48.846059991046786" lon="2.911909958347678">
				<ele>57.0</ele>
				<time>2021-02-25T10:23:43</time>
			</trkpt>
			<trkpt lat="48.8464099355042" lon="2.9128299560397863">
				<ele>60.0</ele>
				<time>2021-02-25T10:23:55</time>
			</trkpt>
			<trkpt lat="48.846769938245416" lon="2.9146699514240026">
				<ele>58.0</ele>
				<time>2021-02-25T10:24:17</time>
			</trkpt>
			<trkpt lat="48.84704997763038" lon="2.916799960657954">
				<ele>57.0</ele>
				<time>2021-02-25T10:24:42</time>
			</trkpt>
			<trkpt lat="48.84720998816192" lon="2.917479984462261">
				<ele>60.0</ele>
				<time>2021-02-25T10:24:50</time>
			</trkpt>
			<trkpt lat="48.84774995036423" lon="2.9188399482518435">
				<ele>63.0</ele>
				<time>2021-02-25T10:25:08</time>
			</trkpt>
			<trkpt lat="48.84799998253584" lon="2.9192699398845434">
				<ele>64.0</ele>
				<time>2021-02-25T10:25:15</time>
			</trkpt>
			<trkpt lat="48.84848998859525" lon="2.9196999315172434">
				<ele>67.0</ele>
				<time>2021-02-25T10:25:25</time>
			</trkpt>
			<trkpt lat="48.84931996464729" lon="2.920559998601675">
				<ele>70.0</ele>
				<time>2021-02-25T10:25:42</time>
			</trkpt>
			<trkpt lat="48.85351996868849" lon="2.9234799183905125">
				<ele>57.0</ele>
				<time>2021-02-25T10:27:03</time>
			</trkpt>
			<trkpt lat="48.854029923677444" lon="2.923679994419217">
				<ele>56.0</ele>
				<time>2021-02-25T10:27:12</time>
			</trkpt>
			<trkpt lat="48.85446997359395" lon="2.9235899727791548">
				<ele>55.0</ele>
				<time>2021-02-25T10:27:20</time>
			</trkpt>
			<trkpt lat="48.85455999523401" lon="2.9235199838876724">
				<ele>54.0</ele>
				<time>2021-02-25T10:27:21</time>
			</trkpt>
			<trkpt lat="48.85498998686671" lon="2.922499990090728">
				<ele>53.0</ele>
				<time>2021-02-25T10:27:35</time>
			</trkpt>
			<trkpt lat="48.85506995022297" lon="2.9222399834543467">
				<ele>53.0</ele>
				<time>2021-02-25T10:27:38</time>
			</trkpt>
			<trkpt lat="48.85512996464968" lon="2.9217099957168102">
				<ele>52.0</ele>
				<time>2021-02-25T10:27:45</time>
			</trkpt>
			<trkpt lat="48.855229960754514" lon="2.9168999567627907">
				<ele>50.0</ele>
				<time>2021-02-25T10:28:40</time>
			</trkpt>
			<trkpt lat="48.855189979076385" lon="2.916089929640293">
				<ele>51.0</ele>
				<time>2021-02-25T10:28:49</time>
			</trkpt>
			<trkpt lat="48.854329995810986" lon="2.9116899333894253">
				<ele>61.0</ele>
				<time>2021-02-25T10:29:42</time>
			</trkpt>
			<trkpt lat="48.854369977489114" lon="2.9111199639737606">
				<ele>59.0</ele>
				<time>2021-02-25T10:29:48</time>
			</trkpt>
			<trkpt lat="48.85442999191582" lon="2.9108999390155077">
				<ele>58.0</ele>
				<time>2021-02-25T10:29:51</time>
			</trkpt>
			<trkpt lat="48.85451992973685" lon="2.9101699590682983">
				<ele>59.0</ele>
				<time>2021-02-25T10:29:59</time>
			</trkpt>
			<trkpt lat="48.85465999133885" lon="2.909909952431917">
				<ele>58.0</ele>
				<time>2021-02-25T10:30:03</time>
			</trkpt>
			<trkpt lat="48.854799969121814" lon="2.9097699746489525">
				<ele>56.0</ele>
				<time>2021-02-25T10:30:06</time>
			</trkpt>
			<trkpt lat="48.85499996133149" lon="2.9098099563270807">
				<ele>54.0</ele>
				<time>2021-02-25T10:30:10</time>
			</trkpt>
			<trkpt lat="48.85539994575083" lon="2.9097599163651466">
				<ele>51.0</ele>
				<time>2021-02-25T10:30:17</time>
			</trkpt>
			<trkpt lat="48.85549994185567" lon="2.9097699746489525">
				<ele>51.0</ele>
				<time>2021-02-25T10:30:18</time>
			</trkpt>
			<trkpt lat="48.85555995628238" lon="2.9098299890756607">
				<ele>51.0</ele>
				<time>2021-02-25T10:30:20</time>
			</trkpt>
			<trkpt lat="48.855729941278696" lon="2.910329969599843">
				<ele>51.0</ele>
				<time>2021-02-25T10:30:26</time>
			</trkpt>
			<trkpt lat="48.85626998730004" lon="2.910999935120344">
				<ele>51.0</ele>
				<time>2021-02-25T10:30:38</time>
			</trkpt>
			<trkpt lat="48.85669997893274" lon="2.912539942190051">
				<ele>52.0</ele>
				<time>2021-02-25T10:30:57</time>
			</trkpt>
			<trkpt lat="48.85697993449867" lon="2.9130499809980392">
				<ele>52.0</ele>
				<time>2021-02-25T10:31:05</time>
			</trkpt>
			<trkpt lat="48.85719995945692" lon="2.9133299365639687">
				<ele>52.0</ele>
				<time>2021-02-25T10:31:10</time>
			</trkpt>
			<trkpt lat="48.85742995887995" lon="2.9134999215602875">
				<ele>52.0</ele>
				<time>2021-02-25T10:31:14</time>
			</trkpt>
			<trkpt lat="48.858069917187095" lon="2.913639983162284">
				<ele>51.0</ele>
				<time>2021-02-25T10:31:26</time>
			</trkpt>
			<trkpt lat="48.85774997994304" lon="2.9079699609428644">
				<ele>51.0</ele>
				<time>2021-02-25T10:32:31</time>
			</trkpt>
			<trkpt lat="48.85817066766322" lon="2.9071585927158594">
				<ele>49.0</ele>
				<time>2021-02-25T10:32:43</time>
			</trkpt>
		</trkseg>
	</trk>
</gpx>
