<?xml version="1.0" encoding="UTF-8"?>
<gpx creator="Garmin Connect" version="1.1" xsi:schemaLocation="http://www.topografix.com/GPX/1/1 http://www.topografix.com/GPX/11.xsd" xmlns:ns3="http://www.garmin.com/xmlschemas/TrackPointExtension/v1" xmlns="http://www.topografix.com/GPX/1/1" xmlns:xsi="http://www.w3.org/2001/XMLSchema-instance" xmlns:ns2="http://www.garmin.com/xmlschemas/GpxExtensions/v3">
	<metadata>
		<name>204-G3-60 km-D 439 m-L’Aubetin</name>
		<link href="connect.garmin.com">
			<text>Garmin Connect</text>
		</link>
		<time>2021-02-25T08:00:00</time>
	</metadata>
	<trk>
		<name>204-G3-60 km-D 439 m-L’Aubetin</name>
		<trkseg>
			<trkpt lat="48.85798995383084" lon="2.906919876113534">
				<ele>50.0</ele>
				<time>2021-02-25T08:00:00</time>
			</trkpt>
			<trkpt lat="48.85824996046722" lon="2.9070799704641104">
				<ele>51.0</ele>
				<time>2021-02-25T08:00:05</time>
			</trkpt>
			<trkpt lat="48.858239986002445" lon="2.907229922711849">
				<ele>51.0</ele>
				<time>2021-02-25T08:00:07</time>
			</trkpt>
			<trkpt lat="48.8581299316138" lon="2.9072999954223633">
				<ele>51.0</ele>
				<time>2021-02-25T08:00:09</time>
			</trkpt>
			<trkpt lat="48.85779993608594" lon="2.907889997586608">
				<ele>51.0</ele>
				<time>2021-02-25T08:00:18</time>
			</trkpt>
			<trkpt lat="48.857529954984784" lon="2.9084699414670467">
				<ele>51.0</ele>
				<time>2021-02-25T08:00:26</time>
			</trkpt>
			<trkpt lat="48.856669971719384" lon="2.9099899996072054">
				<ele>50.0</ele>
				<time>2021-02-25T08:00:49</time>
			</trkpt>
			<trkpt lat="48.85648992843926" lon="2.9103899840265512">
				<ele>50.0</ele>
				<time>2021-02-25T08:00:54</time>
			</trkpt>
			<trkpt lat="48.85628993622959" lon="2.91098996065557">
				<ele>52.0</ele>
				<time>2021-02-25T08:01:02</time>
			</trkpt>
			<trkpt lat="48.8557399995625" lon="2.910359976813197">
				<ele>52.0</ele>
				<time>2021-02-25T08:01:14</time>
			</trkpt>
			<trkpt lat="48.855599937960505" lon="2.9099599923938513">
				<ele>51.0</ele>
				<time>2021-02-25T08:01:19</time>
			</trkpt>
			<trkpt lat="48.85549994185567" lon="2.9098299890756607">
				<ele>51.0</ele>
				<time>2021-02-25T08:01:21</time>
			</trkpt>
			<trkpt lat="48.85500993579626" lon="2.909879945218563">
				<ele>52.0</ele>
				<time>2021-02-25T08:01:30</time>
			</trkpt>
			<trkpt lat="48.854849925264716" lon="2.909849938005209">
				<ele>52.0</ele>
				<time>2021-02-25T08:01:33</time>
			</trkpt>
			<trkpt lat="48.85470994748175" lon="2.909929985180497">
				<ele>54.0</ele>
				<time>2021-02-25T08:01:35</time>
			</trkpt>
			<trkpt lat="48.85454993695021" lon="2.910249922424555">
				<ele>54.0</ele>
				<time>2021-02-25T08:01:40</time>
			</trkpt>
			<trkpt lat="48.854329995810986" lon="2.911699991673231">
				<ele>57.0</ele>
				<time>2021-02-25T08:01:57</time>
			</trkpt>
			<trkpt lat="48.85517992079258" lon="2.9159499518573284">
				<ele>51.0</ele>
				<time>2021-02-25T08:02:48</time>
			</trkpt>
			<trkpt lat="48.85521998628974" lon="2.9163699690252542">
				<ele>51.0</ele>
				<time>2021-02-25T08:02:53</time>
			</trkpt>
			<trkpt lat="48.855209928005934" lon="2.9175299406051636">
				<ele>50.0</ele>
				<time>2021-02-25T08:03:06</time>
			</trkpt>
			<trkpt lat="48.85515997186303" lon="2.921199956908822">
				<ele>51.0</ele>
				<time>2021-02-25T08:03:48</time>
			</trkpt>
			<trkpt lat="48.85502996854484" lon="2.9223899357020855">
				<ele>53.0</ele>
				<time>2021-02-25T08:04:02</time>
			</trkpt>
			<trkpt lat="48.85466996580362" lon="2.9233399406075478">
				<ele>52.0</ele>
				<time>2021-02-25T08:04:14</time>
			</trkpt>
			<trkpt lat="48.85453996248543" lon="2.9235499911010265">
				<ele>53.0</ele>
				<time>2021-02-25T08:04:18</time>
			</trkpt>
			<trkpt lat="48.854419933632016" lon="2.923629954457283">
				<ele>54.0</ele>
				<time>2021-02-25T08:04:20</time>
			</trkpt>
			<trkpt lat="48.85397996753454" lon="2.9236999433487654">
				<ele>59.0</ele>
				<time>2021-02-25T08:04:28</time>
			</trkpt>
			<trkpt lat="48.85382993146777" lon="2.9236999433487654">
				<ele>58.0</ele>
				<time>2021-02-25T08:04:30</time>
			</trkpt>
			<trkpt lat="48.85370998643339" lon="2.923639928922057">
				<ele>58.0</ele>
				<time>2021-02-25T08:04:32</time>
			</trkpt>
			<trkpt lat="48.85091998614371" lon="2.9217699263244867">
				<ele>70.0</ele>
				<time>2021-02-25T08:05:26</time>
			</trkpt>
			<trkpt lat="48.84934997186065" lon="2.9206599947065115">
				<ele>72.0</ele>
				<time>2021-02-25T08:05:56</time>
			</trkpt>
			<trkpt lat="48.84843994863331" lon="2.9197299387305975">
				<ele>69.0</ele>
				<time>2021-02-25T08:06:15</time>
			</trkpt>
			<trkpt lat="48.84793996810913" lon="2.9193099215626717">
				<ele>67.0</ele>
				<time>2021-02-25T08:06:25</time>
			</trkpt>
			<trkpt lat="48.847839972004294" lon="2.919139936566353">
				<ele>66.0</ele>
				<time>2021-02-25T08:06:27</time>
			</trkpt>
			<trkpt lat="48.847349965944886" lon="2.917889943346381">
				<ele>64.0</ele>
				<time>2021-02-25T08:06:44</time>
			</trkpt>
			<trkpt lat="48.84713999927044" lon="2.91721997782588">
				<ele>61.0</ele>
				<time>2021-02-25T08:06:52</time>
			</trkpt>
			<trkpt lat="48.84669994935393" lon="2.914269967004657">
				<ele>59.0</ele>
				<time>2021-02-25T08:07:27</time>
			</trkpt>
			<trkpt lat="48.846419993788004" lon="2.9128999449312687">
				<ele>60.0</ele>
				<time>2021-02-25T08:07:44</time>
			</trkpt>
			<trkpt lat="48.84614992886782" lon="2.912159990519285">
				<ele>60.0</ele>
				<time>2021-02-25T08:07:53</time>
			</trkpt>
			<trkpt lat="48.84503999724984" lon="2.9101799335330725">
				<ele>54.0</ele>
				<time>2021-02-25T08:08:23</time>
			</trkpt>
			<trkpt lat="48.8444999512285" lon="2.9093099758028984">
				<ele>52.0</ele>
				<time>2021-02-25T08:08:37</time>
			</trkpt>
			<trkpt lat="48.843049965798855" lon="2.907439973205328">
				<ele>57.0</ele>
				<time>2021-02-25T08:09:10</time>
			</trkpt>
			<trkpt lat="48.84255995973945" lon="2.9069699998945">
				<ele>55.0</ele>
				<time>2021-02-25T08:09:20</time>
			</trkpt>
			<trkpt lat="48.842149917036295" lon="2.9067099932581186">
				<ele>55.0</ele>
				<time>2021-02-25T08:09:28</time>
			</trkpt>
			<trkpt lat="48.84178999811411" lon="2.906559957191348">
				<ele>56.0</ele>
				<time>2021-02-25T08:09:34</time>
			</trkpt>
			<trkpt lat="48.83601997978985" lon="2.905219942331314">
				<ele>53.0</ele>
				<time>2021-02-25T08:11:16</time>
			</trkpt>
			<trkpt lat="48.833619989454746" lon="2.90387992747128">
				<ele>53.0</ele>
				<time>2021-02-25T08:12:00</time>
			</trkpt>
			<trkpt lat="48.82982994429767" lon="2.901419922709465">
				<ele>55.0</ele>
				<time>2021-02-25T08:13:12</time>
			</trkpt>
			<trkpt lat="48.82928998209536" lon="2.9012899193912745">
				<ele>56.0</ele>
				<time>2021-02-25T08:13:21</time>
			</trkpt>
			<trkpt lat="48.82904992438853" lon="2.9012799449265003">
				<ele>57.0</ele>
				<time>2021-02-25T08:13:26</time>
			</trkpt>
			<trkpt lat="48.82704991847277" lon="2.901719994843006">
				<ele>59.0</ele>
				<time>2021-02-25T08:14:01</time>
			</trkpt>
			<trkpt lat="48.82563999854028" lon="2.901669954881072">
				<ele>66.0</ele>
				<time>2021-02-25T08:14:25</time>
			</trkpt>
			<trkpt lat="48.824939941987395" lon="2.9017499182373285">
				<ele>70.0</ele>
				<time>2021-02-25T08:14:38</time>
			</trkpt>
			<trkpt lat="48.82449997588992" lon="2.9020499903708696">
				<ele>65.0</ele>
				<time>2021-02-25T08:14:46</time>
			</trkpt>
			<trkpt lat="48.824189929291606" lon="2.9023899603635073">
				<ele>61.0</ele>
				<time>2021-02-25T08:14:53</time>
			</trkpt>
			<trkpt lat="48.82356991991401" lon="2.9024299420416355">
				<ele>60.0</ele>
				<time>2021-02-25T08:15:03</time>
			</trkpt>
			<trkpt lat="48.823259957134724" lon="2.902499930933118">
				<ele>62.0</ele>
				<time>2021-02-25T08:15:09</time>
			</trkpt>
			<trkpt lat="48.82279995828867" lon="2.9027199558913708">
				<ele>64.0</ele>
				<time>2021-02-25T08:15:17</time>
			</trkpt>
			<trkpt lat="48.82051999680698" lon="2.9050699900835752">
				<ele>64.0</ele>
				<time>2021-02-25T08:16:05</time>
			</trkpt>
			<trkpt lat="48.8203099463135" lon="2.9053699783980846">
				<ele>62.0</ele>
				<time>2021-02-25T08:16:10</time>
			</trkpt>
			<trkpt lat="48.82017994299531" lon="2.905679941177368">
				<ele>59.0</ele>
				<time>2021-02-25T08:16:14</time>
			</trkpt>
			<trkpt lat="48.82008992135525" lon="2.906099958345294">
				<ele>57.0</ele>
				<time>2021-02-25T08:16:20</time>
			</trkpt>
			<trkpt lat="48.81980996578932" lon="2.9090299364179373">
				<ele>53.0</ele>
				<time>2021-02-25T08:16:53</time>
			</trkpt>
			<trkpt lat="48.81962992250919" lon="2.909839963540435">
				<ele>55.0</ele>
				<time>2021-02-25T08:17:03</time>
			</trkpt>
			<trkpt lat="48.81566997617483" lon="2.919449983164668">
				<ele>71.0</ele>
				<time>2021-02-25T08:19:13</time>
			</trkpt>
			<trkpt lat="48.81501995958388" lon="2.920979931950569">
				<ele>79.0</ele>
				<time>2021-02-25T08:19:34</time>
			</trkpt>
			<trkpt lat="48.81476992741227" lon="2.9214699380099773">
				<ele>82.0</ele>
				<time>2021-02-25T08:19:41</time>
			</trkpt>
			<trkpt lat="48.81447999738157" lon="2.921839999035001">
				<ele>84.0</ele>
				<time>2021-02-25T08:19:48</time>
			</trkpt>
			<trkpt lat="48.80651995539665" lon="2.929569957777858">
				<ele>125.0</ele>
				<time>2021-02-25T08:22:32</time>
			</trkpt>
			<trkpt lat="48.80552996881306" lon="2.930459948256612">
				<ele>129.0</ele>
				<time>2021-02-25T08:22:52</time>
			</trkpt>
			<trkpt lat="48.805109951645136" lon="2.9306699987500906">
				<ele>131.0</ele>
				<time>2021-02-25T08:23:00</time>
			</trkpt>
			<trkpt lat="48.80236999131739" lon="2.931619919836521">
				<ele>135.0</ele>
				<time>2021-02-25T08:23:49</time>
			</trkpt>
			<trkpt lat="48.792560985311866" lon="2.934879558160901">
				<ele>138.99</ele>
				<time>2021-02-25T08:26:44</time>
			</trkpt>
			<trkpt lat="48.792559979483485" lon="2.9348799772560596">
				<ele>139.0</ele>
				<time>2021-02-25T08:26:44</time>
			</trkpt>
			<trkpt lat="48.78145999275148" lon="2.9364099260419607">
				<ele>123.0</ele>
				<time>2021-02-25T08:29:58</time>
			</trkpt>
			<trkpt lat="48.77986994571984" lon="2.9361799266189337">
				<ele>129.0</ele>
				<time>2021-02-25T08:30:25</time>
			</trkpt>
			<trkpt lat="48.77726996317506" lon="2.9357099533081055">
				<ele>127.0</ele>
				<time>2021-02-25T08:31:11</time>
			</trkpt>
			<trkpt lat="48.77677995711565" lon="2.9356899205595255">
				<ele>126.0</ele>
				<time>2021-02-25T08:31:20</time>
			</trkpt>
			<trkpt lat="48.760159984230995" lon="2.941169925034046">
				<ele>117.0</ele>
				<time>2021-02-25T08:36:16</time>
			</trkpt>
			<trkpt lat="48.76135993748903" lon="2.946249945089221">
				<ele>118.0</ele>
				<time>2021-02-25T08:37:17</time>
			</trkpt>
			<trkpt lat="48.76220994628966" lon="2.949839998036623">
				<ele>118.0</ele>
				<time>2021-02-25T08:38:01</time>
			</trkpt>
			<trkpt lat="48.76310999505222" lon="2.953629959374666">
				<ele>118.0</ele>
				<time>2021-02-25T08:38:47</time>
			</trkpt>
			<trkpt lat="48.76334996894002" lon="2.9547899309545755">
				<ele>119.0</ele>
				<time>2021-02-25T08:39:01</time>
			</trkpt>
			<trkpt lat="48.76351995393634" lon="2.955969935283065">
				<ele>121.0</ele>
				<time>2021-02-25T08:39:15</time>
			</trkpt>
			<trkpt lat="48.76370997168124" lon="2.956939972937107">
				<ele>118.0</ele>
				<time>2021-02-25T08:39:27</time>
			</trkpt>
			<trkpt lat="48.76463994383812" lon="2.960509993135929">
				<ele>116.0</ele>
				<time>2021-02-25T08:40:11</time>
			</trkpt>
			<trkpt lat="48.76644993200898" lon="2.966489978134632">
				<ele>117.0</ele>
				<time>2021-02-25T08:41:26</time>
			</trkpt>
			<trkpt lat="48.765769992023706" lon="2.9670099914073944">
				<ele>117.0</ele>
				<time>2021-02-25T08:41:40</time>
			</trkpt>
			<trkpt lat="48.76272995956242" lon="2.969039920717478">
				<ele>116.0</ele>
				<time>2021-02-25T08:42:37</time>
			</trkpt>
			<trkpt lat="48.755409959703684" lon="2.9742999840527773">
				<ele>115.0</ele>
				<time>2021-02-25T08:44:58</time>
			</trkpt>
			<trkpt lat="48.749419916421175" lon="2.9774499870836735">
				<ele>113.0</ele>
				<time>2021-02-25T08:46:49</time>
			</trkpt>
			<trkpt lat="48.74772995710373" lon="2.9783399775624275">
				<ele>111.0</ele>
				<time>2021-02-25T08:47:20</time>
			</trkpt>
			<trkpt lat="48.74439999461174" lon="2.980429921299219">
				<ele>111.0</ele>
				<time>2021-02-25T08:48:23</time>
			</trkpt>
			<trkpt lat="48.740159925073385" lon="2.983929952606559">
				<ele>110.0</ele>
				<time>2021-02-25T08:49:47</time>
			</trkpt>
			<trkpt lat="48.73927999287844" lon="2.985109956935048">
				<ele>112.0</ele>
				<time>2021-02-25T08:50:07</time>
			</trkpt>
			<trkpt lat="48.73894999735057" lon="2.9856599774211645">
				<ele>114.0</ele>
				<time>2021-02-25T08:50:16</time>
			</trkpt>
			<trkpt lat="48.738869950175285" lon="2.9859199840575457">
				<ele>115.0</ele>
				<time>2021-02-25T08:50:19</time>
			</trkpt>
			<trkpt lat="48.73878998681903" lon="2.986619956791401">
				<ele>113.0</ele>
				<time>2021-02-25T08:50:27</time>
			</trkpt>
			<trkpt lat="48.73871999792755" lon="2.986799916252494">
				<ele>113.0</ele>
				<time>2021-02-25T08:50:29</time>
			</trkpt>
			<trkpt lat="48.73865998350084" lon="2.986859930679202">
				<ele>112.0</ele>
				<time>2021-02-25T08:50:31</time>
			</trkpt>
			<trkpt lat="48.738479940220714" lon="2.9869399778544903">
				<ele>112.0</ele>
				<time>2021-02-25T08:50:34</time>
			</trkpt>
			<trkpt lat="48.73769992031157" lon="2.987089930102229">
				<ele>110.0</ele>
				<time>2021-02-25T08:50:48</time>
			</trkpt>
			<trkpt lat="48.73692995868623" lon="2.987309955060482">
				<ele>110.0</ele>
				<time>2021-02-25T08:51:01</time>
			</trkpt>
			<trkpt lat="48.736739940941334" lon="2.987309955060482">
				<ele>110.0</ele>
				<time>2021-02-25T08:51:05</time>
			</trkpt>
			<trkpt lat="48.73648999258876" lon="2.9874199256300926">
				<ele>111.0</ele>
				<time>2021-02-25T08:51:09</time>
			</trkpt>
			<trkpt lat="48.736329982057214" lon="2.987539954483509">
				<ele>112.0</ele>
				<time>2021-02-25T08:51:12</time>
			</trkpt>
			<trkpt lat="48.73603996820748" lon="2.9883099999278784">
				<ele>111.0</ele>
				<time>2021-02-25T08:51:22</time>
			</trkpt>
			<trkpt lat="48.73590996488929" lon="2.9885599482804537">
				<ele>111.0</ele>
				<time>2021-02-25T08:51:26</time>
			</trkpt>
			<trkpt lat="48.735539987683296" lon="2.988819954916835">
				<ele>113.0</ele>
				<time>2021-02-25T08:51:33</time>
			</trkpt>
			<trkpt lat="48.73559991829097" lon="2.989719919860363">
				<ele>112.0</ele>
				<time>2021-02-25T08:51:44</time>
			</trkpt>
			<trkpt lat="48.73559991829097" lon="2.9899199958890676">
				<ele>112.0</ele>
				<time>2021-02-25T08:51:46</time>
			</trkpt>
			<trkpt lat="48.73547997325659" lon="2.9906699247658253">
				<ele>112.0</ele>
				<time>2021-02-25T08:51:55</time>
			</trkpt>
			<trkpt lat="48.73520999215543" lon="2.991139981895685">
				<ele>111.0</ele>
				<time>2021-02-25T08:52:02</time>
			</trkpt>
			<trkpt lat="48.735370337963104" lon="3.0046456586569548">
				<ele>111.99</ele>
				<time>2021-02-25T08:54:37</time>
			</trkpt>
			<trkpt lat="48.735369918867946" lon="3.004609951749444">
				<ele>112.0</ele>
				<time>2021-02-25T08:54:37</time>
			</trkpt>
			<trkpt lat="48.735449966043234" lon="3.0086899269372225">
				<ele>118.0</ele>
				<time>2021-02-25T08:55:24</time>
			</trkpt>
			<trkpt lat="48.73543999157846" lon="3.009039955213666">
				<ele>117.0</ele>
				<time>2021-02-25T08:55:28</time>
			</trkpt>
			<trkpt lat="48.73529992997646" lon="3.010139996185899">
				<ele>115.0</ele>
				<time>2021-02-25T08:55:41</time>
			</trkpt>
			<trkpt lat="48.73529992997646" lon="3.011299967765808">
				<ele>115.0</ele>
				<time>2021-02-25T08:55:54</time>
			</trkpt>
			<trkpt lat="48.7353999260813" lon="3.0121099948883057">
				<ele>117.0</ele>
				<time>2021-02-25T08:56:04</time>
			</trkpt>
			<trkpt lat="48.73537997715175" lon="3.012389950454235">
				<ele>116.0</ele>
				<time>2021-02-25T08:56:07</time>
			</trkpt>
			<trkpt lat="48.73524997383356" lon="3.0127499531954527">
				<ele>115.0</ele>
				<time>2021-02-25T08:56:12</time>
			</trkpt>
			<trkpt lat="48.73487999662757" lon="3.013029992580414">
				<ele>114.0</ele>
				<time>2021-02-25T08:56:19</time>
			</trkpt>
			<trkpt lat="48.73487999662757" lon="3.013249933719635">
				<ele>114.0</ele>
				<time>2021-02-25T08:56:21</time>
			</trkpt>
			<trkpt lat="48.734549917280674" lon="3.013949990272522">
				<ele>111.0</ele>
				<time>2021-02-25T08:56:31</time>
			</trkpt>
			<trkpt lat="48.73423995450139" lon="3.0149699840694666">
				<ele>108.0</ele>
				<time>2021-02-25T08:56:44</time>
			</trkpt>
			<trkpt lat="48.734119925647974" lon="3.01570993848145">
				<ele>107.0</ele>
				<time>2021-02-25T08:56:53</time>
			</trkpt>
			<trkpt lat="48.73392999172211" lon="3.0165199656039476">
				<ele>105.0</ele>
				<time>2021-02-25T08:57:03</time>
			</trkpt>
			<trkpt lat="48.73350997455418" lon="3.0187399964779615">
				<ele>102.0</ele>
				<time>2021-02-25T08:57:29</time>
			</trkpt>
			<trkpt lat="48.73335993848741" lon="3.019689917564392">
				<ele>102.0</ele>
				<time>2021-02-25T08:57:41</time>
			</trkpt>
			<trkpt lat="48.73317997902632" lon="3.0203199852257967">
				<ele>103.0</ele>
				<time>2021-02-25T08:57:48</time>
			</trkpt>
			<trkpt lat="48.73300999403" lon="3.021069997921586">
				<ele>102.0</ele>
				<time>2021-02-25T08:57:58</time>
			</trkpt>
			<trkpt lat="48.73296992853284" lon="3.0216199345886707">
				<ele>100.0</ele>
				<time>2021-02-25T08:58:04</time>
			</trkpt>
			<trkpt lat="48.7330599501729" lon="3.0238099582493305">
				<ele>98.0</ele>
				<time>2021-02-25T08:58:29</time>
			</trkpt>
			<trkpt lat="48.73313999734819" lon="3.0246599670499563">
				<ele>98.0</ele>
				<time>2021-02-25T08:58:39</time>
			</trkpt>
			<trkpt lat="48.7332999240607" lon="3.0251299403607845">
				<ele>100.0</ele>
				<time>2021-02-25T08:58:45</time>
			</trkpt>
			<trkpt lat="48.733669985085726" lon="3.025489943102002">
				<ele>104.0</ele>
				<time>2021-02-25T08:58:53</time>
			</trkpt>
			<trkpt lat="48.7338699772954" lon="3.0258099641650915">
				<ele>105.0</ele>
				<time>2021-02-25T08:58:58</time>
			</trkpt>
			<trkpt lat="48.73419997282326" lon="3.0266599729657173">
				<ele>106.0</ele>
				<time>2021-02-25T08:59:09</time>
			</trkpt>
			<trkpt lat="48.73444992117584" lon="3.027659934014082">
				<ele>108.0</ele>
				<time>2021-02-25T08:59:21</time>
			</trkpt>
			<trkpt lat="48.73449996113777" lon="3.0334999412298203">
				<ele>108.0</ele>
				<time>2021-02-25T09:00:28</time>
			</trkpt>
			<trkpt lat="48.73446995392442" lon="3.0340399872511625">
				<ele>109.0</ele>
				<time>2021-02-25T09:00:35</time>
			</trkpt>
			<trkpt lat="48.73438999056816" lon="3.0344699788838625">
				<ele>110.0</ele>
				<time>2021-02-25T09:00:40</time>
			</trkpt>
			<trkpt lat="48.73355993069708" lon="3.0377799924463034">
				<ele>111.0</ele>
				<time>2021-02-25T09:01:20</time>
			</trkpt>
			<trkpt lat="48.73314997181296" lon="3.040269920602441">
				<ele>109.0</ele>
				<time>2021-02-25T09:01:50</time>
			</trkpt>
			<trkpt lat="48.73315994627774" lon="3.04103996604681">
				<ele>110.0</ele>
				<time>2021-02-25T09:01:59</time>
			</trkpt>
			<trkpt lat="48.733259942382574" lon="3.0420199781656265">
				<ele>108.0</ele>
				<time>2021-02-25T09:02:10</time>
			</trkpt>
			<trkpt lat="48.73342992737889" lon="3.0444399174302816">
				<ele>109.0</ele>
				<time>2021-02-25T09:02:38</time>
			</trkpt>
			<trkpt lat="48.73339992016554" lon="3.0457099433988333">
				<ele>112.0</ele>
				<time>2021-02-25T09:02:53</time>
			</trkpt>
			<trkpt lat="48.73299993574619" lon="3.0492999963462353">
				<ele>112.0</ele>
				<time>2021-02-25T09:03:34</time>
			</trkpt>
			<trkpt lat="48.73193996027112" lon="3.0530999321490526">
				<ele>112.0</ele>
				<time>2021-02-25T09:04:22</time>
			</trkpt>
			<trkpt lat="48.73178992420435" lon="3.0537899304181337">
				<ele>113.0</ele>
				<time>2021-02-25T09:04:30</time>
			</trkpt>
			<trkpt lat="48.73158993199468" lon="3.0572799872606993">
				<ele>116.0</ele>
				<time>2021-02-25T09:05:10</time>
			</trkpt>
			<trkpt lat="48.73131995089352" lon="3.059199946001172">
				<ele>116.0</ele>
				<time>2021-02-25T09:05:33</time>
			</trkpt>
			<trkpt lat="48.73122992925346" lon="3.0612999480217695">
				<ele>118.0</ele>
				<time>2021-02-25T09:05:57</time>
			</trkpt>
			<trkpt lat="48.73215998522937" lon="3.061199951916933">
				<ele>117.0</ele>
				<time>2021-02-25T09:06:13</time>
			</trkpt>
			<trkpt lat="48.73279994353652" lon="3.0611199885606766">
				<ele>117.0</ele>
				<time>2021-02-25T09:06:24</time>
			</trkpt>
			<trkpt lat="48.73392999172211" lon="3.060319935902953">
				<ele>116.0</ele>
				<time>2021-02-25T09:06:46</time>
			</trkpt>
			<trkpt lat="48.734289994463325" lon="3.0602699797600508">
				<ele>116.0</ele>
				<time>2021-02-25T09:06:52</time>
			</trkpt>
			<trkpt lat="48.735389951616526" lon="3.0606999713927507">
				<ele>116.0</ele>
				<time>2021-02-25T09:07:12</time>
			</trkpt>
			<trkpt lat="48.73572992160916" lon="3.060759985819459">
				<ele>115.0</ele>
				<time>2021-02-25T09:07:18</time>
			</trkpt>
			<trkpt lat="48.73662997037172" lon="3.060729978606105">
				<ele>116.0</ele>
				<time>2021-02-25T09:07:34</time>
			</trkpt>
			<trkpt lat="48.73781994916499" lon="3.0609199963510036">
				<ele>116.0</ele>
				<time>2021-02-25T09:07:55</time>
			</trkpt>
			<trkpt lat="48.738929964601994" lon="3.0613499879837036">
				<ele>118.0</ele>
				<time>2021-02-25T09:08:15</time>
			</trkpt>
			<trkpt lat="48.739769998937845" lon="3.0614999402314425">
				<ele>116.0</ele>
				<time>2021-02-25T09:08:29</time>
			</trkpt>
			<trkpt lat="48.74069997109473" lon="3.061599936336279">
				<ele>114.0</ele>
				<time>2021-02-25T09:08:46</time>
			</trkpt>
			<trkpt lat="48.74225992709398" lon="3.0615299474447966">
				<ele>116.0</ele>
				<time>2021-02-25T09:09:13</time>
			</trkpt>
			<trkpt lat="48.74243997037411" lon="3.061589961871505">
				<ele>114.0</ele>
				<time>2021-02-25T09:09:16</time>
			</trkpt>
			<trkpt lat="48.743379916995764" lon="3.0621499568223953">
				<ele>115.0</ele>
				<time>2021-02-25T09:09:33</time>
			</trkpt>
			<trkpt lat="48.743769926950336" lon="3.06230996735394">
				<ele>115.0</ele>
				<time>2021-02-25T09:09:41</time>
			</trkpt>
			<trkpt lat="48.7442899402231" lon="3.0624399706721306">
				<ele>115.0</ele>
				<time>2021-02-25T09:09:50</time>
			</trkpt>
			<trkpt lat="48.74583992175758" lon="3.062489926815033">
				<ele>129.0</ele>
				<time>2021-02-25T09:10:17</time>
			</trkpt>
			<trkpt lat="48.74697994440794" lon="3.0623699817806482">
				<ele>127.0</ele>
				<time>2021-02-25T09:10:37</time>
			</trkpt>
			<trkpt lat="48.747549997642636" lon="3.0624399706721306">
				<ele>127.0</ele>
				<time>2021-02-25T09:10:47</time>
			</trkpt>
			<trkpt lat="48.74899998307228" lon="3.062479952350259">
				<ele>126.0</ele>
				<time>2021-02-25T09:11:12</time>
			</trkpt>
			<trkpt lat="48.75011997297406" lon="3.062709951773286">
				<ele>118.0</ele>
				<time>2021-02-25T09:11:31</time>
			</trkpt>
			<trkpt lat="48.75010999850929" lon="3.0630699545145035">
				<ele>119.0</ele>
				<time>2021-02-25T09:11:36</time>
			</trkpt>
			<trkpt lat="48.750039925798774" lon="3.0635899677872658">
				<ele>118.0</ele>
				<time>2021-02-25T09:11:42</time>
			</trkpt>
			<trkpt lat="48.74667995609343" lon="3.0737599823623896">
				<ele>114.0</ele>
				<time>2021-02-25T09:13:52</time>
			</trkpt>
			<trkpt lat="48.746599992737174" lon="3.0741799995303154">
				<ele>113.0</ele>
				<time>2021-02-25T09:13:57</time>
			</trkpt>
			<trkpt lat="48.74654995277524" lon="3.074699928984046">
				<ele>112.0</ele>
				<time>2021-02-25T09:14:03</time>
			</trkpt>
			<trkpt lat="48.74658993445337" lon="3.08402999304235">
				<ele>115.0</ele>
				<time>2021-02-25T09:15:50</time>
			</trkpt>
			<trkpt lat="48.74652992002666" lon="3.085759934037924">
				<ele>115.0</ele>
				<time>2021-02-25T09:16:10</time>
			</trkpt>
			<trkpt lat="48.7468299921602" lon="3.085579974576831">
				<ele>114.0</ele>
				<time>2021-02-25T09:16:16</time>
			</trkpt>
			<trkpt lat="48.747419994324446" lon="3.085609981790185">
				<ele>114.0</ele>
				<time>2021-02-25T09:16:26</time>
			</trkpt>
			<trkpt lat="48.747939923778176" lon="3.0859399773180485">
				<ele>111.0</ele>
				<time>2021-02-25T09:16:36</time>
			</trkpt>
			<trkpt lat="48.748319959267974" lon="3.0863099545240402">
				<ele>105.0</ele>
				<time>2021-02-25T09:16:44</time>
			</trkpt>
			<trkpt lat="48.748599998652935" lon="3.0864599905908108">
				<ele>104.0</ele>
				<time>2021-02-25T09:16:49</time>
			</trkpt>
			<trkpt lat="48.75165998004377" lon="3.087379988282919">
				<ele>96.0</ele>
				<time>2021-02-25T09:17:43</time>
			</trkpt>
			<trkpt lat="48.75208997167647" lon="3.087369929999113">
				<ele>97.0</ele>
				<time>2021-02-25T09:17:51</time>
			</trkpt>
			<trkpt lat="48.75242994166911" lon="3.0874499771744013">
				<ele>98.0</ele>
				<time>2021-02-25T09:17:57</time>
			</trkpt>
			<trkpt lat="48.75254997052252" lon="3.087419969961047">
				<ele>98.0</ele>
				<time>2021-02-25T09:17:59</time>
			</trkpt>
			<trkpt lat="48.75300996936858" lon="3.086679931730032">
				<ele>99.0</ele>
				<time>2021-02-25T09:18:10</time>
			</trkpt>
			<trkpt lat="48.75312999822199" lon="3.0865799356251955">
				<ele>98.0</ele>
				<time>2021-02-25T09:18:13</time>
			</trkpt>
			<trkpt lat="48.75324994325638" lon="3.0865699611604214">
				<ele>98.0</ele>
				<time>2021-02-25T09:18:15</time>
			</trkpt>
			<trkpt lat="48.75397992320359" lon="3.0867899861186743">
				<ele>103.0</ele>
				<time>2021-02-25T09:18:28</time>
			</trkpt>
			<trkpt lat="48.755519930273294" lon="3.0868199933320284">
				<ele>109.0</ele>
				<time>2021-02-25T09:18:55</time>
			</trkpt>
			<trkpt lat="48.75591999851167" lon="3.086879923939705">
				<ele>113.0</ele>
				<time>2021-02-25T09:19:02</time>
			</trkpt>
			<trkpt lat="48.75640992075205" lon="3.0870699416846037">
				<ele>115.0</ele>
				<time>2021-02-25T09:19:11</time>
			</trkpt>
			<trkpt lat="48.75651997514069" lon="3.087149988859892">
				<ele>116.0</ele>
				<time>2021-02-25T09:19:13</time>
			</trkpt>
			<trkpt lat="48.7565799895674" lon="3.0872699338942766">
				<ele>117.0</ele>
				<time>2021-02-25T09:19:14</time>
			</trkpt>
			<trkpt lat="48.756549982354045" lon="3.0880899354815483">
				<ele>119.0</ele>
				<time>2021-02-25T09:19:24</time>
			</trkpt>
			<trkpt lat="48.75658996403217" lon="3.0882299970835447">
				<ele>120.0</ele>
				<time>2021-02-25T09:19:26</time>
			</trkpt>
			<trkpt lat="48.756959941238165" lon="3.088419931009412">
				<ele>121.0</ele>
				<time>2021-02-25T09:19:32</time>
			</trkpt>
			<trkpt lat="48.75731994397938" lon="3.088509952649474">
				<ele>123.0</ele>
				<time>2021-02-25T09:19:39</time>
			</trkpt>
			<trkpt lat="48.7576799467206" lon="3.0885699670761824">
				<ele>123.0</ele>
				<time>2021-02-25T09:19:45</time>
			</trkpt>
			<trkpt lat="48.758289981633425" lon="3.0885499343276024">
				<ele>126.0</ele>
				<time>2021-02-25T09:19:56</time>
			</trkpt>
			<trkpt lat="48.75941994599998" lon="3.0883799493312836">
				<ele>129.0</ele>
				<time>2021-02-25T09:20:15</time>
			</trkpt>
			<trkpt lat="48.76009996980429" lon="3.0882099643349648">
				<ele>130.0</ele>
				<time>2021-02-25T09:20:27</time>
			</trkpt>
			<trkpt lat="48.76054999418557" lon="3.08804995380342">
				<ele>130.0</ele>
				<time>2021-02-25T09:20:35</time>
			</trkpt>
			<trkpt lat="48.76076993532479" lon="3.0878599360585213">
				<ele>130.0</ele>
				<time>2021-02-25T09:20:40</time>
			</trkpt>
			<trkpt lat="48.760809917002916" lon="3.0872096680104733">
				<ele>129.0</ele>
				<time>2021-02-25T09:20:47</time>
			</trkpt>
			<trkpt lat="48.760809917002916" lon="3.0872099194675684">
				<ele>129.0</ele>
				<time>2021-02-25T09:20:47</time>
			</trkpt>
			<trkpt lat="48.760909996926785" lon="3.0870499927550554">
				<ele>129.0</ele>
				<time>2021-02-25T09:20:50</time>
			</trkpt>
			<trkpt lat="48.76110998913646" lon="3.086919989436865">
				<ele>128.0</ele>
				<time>2021-02-25T09:20:54</time>
			</trkpt>
			<trkpt lat="48.76179998740554" lon="3.086729971691966">
				<ele>125.0</ele>
				<time>2021-02-25T09:21:06</time>
			</trkpt>
			<trkpt lat="48.76233994960785" lon="3.086909931153059">
				<ele>125.0</ele>
				<time>2021-02-25T09:21:15</time>
			</trkpt>
			<trkpt lat="48.76324997283518" lon="3.0868399422615767">
				<ele>126.0</ele>
				<time>2021-02-25T09:21:31</time>
			</trkpt>
			<trkpt lat="48.76377996057272" lon="3.0865899939090014">
				<ele>128.0</ele>
				<time>2021-02-25T09:21:41</time>
			</trkpt>
			<trkpt lat="48.763769986107945" lon="3.085389956831932">
				<ele>128.0</ele>
				<time>2021-02-25T09:21:55</time>
			</trkpt>
			<trkpt lat="48.76367996446788" lon="3.0842299852520227">
				<ele>124.0</ele>
				<time>2021-02-25T09:22:08</time>
			</trkpt>
			<trkpt lat="48.7636099755764" lon="3.0838599242269993">
				<ele>123.0</ele>
				<time>2021-02-25T09:22:13</time>
			</trkpt>
			<trkpt lat="48.76005998812616" lon="3.075359920039773">
				<ele>118.0</ele>
				<time>2021-02-25T09:24:08</time>
			</trkpt>
			<trkpt lat="48.75868996605277" lon="3.072099946439266">
				<ele>116.0</ele>
				<time>2021-02-25T09:24:52</time>
			</trkpt>
			<trkpt lat="48.758589969947934" lon="3.0717699509114027">
				<ele>115.0</ele>
				<time>2021-02-25T09:24:57</time>
			</trkpt>
			<trkpt lat="48.758539929986" lon="3.0713399592787027">
				<ele>114.0</ele>
				<time>2021-02-25T09:25:02</time>
			</trkpt>
			<trkpt lat="48.75855996273458" lon="3.0705999210476875">
				<ele>116.0</ele>
				<time>2021-02-25T09:25:10</time>
			</trkpt>
			<trkpt lat="48.75873992219567" lon="3.0699399299919605">
				<ele>115.0</ele>
				<time>2021-02-25T09:25:18</time>
			</trkpt>
			<trkpt lat="48.75892993994057" lon="3.0695599783211946">
				<ele>114.0</ele>
				<time>2021-02-25T09:25:24</time>
			</trkpt>
			<trkpt lat="48.75935993157327" lon="3.068959917873144">
				<ele>114.0</ele>
				<time>2021-02-25T09:25:34</time>
			</trkpt>
			<trkpt lat="48.759519942104816" lon="3.068459937348962">
				<ele>115.0</ele>
				<time>2021-02-25T09:25:40</time>
			</trkpt>
			<trkpt lat="48.75986997038126" lon="3.062299992889166">
				<ele>114.0</ele>
				<time>2021-02-25T09:26:51</time>
			</trkpt>
			<trkpt lat="48.75986997038126" lon="3.0619399901479483">
				<ele>114.0</ele>
				<time>2021-02-25T09:26:55</time>
			</trkpt>
			<trkpt lat="48.75976997427642" lon="3.0606899969279766">
				<ele>114.0</ele>
				<time>2021-02-25T09:27:10</time>
			</trkpt>
			<trkpt lat="48.75917997211218" lon="3.0540399625897408">
				<ele>115.0</ele>
				<time>2021-02-25T09:28:27</time>
			</trkpt>
			<trkpt lat="48.75862995162606" lon="3.0517099611461163">
				<ele>113.0</ele>
				<time>2021-02-25T09:28:55</time>
			</trkpt>
			<trkpt lat="48.75836994498968" lon="3.0511199589818716">
				<ele>111.0</ele>
				<time>2021-02-25T09:29:03</time>
			</trkpt>
			<trkpt lat="48.75831998884678" lon="3.0506699346005917">
				<ele>112.0</ele>
				<time>2021-02-25T09:29:09</time>
			</trkpt>
			<trkpt lat="48.75831998884678" lon="3.049669973552227">
				<ele>112.0</ele>
				<time>2021-02-25T09:29:20</time>
			</trkpt>
			<trkpt lat="48.758509922772646" lon="3.0481999553740025">
				<ele>114.0</ele>
				<time>2021-02-25T09:29:37</time>
			</trkpt>
			<trkpt lat="48.758589969947934" lon="3.0477999709546566">
				<ele>114.0</ele>
				<time>2021-02-25T09:29:42</time>
			</trkpt>
			<trkpt lat="48.75822996720672" lon="3.047899967059493">
				<ele>113.0</ele>
				<time>2021-02-25T09:29:48</time>
			</trkpt>
			<trkpt lat="48.75818998552859" lon="3.047469975426793">
				<ele>113.0</ele>
				<time>2021-02-25T09:29:53</time>
			</trkpt>
			<trkpt lat="48.75814992003143" lon="3.0464699305593967">
				<ele>113.0</ele>
				<time>2021-02-25T09:30:05</time>
			</trkpt>
			<trkpt lat="48.757989993318915" lon="3.045609947293997">
				<ele>115.0</ele>
				<time>2021-02-25T09:30:15</time>
			</trkpt>
			<trkpt lat="48.758009942248464" lon="3.0451699811965227">
				<ele>114.0</ele>
				<time>2021-02-25T09:30:20</time>
			</trkpt>
			<trkpt lat="48.7580599822104" lon="3.0446799751371145">
				<ele>114.0</ele>
				<time>2021-02-25T09:30:26</time>
			</trkpt>
			<trkpt lat="48.75832996331155" lon="3.043919987976551">
				<ele>117.0</ele>
				<time>2021-02-25T09:30:36</time>
			</trkpt>
			<trkpt lat="48.758419984951615" lon="3.04320995695889">
				<ele>118.0</ele>
				<time>2021-02-25T09:30:44</time>
			</trkpt>
			<trkpt lat="48.758539929986" lon="3.042789939790964">
				<ele>118.0</ele>
				<time>2021-02-25T09:30:49</time>
			</trkpt>
			<trkpt lat="48.758719973266125" lon="3.0424599442631006">
				<ele>118.0</ele>
				<time>2021-02-25T09:30:54</time>
			</trkpt>
			<trkpt lat="48.758539929986" lon="3.0424699187278748">
				<ele>117.0</ele>
				<time>2021-02-25T09:30:57</time>
			</trkpt>
			<trkpt lat="48.75745992176235" lon="3.0422799848020077">
				<ele>109.0</ele>
				<time>2021-02-25T09:31:16</time>
			</trkpt>
			<trkpt lat="48.75734995119274" lon="3.0421999376267195">
				<ele>108.0</ele>
				<time>2021-02-25T09:31:18</time>
			</trkpt>
			<trkpt lat="48.75722992233932" lon="3.0420799925923347">
				<ele>107.0</ele>
				<time>2021-02-25T09:31:21</time>
			</trkpt>
			<trkpt lat="48.756979973986745" lon="3.041659975424409">
				<ele>105.0</ele>
				<time>2021-02-25T09:31:27</time>
			</trkpt>
			<trkpt lat="48.756699934601784" lon="3.040759926661849">
				<ele>99.0</ele>
				<time>2021-02-25T09:31:39</time>
			</trkpt>
			<trkpt lat="48.7566299457103" lon="3.0406299233436584">
				<ele>98.0</ele>
				<time>2021-02-25T09:31:41</time>
			</trkpt>
			<trkpt lat="48.75612996518612" lon="3.0401999317109585">
				<ele>93.0</ele>
				<time>2021-02-25T09:31:51</time>
			</trkpt>
			<trkpt lat="48.75602996908128" lon="3.0400499794632196">
				<ele>92.0</ele>
				<time>2021-02-25T09:31:53</time>
			</trkpt>
			<trkpt lat="48.75604991801083" lon="3.0398099217563868">
				<ele>92.0</ele>
				<time>2021-02-25T09:31:56</time>
			</trkpt>
			<trkpt lat="48.756789956241846" lon="3.038119962438941">
				<ele>93.0</ele>
				<time>2021-02-25T09:32:19</time>
			</trkpt>
			<trkpt lat="48.756809988990426" lon="3.037889963015914">
				<ele>91.0</ele>
				<time>2021-02-25T09:32:22</time>
			</trkpt>
			<trkpt lat="48.75672994181514" lon="3.037269953638315">
				<ele>88.0</ele>
				<time>2021-02-25T09:32:29</time>
			</trkpt>
			<trkpt lat="48.75648996792734" lon="3.0358099937438965">
				<ele>89.0</ele>
				<time>2021-02-25T09:32:46</time>
			</trkpt>
			<trkpt lat="48.75560995191336" lon="3.0337299406528473">
				<ele>102.0</ele>
				<time>2021-02-25T09:33:15</time>
			</trkpt>
			<trkpt lat="48.75529998913407" lon="3.0321899335831404">
				<ele>107.0</ele>
				<time>2021-02-25T09:33:33</time>
			</trkpt>
			<trkpt lat="48.755409959703684" lon="3.0314199719578028">
				<ele>110.0</ele>
				<time>2021-02-25T09:33:42</time>
			</trkpt>
			<trkpt lat="48.75603994354606" lon="3.0280099622905254">
				<ele>114.0</ele>
				<time>2021-02-25T09:34:23</time>
			</trkpt>
			<trkpt lat="48.75702993012965" lon="3.027279982343316">
				<ele>113.0</ele>
				<time>2021-02-25T09:34:42</time>
			</trkpt>
			<trkpt lat="48.75831998884678" lon="3.0262899957597256">
				<ele>114.0</ele>
				<time>2021-02-25T09:35:07</time>
			</trkpt>
			<trkpt lat="48.75964994542301" lon="3.0253299325704575">
				<ele>114.0</ele>
				<time>2021-02-25T09:35:33</time>
			</trkpt>
			<trkpt lat="48.760419990867376" lon="3.0246999487280846">
				<ele>114.0</ele>
				<time>2021-02-25T09:35:48</time>
			</trkpt>
			<trkpt lat="48.76124996691942" lon="3.0244099348783493">
				<ele>115.0</ele>
				<time>2021-02-25T09:36:03</time>
			</trkpt>
			<trkpt lat="48.76182999461889" lon="3.0235399771481752">
				<ele>114.0</ele>
				<time>2021-02-25T09:36:17</time>
			</trkpt>
			<trkpt lat="48.770899968221784" lon="3.015069980174303">
				<ele>122.0</ele>
				<time>2021-02-25T09:39:22</time>
			</trkpt>
			<trkpt lat="48.77193999476731" lon="3.014329941943288">
				<ele>122.0</ele>
				<time>2021-02-25T09:39:42</time>
			</trkpt>
			<trkpt lat="48.77945998683572" lon="3.0093899834901094">
				<ele>118.0</ele>
				<time>2021-02-25T09:42:05</time>
			</trkpt>
			<trkpt lat="48.78223992884159" lon="3.007489973679185">
				<ele>118.0</ele>
				<time>2021-02-25T09:42:58</time>
			</trkpt>
			<trkpt lat="48.78567994572222" lon="3.0051799211651087">
				<ele>122.0</ele>
				<time>2021-02-25T09:44:04</time>
			</trkpt>
			<trkpt lat="48.78521994687617" lon="3.00285997800529">
				<ele>125.0</ele>
				<time>2021-02-25T09:44:31</time>
			</trkpt>
			<trkpt lat="48.78511995077133" lon="3.0024899169802666">
				<ele>125.0</ele>
				<time>2021-02-25T09:44:36</time>
			</trkpt>
			<trkpt lat="48.78493999131024" lon="3.0020699836313725">
				<ele>125.0</ele>
				<time>2021-02-25T09:44:42</time>
			</trkpt>
			<trkpt lat="48.78476992249489" lon="3.001469923183322">
				<ele>124.0</ele>
				<time>2021-02-25T09:44:49</time>
			</trkpt>
			<trkpt lat="48.78436993807554" lon="2.999519957229495">
				<ele>122.0</ele>
				<time>2021-02-25T09:45:13</time>
			</trkpt>
			<trkpt lat="48.78424999304116" lon="2.998599959537387">
				<ele>121.0</ele>
				<time>2021-02-25T09:45:23</time>
			</trkpt>
			<trkpt lat="48.784179920330644" lon="2.996839927509427">
				<ele>122.0</ele>
				<time>2021-02-25T09:45:44</time>
			</trkpt>
			<trkpt lat="48.784209927544" lon="2.9963199980556965">
				<ele>124.0</ele>
				<time>2021-02-25T09:45:50</time>
			</trkpt>
			<trkpt lat="48.78431998193264" lon="2.995479963719845">
				<ele>124.0</ele>
				<time>2021-02-25T09:45:59</time>
			</trkpt>
			<trkpt lat="48.78457998856902" lon="2.99443993717432">
				<ele>124.0</ele>
				<time>2021-02-25T09:46:12</time>
			</trkpt>
			<trkpt lat="48.78508994355798" lon="2.993289940059185">
				<ele>125.0</ele>
				<time>2021-02-25T09:46:28</time>
			</trkpt>
			<trkpt lat="48.786371536552906" lon="2.990656513720751">
				<ele>124.0</ele>
				<time>2021-02-25T09:47:06</time>
			</trkpt>
			<trkpt lat="48.7863699439913" lon="2.990659950301051">
				<ele>124.0</ele>
				<time>2021-02-25T09:47:06</time>
			</trkpt>
			<trkpt lat="48.78641998395324" lon="2.990449983626604">
				<ele>124.0</ele>
				<time>2021-02-25T09:47:08</time>
			</trkpt>
			<trkpt lat="48.78646994009614" lon="2.989909937605262">
				<ele>124.0</ele>
				<time>2021-02-25T09:47:14</time>
			</trkpt>
			<trkpt lat="48.786609917879105" lon="2.986649964004755">
				<ele>126.0</ele>
				<time>2021-02-25T09:47:52</time>
			</trkpt>
			<trkpt lat="48.7805799767375" lon="2.986639989539981">
				<ele>131.0</ele>
				<time>2021-02-25T09:49:37</time>
			</trkpt>
			<trkpt lat="48.77973994240165" lon="2.9856699518859386">
				<ele>136.0</ele>
				<time>2021-02-25T09:49:55</time>
			</trkpt>
			<trkpt lat="48.774919928982854" lon="2.9800799768418074">
				<ele>125.0</ele>
				<time>2021-02-25T09:51:41</time>
			</trkpt>
			<trkpt lat="48.76953992061317" lon="2.973969988524914">
				<ele>123.0</ele>
				<time>2021-02-25T09:53:38</time>
			</trkpt>
			<trkpt lat="48.76944998279214" lon="2.9739099740982056">
				<ele>122.0</ele>
				<time>2021-02-25T09:53:40</time>
			</trkpt>
			<trkpt lat="48.769269939512014" lon="2.973949955776334">
				<ele>122.0</ele>
				<time>2021-02-25T09:53:43</time>
			</trkpt>
			<trkpt lat="48.7680499535054" lon="2.974689994007349">
				<ele>122.0</ele>
				<time>2021-02-25T09:54:06</time>
			</trkpt>
			<trkpt lat="48.767959931865335" lon="2.974669961258769">
				<ele>121.0</ele>
				<time>2021-02-25T09:54:07</time>
			</trkpt>
			<trkpt lat="48.765919944271445" lon="2.9680699668824673">
				<ele>119.0</ele>
				<time>2021-02-25T09:55:31</time>
			</trkpt>
			<trkpt lat="48.765769992023706" lon="2.9670099914073944">
				<ele>117.0</ele>
				<time>2021-02-25T09:55:43</time>
			</trkpt>
			<trkpt lat="48.76727999188006" lon="2.9659199248999357">
				<ele>118.0</ele>
				<time>2021-02-25T09:56:12</time>
			</trkpt>
			<trkpt lat="48.76802992075682" lon="2.9651999194175005">
				<ele>116.0</ele>
				<time>2021-02-25T09:56:28</time>
			</trkpt>
			<trkpt lat="48.76900993287563" lon="2.9643499944359064">
				<ele>114.0</ele>
				<time>2021-02-25T09:56:47</time>
			</trkpt>
			<trkpt lat="48.77030996605754" lon="2.9634299967437983">
				<ele>116.0</ele>
				<time>2021-02-25T09:57:12</time>
			</trkpt>
			<trkpt lat="48.773309933021665" lon="2.961319936439395">
				<ele>117.0</ele>
				<time>2021-02-25T09:58:10</time>
			</trkpt>
			<trkpt lat="48.774189949035645" lon="2.9608099814504385">
				<ele>116.0</ele>
				<time>2021-02-25T09:58:26</time>
			</trkpt>
			<trkpt lat="48.778059957548976" lon="2.95889999717474">
				<ele>120.0</ele>
				<time>2021-02-25T09:59:37</time>
			</trkpt>
			<trkpt lat="48.78031997010112" lon="2.95799994841218">
				<ele>124.0</ele>
				<time>2021-02-25T10:00:18</time>
			</trkpt>
			<trkpt lat="48.78093997947872" lon="2.9576399456709623">
				<ele>123.0</ele>
				<time>2021-02-25T10:00:29</time>
			</trkpt>
			<trkpt lat="48.78184991888702" lon="2.9567799624055624">
				<ele>121.0</ele>
				<time>2021-02-25T10:00:48</time>
			</trkpt>
			<trkpt lat="48.78322999924421" lon="2.9552999697625637">
				<ele>121.0</ele>
				<time>2021-02-25T10:01:17</time>
			</trkpt>
			<trkpt lat="48.783859983086586" lon="2.9543599393218756">
				<ele>121.0</ele>
				<time>2021-02-25T10:01:33</time>
			</trkpt>
			<trkpt lat="48.784219985827804" lon="2.953739929944277">
				<ele>121.0</ele>
				<time>2021-02-25T10:01:42</time>
			</trkpt>
			<trkpt lat="48.78449994139373" lon="2.9534299671649933">
				<ele>122.0</ele>
				<time>2021-02-25T10:01:48</time>
			</trkpt>
			<trkpt lat="48.785059936344624" lon="2.9532299749553204">
				<ele>123.0</ele>
				<time>2021-02-25T10:01:58</time>
			</trkpt>
			<trkpt lat="48.78573996014893" lon="2.9530599899590015">
				<ele>124.0</ele>
				<time>2021-02-25T10:02:10</time>
			</trkpt>
			<trkpt lat="48.7873699888587" lon="2.9523899406194687">
				<ele>125.0</ele>
				<time>2021-02-25T10:02:40</time>
			</trkpt>
			<trkpt lat="48.787749940529466" lon="2.9522899445146322">
				<ele>125.0</ele>
				<time>2021-02-25T10:02:46</time>
			</trkpt>
			<trkpt lat="48.789549954235554" lon="2.95219992287457">
				<ele>126.0</ele>
				<time>2021-02-25T10:03:18</time>
			</trkpt>
			<trkpt lat="48.790429970249534" lon="2.951999930664897">
				<ele>129.0</ele>
				<time>2021-02-25T10:03:33</time>
			</trkpt>
			<trkpt lat="48.790519991889596" lon="2.9518599528819323">
				<ele>130.0</ele>
				<time>2021-02-25T10:03:35</time>
			</trkpt>
			<trkpt lat="48.79054999910295" lon="2.951569939032197">
				<ele>130.0</ele>
				<time>2021-02-25T10:03:39</time>
			</trkpt>
			<trkpt lat="48.79067991860211" lon="2.9490599781274796">
				<ele>132.0</ele>
				<time>2021-02-25T10:04:08</time>
			</trkpt>
			<trkpt lat="48.79071998409927" lon="2.948909942060709">
				<ele>132.0</ele>
				<time>2021-02-25T10:04:10</time>
			</trkpt>
			<trkpt lat="48.79091997630894" lon="2.9488399531692266">
				<ele>134.0</ele>
				<time>2021-02-25T10:04:13</time>
			</trkpt>
			<trkpt lat="48.79176998510957" lon="2.94875998981297">
				<ele>131.0</ele>
				<time>2021-02-25T10:04:28</time>
			</trkpt>
			<trkpt lat="48.79345994442701" lon="2.9490499198436737">
				<ele>129.0</ele>
				<time>2021-02-25T10:04:58</time>
			</trkpt>
			<trkpt lat="48.79467993043363" lon="2.949369940906763">
				<ele>130.0</ele>
				<time>2021-02-25T10:05:19</time>
			</trkpt>
			<trkpt lat="48.79443995654583" lon="2.947809984907508">
				<ele>133.0</ele>
				<time>2021-02-25T10:05:37</time>
			</trkpt>
			<trkpt lat="48.79466995596886" lon="2.9476599488407373">
				<ele>132.0</ele>
				<time>2021-02-25T10:05:42</time>
			</trkpt>
			<trkpt lat="48.796259919181466" lon="2.946329992264509">
				<ele>132.0</ele>
				<time>2021-02-25T10:06:13</time>
			</trkpt>
			<trkpt lat="48.79776991903782" lon="2.945379987359047">
				<ele>131.0</ele>
				<time>2021-02-25T10:06:42</time>
			</trkpt>
			<trkpt lat="48.79823997616768" lon="2.9452499840408564">
				<ele>133.0</ele>
				<time>2021-02-25T10:06:50</time>
			</trkpt>
			<trkpt lat="48.800399992614985" lon="2.945159962400794">
				<ele>136.0</ele>
				<time>2021-02-25T10:07:28</time>
			</trkpt>
			<trkpt lat="48.80195994861424" lon="2.945409994572401">
				<ele>134.0</ele>
				<time>2021-02-25T10:07:55</time>
			</trkpt>
			<trkpt lat="48.80360992625356" lon="2.9452699329704046">
				<ele>138.0</ele>
				<time>2021-02-25T10:08:24</time>
			</trkpt>
			<trkpt lat="48.80405995063484" lon="2.945349980145693">
				<ele>138.0</ele>
				<time>2021-02-25T10:08:32</time>
			</trkpt>
			<trkpt lat="48.80496997386217" lon="2.945759939029813">
				<ele>138.0</ele>
				<time>2021-02-25T10:08:48</time>
			</trkpt>
			<trkpt lat="48.80523995496333" lon="2.944929962977767">
				<ele>140.0</ele>
				<time>2021-02-25T10:08:59</time>
			</trkpt>
			<trkpt lat="48.80554991774261" lon="2.9441599175333977">
				<ele>140.0</ele>
				<time>2021-02-25T10:09:09</time>
			</trkpt>
			<trkpt lat="48.805539943277836" lon="2.9438999947160482">
				<ele>141.0</ele>
				<time>2021-02-25T10:09:12</time>
			</trkpt>
			<trkpt lat="48.80436999723315" lon="2.943529933691025">
				<ele>139.0</ele>
				<time>2021-02-25T10:09:33</time>
			</trkpt>
			<trkpt lat="48.8043399900198" lon="2.9429699387401342">
				<ele>139.0</ele>
				<time>2021-02-25T10:09:39</time>
			</trkpt>
			<trkpt lat="48.80412993952632" lon="2.94252997264266">
				<ele>138.0</ele>
				<time>2021-02-25T10:09:46</time>
			</trkpt>
			<trkpt lat="48.80407998338342" lon="2.942289998754859">
				<ele>139.0</ele>
				<time>2021-02-25T10:09:49</time>
			</trkpt>
			<trkpt lat="48.80402994342148" lon="2.9359199199825525">
				<ele>134.0</ele>
				<time>2021-02-25T10:11:02</time>
			</trkpt>
			<trkpt lat="48.8039099983871" lon="2.9352999944239855">
				<ele>134.0</ele>
				<time>2021-02-25T10:11:09</time>
			</trkpt>
			<trkpt lat="48.803559970110655" lon="2.934239935129881">
				<ele>134.0</ele>
				<time>2021-02-25T10:11:23</time>
			</trkpt>
			<trkpt lat="48.80341999232769" lon="2.9334499407559633">
				<ele>132.0</ele>
				<time>2021-02-25T10:11:32</time>
			</trkpt>
			<trkpt lat="48.80318999290466" lon="2.9313199315220118">
				<ele>136.0</ele>
				<time>2021-02-25T10:11:57</time>
			</trkpt>
			<trkpt lat="48.805109951645136" lon="2.9306699987500906">
				<ele>131.0</ele>
				<time>2021-02-25T10:12:31</time>
			</trkpt>
			<trkpt lat="48.805729961022735" lon="2.930309996008873">
				<ele>128.0</ele>
				<time>2021-02-25T10:12:43</time>
			</trkpt>
			<trkpt lat="48.81461502984166" lon="2.9216849338263273">
				<ele>84.0</ele>
				<time>2021-02-25T10:15:46</time>
			</trkpt>
			<trkpt lat="48.81460991688073" lon="2.9216899629682302">
				<ele>84.0</ele>
				<time>2021-02-25T10:15:46</time>
			</trkpt>
			<trkpt lat="48.81482994183898" lon="2.921379916369915">
				<ele>81.0</ele>
				<time>2021-02-25T10:15:51</time>
			</trkpt>
			<trkpt lat="48.81501995958388" lon="2.920979931950569">
				<ele>79.0</ele>
				<time>2021-02-25T10:15:57</time>
			</trkpt>
			<trkpt lat="48.81566997617483" lon="2.919449983164668">
				<ele>71.0</ele>
				<time>2021-02-25T10:16:18</time>
			</trkpt>
			<trkpt lat="48.81962992250919" lon="2.909839963540435">
				<ele>55.0</ele>
				<time>2021-02-25T10:18:28</time>
			</trkpt>
			<trkpt lat="48.81980996578932" lon="2.9090299364179373">
				<ele>53.0</ele>
				<time>2021-02-25T10:18:38</time>
			</trkpt>
			<trkpt lat="48.82008992135525" lon="2.906099958345294">
				<ele>57.0</ele>
				<time>2021-02-25T10:19:12</time>
			</trkpt>
			<trkpt lat="48.82017994299531" lon="2.905679941177368">
				<ele>59.0</ele>
				<time>2021-02-25T10:19:17</time>
			</trkpt>
			<trkpt lat="48.8203099463135" lon="2.9053699783980846">
				<ele>62.0</ele>
				<time>2021-02-25T10:19:21</time>
			</trkpt>
			<trkpt lat="48.82051999680698" lon="2.9050699900835752">
				<ele>64.0</ele>
				<time>2021-02-25T10:19:26</time>
			</trkpt>
			<trkpt lat="48.82279995828867" lon="2.9027199558913708">
				<ele>64.0</ele>
				<time>2021-02-25T10:20:14</time>
			</trkpt>
			<trkpt lat="48.823259957134724" lon="2.902499930933118">
				<ele>62.0</ele>
				<time>2021-02-25T10:20:22</time>
			</trkpt>
			<trkpt lat="48.82356991991401" lon="2.9024299420416355">
				<ele>60.0</ele>
				<time>2021-02-25T10:20:28</time>
			</trkpt>
			<trkpt lat="48.824189929291606" lon="2.9023899603635073">
				<ele>61.0</ele>
				<time>2021-02-25T10:20:38</time>
			</trkpt>
			<trkpt lat="48.82449997588992" lon="2.9020499903708696">
				<ele>65.0</ele>
				<time>2021-02-25T10:20:45</time>
			</trkpt>
			<trkpt lat="48.82485997863114" lon="2.9017799254506826">
				<ele>70.0</ele>
				<time>2021-02-25T10:20:52</time>
			</trkpt>
			<trkpt lat="48.82563999854028" lon="2.901669954881072">
				<ele>66.0</ele>
				<time>2021-02-25T10:21:06</time>
			</trkpt>
			<trkpt lat="48.82704991847277" lon="2.901719994843006">
				<ele>59.0</ele>
				<time>2021-02-25T10:21:30</time>
			</trkpt>
			<trkpt lat="48.82904992438853" lon="2.9012799449265003">
				<ele>57.0</ele>
				<time>2021-02-25T10:22:05</time>
			</trkpt>
			<trkpt lat="48.82928998209536" lon="2.9012899193912745">
				<ele>56.0</ele>
				<time>2021-02-25T10:22:10</time>
			</trkpt>
			<trkpt lat="48.82982994429767" lon="2.901419922709465">
				<ele>55.0</ele>
				<time>2021-02-25T10:22:19</time>
			</trkpt>
			<trkpt lat="48.833619989454746" lon="2.90387992747128">
				<ele>53.0</ele>
				<time>2021-02-25T10:23:31</time>
			</trkpt>
			<trkpt lat="48.83601997978985" lon="2.905219942331314">
				<ele>53.0</ele>
				<time>2021-02-25T10:24:15</time>
			</trkpt>
			<trkpt lat="48.84178999811411" lon="2.906559957191348">
				<ele>56.0</ele>
				<time>2021-02-25T10:25:57</time>
			</trkpt>
			<trkpt lat="48.842149917036295" lon="2.9067099932581186">
				<ele>55.0</ele>
				<time>2021-02-25T10:26:03</time>
			</trkpt>
			<trkpt lat="48.84255995973945" lon="2.9069699998945">
				<ele>55.0</ele>
				<time>2021-02-25T10:26:11</time>
			</trkpt>
			<trkpt lat="48.843049965798855" lon="2.907439973205328">
				<ele>57.0</ele>
				<time>2021-02-25T10:26:21</time>
			</trkpt>
			<trkpt lat="48.8444999512285" lon="2.9093099758028984">
				<ele>52.0</ele>
				<time>2021-02-25T10:26:54</time>
			</trkpt>
			<trkpt lat="48.84503999724984" lon="2.9101799335330725">
				<ele>54.0</ele>
				<time>2021-02-25T10:27:08</time>
			</trkpt>
			<trkpt lat="48.84614992886782" lon="2.912159990519285">
				<ele>60.0</ele>
				<time>2021-02-25T10:27:38</time>
			</trkpt>
			<trkpt lat="48.846419993788004" lon="2.9128999449312687">
				<ele>60.0</ele>
				<time>2021-02-25T10:27:48</time>
			</trkpt>
			<trkpt lat="48.84669994935393" lon="2.914269967004657">
				<ele>59.0</ele>
				<time>2021-02-25T10:28:04</time>
			</trkpt>
			<trkpt lat="48.84713999927044" lon="2.91721997782588">
				<ele>61.0</ele>
				<time>2021-02-25T10:28:39</time>
			</trkpt>
			<trkpt lat="48.847349965944886" lon="2.917889943346381">
				<ele>64.0</ele>
				<time>2021-02-25T10:28:47</time>
			</trkpt>
			<trkpt lat="48.847839972004294" lon="2.919139936566353">
				<ele>66.0</ele>
				<time>2021-02-25T10:29:04</time>
			</trkpt>
			<trkpt lat="48.84793996810913" lon="2.9193099215626717">
				<ele>67.0</ele>
				<time>2021-02-25T10:29:06</time>
			</trkpt>
			<trkpt lat="48.84843994863331" lon="2.9197299387305975">
				<ele>69.0</ele>
				<time>2021-02-25T10:29:16</time>
			</trkpt>
			<trkpt lat="48.84934997186065" lon="2.9206599947065115">
				<ele>72.0</ele>
				<time>2021-02-25T10:29:35</time>
			</trkpt>
			<trkpt lat="48.85091998614371" lon="2.9217699263244867">
				<ele>70.0</ele>
				<time>2021-02-25T10:30:06</time>
			</trkpt>
			<trkpt lat="48.85382993146777" lon="2.9236999433487654">
				<ele>58.0</ele>
				<time>2021-02-25T10:31:01</time>
			</trkpt>
			<trkpt lat="48.854419933632016" lon="2.923629954457283">
				<ele>54.0</ele>
				<time>2021-02-25T10:31:11</time>
			</trkpt>
			<trkpt lat="48.854589918628335" lon="2.9234899766743183">
				<ele>53.0</ele>
				<time>2021-02-25T10:31:14</time>
			</trkpt>
			<trkpt lat="48.85502996854484" lon="2.9223899357020855">
				<ele>53.0</ele>
				<time>2021-02-25T10:31:29</time>
			</trkpt>
			<trkpt lat="48.85513993911445" lon="2.9215599596500397">
				<ele>52.0</ele>
				<time>2021-02-25T10:31:39</time>
			</trkpt>
			<trkpt lat="48.855209928005934" lon="2.9161899257451296">
				<ele>51.0</ele>
				<time>2021-02-25T10:32:40</time>
			</trkpt>
			<trkpt lat="48.854329995810986" lon="2.911699991673231">
				<ele>57.0</ele>
				<time>2021-02-25T10:33:34</time>
			</trkpt>
			<trkpt lat="48.85454993695021" lon="2.910249922424555">
				<ele>54.0</ele>
				<time>2021-02-25T10:33:51</time>
			</trkpt>
			<trkpt lat="48.85470994748175" lon="2.909929985180497">
				<ele>54.0</ele>
				<time>2021-02-25T10:33:56</time>
			</trkpt>
			<trkpt lat="48.854849925264716" lon="2.909849938005209">
				<ele>52.0</ele>
				<time>2021-02-25T10:33:58</time>
			</trkpt>
			<trkpt lat="48.85500993579626" lon="2.909879945218563">
				<ele>52.0</ele>
				<time>2021-02-25T10:34:01</time>
			</trkpt>
			<trkpt lat="48.85549994185567" lon="2.9098299890756607">
				<ele>51.0</ele>
				<time>2021-02-25T10:34:10</time>
			</trkpt>
			<trkpt lat="48.855599937960505" lon="2.9099599923938513">
				<ele>51.0</ele>
				<time>2021-02-25T10:34:12</time>
			</trkpt>
			<trkpt lat="48.8557399995625" lon="2.910359976813197">
				<ele>52.0</ele>
				<time>2021-02-25T10:34:17</time>
			</trkpt>
			<trkpt lat="48.85628993622959" lon="2.91098996065557">
				<ele>52.0</ele>
				<time>2021-02-25T10:34:29</time>
			</trkpt>
			<trkpt lat="48.856649938970804" lon="2.9126299638301134">
				<ele>53.0</ele>
				<time>2021-02-25T10:34:49</time>
			</trkpt>
			<trkpt lat="48.85673996061087" lon="2.9128399305045605">
				<ele>53.0</ele>
				<time>2021-02-25T10:34:52</time>
			</trkpt>
			<trkpt lat="48.857249999418855" lon="2.913439990952611">
				<ele>52.0</ele>
				<time>2021-02-25T10:35:03</time>
			</trkpt>
			<trkpt lat="48.85736994445324" lon="2.9135099798440933">
				<ele>53.0</ele>
				<time>2021-02-25T10:35:05</time>
			</trkpt>
			<trkpt lat="48.858049968257546" lon="2.91360997594893">
				<ele>53.0</ele>
				<time>2021-02-25T10:35:17</time>
			</trkpt>
			<trkpt lat="48.85796992108226" lon="2.91186997666955">
				<ele>52.0</ele>
				<time>2021-02-25T10:35:37</time>
			</trkpt>
			<trkpt lat="48.85786992497742" lon="2.909449953585863">
				<ele>53.0</ele>
				<time>2021-02-25T10:36:05</time>
			</trkpt>
			<trkpt lat="48.85774997994304" lon="2.9083999525755644">
				<ele>51.0</ele>
				<time>2021-02-25T10:36:17</time>
			</trkpt>
			<trkpt lat="48.85768996551633" lon="2.908159978687763">
				<ele>51.0</ele>
				<time>2021-02-25T10:36:20</time>
			</trkpt>
			<trkpt lat="48.85779993608594" lon="2.907889997586608">
				<ele>51.0</ele>
				<time>2021-02-25T10:36:24</time>
			</trkpt>
			<trkpt lat="48.8581299316138" lon="2.9072999954223633">
				<ele>51.0</ele>
				<time>2021-02-25T10:36:33</time>
			</trkpt>
			<trkpt lat="48.858239986002445" lon="2.907229922711849">
				<ele>51.0</ele>
				<time>2021-02-25T10:36:35</time>
			</trkpt>
			<trkpt lat="48.85824996046722" lon="2.9070799704641104">
				<ele>51.0</ele>
				<time>2021-02-25T10:36:36</time>
			</trkpt>
			<trkpt lat="48.8579901214689" lon="2.9069200437515974">
				<ele>50.0</ele>
				<time>2021-02-25T10:36:41</time>
			</trkpt>
		</trkseg>
	</trk>
</gpx>
