<?xml version="1.0" encoding="UTF-8"?>
<gpx creator="Garmin Connect" version="1.1" xsi:schemaLocation="http://www.topografix.com/GPX/1/1 http://www.topografix.com/GPX/11.xsd" xmlns:ns3="http://www.garmin.com/xmlschemas/TrackPointExtension/v1" xmlns="http://www.topografix.com/GPX/1/1" xmlns:xsi="http://www.w3.org/2001/XMLSchema-instance" xmlns:ns2="http://www.garmin.com/xmlschemas/GpxExtensions/v3">
	<metadata>
		<name>205-G3-58 km-D 366 m-Voinsles</name>
		<link href="connect.garmin.com">
			<text>Garmin Connect</text>
		</link>
		<time>2021-02-25T08:00:00</time>
	</metadata>
	<trk>
		<name>205-G3-58 km-D 366 m-Voinsles</name>
		<trkseg>
			<trkpt lat="48.857889957726" lon="2.906879810616374">
				<ele>49.0</ele>
				<time>2021-02-25T08:00:00</time>
			</trkpt>
			<trkpt lat="48.85824996046722" lon="2.9070799704641104">
				<ele>49.0</ele>
				<time>2021-02-25T08:00:07</time>
			</trkpt>
			<trkpt lat="48.858239986002445" lon="2.907229922711849">
				<ele>49.0</ele>
				<time>2021-02-25T08:00:08</time>
			</trkpt>
			<trkpt lat="48.8581299316138" lon="2.9072999954223633">
				<ele>49.0</ele>
				<time>2021-02-25T08:00:10</time>
			</trkpt>
			<trkpt lat="48.85779993608594" lon="2.907889997586608">
				<ele>51.0</ele>
				<time>2021-02-25T08:00:19</time>
			</trkpt>
			<trkpt lat="48.857529954984784" lon="2.9084699414670467">
				<ele>51.0</ele>
				<time>2021-02-25T08:00:27</time>
			</trkpt>
			<trkpt lat="48.856669971719384" lon="2.9099899996072054">
				<ele>50.0</ele>
				<time>2021-02-25T08:00:50</time>
			</trkpt>
			<trkpt lat="48.85648992843926" lon="2.9103899840265512">
				<ele>50.0</ele>
				<time>2021-02-25T08:00:56</time>
			</trkpt>
			<trkpt lat="48.85628993622959" lon="2.91098996065557">
				<ele>51.0</ele>
				<time>2021-02-25T08:01:04</time>
			</trkpt>
			<trkpt lat="48.8557399995625" lon="2.910359976813197">
				<ele>51.0</ele>
				<time>2021-02-25T08:01:16</time>
			</trkpt>
			<trkpt lat="48.855599937960505" lon="2.9099599923938513">
				<ele>51.0</ele>
				<time>2021-02-25T08:01:21</time>
			</trkpt>
			<trkpt lat="48.85549994185567" lon="2.9098299890756607">
				<ele>51.0</ele>
				<time>2021-02-25T08:01:23</time>
			</trkpt>
			<trkpt lat="48.85500993579626" lon="2.909879945218563">
				<ele>54.0</ele>
				<time>2021-02-25T08:01:32</time>
			</trkpt>
			<trkpt lat="48.854849925264716" lon="2.909849938005209">
				<ele>56.0</ele>
				<time>2021-02-25T08:01:35</time>
			</trkpt>
			<trkpt lat="48.85470994748175" lon="2.909929985180497">
				<ele>57.0</ele>
				<time>2021-02-25T08:01:37</time>
			</trkpt>
			<trkpt lat="48.85454993695021" lon="2.910249922424555">
				<ele>59.0</ele>
				<time>2021-02-25T08:01:42</time>
			</trkpt>
			<trkpt lat="48.854329995810986" lon="2.911699991673231">
				<ele>61.0</ele>
				<time>2021-02-25T08:01:59</time>
			</trkpt>
			<trkpt lat="48.85517992079258" lon="2.9159499518573284">
				<ele>51.0</ele>
				<time>2021-02-25T08:02:50</time>
			</trkpt>
			<trkpt lat="48.85521998628974" lon="2.9163699690252542">
				<ele>51.0</ele>
				<time>2021-02-25T08:02:54</time>
			</trkpt>
			<trkpt lat="48.85519995354116" lon="2.917599929496646">
				<ele>50.0</ele>
				<time>2021-02-25T08:03:09</time>
			</trkpt>
			<trkpt lat="48.85515997186303" lon="2.921199956908822">
				<ele>51.0</ele>
				<time>2021-02-25T08:03:50</time>
			</trkpt>
			<trkpt lat="48.85506995022297" lon="2.9221799690276384">
				<ele>53.0</ele>
				<time>2021-02-25T08:04:01</time>
			</trkpt>
			<trkpt lat="48.85502996854484" lon="2.9223899357020855">
				<ele>53.0</ele>
				<time>2021-02-25T08:04:04</time>
			</trkpt>
			<trkpt lat="48.85466996580362" lon="2.9233399406075478">
				<ele>54.0</ele>
				<time>2021-02-25T08:04:16</time>
			</trkpt>
			<trkpt lat="48.85453996248543" lon="2.9235499911010265">
				<ele>54.0</ele>
				<time>2021-02-25T08:04:19</time>
			</trkpt>
			<trkpt lat="48.854419933632016" lon="2.923629954457283">
				<ele>55.0</ele>
				<time>2021-02-25T08:04:22</time>
			</trkpt>
			<trkpt lat="48.85397996753454" lon="2.9236999433487654">
				<ele>56.0</ele>
				<time>2021-02-25T08:04:29</time>
			</trkpt>
			<trkpt lat="48.85382993146777" lon="2.9236999433487654">
				<ele>56.0</ele>
				<time>2021-02-25T08:04:32</time>
			</trkpt>
			<trkpt lat="48.85370998643339" lon="2.923639928922057">
				<ele>57.0</ele>
				<time>2021-02-25T08:04:34</time>
			</trkpt>
			<trkpt lat="48.85091998614371" lon="2.9217699263244867">
				<ele>69.0</ele>
				<time>2021-02-25T08:05:27</time>
			</trkpt>
			<trkpt lat="48.84934997186065" lon="2.9206599947065115">
				<ele>70.0</ele>
				<time>2021-02-25T08:05:57</time>
			</trkpt>
			<trkpt lat="48.84843994863331" lon="2.9197299387305975">
				<ele>66.0</ele>
				<time>2021-02-25T08:06:17</time>
			</trkpt>
			<trkpt lat="48.84802998974919" lon="2.919419975951314">
				<ele>63.0</ele>
				<time>2021-02-25T08:06:25</time>
			</trkpt>
			<trkpt lat="48.847839972004294" lon="2.919139936566353">
				<ele>62.0</ele>
				<time>2021-02-25T08:06:29</time>
			</trkpt>
			<trkpt lat="48.847349965944886" lon="2.917889943346381">
				<ele>60.0</ele>
				<time>2021-02-25T08:06:46</time>
			</trkpt>
			<trkpt lat="48.84713999927044" lon="2.91721997782588">
				<ele>58.0</ele>
				<time>2021-02-25T08:06:54</time>
			</trkpt>
			<trkpt lat="48.84669994935393" lon="2.914269967004657">
				<ele>59.0</ele>
				<time>2021-02-25T08:07:29</time>
			</trkpt>
			<trkpt lat="48.846469949930906" lon="2.9130999371409416">
				<ele>60.0</ele>
				<time>2021-02-25T08:07:43</time>
			</trkpt>
			<trkpt lat="48.84632997214794" lon="2.9125999566167593">
				<ele>60.0</ele>
				<time>2021-02-25T08:07:49</time>
			</trkpt>
			<trkpt lat="48.84614992886782" lon="2.912159990519285">
				<ele>58.0</ele>
				<time>2021-02-25T08:07:55</time>
			</trkpt>
			<trkpt lat="48.845909954980016" lon="2.9117099661380053">
				<ele>56.0</ele>
				<time>2021-02-25T08:08:02</time>
			</trkpt>
			<trkpt lat="48.844899935647845" lon="2.9099399596452713">
				<ele>53.0</ele>
				<time>2021-02-25T08:08:29</time>
			</trkpt>
			<trkpt lat="48.84428998455405" lon="2.909019961953163">
				<ele>51.0</ele>
				<time>2021-02-25T08:08:44</time>
			</trkpt>
			<trkpt lat="48.842899929732084" lon="2.9072599299252033">
				<ele>56.0</ele>
				<time>2021-02-25T08:09:15</time>
			</trkpt>
			<trkpt lat="48.84255995973945" lon="2.9069699998945">
				<ele>55.0</ele>
				<time>2021-02-25T08:09:22</time>
			</trkpt>
			<trkpt lat="48.842149917036295" lon="2.9067099932581186">
				<ele>55.0</ele>
				<time>2021-02-25T08:09:30</time>
			</trkpt>
			<trkpt lat="48.84178999811411" lon="2.906559957191348">
				<ele>54.0</ele>
				<time>2021-02-25T08:09:36</time>
			</trkpt>
			<trkpt lat="48.841069992631674" lon="2.906379997730255">
				<ele>53.0</ele>
				<time>2021-02-25T08:09:49</time>
			</trkpt>
			<trkpt lat="48.83601997978985" lon="2.905219942331314">
				<ele>52.0</ele>
				<time>2021-02-25T08:11:18</time>
			</trkpt>
			<trkpt lat="48.833619989454746" lon="2.90387992747128">
				<ele>52.0</ele>
				<time>2021-02-25T08:12:02</time>
			</trkpt>
			<trkpt lat="48.82982994429767" lon="2.901419922709465">
				<ele>56.0</ele>
				<time>2021-02-25T08:13:14</time>
			</trkpt>
			<trkpt lat="48.82928998209536" lon="2.9012899193912745">
				<ele>57.0</ele>
				<time>2021-02-25T08:13:23</time>
			</trkpt>
			<trkpt lat="48.82889997214079" lon="2.9012999776750803">
				<ele>60.0</ele>
				<time>2021-02-25T08:13:30</time>
			</trkpt>
			<trkpt lat="48.82704991847277" lon="2.901719994843006">
				<ele>59.0</ele>
				<time>2021-02-25T08:14:03</time>
			</trkpt>
			<trkpt lat="48.82563999854028" lon="2.901669954881072">
				<ele>65.0</ele>
				<time>2021-02-25T08:14:27</time>
			</trkpt>
			<trkpt lat="48.82502996362746" lon="2.9017299693077803">
				<ele>68.0</ele>
				<time>2021-02-25T08:14:38</time>
			</trkpt>
			<trkpt lat="48.82485997863114" lon="2.9017799254506826">
				<ele>67.0</ele>
				<time>2021-02-25T08:14:41</time>
			</trkpt>
			<trkpt lat="48.82449997588992" lon="2.9020499903708696">
				<ele>64.0</ele>
				<time>2021-02-25T08:14:48</time>
			</trkpt>
			<trkpt lat="48.824189929291606" lon="2.9023899603635073">
				<ele>60.0</ele>
				<time>2021-02-25T08:14:55</time>
			</trkpt>
			<trkpt lat="48.82356991991401" lon="2.9024299420416355">
				<ele>60.0</ele>
				<time>2021-02-25T08:15:05</time>
			</trkpt>
			<trkpt lat="48.823089972138405" lon="2.902549970895052">
				<ele>63.0</ele>
				<time>2021-02-25T08:15:14</time>
			</trkpt>
			<trkpt lat="48.82288997992873" lon="2.9026499669998884">
				<ele>64.0</ele>
				<time>2021-02-25T08:15:17</time>
			</trkpt>
			<trkpt lat="48.822639947757125" lon="2.9028699919581413">
				<ele>62.0</ele>
				<time>2021-02-25T08:15:23</time>
			</trkpt>
			<trkpt lat="48.82051999680698" lon="2.9050699900835752">
				<ele>62.0</ele>
				<time>2021-02-25T08:16:07</time>
			</trkpt>
			<trkpt lat="48.82024993188679" lon="2.9055099561810493">
				<ele>60.0</ele>
				<time>2021-02-25T08:16:14</time>
			</trkpt>
			<trkpt lat="48.820149935781956" lon="2.9057899955660105">
				<ele>57.0</ele>
				<time>2021-02-25T08:16:18</time>
			</trkpt>
			<trkpt lat="48.82008992135525" lon="2.906099958345294">
				<ele>57.0</ele>
				<time>2021-02-25T08:16:21</time>
			</trkpt>
			<trkpt lat="48.81980996578932" lon="2.9090299364179373">
				<ele>53.0</ele>
				<time>2021-02-25T08:16:55</time>
			</trkpt>
			<trkpt lat="48.81962992250919" lon="2.909839963540435">
				<ele>56.0</ele>
				<time>2021-02-25T08:17:05</time>
			</trkpt>
			<trkpt lat="48.81566997617483" lon="2.919449983164668">
				<ele>70.0</ele>
				<time>2021-02-25T08:19:15</time>
			</trkpt>
			<trkpt lat="48.81482994183898" lon="2.921379916369915">
				<ele>82.0</ele>
				<time>2021-02-25T08:19:42</time>
			</trkpt>
			<trkpt lat="48.81447999738157" lon="2.921839999035001">
				<ele>84.0</ele>
				<time>2021-02-25T08:19:50</time>
			</trkpt>
			<trkpt lat="48.809599969536066" lon="2.926569990813732">
				<ele>103.0</ele>
				<time>2021-02-25T08:21:30</time>
			</trkpt>
			<trkpt lat="48.8060599565506" lon="2.930009923875332">
				<ele>126.0</ele>
				<time>2021-02-25T08:22:44</time>
			</trkpt>
			<trkpt lat="48.80552996881306" lon="2.930459948256612">
				<ele>129.0</ele>
				<time>2021-02-25T08:22:54</time>
			</trkpt>
			<trkpt lat="48.805109951645136" lon="2.9306699987500906">
				<ele>130.0</ele>
				<time>2021-02-25T08:23:02</time>
			</trkpt>
			<trkpt lat="48.79256207495928" lon="2.9348791390657425">
				<ele>135.98</ele>
				<time>2021-02-25T08:26:45</time>
			</trkpt>
			<trkpt lat="48.792560985311866" lon="2.934879558160901">
				<ele>135.99</ele>
				<time>2021-02-25T08:26:46</time>
			</trkpt>
			<trkpt lat="48.792559979483485" lon="2.9348799772560596">
				<ele>136.0</ele>
				<time>2021-02-25T08:26:46</time>
			</trkpt>
			<trkpt lat="48.790969932451844" lon="2.935099918395281">
				<ele>135.0</ele>
				<time>2021-02-25T08:27:13</time>
			</trkpt>
			<trkpt lat="48.78145999275148" lon="2.9364099260419607">
				<ele>123.0</ele>
				<time>2021-02-25T08:30:00</time>
			</trkpt>
			<trkpt lat="48.77986994571984" lon="2.9361799266189337">
				<ele>127.0</ele>
				<time>2021-02-25T08:30:27</time>
			</trkpt>
			<trkpt lat="48.77726996317506" lon="2.9357099533081055">
				<ele>125.0</ele>
				<time>2021-02-25T08:31:13</time>
			</trkpt>
			<trkpt lat="48.77677995711565" lon="2.9356899205595255">
				<ele>124.0</ele>
				<time>2021-02-25T08:31:21</time>
			</trkpt>
			<trkpt lat="48.7708299793303" lon="2.9376599192619324">
				<ele>120.0</ele>
				<time>2021-02-25T08:33:07</time>
			</trkpt>
			<trkpt lat="48.760159984230995" lon="2.941169925034046">
				<ele>115.0</ele>
				<time>2021-02-25T08:36:17</time>
			</trkpt>
			<trkpt lat="48.76152992248535" lon="2.946939943358302">
				<ele>119.0</ele>
				<time>2021-02-25T08:37:28</time>
			</trkpt>
			<trkpt lat="48.76220994628966" lon="2.949839998036623">
				<ele>118.0</ele>
				<time>2021-02-25T08:38:03</time>
			</trkpt>
			<trkpt lat="48.76310999505222" lon="2.953629959374666">
				<ele>117.0</ele>
				<time>2021-02-25T08:38:49</time>
			</trkpt>
			<trkpt lat="48.76334996894002" lon="2.9547899309545755">
				<ele>118.0</ele>
				<time>2021-02-25T08:39:03</time>
			</trkpt>
			<trkpt lat="48.76351995393634" lon="2.955969935283065">
				<ele>118.0</ele>
				<time>2021-02-25T08:39:17</time>
			</trkpt>
			<trkpt lat="48.76370997168124" lon="2.956939972937107">
				<ele>117.0</ele>
				<time>2021-02-25T08:39:29</time>
			</trkpt>
			<trkpt lat="48.76463994383812" lon="2.960509993135929">
				<ele>114.0</ele>
				<time>2021-02-25T08:40:13</time>
			</trkpt>
			<trkpt lat="48.76644993200898" lon="2.966489978134632">
				<ele>116.0</ele>
				<time>2021-02-25T08:41:28</time>
			</trkpt>
			<trkpt lat="48.765769992023706" lon="2.9670099914073944">
				<ele>116.0</ele>
				<time>2021-02-25T08:41:42</time>
			</trkpt>
			<trkpt lat="48.76402999274433" lon="2.9681399557739496">
				<ele>116.0</ele>
				<time>2021-02-25T08:42:14</time>
			</trkpt>
			<trkpt lat="48.76208991743624" lon="2.9695099778473377">
				<ele>115.0</ele>
				<time>2021-02-25T08:42:52</time>
			</trkpt>
			<trkpt lat="48.75511994585395" lon="2.9744799435138702">
				<ele>112.0</ele>
				<time>2021-02-25T08:45:06</time>
			</trkpt>
			<trkpt lat="48.747999938204885" lon="2.978189941495657">
				<ele>110.0</ele>
				<time>2021-02-25T08:47:17</time>
			</trkpt>
			<trkpt lat="48.74439999461174" lon="2.980429921299219">
				<ele>108.0</ele>
				<time>2021-02-25T08:48:25</time>
			</trkpt>
			<trkpt lat="48.740049954503775" lon="2.9840399231761694">
				<ele>109.0</ele>
				<time>2021-02-25T08:49:51</time>
			</trkpt>
			<trkpt lat="48.73927999287844" lon="2.985109956935048">
				<ele>111.0</ele>
				<time>2021-02-25T08:50:09</time>
			</trkpt>
			<trkpt lat="48.73894999735057" lon="2.9856599774211645">
				<ele>111.0</ele>
				<time>2021-02-25T08:50:18</time>
			</trkpt>
			<trkpt lat="48.738869950175285" lon="2.9859199840575457">
				<ele>111.0</ele>
				<time>2021-02-25T08:50:21</time>
			</trkpt>
			<trkpt lat="48.73878998681903" lon="2.986619956791401">
				<ele>110.0</ele>
				<time>2021-02-25T08:50:29</time>
			</trkpt>
			<trkpt lat="48.73871999792755" lon="2.986799916252494">
				<ele>110.0</ele>
				<time>2021-02-25T08:50:31</time>
			</trkpt>
			<trkpt lat="48.73865998350084" lon="2.986859930679202">
				<ele>109.0</ele>
				<time>2021-02-25T08:50:33</time>
			</trkpt>
			<trkpt lat="48.738479940220714" lon="2.9869399778544903">
				<ele>109.0</ele>
				<time>2021-02-25T08:50:36</time>
			</trkpt>
			<trkpt lat="48.73769992031157" lon="2.987089930102229">
				<ele>108.0</ele>
				<time>2021-02-25T08:50:50</time>
			</trkpt>
			<trkpt lat="48.73692995868623" lon="2.987309955060482">
				<ele>108.0</ele>
				<time>2021-02-25T08:51:03</time>
			</trkpt>
			<trkpt lat="48.736739940941334" lon="2.987309955060482">
				<ele>108.0</ele>
				<time>2021-02-25T08:51:07</time>
			</trkpt>
			<trkpt lat="48.73648999258876" lon="2.9874199256300926">
				<ele>109.0</ele>
				<time>2021-02-25T08:51:11</time>
			</trkpt>
			<trkpt lat="48.736329982057214" lon="2.987539954483509">
				<ele>110.0</ele>
				<time>2021-02-25T08:51:14</time>
			</trkpt>
			<trkpt lat="48.73603996820748" lon="2.9883099999278784">
				<ele>111.0</ele>
				<time>2021-02-25T08:51:24</time>
			</trkpt>
			<trkpt lat="48.73590996488929" lon="2.9885599482804537">
				<ele>111.0</ele>
				<time>2021-02-25T08:51:28</time>
			</trkpt>
			<trkpt lat="48.735539987683296" lon="2.988819954916835">
				<ele>111.0</ele>
				<time>2021-02-25T08:51:35</time>
			</trkpt>
			<trkpt lat="48.73559991829097" lon="2.989569967612624">
				<ele>111.0</ele>
				<time>2021-02-25T08:51:44</time>
			</trkpt>
			<trkpt lat="48.73559991829097" lon="2.9899199958890676">
				<ele>111.0</ele>
				<time>2021-02-25T08:51:48</time>
			</trkpt>
			<trkpt lat="48.73547997325659" lon="2.9906699247658253">
				<ele>110.0</ele>
				<time>2021-02-25T08:51:57</time>
			</trkpt>
			<trkpt lat="48.73520999215543" lon="2.991139981895685">
				<ele>111.0</ele>
				<time>2021-02-25T08:52:04</time>
			</trkpt>
			<trkpt lat="48.73528031632304" lon="2.996849063783884">
				<ele>110.0</ele>
				<time>2021-02-25T08:53:09</time>
			</trkpt>
			<trkpt lat="48.73528014868498" lon="2.9968344792723656">
				<ele>110.0</ele>
				<time>2021-02-25T08:53:09</time>
			</trkpt>
			<trkpt lat="48.735279981046915" lon="2.996819978579879">
				<ele>110.0</ele>
				<time>2021-02-25T08:53:10</time>
			</trkpt>
			<trkpt lat="48.735369918867946" lon="3.004609951749444">
				<ele>110.0</ele>
				<time>2021-02-25T08:54:39</time>
			</trkpt>
			<trkpt lat="48.735449966043234" lon="3.0086899269372225">
				<ele>114.0</ele>
				<time>2021-02-25T08:55:26</time>
			</trkpt>
			<trkpt lat="48.73543999157846" lon="3.009039955213666">
				<ele>115.0</ele>
				<time>2021-02-25T08:55:30</time>
			</trkpt>
			<trkpt lat="48.73529992997646" lon="3.010139996185899">
				<ele>113.0</ele>
				<time>2021-02-25T08:55:43</time>
			</trkpt>
			<trkpt lat="48.73529992997646" lon="3.011299967765808">
				<ele>113.0</ele>
				<time>2021-02-25T08:55:56</time>
			</trkpt>
			<trkpt lat="48.7353999260813" lon="3.0121099948883057">
				<ele>114.0</ele>
				<time>2021-02-25T08:56:06</time>
			</trkpt>
			<trkpt lat="48.73537997715175" lon="3.012389950454235">
				<ele>113.0</ele>
				<time>2021-02-25T08:56:09</time>
			</trkpt>
			<trkpt lat="48.73524997383356" lon="3.0127499531954527">
				<ele>113.0</ele>
				<time>2021-02-25T08:56:14</time>
			</trkpt>
			<trkpt lat="48.73487999662757" lon="3.013029992580414">
				<ele>111.0</ele>
				<time>2021-02-25T08:56:21</time>
			</trkpt>
			<trkpt lat="48.73487999662757" lon="3.013249933719635">
				<ele>112.0</ele>
				<time>2021-02-25T08:56:23</time>
			</trkpt>
			<trkpt lat="48.734549917280674" lon="3.013949990272522">
				<ele>110.0</ele>
				<time>2021-02-25T08:56:33</time>
			</trkpt>
			<trkpt lat="48.73423995450139" lon="3.0149699840694666">
				<ele>107.0</ele>
				<time>2021-02-25T08:56:46</time>
			</trkpt>
			<trkpt lat="48.734119925647974" lon="3.01570993848145">
				<ele>105.0</ele>
				<time>2021-02-25T08:56:55</time>
			</trkpt>
			<trkpt lat="48.73392999172211" lon="3.0165199656039476">
				<ele>105.0</ele>
				<time>2021-02-25T08:57:05</time>
			</trkpt>
			<trkpt lat="48.73350997455418" lon="3.0187399964779615">
				<ele>101.0</ele>
				<time>2021-02-25T08:57:31</time>
			</trkpt>
			<trkpt lat="48.73337997123599" lon="3.0195899214595556">
				<ele>101.0</ele>
				<time>2021-02-25T08:57:41</time>
			</trkpt>
			<trkpt lat="48.73307998292148" lon="3.0207099951803684">
				<ele>101.0</ele>
				<time>2021-02-25T08:57:55</time>
			</trkpt>
			<trkpt lat="48.73298996128142" lon="3.021239982917905">
				<ele>101.0</ele>
				<time>2021-02-25T08:58:01</time>
			</trkpt>
			<trkpt lat="48.73296992853284" lon="3.0220399517565966">
				<ele>97.0</ele>
				<time>2021-02-25T08:58:11</time>
			</trkpt>
			<trkpt lat="48.7330599501729" lon="3.0238099582493305">
				<ele>96.0</ele>
				<time>2021-02-25T08:58:31</time>
			</trkpt>
			<trkpt lat="48.73248998075724" lon="3.0245299637317657">
				<ele>96.0</ele>
				<time>2021-02-25T08:58:44</time>
			</trkpt>
			<trkpt lat="48.732099970802665" lon="3.0251399986445904">
				<ele>96.0</ele>
				<time>2021-02-25T08:58:54</time>
			</trkpt>
			<trkpt lat="48.73142992146313" lon="3.026319919154048">
				<ele>95.0</ele>
				<time>2021-02-25T08:59:11</time>
			</trkpt>
			<trkpt lat="48.7309099920094" lon="3.0273499712347984">
				<ele>97.0</ele>
				<time>2021-02-25T08:59:26</time>
			</trkpt>
			<trkpt lat="48.73081997036934" lon="3.0274399928748608">
				<ele>97.0</ele>
				<time>2021-02-25T08:59:28</time>
			</trkpt>
			<trkpt lat="48.73037992045283" lon="3.0276099778711796">
				<ele>98.0</ele>
				<time>2021-02-25T08:59:36</time>
			</trkpt>
			<trkpt lat="48.73029995709658" lon="3.027699999511242">
				<ele>98.0</ele>
				<time>2021-02-25T08:59:38</time>
			</trkpt>
			<trkpt lat="48.730079932138324" lon="3.028369965031743">
				<ele>96.0</ele>
				<time>2021-02-25T08:59:46</time>
			</trkpt>
			<trkpt lat="48.729929979890585" lon="3.0288699455559254">
				<ele>94.0</ele>
				<time>2021-02-25T08:59:53</time>
			</trkpt>
			<trkpt lat="48.729589926078916" lon="3.029699921607971">
				<ele>96.0</ele>
				<time>2021-02-25T09:00:04</time>
			</trkpt>
			<trkpt lat="48.72954994440079" lon="3.0299599282443523">
				<ele>96.0</ele>
				<time>2021-02-25T09:00:07</time>
			</trkpt>
			<trkpt lat="48.72953996993601" lon="3.0312999431043863">
				<ele>99.0</ele>
				<time>2021-02-25T09:00:22</time>
			</trkpt>
			<trkpt lat="48.72956997714937" lon="3.0317699164152145">
				<ele>100.0</ele>
				<time>2021-02-25T09:00:28</time>
			</trkpt>
			<trkpt lat="48.730019917711616" lon="3.0330499168485403">
				<ele>103.0</ele>
				<time>2021-02-25T09:00:44</time>
			</trkpt>
			<trkpt lat="48.730099964886904" lon="3.034199997782707">
				<ele>104.0</ele>
				<time>2021-02-25T09:00:58</time>
			</trkpt>
			<trkpt lat="48.727629985660315" lon="3.0344799533486366">
				<ele>109.0</ele>
				<time>2021-02-25T09:01:41</time>
			</trkpt>
			<trkpt lat="48.72692992910743" lon="3.0347399599850178">
				<ele>109.0</ele>
				<time>2021-02-25T09:01:53</time>
			</trkpt>
			<trkpt lat="48.72662994079292" lon="3.0347099527716637">
				<ele>109.0</ele>
				<time>2021-02-25T09:01:59</time>
			</trkpt>
			<trkpt lat="48.72592996805906" lon="3.0344999860972166">
				<ele>108.0</ele>
				<time>2021-02-25T09:02:11</time>
			</trkpt>
			<trkpt lat="48.7252199370414" lon="3.034309968352318">
				<ele>108.0</ele>
				<time>2021-02-25T09:02:24</time>
			</trkpt>
			<trkpt lat="48.7241199798882" lon="3.0345099605619907">
				<ele>109.0</ele>
				<time>2021-02-25T09:02:43</time>
			</trkpt>
			<trkpt lat="48.723139967769384" lon="3.0345099605619907">
				<ele>110.0</ele>
				<time>2021-02-25T09:03:00</time>
			</trkpt>
			<trkpt lat="48.72277996502817" lon="3.034349950030446">
				<ele>111.0</ele>
				<time>2021-02-25T09:03:06</time>
			</trkpt>
			<trkpt lat="48.72258994728327" lon="3.034199997782707">
				<ele>111.0</ele>
				<time>2021-02-25T09:03:10</time>
			</trkpt>
			<trkpt lat="48.72245994396508" lon="3.0341599322855473">
				<ele>111.0</ele>
				<time>2021-02-25T09:03:13</time>
			</trkpt>
			<trkpt lat="48.72190992347896" lon="3.0341899394989014">
				<ele>112.0</ele>
				<time>2021-02-25T09:03:22</time>
			</trkpt>
			<trkpt lat="48.720539985224605" lon="3.0339899472892284">
				<ele>112.0</ele>
				<time>2021-02-25T09:03:46</time>
			</trkpt>
			<trkpt lat="48.7188599165529" lon="3.0337499734014273">
				<ele>111.0</ele>
				<time>2021-02-25T09:04:15</time>
			</trkpt>
			<trkpt lat="48.718479964882135" lon="3.0335799884051085">
				<ele>112.0</ele>
				<time>2021-02-25T09:04:22</time>
			</trkpt>
			<trkpt lat="48.71831995435059" lon="3.033429952338338">
				<ele>112.0</ele>
				<time>2021-02-25T09:04:26</time>
			</trkpt>
			<trkpt lat="48.7181399948895" lon="3.0331099312752485">
				<ele>112.0</ele>
				<time>2021-02-25T09:04:30</time>
			</trkpt>
			<trkpt lat="48.717899937182665" lon="3.0324099585413933">
				<ele>112.0</ele>
				<time>2021-02-25T09:04:39</time>
			</trkpt>
			<trkpt lat="48.71728998608887" lon="3.0315199680626392">
				<ele>112.0</ele>
				<time>2021-02-25T09:04:54</time>
			</trkpt>
			<trkpt lat="48.71601996012032" lon="3.030129997059703">
				<ele>111.0</ele>
				<time>2021-02-25T09:05:21</time>
			</trkpt>
			<trkpt lat="48.715599942952394" lon="3.0298399832099676">
				<ele>111.0</ele>
				<time>2021-02-25T09:05:30</time>
			</trkpt>
			<trkpt lat="48.71550992131233" lon="3.0297299288213253">
				<ele>111.0</ele>
				<time>2021-02-25T09:05:32</time>
			</trkpt>
			<trkpt lat="48.71536994352937" lon="3.029399933293462">
				<ele>111.0</ele>
				<time>2021-02-25T09:05:36</time>
			</trkpt>
			<trkpt lat="48.714849930256605" lon="3.0278399772942066">
				<ele>110.0</ele>
				<time>2021-02-25T09:05:56</time>
			</trkpt>
			<trkpt lat="48.71434994973242" lon="3.0257799569517374">
				<ele>109.0</ele>
				<time>2021-02-25T09:06:21</time>
			</trkpt>
			<trkpt lat="48.713879976421595" lon="3.024309938773513">
				<ele>108.0</ele>
				<time>2021-02-25T09:06:40</time>
			</trkpt>
			<trkpt lat="48.71354998089373" lon="3.0235799588263035">
				<ele>108.0</ele>
				<time>2021-02-25T09:06:50</time>
			</trkpt>
			<trkpt lat="48.712849924340844" lon="3.022349998354912">
				<ele>108.0</ele>
				<time>2021-02-25T09:07:09</time>
			</trkpt>
			<trkpt lat="48.712372155860066" lon="3.021245514973998">
				<ele>110.45</ele>
				<time>2021-02-25T09:07:24</time>
			</trkpt>
			<trkpt lat="48.71237265877426" lon="3.021246688440442">
				<ele>110.46</ele>
				<time>2021-02-25T09:07:24</time>
			</trkpt>
			<trkpt lat="48.71236025355756" lon="3.021259093657136">
				<ele>110.53</ele>
				<time>2021-02-25T09:07:24</time>
			</trkpt>
			<trkpt lat="48.712016344070435" lon="3.020467758178711">
				<ele>109.96</ele>
				<time>2021-02-25T09:07:35</time>
			</trkpt>
			<trkpt lat="48.71121168136597" lon="3.019073009490967">
				<ele>109.28</ele>
				<time>2021-02-25T09:07:56</time>
			</trkpt>
			<trkpt lat="48.710728883743286" lon="3.0180752277374268">
				<ele>109.07</ele>
				<time>2021-02-25T09:08:11</time>
			</trkpt>
			<trkpt lat="48.71064305305481" lon="3.017871379852295">
				<ele>109.16</ele>
				<time>2021-02-25T09:08:13</time>
			</trkpt>
			<trkpt lat="48.71038556098938" lon="3.0175065994262695">
				<ele>109.75</ele>
				<time>2021-02-25T09:08:20</time>
			</trkpt>
			<trkpt lat="48.710267543792725" lon="3.0173885822296143">
				<ele>110.3</ele>
				<time>2021-02-25T09:08:22</time>
			</trkpt>
			<trkpt lat="48.709484338760376" lon="3.0166375637054443">
				<ele>110.96</ele>
				<time>2021-02-25T09:08:38</time>
			</trkpt>
			<trkpt lat="48.70858311653137" lon="3.0159080028533936">
				<ele>111.54</ele>
				<time>2021-02-25T09:08:56</time>
			</trkpt>
			<trkpt lat="48.707263469696045" lon="3.0148887634277344">
				<ele>111.2</ele>
				<time>2021-02-25T09:09:22</time>
			</trkpt>
			<trkpt lat="48.70697379112244" lon="3.0145883560180664">
				<ele>111.24</ele>
				<time>2021-02-25T09:09:28</time>
			</trkpt>
			<trkpt lat="48.706512451171875" lon="3.013923168182373">
				<ele>111.51</ele>
				<time>2021-02-25T09:09:39</time>
			</trkpt>
			<trkpt lat="48.70584726333618" lon="3.013129234313965">
				<ele>112.07</ele>
				<time>2021-02-25T09:09:54</time>
			</trkpt>
			<trkpt lat="48.70468854904175" lon="3.0118417739868164">
				<ele>112.52</ele>
				<time>2021-02-25T09:10:19</time>
			</trkpt>
			<trkpt lat="48.70367777533829" lon="3.0108916852623224">
				<ele>112.66</ele>
				<time>2021-02-25T09:10:39</time>
			</trkpt>
			<trkpt lat="48.70361566543579" lon="3.010833263397217">
				<ele>112.69</ele>
				<time>2021-02-25T09:10:41</time>
			</trkpt>
			<trkpt lat="48.70307922363281" lon="3.010232448577881">
				<ele>111.83</ele>
				<time>2021-02-25T09:10:52</time>
			</trkpt>
			<trkpt lat="48.70293974876404" lon="3.0101466178894043">
				<ele>111.0</ele>
				<time>2021-02-25T09:10:55</time>
			</trkpt>
			<trkpt lat="48.70270379818976" lon="3.010103702545166">
				<ele>110.04</ele>
				<time>2021-02-25T09:10:59</time>
			</trkpt>
			<trkpt lat="48.70215662755072" lon="3.0100178718566895">
				<ele>109.04</ele>
				<time>2021-02-25T09:11:09</time>
			</trkpt>
			<trkpt lat="48.701834762468934" lon="3.0094492435455322">
				<ele>107.93</ele>
				<time>2021-02-25T09:11:17</time>
			</trkpt>
			<trkpt lat="48.70145916938782" lon="3.0090200901031494">
				<ele>106.64</ele>
				<time>2021-02-25T09:11:25</time>
			</trkpt>
			<trkpt lat="48.701244592666626" lon="3.0086445808410645">
				<ele>105.28</ele>
				<time>2021-02-25T09:11:31</time>
			</trkpt>
			<trkpt lat="48.70115876197815" lon="3.0085158348083496">
				<ele>103.88</ele>
				<time>2021-02-25T09:11:33</time>
			</trkpt>
			<trkpt lat="48.701051473617554" lon="3.008451461791992">
				<ele>102.38</ele>
				<time>2021-02-25T09:11:35</time>
			</trkpt>
			<trkpt lat="48.7009334564209" lon="3.0084407329559326">
				<ele>100.74</ele>
				<time>2021-02-25T09:11:37</time>
			</trkpt>
			<trkpt lat="48.700783252716064" lon="3.00850510597229">
				<ele>99.02</ele>
				<time>2021-02-25T09:11:40</time>
			</trkpt>
			<trkpt lat="48.7004292011261" lon="3.008805513381958">
				<ele>97.01</ele>
				<time>2021-02-25T09:11:47</time>
			</trkpt>
			<trkpt lat="48.69945287704468" lon="3.0095458030700684">
				<ele>94.53</ele>
				<time>2021-02-25T09:12:06</time>
			</trkpt>
			<trkpt lat="48.69864821434021" lon="3.0102217197418213">
				<ele>92.97</ele>
				<time>2021-02-25T09:12:22</time>
			</trkpt>
			<trkpt lat="48.69864829815924" lon="3.0102217197418213">
				<ele>92.03</ele>
				<time>2021-02-25T09:12:22</time>
			</trkpt>
			<trkpt lat="48.698498010635376" lon="3.010350465774536">
				<ele>91.49</ele>
				<time>2021-02-25T09:12:25</time>
			</trkpt>
			<trkpt lat="48.69849809445441" lon="3.010350465774536">
				<ele>91.41</ele>
				<time>2021-02-25T09:12:25</time>
			</trkpt>
			<trkpt lat="48.69761824607849" lon="3.0110907554626465">
				<ele>91.99</ele>
				<time>2021-02-25T09:12:43</time>
			</trkpt>
			<trkpt lat="48.69732856750488" lon="3.011305332183838">
				<ele>92.9</ele>
				<time>2021-02-25T09:12:48</time>
			</trkpt>
			<trkpt lat="48.69707107543945" lon="3.0114448070526123">
				<ele>94.19</ele>
				<time>2021-02-25T09:12:53</time>
			</trkpt>
			<trkpt lat="48.69681358337402" lon="3.0115091800689697">
				<ele>96.07</ele>
				<time>2021-02-25T09:12:58</time>
			</trkpt>
			<trkpt lat="48.69485020637512" lon="3.0115628242492676">
				<ele>99.19</ele>
				<time>2021-02-25T09:13:32</time>
			</trkpt>
			<trkpt lat="48.694560527801514" lon="3.0114662647247314">
				<ele>101.19</ele>
				<time>2021-02-25T09:13:37</time>
			</trkpt>
			<trkpt lat="48.69433522224426" lon="3.011326789855957">
				<ele>103.21</ele>
				<time>2021-02-25T09:13:41</time>
			</trkpt>
			<trkpt lat="48.69420647621155" lon="3.0112838745117188">
				<ele>104.94</ele>
				<time>2021-02-25T09:13:43</time>
			</trkpt>
			<trkpt lat="48.69418501853943" lon="3.0111443996429443">
				<ele>106.33</ele>
				<time>2021-02-25T09:13:45</time>
			</trkpt>
			<trkpt lat="48.69385577738285" lon="3.010492203757167">
				<ele>107.63</ele>
				<time>2021-02-25T09:13:54</time>
			</trkpt>
			<trkpt lat="48.69385175406933" lon="3.0104967299848795">
				<ele>109.35</ele>
				<time>2021-02-25T09:13:55</time>
			</trkpt>
			<trkpt lat="48.693851167336106" lon="3.010497484356165">
				<ele>109.63</ele>
				<time>2021-02-25T09:13:55</time>
			</trkpt>
			<trkpt lat="48.693729965016246" lon="3.0102599412202835">
				<ele>109.0</ele>
				<time>2021-02-25T09:13:58</time>
			</trkpt>
			<trkpt lat="48.69304994121194" lon="3.0088799446821213">
				<ele>109.0</ele>
				<time>2021-02-25T09:14:18</time>
			</trkpt>
			<trkpt lat="48.692589942365885" lon="3.0078199692070484">
				<ele>109.0</ele>
				<time>2021-02-25T09:14:32</time>
			</trkpt>
			<trkpt lat="48.69244996458292" lon="3.007549988105893">
				<ele>109.0</ele>
				<time>2021-02-25T09:14:36</time>
			</trkpt>
			<trkpt lat="48.69203992187977" lon="3.007009942084551">
				<ele>110.0</ele>
				<time>2021-02-25T09:14:46</time>
			</trkpt>
			<trkpt lat="48.691879995167255" lon="3.0066899210214615">
				<ele>110.0</ele>
				<time>2021-02-25T09:14:50</time>
			</trkpt>
			<trkpt lat="48.69176994077861" lon="3.0062399804592133">
				<ele>110.0</ele>
				<time>2021-02-25T09:14:56</time>
			</trkpt>
			<trkpt lat="48.691709926351905" lon="3.0055999383330345">
				<ele>109.0</ele>
				<time>2021-02-25T09:15:03</time>
			</trkpt>
			<trkpt lat="48.69164999574423" lon="3.0053599644452333">
				<ele>109.0</ele>
				<time>2021-02-25T09:15:06</time>
			</trkpt>
			<trkpt lat="48.69147992692888" lon="3.0049699544906616">
				<ele>109.0</ele>
				<time>2021-02-25T09:15:12</time>
			</trkpt>
			<trkpt lat="48.69115998968482" lon="3.003069944679737">
				<ele>110.0</ele>
				<time>2021-02-25T09:15:34</time>
			</trkpt>
			<trkpt lat="48.69106996804476" lon="3.002549931406975">
				<ele>110.0</ele>
				<time>2021-02-25T09:15:40</time>
			</trkpt>
			<trkpt lat="48.69094943627715" lon="3.0006521847099066">
				<ele>107.0</ele>
				<time>2021-02-25T09:16:02</time>
			</trkpt>
			<trkpt lat="48.690949687734246" lon="3.000656124204397">
				<ele>107.0</ele>
				<time>2021-02-25T09:16:02</time>
			</trkpt>
			<trkpt lat="48.69094993919134" lon="3.000659979879856">
				<ele>107.0</ele>
				<time>2021-02-25T09:16:02</time>
			</trkpt>
			<trkpt lat="48.69087995029986" lon="3.000139966607094">
				<ele>106.0</ele>
				<time>2021-02-25T09:16:08</time>
			</trkpt>
			<trkpt lat="48.69006992317736" lon="2.997259944677353">
				<ele>100.0</ele>
				<time>2021-02-25T09:16:44</time>
			</trkpt>
			<trkpt lat="48.69004997424781" lon="2.9969199746847153">
				<ele>100.0</ele>
				<time>2021-02-25T09:16:48</time>
			</trkpt>
			<trkpt lat="48.69014997035265" lon="2.9966699425131083">
				<ele>100.0</ele>
				<time>2021-02-25T09:16:52</time>
			</trkpt>
			<trkpt lat="48.690439984202385" lon="2.996379928663373">
				<ele>97.0</ele>
				<time>2021-02-25T09:16:58</time>
			</trkpt>
			<trkpt lat="48.690549954771996" lon="2.9961299803107977">
				<ele>95.0</ele>
				<time>2021-02-25T09:17:01</time>
			</trkpt>
			<trkpt lat="48.69059999473393" lon="2.9958699736744165">
				<ele>95.0</ele>
				<time>2021-02-25T09:17:04</time>
			</trkpt>
			<trkpt lat="48.69059999473393" lon="2.9956699814647436">
				<ele>94.0</ele>
				<time>2021-02-25T09:17:07</time>
			</trkpt>
			<trkpt lat="48.69042992591858" lon="2.9943199921399355">
				<ele>96.0</ele>
				<time>2021-02-25T09:17:22</time>
			</trkpt>
			<trkpt lat="48.69040997698903" lon="2.993729989975691">
				<ele>98.0</ele>
				<time>2021-02-25T09:17:29</time>
			</trkpt>
			<trkpt lat="48.69068993255496" lon="2.9915899224579334">
				<ele>100.0</ele>
				<time>2021-02-25T09:17:54</time>
			</trkpt>
			<trkpt lat="48.69074994698167" lon="2.9878799244761467">
				<ele>98.0</ele>
				<time>2021-02-25T09:18:37</time>
			</trkpt>
			<trkpt lat="48.69098992086947" lon="2.9866899456828833">
				<ele>99.0</ele>
				<time>2021-02-25T09:18:51</time>
			</trkpt>
			<trkpt lat="48.69158998131752" lon="2.9847699869424105">
				<ele>97.0</ele>
				<time>2021-02-25T09:19:16</time>
			</trkpt>
			<trkpt lat="48.69182995520532" lon="2.983959959819913">
				<ele>99.0</ele>
				<time>2021-02-25T09:19:26</time>
			</trkpt>
			<trkpt lat="48.69188996963203" lon="2.9833799321204424">
				<ele>100.0</ele>
				<time>2021-02-25T09:19:33</time>
			</trkpt>
			<trkpt lat="48.6918499879539" lon="2.982669984921813">
				<ele>102.0</ele>
				<time>2021-02-25T09:19:41</time>
			</trkpt>
			<trkpt lat="48.69163993746042" lon="2.9816499911248684">
				<ele>102.0</ele>
				<time>2021-02-25T09:19:53</time>
			</trkpt>
			<trkpt lat="48.69131991639733" lon="2.980649946257472">
				<ele>104.0</ele>
				<time>2021-02-25T09:20:06</time>
			</trkpt>
			<trkpt lat="48.690119963139296" lon="2.9776199720799923">
				<ele>105.0</ele>
				<time>2021-02-25T09:20:46</time>
			</trkpt>
			<trkpt lat="48.68991997092962" lon="2.9769999627023935">
				<ele>105.0</ele>
				<time>2021-02-25T09:20:54</time>
			</trkpt>
			<trkpt lat="48.689669938758016" lon="2.975949961692095">
				<ele>104.0</ele>
				<time>2021-02-25T09:21:07</time>
			</trkpt>
			<trkpt lat="48.688249960541725" lon="2.9692299384623766">
				<ele>103.0</ele>
				<time>2021-02-25T09:22:28</time>
			</trkpt>
			<trkpt lat="48.687969921156764" lon="2.968209944665432">
				<ele>103.0</ele>
				<time>2021-02-25T09:22:41</time>
			</trkpt>
			<trkpt lat="48.687969921156764" lon="2.9679199308156967">
				<ele>103.0</ele>
				<time>2021-02-25T09:22:44</time>
			</trkpt>
			<trkpt lat="48.6880199611187" lon="2.9676899313926697">
				<ele>103.0</ele>
				<time>2021-02-25T09:22:47</time>
			</trkpt>
			<trkpt lat="48.68821995332837" lon="2.967359935864806">
				<ele>104.0</ele>
				<time>2021-02-25T09:22:52</time>
			</trkpt>
			<trkpt lat="48.68832992389798" lon="2.9672799725085497">
				<ele>103.0</ele>
				<time>2021-02-25T09:22:54</time>
			</trkpt>
			<trkpt lat="48.68918999098241" lon="2.9669599514454603">
				<ele>103.0</ele>
				<time>2021-02-25T09:23:10</time>
			</trkpt>
			<trkpt lat="48.68945997208357" lon="2.966459970921278">
				<ele>104.0</ele>
				<time>2021-02-25T09:23:17</time>
			</trkpt>
			<trkpt lat="48.68960992433131" lon="2.9662799276411533">
				<ele>104.0</ele>
				<time>2021-02-25T09:23:20</time>
			</trkpt>
			<trkpt lat="48.68962995707989" lon="2.9661399498581886">
				<ele>105.0</ele>
				<time>2021-02-25T09:23:22</time>
			</trkpt>
			<trkpt lat="48.6897399276495" lon="2.9658699687570333">
				<ele>104.0</ele>
				<time>2021-02-25T09:23:26</time>
			</trkpt>
			<trkpt lat="48.68994997814298" lon="2.9656199365854263">
				<ele>104.0</ele>
				<time>2021-02-25T09:23:30</time>
			</trkpt>
			<trkpt lat="48.69032992981374" lon="2.965289941057563">
				<ele>105.0</ele>
				<time>2021-02-25T09:23:38</time>
			</trkpt>
			<trkpt lat="48.69094993919134" lon="2.9650099854916334">
				<ele>103.0</ele>
				<time>2021-02-25T09:23:49</time>
			</trkpt>
			<trkpt lat="48.69233999401331" lon="2.96463992446661">
				<ele>98.0</ele>
				<time>2021-02-25T09:24:14</time>
			</trkpt>
			<trkpt lat="48.70196996256709" lon="2.962629944086075">
				<ele>101.0</ele>
				<time>2021-02-25T09:27:03</time>
			</trkpt>
			<trkpt lat="48.701869966462255" lon="2.9640699550509453">
				<ele>100.0</ele>
				<time>2021-02-25T09:27:20</time>
			</trkpt>
			<trkpt lat="48.701679948717356" lon="2.966719977557659">
				<ele>94.0</ele>
				<time>2021-02-25T09:27:50</time>
			</trkpt>
			<trkpt lat="48.70146998204291" lon="2.968929950147867">
				<ele>96.0</ele>
				<time>2021-02-25T09:28:16</time>
			</trkpt>
			<trkpt lat="48.7022699508816" lon="2.96914997510612">
				<ele>99.0</ele>
				<time>2021-02-25T09:28:30</time>
			</trkpt>
			<trkpt lat="48.70365992188454" lon="2.9693699162453413">
				<ele>104.0</ele>
				<time>2021-02-25T09:28:54</time>
			</trkpt>
			<trkpt lat="48.704579919576645" lon="2.9698799550533295">
				<ele>104.0</ele>
				<time>2021-02-25T09:29:11</time>
			</trkpt>
			<trkpt lat="48.706089919433" lon="2.9703499283641577">
				<ele>105.0</ele>
				<time>2021-02-25T09:29:38</time>
			</trkpt>
			<trkpt lat="48.707049982622266" lon="2.9705099388957024">
				<ele>106.0</ele>
				<time>2021-02-25T09:29:55</time>
			</trkpt>
			<trkpt lat="48.70793997310102" lon="2.9705799277871847">
				<ele>105.0</ele>
				<time>2021-02-25T09:30:11</time>
			</trkpt>
			<trkpt lat="48.70806997641921" lon="2.9705499205738306">
				<ele>105.0</ele>
				<time>2021-02-25T09:30:13</time>
			</trkpt>
			<trkpt lat="48.70920999906957" lon="2.9727399442344904">
				<ele>105.0</ele>
				<time>2021-02-25T09:30:45</time>
			</trkpt>
			<trkpt lat="48.71534999459982" lon="2.984449965879321">
				<ele>106.0</ele>
				<time>2021-02-25T09:33:37</time>
			</trkpt>
			<trkpt lat="48.71876997873187" lon="2.9894099570810795">
				<ele>103.0</ele>
				<time>2021-02-25T09:34:59</time>
			</trkpt>
			<trkpt lat="48.71994998306036" lon="2.990839993581176">
				<ele>105.0</ele>
				<time>2021-02-25T09:35:25</time>
			</trkpt>
			<trkpt lat="48.720479970797896" lon="2.990209925919771">
				<ele>106.0</ele>
				<time>2021-02-25T09:35:37</time>
			</trkpt>
			<trkpt lat="48.72097995132208" lon="2.989529985934496">
				<ele>105.0</ele>
				<time>2021-02-25T09:35:49</time>
			</trkpt>
			<trkpt lat="48.721529971808195" lon="2.9887099843472242">
				<ele>105.0</ele>
				<time>2021-02-25T09:36:02</time>
			</trkpt>
			<trkpt lat="48.72269991785288" lon="2.9867899417877197">
				<ele>106.0</ele>
				<time>2021-02-25T09:36:32</time>
			</trkpt>
			<trkpt lat="48.72400992549956" lon="2.984849950298667">
				<ele>106.0</ele>
				<time>2021-02-25T09:37:04</time>
			</trkpt>
			<trkpt lat="48.72428996488452" lon="2.9845099803060293">
				<ele>107.0</ele>
				<time>2021-02-25T09:37:10</time>
			</trkpt>
			<trkpt lat="48.72550995089114" lon="2.98330994322896">
				<ele>107.0</ele>
				<time>2021-02-25T09:37:36</time>
			</trkpt>
			<trkpt lat="48.725719917565584" lon="2.9830299876630306">
				<ele>107.0</ele>
				<time>2021-02-25T09:37:40</time>
			</trkpt>
			<trkpt lat="48.72605997137725" lon="2.98242992721498">
				<ele>106.0</ele>
				<time>2021-02-25T09:37:50</time>
			</trkpt>
			<trkpt lat="48.72635995969176" lon="2.981769936159253">
				<ele>106.0</ele>
				<time>2021-02-25T09:37:59</time>
			</trkpt>
			<trkpt lat="48.72660999186337" lon="2.981069963425398">
				<ele>107.0</ele>
				<time>2021-02-25T09:38:08</time>
			</trkpt>
			<trkpt lat="48.72666992247105" lon="2.9807499423623085">
				<ele>107.0</ele>
				<time>2021-02-25T09:38:12</time>
			</trkpt>
			<trkpt lat="48.72678995132446" lon="2.979069957509637">
				<ele>107.0</ele>
				<time>2021-02-25T09:38:31</time>
			</trkpt>
			<trkpt lat="48.726859940215945" lon="2.9785799514502287">
				<ele>108.0</ele>
				<time>2021-02-25T09:38:37</time>
			</trkpt>
			<trkpt lat="48.727419935166836" lon="2.9756599478423595">
				<ele>109.0</ele>
				<time>2021-02-25T09:39:12</time>
			</trkpt>
			<trkpt lat="48.727499982342124" lon="2.9749499168246984">
				<ele>110.0</ele>
				<time>2021-02-25T09:39:20</time>
			</trkpt>
			<trkpt lat="48.7275099568069" lon="2.974469969049096">
				<ele>110.0</ele>
				<time>2021-02-25T09:39:26</time>
			</trkpt>
			<trkpt lat="48.72751993127167" lon="2.9743499401956797">
				<ele>110.0</ele>
				<time>2021-02-25T09:39:27</time>
			</trkpt>
			<trkpt lat="48.72768991626799" lon="2.9740699846297503">
				<ele>110.0</ele>
				<time>2021-02-25T09:39:31</time>
			</trkpt>
			<trkpt lat="48.72779997065663" lon="2.973959930241108">
				<ele>110.0</ele>
				<time>2021-02-25T09:39:34</time>
			</trkpt>
			<trkpt lat="48.72806995175779" lon="2.9738199524581432">
				<ele>110.0</ele>
				<time>2021-02-25T09:39:39</time>
			</trkpt>
			<trkpt lat="48.72867998667061" lon="2.9734599497169256">
				<ele>110.0</ele>
				<time>2021-02-25T09:39:50</time>
			</trkpt>
			<trkpt lat="48.72873991727829" lon="2.973319971933961">
				<ele>110.0</ele>
				<time>2021-02-25T09:39:52</time>
			</trkpt>
			<trkpt lat="48.72867998667061" lon="2.972459988668561">
				<ele>109.0</ele>
				<time>2021-02-25T09:40:02</time>
			</trkpt>
			<trkpt lat="48.7283699400723" lon="2.97086994163692">
				<ele>108.0</ele>
				<time>2021-02-25T09:40:21</time>
			</trkpt>
			<trkpt lat="48.728319983929396" lon="2.9701199289411306">
				<ele>108.0</ele>
				<time>2021-02-25T09:40:30</time>
			</trkpt>
			<trkpt lat="48.728359965607524" lon="2.9693699162453413">
				<ele>107.0</ele>
				<time>2021-02-25T09:40:38</time>
			</trkpt>
			<trkpt lat="48.72856993228197" lon="2.968439944088459">
				<ele>109.0</ele>
				<time>2021-02-25T09:40:49</time>
			</trkpt>
			<trkpt lat="48.728599939495325" lon="2.9680999740958214">
				<ele>110.0</ele>
				<time>2021-02-25T09:40:53</time>
			</trkpt>
			<trkpt lat="48.72858996503055" lon="2.967139994725585">
				<ele>111.0</ele>
				<time>2021-02-25T09:41:04</time>
			</trkpt>
			<trkpt lat="48.728790963068604" lon="2.961500734090805">
				<ele>112.98</ele>
				<time>2021-02-25T09:42:09</time>
			</trkpt>
			<trkpt lat="48.728790460154414" lon="2.961515486240387">
				<ele>112.99</ele>
				<time>2021-02-25T09:42:09</time>
			</trkpt>
			<trkpt lat="48.728789957240224" lon="2.9615299869328737">
				<ele>113.0</ele>
				<time>2021-02-25T09:42:10</time>
			</trkpt>
			<trkpt lat="48.72856993228197" lon="2.958259955048561">
				<ele>113.0</ele>
				<time>2021-02-25T09:42:47</time>
			</trkpt>
			<trkpt lat="48.72806995175779" lon="2.9528299905359745">
				<ele>113.0</ele>
				<time>2021-02-25T09:43:50</time>
			</trkpt>
			<trkpt lat="48.72798998840153" lon="2.951619978994131">
				<ele>112.0</ele>
				<time>2021-02-25T09:44:04</time>
			</trkpt>
			<trkpt lat="48.72869993560016" lon="2.9511999618262053">
				<ele>113.0</ele>
				<time>2021-02-25T09:44:17</time>
			</trkpt>
			<trkpt lat="48.72926998883486" lon="2.9508699662983418">
				<ele>114.0</ele>
				<time>2021-02-25T09:44:28</time>
			</trkpt>
			<trkpt lat="48.72957995161414" lon="2.950759995728731">
				<ele>114.0</ele>
				<time>2021-02-25T09:44:34</time>
			</trkpt>
			<trkpt lat="48.72999996878207" lon="2.950899973511696">
				<ele>114.0</ele>
				<time>2021-02-25T09:44:41</time>
			</trkpt>
			<trkpt lat="48.73056993819773" lon="2.9512499179691076">
				<ele>114.0</ele>
				<time>2021-02-25T09:44:52</time>
			</trkpt>
			<trkpt lat="48.730939999222755" lon="2.951329965144396">
				<ele>113.0</ele>
				<time>2021-02-25T09:44:58</time>
			</trkpt>
			<trkpt lat="48.735989928245544" lon="2.9508599918335676">
				<ele>117.0</ele>
				<time>2021-02-25T09:46:26</time>
			</trkpt>
			<trkpt lat="48.73627994209528" lon="2.9509999696165323">
				<ele>117.0</ele>
				<time>2021-02-25T09:46:32</time>
			</trkpt>
			<trkpt lat="48.73668998479843" lon="2.951419986784458">
				<ele>116.0</ele>
				<time>2021-02-25T09:46:40</time>
			</trkpt>
			<trkpt lat="48.73694999143481" lon="2.9519199673086405">
				<ele>116.0</ele>
				<time>2021-02-25T09:46:48</time>
			</trkpt>
			<trkpt lat="48.738069981336594" lon="2.950259931385517">
				<ele>114.0</ele>
				<time>2021-02-25T09:47:15</time>
			</trkpt>
			<trkpt lat="48.738629976287484" lon="2.949739918112755">
				<ele>112.0</ele>
				<time>2021-02-25T09:47:26</time>
			</trkpt>
			<trkpt lat="48.73949993401766" lon="2.948959982022643">
				<ele>113.0</ele>
				<time>2021-02-25T09:47:44</time>
			</trkpt>
			<trkpt lat="48.74018993228674" lon="2.948099998757243">
				<ele>112.0</ele>
				<time>2021-02-25T09:47:59</time>
			</trkpt>
			<trkpt lat="48.74097992666066" lon="2.9474999383091927">
				<ele>112.0</ele>
				<time>2021-02-25T09:48:15</time>
			</trkpt>
			<trkpt lat="48.74121998436749" lon="2.947389967739582">
				<ele>112.0</ele>
				<time>2021-02-25T09:48:19</time>
			</trkpt>
			<trkpt lat="48.75226993113756" lon="2.943759933114052">
				<ele>121.0</ele>
				<time>2021-02-25T09:51:36</time>
			</trkpt>
			<trkpt lat="48.752489956095815" lon="2.9439699836075306">
				<ele>120.0</ele>
				<time>2021-02-25T09:51:40</time>
			</trkpt>
			<trkpt lat="48.75269992277026" lon="2.944029998034239">
				<ele>120.0</ele>
				<time>2021-02-25T09:51:44</time>
			</trkpt>
			<trkpt lat="48.75303997658193" lon="2.943829922005534">
				<ele>118.0</ele>
				<time>2021-02-25T09:51:51</time>
			</trkpt>
			<trkpt lat="48.75327995046973" lon="2.943529933691025">
				<ele>116.0</ele>
				<time>2021-02-25T09:51:56</time>
			</trkpt>
			<trkpt lat="48.75348991714418" lon="2.94336992315948">
				<ele>115.0</ele>
				<time>2021-02-25T09:52:00</time>
			</trkpt>
			<trkpt lat="48.75894997268915" lon="2.9415699932724237">
				<ele>114.0</ele>
				<time>2021-02-25T09:53:37</time>
			</trkpt>
			<trkpt lat="48.77677995711565" lon="2.9356899205595255">
				<ele>124.0</ele>
				<time>2021-02-25T09:58:55</time>
			</trkpt>
			<trkpt lat="48.77726996317506" lon="2.9357099533081055">
				<ele>125.0</ele>
				<time>2021-02-25T09:59:03</time>
			</trkpt>
			<trkpt lat="48.77986994571984" lon="2.9361799266189337">
				<ele>127.0</ele>
				<time>2021-02-25T09:59:49</time>
			</trkpt>
			<trkpt lat="48.78145999275148" lon="2.9364099260419607">
				<ele>123.0</ele>
				<time>2021-02-25T10:00:17</time>
			</trkpt>
			<trkpt lat="48.792559979483485" lon="2.9348799772560596">
				<ele>136.0</ele>
				<time>2021-02-25T10:03:31</time>
			</trkpt>
			<trkpt lat="48.80236999131739" lon="2.931619919836521">
				<ele>133.0</ele>
				<time>2021-02-25T10:06:26</time>
			</trkpt>
			<trkpt lat="48.805109951645136" lon="2.9306699987500906">
				<ele>130.0</ele>
				<time>2021-02-25T10:07:14</time>
			</trkpt>
			<trkpt lat="48.80552996881306" lon="2.930459948256612">
				<ele>129.0</ele>
				<time>2021-02-25T10:07:22</time>
			</trkpt>
			<trkpt lat="48.80651995539665" lon="2.929569957777858">
				<ele>125.0</ele>
				<time>2021-02-25T10:07:42</time>
			</trkpt>
			<trkpt lat="48.814490055665374" lon="2.9218301083892584">
				<ele>84.0</ele>
				<time>2021-02-25T10:10:27</time>
			</trkpt>
			<trkpt lat="48.81448502652347" lon="2.9218350537121296">
				<ele>84.0</ele>
				<time>2021-02-25T10:10:27</time>
			</trkpt>
			<trkpt lat="48.81447999738157" lon="2.921839999035001">
				<ele>84.0</ele>
				<time>2021-02-25T10:10:27</time>
			</trkpt>
			<trkpt lat="48.81476992741227" lon="2.9214699380099773">
				<ele>83.0</ele>
				<time>2021-02-25T10:10:34</time>
			</trkpt>
			<trkpt lat="48.81501995958388" lon="2.920979931950569">
				<ele>79.0</ele>
				<time>2021-02-25T10:10:41</time>
			</trkpt>
			<trkpt lat="48.81566997617483" lon="2.919449983164668">
				<ele>70.0</ele>
				<time>2021-02-25T10:11:02</time>
			</trkpt>
			<trkpt lat="48.81962992250919" lon="2.909839963540435">
				<ele>56.0</ele>
				<time>2021-02-25T10:13:11</time>
			</trkpt>
			<trkpt lat="48.81980996578932" lon="2.9090299364179373">
				<ele>53.0</ele>
				<time>2021-02-25T10:13:21</time>
			</trkpt>
			<trkpt lat="48.82008992135525" lon="2.906099958345294">
				<ele>57.0</ele>
				<time>2021-02-25T10:13:55</time>
			</trkpt>
			<trkpt lat="48.82017994299531" lon="2.905679941177368">
				<ele>58.0</ele>
				<time>2021-02-25T10:14:00</time>
			</trkpt>
			<trkpt lat="48.8203099463135" lon="2.9053699783980846">
				<ele>60.0</ele>
				<time>2021-02-25T10:14:04</time>
			</trkpt>
			<trkpt lat="48.82051999680698" lon="2.9050699900835752">
				<ele>62.0</ele>
				<time>2021-02-25T10:14:10</time>
			</trkpt>
			<trkpt lat="48.82279995828867" lon="2.9027199558913708">
				<ele>64.0</ele>
				<time>2021-02-25T10:14:57</time>
			</trkpt>
			<trkpt lat="48.823259957134724" lon="2.902499930933118">
				<ele>62.0</ele>
				<time>2021-02-25T10:15:06</time>
			</trkpt>
			<trkpt lat="48.82356991991401" lon="2.9024299420416355">
				<ele>60.0</ele>
				<time>2021-02-25T10:15:11</time>
			</trkpt>
			<trkpt lat="48.824189929291606" lon="2.9023899603635073">
				<ele>60.0</ele>
				<time>2021-02-25T10:15:22</time>
			</trkpt>
			<trkpt lat="48.82449997588992" lon="2.9020499903708696">
				<ele>64.0</ele>
				<time>2021-02-25T10:15:29</time>
			</trkpt>
			<trkpt lat="48.824939941987395" lon="2.9017499182373285">
				<ele>68.0</ele>
				<time>2021-02-25T10:15:37</time>
			</trkpt>
			<trkpt lat="48.82563999854028" lon="2.901669954881072">
				<ele>65.0</ele>
				<time>2021-02-25T10:15:49</time>
			</trkpt>
			<trkpt lat="48.82704991847277" lon="2.901719994843006">
				<ele>59.0</ele>
				<time>2021-02-25T10:16:14</time>
			</trkpt>
			<trkpt lat="48.82904992438853" lon="2.9012799449265003">
				<ele>59.0</ele>
				<time>2021-02-25T10:16:49</time>
			</trkpt>
			<trkpt lat="48.82928998209536" lon="2.9012899193912745">
				<ele>57.0</ele>
				<time>2021-02-25T10:16:53</time>
			</trkpt>
			<trkpt lat="48.82982994429767" lon="2.901419922709465">
				<ele>56.0</ele>
				<time>2021-02-25T10:17:03</time>
			</trkpt>
			<trkpt lat="48.833619989454746" lon="2.90387992747128">
				<ele>52.0</ele>
				<time>2021-02-25T10:18:15</time>
			</trkpt>
			<trkpt lat="48.83601997978985" lon="2.905219942331314">
				<ele>52.0</ele>
				<time>2021-02-25T10:18:59</time>
			</trkpt>
			<trkpt lat="48.84178999811411" lon="2.906559957191348">
				<ele>54.0</ele>
				<time>2021-02-25T10:20:41</time>
			</trkpt>
			<trkpt lat="48.842149917036295" lon="2.9067099932581186">
				<ele>55.0</ele>
				<time>2021-02-25T10:20:47</time>
			</trkpt>
			<trkpt lat="48.84255995973945" lon="2.9069699998945">
				<ele>55.0</ele>
				<time>2021-02-25T10:20:55</time>
			</trkpt>
			<trkpt lat="48.843049965798855" lon="2.907439973205328">
				<ele>55.0</ele>
				<time>2021-02-25T10:21:05</time>
			</trkpt>
			<trkpt lat="48.8444999512285" lon="2.9093099758028984">
				<ele>51.0</ele>
				<time>2021-02-25T10:21:38</time>
			</trkpt>
			<trkpt lat="48.84503999724984" lon="2.9101799335330725">
				<ele>54.0</ele>
				<time>2021-02-25T10:21:52</time>
			</trkpt>
			<trkpt lat="48.84614992886782" lon="2.912159990519285">
				<ele>58.0</ele>
				<time>2021-02-25T10:22:22</time>
			</trkpt>
			<trkpt lat="48.846419993788004" lon="2.9128999449312687">
				<ele>60.0</ele>
				<time>2021-02-25T10:22:31</time>
			</trkpt>
			<trkpt lat="48.84669994935393" lon="2.914269967004657">
				<ele>59.0</ele>
				<time>2021-02-25T10:22:48</time>
			</trkpt>
			<trkpt lat="48.84713999927044" lon="2.91721997782588">
				<ele>58.0</ele>
				<time>2021-02-25T10:23:22</time>
			</trkpt>
			<trkpt lat="48.847349965944886" lon="2.917889943346381">
				<ele>60.0</ele>
				<time>2021-02-25T10:23:31</time>
			</trkpt>
			<trkpt lat="48.847839972004294" lon="2.919139936566353">
				<ele>62.0</ele>
				<time>2021-02-25T10:23:47</time>
			</trkpt>
			<trkpt lat="48.84793996810913" lon="2.9193099215626717">
				<ele>63.0</ele>
				<time>2021-02-25T10:23:50</time>
			</trkpt>
			<trkpt lat="48.84843994863331" lon="2.9197299387305975">
				<ele>66.0</ele>
				<time>2021-02-25T10:24:00</time>
			</trkpt>
			<trkpt lat="48.84934997186065" lon="2.9206599947065115">
				<ele>70.0</ele>
				<time>2021-02-25T10:24:19</time>
			</trkpt>
			<trkpt lat="48.85091998614371" lon="2.9217699263244867">
				<ele>69.0</ele>
				<time>2021-02-25T10:24:49</time>
			</trkpt>
			<trkpt lat="48.85382993146777" lon="2.9236999433487654">
				<ele>56.0</ele>
				<time>2021-02-25T10:25:44</time>
			</trkpt>
			<trkpt lat="48.854419933632016" lon="2.923629954457283">
				<ele>55.0</ele>
				<time>2021-02-25T10:25:55</time>
			</trkpt>
			<trkpt lat="48.854589918628335" lon="2.9234899766743183">
				<ele>54.0</ele>
				<time>2021-02-25T10:25:58</time>
			</trkpt>
			<trkpt lat="48.85502996854484" lon="2.9223899357020855">
				<ele>53.0</ele>
				<time>2021-02-25T10:26:13</time>
			</trkpt>
			<trkpt lat="48.85513993911445" lon="2.9215599596500397">
				<ele>52.0</ele>
				<time>2021-02-25T10:26:23</time>
			</trkpt>
			<trkpt lat="48.855209928005934" lon="2.9161899257451296">
				<ele>51.0</ele>
				<time>2021-02-25T10:27:24</time>
			</trkpt>
			<trkpt lat="48.854329995810986" lon="2.911699991673231">
				<ele>61.0</ele>
				<time>2021-02-25T10:28:18</time>
			</trkpt>
			<trkpt lat="48.85454993695021" lon="2.910249922424555">
				<ele>59.0</ele>
				<time>2021-02-25T10:28:35</time>
			</trkpt>
			<trkpt lat="48.85470994748175" lon="2.909929985180497">
				<ele>57.0</ele>
				<time>2021-02-25T10:28:39</time>
			</trkpt>
			<trkpt lat="48.854849925264716" lon="2.909849938005209">
				<ele>56.0</ele>
				<time>2021-02-25T10:28:42</time>
			</trkpt>
			<trkpt lat="48.85500993579626" lon="2.909879945218563">
				<ele>54.0</ele>
				<time>2021-02-25T10:28:45</time>
			</trkpt>
			<trkpt lat="48.85549994185567" lon="2.9098299890756607">
				<ele>51.0</ele>
				<time>2021-02-25T10:28:53</time>
			</trkpt>
			<trkpt lat="48.855599937960505" lon="2.9099599923938513">
				<ele>51.0</ele>
				<time>2021-02-25T10:28:56</time>
			</trkpt>
			<trkpt lat="48.8557399995625" lon="2.910359976813197">
				<ele>51.0</ele>
				<time>2021-02-25T10:29:01</time>
			</trkpt>
			<trkpt lat="48.85628993622959" lon="2.91098996065557">
				<ele>51.0</ele>
				<time>2021-02-25T10:29:13</time>
			</trkpt>
			<trkpt lat="48.856649938970804" lon="2.9126299638301134">
				<ele>52.0</ele>
				<time>2021-02-25T10:29:33</time>
			</trkpt>
			<trkpt lat="48.85673996061087" lon="2.9128399305045605">
				<ele>52.0</ele>
				<time>2021-02-25T10:29:35</time>
			</trkpt>
			<trkpt lat="48.857249999418855" lon="2.913439990952611">
				<ele>52.0</ele>
				<time>2021-02-25T10:29:47</time>
			</trkpt>
			<trkpt lat="48.85736994445324" lon="2.9135099798440933">
				<ele>52.0</ele>
				<time>2021-02-25T10:29:49</time>
			</trkpt>
			<trkpt lat="48.858049968257546" lon="2.91360997594893">
				<ele>51.0</ele>
				<time>2021-02-25T10:30:01</time>
			</trkpt>
			<trkpt lat="48.857919964939356" lon="2.9106899723410606">
				<ele>52.0</ele>
				<time>2021-02-25T10:30:34</time>
			</trkpt>
			<trkpt lat="48.85786992497742" lon="2.909449953585863">
				<ele>51.0</ele>
				<time>2021-02-25T10:30:49</time>
			</trkpt>
			<trkpt lat="48.85774997994304" lon="2.9083999525755644">
				<ele>51.0</ele>
				<time>2021-02-25T10:31:01</time>
			</trkpt>
			<trkpt lat="48.85768996551633" lon="2.908159978687763">
				<ele>51.0</ele>
				<time>2021-02-25T10:31:04</time>
			</trkpt>
			<trkpt lat="48.85779993608594" lon="2.907889997586608">
				<ele>51.0</ele>
				<time>2021-02-25T10:31:07</time>
			</trkpt>
			<trkpt lat="48.8581299316138" lon="2.9072999954223633">
				<ele>49.0</ele>
				<time>2021-02-25T10:31:16</time>
			</trkpt>
			<trkpt lat="48.858239986002445" lon="2.907229922711849">
				<ele>49.0</ele>
				<time>2021-02-25T10:31:18</time>
			</trkpt>
			<trkpt lat="48.85824996046722" lon="2.9070799704641104">
				<ele>49.0</ele>
				<time>2021-02-25T10:31:20</time>
			</trkpt>
			<trkpt lat="48.85788979008794" lon="2.906879810616374">
				<ele>49.0</ele>
				<time>2021-02-25T10:31:27</time>
			</trkpt>
		</trkseg>
	</trk>
</gpx>
