<?xml version="1.0" encoding="UTF-8"?>
<gpx creator="Garmin Connect" version="1.1" xsi:schemaLocation="http://www.topografix.com/GPX/1/1 http://www.topografix.com/GPX/11.xsd" xmlns:ns3="http://www.garmin.com/xmlschemas/TrackPointExtension/v1" xmlns="http://www.topografix.com/GPX/1/1" xmlns:xsi="http://www.w3.org/2001/XMLSchema-instance" xmlns:ns2="http://www.garmin.com/xmlschemas/GpxExtensions/v3">
	<metadata>
		<name>206-G1,G2-75 km-D 504 m-Forest</name>
		<link href="connect.garmin.com">
			<text>Garmin Connect</text>
		</link>
		<time>2013-07-12T08:00:00</time>
	</metadata>
	<trk>
		<name>206-G1,G2-75 km-D 504 m-Forest</name>
		<trkseg>
			<trkpt lat="48.85820997878909" lon="2.9071297589689493">
				<ele>51.05</ele>
				<time>2013-07-12T08:00:00</time>
			</trkpt>
			<trkpt lat="48.8566898368299" lon="2.909889919683337">
				<ele>51.08</ele>
				<time>2013-07-12T08:00:38</time>
			</trkpt>
			<trkpt lat="48.85626990348101" lon="2.9109998513013124">
				<ele>52.78</ele>
				<time>2013-07-12T08:00:51</time>
			</trkpt>
			<trkpt lat="48.855729941278696" lon="2.9103298857808113">
				<ele>52.0</ele>
				<time>2013-07-12T08:01:03</time>
			</trkpt>
			<trkpt lat="48.85549994185567" lon="2.9097698908299208">
				<ele>51.44</ele>
				<time>2013-07-12T08:01:10</time>
			</trkpt>
			<trkpt lat="48.85479988530278" lon="2.9097698908299208">
				<ele>53.14</ele>
				<time>2013-07-12T08:01:21</time>
			</trkpt>
			<trkpt lat="48.85451992973685" lon="2.9101699590682983">
				<ele>55.34</ele>
				<time>2013-07-12T08:01:27</time>
			</trkpt>
			<trkpt lat="48.854329995810986" lon="2.9116899333894253">
				<ele>57.63</ele>
				<time>2013-07-12T08:01:43</time>
			</trkpt>
			<trkpt lat="48.855189979076385" lon="2.9160898458212614">
				<ele>51.17</ele>
				<time>2013-07-12T08:02:32</time>
			</trkpt>
			<trkpt lat="48.85512996464968" lon="2.9217099118977785">
				<ele>52.88</ele>
				<time>2013-07-12T08:03:31</time>
			</trkpt>
			<trkpt lat="48.85498990304768" lon="2.922499990090728">
				<ele>53.42</ele>
				<time>2013-07-12T08:03:39</time>
			</trkpt>
			<trkpt lat="48.85455991141498" lon="2.9235199000686407">
				<ele>53.68</ele>
				<time>2013-07-12T08:03:52</time>
			</trkpt>
			<trkpt lat="48.85402983985841" lon="2.923679994419217">
				<ele>58.68</ele>
				<time>2013-07-12T08:04:01</time>
			</trkpt>
			<trkpt lat="48.85351996868849" lon="2.9234798345714808">
				<ele>58.89</ele>
				<time>2013-07-12T08:04:09</time>
			</trkpt>
			<trkpt lat="48.84931996464729" lon="2.920559998601675">
				<ele>72.6</ele>
				<time>2013-07-12T08:05:23</time>
			</trkpt>
			<trkpt lat="48.84799989871681" lon="2.9192698560655117">
				<ele>68.39</ele>
				<time>2013-07-12T08:05:48</time>
			</trkpt>
			<trkpt lat="48.84720990434289" lon="2.9174799006432295">
				<ele>62.35</ele>
				<time>2013-07-12T08:06:11</time>
			</trkpt>
			<trkpt lat="48.846279848366976" lon="2.9124298878014088">
				<ele>60.95</ele>
				<time>2013-07-12T08:07:06</time>
			</trkpt>
			<trkpt lat="48.84488996118307" lon="2.9097199346870184">
				<ele>55.4</ele>
				<time>2013-07-12T08:07:42</time>
			</trkpt>
			<trkpt lat="48.84294988587499" lon="2.9071098938584328">
				<ele>59.61</ele>
				<time>2013-07-12T08:08:24</time>
			</trkpt>
			<trkpt lat="48.84250983595848" lon="2.906749974936247">
				<ele>58.2</ele>
				<time>2013-07-12T08:08:32</time>
			</trkpt>
			<trkpt lat="48.841529907658696" lon="2.906319983303547">
				<ele>58.12</ele>
				<time>2013-07-12T08:08:48</time>
			</trkpt>
			<trkpt lat="48.836009837687016" lon="2.9050799645483494">
				<ele>53.3</ele>
				<time>2013-07-12T08:10:18</time>
			</trkpt>
			<trkpt lat="48.833919977769256" lon="2.90389996021986">
				<ele>53.36</ele>
				<time>2013-07-12T08:10:53</time>
			</trkpt>
			<trkpt lat="48.830359848216176" lon="2.9015398677438498">
				<ele>57.36</ele>
				<time>2013-07-12T08:11:56</time>
			</trkpt>
			<trkpt lat="48.8301098998636" lon="2.900929916650057">
				<ele>62.41</ele>
				<time>2013-07-12T08:12:03</time>
			</trkpt>
			<trkpt lat="48.829539846628904" lon="2.898089960217476">
				<ele>83.85</ele>
				<time>2013-07-12T08:12:34</time>
			</trkpt>
			<trkpt lat="48.8293899782002" lon="2.897859960794449">
				<ele>86.2</ele>
				<time>2013-07-12T08:12:38</time>
			</trkpt>
			<trkpt lat="48.829129887744784" lon="2.8979599568992853">
				<ele>86.37</ele>
				<time>2013-07-12T08:12:42</time>
			</trkpt>
			<trkpt lat="48.829019917175174" lon="2.8976798336952925">
				<ele>89.3</ele>
				<time>2013-07-12T08:12:46</time>
			</trkpt>
			<trkpt lat="48.829039949923754" lon="2.895039953291416">
				<ele>98.56</ele>
				<time>2013-07-12T08:13:13</time>
			</trkpt>
			<trkpt lat="48.8288199249655" lon="2.8937799017876387">
				<ele>101.36</ele>
				<time>2013-07-12T08:13:27</time>
			</trkpt>
			<trkpt lat="48.8262399751693" lon="2.8863899130374193">
				<ele>120.58</ele>
				<time>2013-07-12T08:14:55</time>
			</trkpt>
			<trkpt lat="48.82505988702178" lon="2.88391993381083">
				<ele>129.96</ele>
				<time>2013-07-12T08:15:27</time>
			</trkpt>
			<trkpt lat="48.82378994487226" lon="2.882249839603901">
				<ele>130.28</ele>
				<time>2013-07-12T08:15:54</time>
			</trkpt>
			<trkpt lat="48.8237498793751" lon="2.8813599329441786">
				<ele>134.31</ele>
				<time>2013-07-12T08:16:04</time>
			</trkpt>
			<trkpt lat="48.8233698438853" lon="2.880119914188981">
				<ele>134.8</ele>
				<time>2013-07-12T08:16:18</time>
			</trkpt>
			<trkpt lat="48.818709924817085" lon="2.866329839453101">
				<ele>136.42</ele>
				<time>2013-07-12T08:19:02</time>
			</trkpt>
			<trkpt lat="48.81568992510438" lon="2.84741984680295">
				<ele>130.0</ele>
				<time>2013-07-12T08:22:27</time>
			</trkpt>
			<trkpt lat="48.81533998064697" lon="2.843819987028837">
				<ele>134.6</ele>
				<time>2013-07-12T08:23:05</time>
			</trkpt>
			<trkpt lat="48.81531994789839" lon="2.842389866709709">
				<ele>127.09</ele>
				<time>2013-07-12T08:23:20</time>
			</trkpt>
			<trkpt lat="48.81545992568135" lon="2.8418398462235928">
				<ele>124.62</ele>
				<time>2013-07-12T08:23:26</time>
			</trkpt>
			<trkpt lat="48.8151899445802" lon="2.841409854590893">
				<ele>124.63</ele>
				<time>2013-07-12T08:23:33</time>
			</trkpt>
			<trkpt lat="48.81502993404865" lon="2.8404598496854305">
				<ele>126.21</ele>
				<time>2013-07-12T08:23:43</time>
			</trkpt>
			<trkpt lat="48.8141399435699" lon="2.829749956727028">
				<ele>126.22</ele>
				<time>2013-07-12T08:25:37</time>
			</trkpt>
			<trkpt lat="48.81349998526275" lon="2.829519873484969">
				<ele>128.0</ele>
				<time>2013-07-12T08:25:47</time>
			</trkpt>
			<trkpt lat="48.81212996318936" lon="2.829359946772456">
				<ele>126.35</ele>
				<time>2013-07-12T08:26:09</time>
			</trkpt>
			<trkpt lat="48.8018998503685" lon="2.826289990916848">
				<ele>130.21</ele>
				<time>2013-07-12T08:28:56</time>
			</trkpt>
			<trkpt lat="48.79315987229347" lon="2.822409840300679">
				<ele>127.0</ele>
				<time>2013-07-12T08:31:22</time>
			</trkpt>
			<trkpt lat="48.78560987301171" lon="2.824649903923273">
				<ele>119.82</ele>
				<time>2013-07-12T08:33:25</time>
			</trkpt>
			<trkpt lat="48.78337995149195" lon="2.825079895555973">
				<ele>115.87</ele>
				<time>2013-07-12T08:34:01</time>
			</trkpt>
			<trkpt lat="48.77334991469979" lon="2.8262499254196882">
				<ele>115.0</ele>
				<time>2013-07-12T08:36:42</time>
			</trkpt>
			<trkpt lat="48.772989911958575" lon="2.8265398554503918">
				<ele>114.49</ele>
				<time>2013-07-12T08:36:49</time>
			</trkpt>
			<trkpt lat="48.77194996923208" lon="2.828109869733453">
				<ele>115.0</ele>
				<time>2013-07-12T08:37:12</time>
			</trkpt>
			<trkpt lat="48.771789874881506" lon="2.8280998952686787">
				<ele>115.0</ele>
				<time>2013-07-12T08:37:15</time>
			</trkpt>
			<trkpt lat="48.771809907630086" lon="2.8283198364079">
				<ele>115.0</ele>
				<time>2013-07-12T08:37:17</time>
			</trkpt>
			<trkpt lat="48.77123985439539" lon="2.8291398379951715">
				<ele>115.61</ele>
				<time>2013-07-12T08:37:30</time>
			</trkpt>
			<trkpt lat="48.76782984472811" lon="2.831279905512929">
				<ele>117.08</ele>
				<time>2013-07-12T08:38:29</time>
			</trkpt>
			<trkpt lat="48.76541996374726" lon="2.8281299024820328">
				<ele>121.54</ele>
				<time>2013-07-12T08:39:20</time>
			</trkpt>
			<trkpt lat="48.7625998724252" lon="2.8231198713183403">
				<ele>116.28</ele>
				<time>2013-07-12T08:40:29</time>
			</trkpt>
			<trkpt lat="48.763469913974404" lon="2.822249997407198">
				<ele>119.45</ele>
				<time>2013-07-12T08:40:46</time>
			</trkpt>
			<trkpt lat="48.763429932296276" lon="2.82173995859921">
				<ele>120.18</ele>
				<time>2013-07-12T08:40:52</time>
			</trkpt>
			<trkpt lat="48.76076993532479" lon="2.815159996971488">
				<ele>119.98</ele>
				<time>2013-07-12T08:42:13</time>
			</trkpt>
			<trkpt lat="48.75892993994057" lon="2.8098198864609003">
				<ele>118.06</ele>
				<time>2013-07-12T08:43:17</time>
			</trkpt>
			<trkpt lat="48.75832996331155" lon="2.808899888768792">
				<ele>118.73</ele>
				<time>2013-07-12T08:43:30</time>
			</trkpt>
			<trkpt lat="48.75733997672796" lon="2.8082498721778393">
				<ele>112.77</ele>
				<time>2013-07-12T08:43:48</time>
			</trkpt>
			<trkpt lat="48.75640983693302" lon="2.806719923391938">
				<ele>114.81</ele>
				<time>2013-07-12T08:44:10</time>
			</trkpt>
			<trkpt lat="48.755669966340065" lon="2.8039699885994196">
				<ele>109.84</ele>
				<time>2013-07-12T08:44:41</time>
			</trkpt>
			<trkpt lat="48.755349945276976" lon="2.8019299171864986">
				<ele>111.0</ele>
				<time>2013-07-12T08:45:03</time>
			</trkpt>
			<trkpt lat="48.75458987429738" lon="2.7997099701315165">
				<ele>111.0</ele>
				<time>2013-07-12T08:45:29</time>
			</trkpt>
			<trkpt lat="48.7534698843956" lon="2.7970899548381567">
				<ele>110.22</ele>
				<time>2013-07-12T08:46:02</time>
			</trkpt>
			<trkpt lat="48.752319971099496" lon="2.7953598462045193">
				<ele>111.9</ele>
				<time>2013-07-12T08:46:28</time>
			</trkpt>
			<trkpt lat="48.75063990242779" lon="2.792209843173623">
				<ele>108.66</ele>
				<time>2013-07-12T08:47:11</time>
			</trkpt>
			<trkpt lat="48.74987999908626" lon="2.791349859908223">
				<ele>107.67</ele>
				<time>2013-07-12T08:47:26</time>
			</trkpt>
			<trkpt lat="48.74891993589699" lon="2.791119944304228">
				<ele>108.25</ele>
				<time>2013-07-12T08:47:42</time>
			</trkpt>
			<trkpt lat="48.747359896078706" lon="2.7879698574543">
				<ele>111.0</ele>
				<time>2013-07-12T08:48:23</time>
			</trkpt>
			<trkpt lat="48.74689998105168" lon="2.788069937378168">
				<ele>111.76</ele>
				<time>2013-07-12T08:48:31</time>
			</trkpt>
			<trkpt lat="48.74698983505368" lon="2.7881499845534563">
				<ele>112.0</ele>
				<time>2013-07-12T08:48:33</time>
			</trkpt>
			<trkpt lat="48.74674986116588" lon="2.7883799001574516">
				<ele>112.0</ele>
				<time>2013-07-12T08:48:37</time>
			</trkpt>
			<trkpt lat="48.74598987400532" lon="2.788929920643568">
				<ele>112.53</ele>
				<time>2013-07-12T08:48:51</time>
			</trkpt>
			<trkpt lat="48.74575987458229" lon="2.789399977773428">
				<ele>112.0</ele>
				<time>2013-07-12T08:48:57</time>
			</trkpt>
			<trkpt lat="48.74564990401268" lon="2.790319975465536">
				<ele>110.09</ele>
				<time>2013-07-12T08:49:07</time>
			</trkpt>
			<trkpt lat="48.74392993748188" lon="2.7920798398554325">
				<ele>112.9</ele>
				<time>2013-07-12T08:49:40</time>
			</trkpt>
			<trkpt lat="48.74296987429261" lon="2.7927798964083195">
				<ele>111.55</ele>
				<time>2013-07-12T08:49:57</time>
			</trkpt>
			<trkpt lat="48.74173999764025" lon="2.7933898475021124">
				<ele>111.97</ele>
				<time>2013-07-12T08:50:18</time>
			</trkpt>
			<trkpt lat="48.740719920024276" lon="2.7821498829871416">
				<ele>109.0</ele>
				<time>2013-07-12T08:52:17</time>
			</trkpt>
			<trkpt lat="48.74072997830808" lon="2.78089988976717">
				<ele>110.65</ele>
				<time>2013-07-12T08:52:31</time>
			</trkpt>
			<trkpt lat="48.74048983678222" lon="2.780689839273691">
				<ele>111.79</ele>
				<time>2013-07-12T08:52:35</time>
			</trkpt>
			<trkpt lat="48.7396998424083" lon="2.7814699430018663">
				<ele>110.0</ele>
				<time>2013-07-12T08:52:50</time>
			</trkpt>
			<trkpt lat="48.7387999612838" lon="2.781959865242243">
				<ele>110.0</ele>
				<time>2013-07-12T08:53:06</time>
			</trkpt>
			<trkpt lat="48.73824994079769" lon="2.782019879668951">
				<ele>110.01</ele>
				<time>2013-07-12T08:53:14</time>
			</trkpt>
			<trkpt lat="48.73765985481441" lon="2.7816499024629593">
				<ele>111.0</ele>
				<time>2013-07-12T08:53:25</time>
			</trkpt>
			<trkpt lat="48.73738995753229" lon="2.7812498342245817">
				<ele>111.14</ele>
				<time>2013-07-12T08:53:31</time>
			</trkpt>
			<trkpt lat="48.73672996647656" lon="2.7792599704116583">
				<ele>109.91</ele>
				<time>2013-07-12T08:53:54</time>
			</trkpt>
			<trkpt lat="48.736159997060895" lon="2.7792298793792725">
				<ele>106.94</ele>
				<time>2013-07-12T08:54:03</time>
			</trkpt>
			<trkpt lat="48.733629919588566" lon="2.77788994833827">
				<ele>109.12</ele>
				<time>2013-07-12T08:54:46</time>
			</trkpt>
			<trkpt lat="48.7334399856627" lon="2.777609908953309">
				<ele>108.11</ele>
				<time>2013-07-12T08:54:50</time>
			</trkpt>
			<trkpt lat="48.7335298396647" lon="2.7770899794995785">
				<ele>108.0</ele>
				<time>2013-07-12T08:54:56</time>
			</trkpt>
			<trkpt lat="48.7338699772954" lon="2.776689911261201">
				<ele>108.51</ele>
				<time>2013-07-12T08:55:03</time>
			</trkpt>
			<trkpt lat="48.73389998450875" lon="2.7761999052017927">
				<ele>106.84</ele>
				<time>2013-07-12T08:55:08</time>
			</trkpt>
			<trkpt lat="48.734579840674996" lon="2.7750699408352375">
				<ele>107.51</ele>
				<time>2013-07-12T08:55:24</time>
			</trkpt>
			<trkpt lat="48.73533991165459" lon="2.772099981084466">
				<ele>104.29</ele>
				<time>2013-07-12T08:55:58</time>
			</trkpt>
			<trkpt lat="48.73537997715175" lon="2.770439861342311">
				<ele>105.0</ele>
				<time>2013-07-12T08:56:16</time>
			</trkpt>
			<trkpt lat="48.73492995277047" lon="2.7693099807947874">
				<ele>108.24</ele>
				<time>2013-07-12T08:56:29</time>
			</trkpt>
			<trkpt lat="48.73363997787237" lon="2.7680599875748158">
				<ele>110.0</ele>
				<time>2013-07-12T08:56:54</time>
			</trkpt>
			<trkpt lat="48.72050855308771" lon="2.7580550964921713">
				<ele>101.77</ele>
				<time>2013-07-12T09:00:49</time>
			</trkpt>
			<trkpt lat="48.72050846926868" lon="2.7580550964921713">
				<ele>101.77</ele>
				<time>2013-07-12T09:00:49</time>
			</trkpt>
			<trkpt lat="48.7201998475939" lon="2.7578199841082096">
				<ele>103.0</ele>
				<time>2013-07-12T09:00:55</time>
			</trkpt>
			<trkpt lat="48.719409853219986" lon="2.757899947464466">
				<ele>102.65</ele>
				<time>2013-07-12T09:01:08</time>
			</trkpt>
			<trkpt lat="48.71654994785786" lon="2.75919989682734">
				<ele>102.0</ele>
				<time>2013-07-12T09:01:55</time>
			</trkpt>
			<trkpt lat="48.71577990241349" lon="2.7592698857188225">
				<ele>102.52</ele>
				<time>2013-07-12T09:02:08</time>
			</trkpt>
			<trkpt lat="48.71556985192001" lon="2.7595799323171377">
				<ele>103.16</ele>
				<time>2013-07-12T09:02:12</time>
			</trkpt>
			<trkpt lat="48.71490986086428" lon="2.7599599678069353">
				<ele>103.59</ele>
				<time>2013-07-12T09:02:24</time>
			</trkpt>
			<trkpt lat="48.70755985379219" lon="2.763229999691248">
				<ele>102.63</ele>
				<time>2013-07-12T09:04:26</time>
			</trkpt>
			<trkpt lat="48.70696993544698" lon="2.7636498492211103">
				<ele>100.88</ele>
				<time>2013-07-12T09:04:37</time>
			</trkpt>
			<trkpt lat="48.70371985249221" lon="2.7671098988503218">
				<ele>104.62</ele>
				<time>2013-07-12T09:05:40</time>
			</trkpt>
			<trkpt lat="48.700149999931455" lon="2.7747798431664705">
				<ele>107.33</ele>
				<time>2013-07-12T09:07:20</time>
			</trkpt>
			<trkpt lat="48.699469892308116" lon="2.775819953531027">
				<ele>105.32</ele>
				<time>2013-07-12T09:07:35</time>
			</trkpt>
			<trkpt lat="48.69875994510949" lon="2.776509951800108">
				<ele>105.84</ele>
				<time>2013-07-12T09:07:49</time>
			</trkpt>
			<trkpt lat="48.69775990024209" lon="2.775479983538389">
				<ele>106.74</ele>
				<time>2013-07-12T09:08:08</time>
			</trkpt>
			<trkpt lat="48.695539869368076" lon="2.77468990534544">
				<ele>102.0</ele>
				<time>2013-07-12T09:08:44</time>
			</trkpt>
			<trkpt lat="48.69201988913119" lon="2.776289926841855">
				<ele>102.0</ele>
				<time>2013-07-12T09:09:43</time>
			</trkpt>
			<trkpt lat="48.690659841522574" lon="2.777369935065508">
				<ele>101.0</ele>
				<time>2013-07-12T09:10:08</time>
			</trkpt>
			<trkpt lat="48.68875991553068" lon="2.7778998389840126">
				<ele>99.5</ele>
				<time>2013-07-12T09:10:39</time>
			</trkpt>
			<trkpt lat="48.68714991956949" lon="2.7781498711556196">
				<ele>97.54</ele>
				<time>2013-07-12T09:11:05</time>
			</trkpt>
			<trkpt lat="48.686139984056354" lon="2.7790499199181795">
				<ele>95.0</ele>
				<time>2013-07-12T09:11:23</time>
			</trkpt>
			<trkpt lat="48.684659991413355" lon="2.77962994761765">
				<ele>99.8</ele>
				<time>2013-07-12T09:11:48</time>
			</trkpt>
			<trkpt lat="48.68153991177678" lon="2.7870498597621918">
				<ele>102.0</ele>
				<time>2013-07-12T09:13:21</time>
			</trkpt>
			<trkpt lat="48.67963998578489" lon="2.7901499904692173">
				<ele>101.53</ele>
				<time>2013-07-12T09:14:06</time>
			</trkpt>
			<trkpt lat="48.67858998477459" lon="2.7936499379575253">
				<ele>98.74</ele>
				<time>2013-07-12T09:14:46</time>
			</trkpt>
			<trkpt lat="48.678819900378585" lon="2.794869840145111">
				<ele>100.15</ele>
				<time>2013-07-12T09:15:00</time>
			</trkpt>
			<trkpt lat="48.677439987659454" lon="2.796179847791791">
				<ele>101.6</ele>
				<time>2013-07-12T09:15:26</time>
			</trkpt>
			<trkpt lat="48.67732984945178" lon="2.8021199349313974">
				<ele>100.45</ele>
				<time>2013-07-12T09:16:29</time>
			</trkpt>
			<trkpt lat="48.6774498783052" lon="2.8041799552738667">
				<ele>96.1</ele>
				<time>2013-07-12T09:16:50</time>
			</trkpt>
			<trkpt lat="48.67715994827449" lon="2.806399902328849">
				<ele>95.73</ele>
				<time>2013-07-12T09:17:14</time>
			</trkpt>
			<trkpt lat="48.6763998772949" lon="2.810009904205799">
				<ele>96.41</ele>
				<time>2013-07-12T09:17:54</time>
			</trkpt>
			<trkpt lat="48.675189949572086" lon="2.8123098984360695">
				<ele>99.0</ele>
				<time>2013-07-12T09:18:26</time>
			</trkpt>
			<trkpt lat="48.6739198397845" lon="2.8158398531377316">
				<ele>100.06</ele>
				<time>2013-07-12T09:19:08</time>
			</trkpt>
			<trkpt lat="48.67201991379261" lon="2.8185799811035395">
				<ele>98.53</ele>
				<time>2013-07-12T09:19:50</time>
			</trkpt>
			<trkpt lat="48.671599896624684" lon="2.817939855158329">
				<ele>99.32</ele>
				<time>2013-07-12T09:20:00</time>
			</trkpt>
			<trkpt lat="48.67081996053457" lon="2.8176999650895596">
				<ele>99.97</ele>
				<time>2013-07-12T09:20:12</time>
			</trkpt>
			<trkpt lat="48.6691899318248" lon="2.818489959463477">
				<ele>86.66</ele>
				<time>2013-07-12T09:20:40</time>
			</trkpt>
			<trkpt lat="48.6680899746716" lon="2.81868995167315">
				<ele>79.92</ele>
				<time>2013-07-12T09:20:57</time>
			</trkpt>
			<trkpt lat="48.6675098631531" lon="2.81911994330585">
				<ele>76.74</ele>
				<time>2013-07-12T09:21:08</time>
			</trkpt>
			<trkpt lat="48.66663998924196" lon="2.8207499720156193">
				<ele>71.74</ele>
				<time>2013-07-12T09:21:30</time>
			</trkpt>
			<trkpt lat="48.66570984944701" lon="2.8205999359488487">
				<ele>71.39</ele>
				<time>2013-07-12T09:21:45</time>
			</trkpt>
			<trkpt lat="48.661179933696985" lon="2.823559921234846">
				<ele>73.49</ele>
				<time>2013-07-12T09:23:04</time>
			</trkpt>
			<trkpt lat="48.65960983559489" lon="2.8234699834138155">
				<ele>86.68</ele>
				<time>2013-07-12T09:23:29</time>
			</trkpt>
			<trkpt lat="48.65897993557155" lon="2.8236699756234884">
				<ele>90.71</ele>
				<time>2013-07-12T09:23:39</time>
			</trkpt>
			<trkpt lat="48.656949838623405" lon="2.8204998560249805">
				<ele>93.24</ele>
				<time>2013-07-12T09:24:26</time>
			</trkpt>
			<trkpt lat="48.65667994134128" lon="2.8203298710286617">
				<ele>94.04</ele>
				<time>2013-07-12T09:24:31</time>
			</trkpt>
			<trkpt lat="48.655679896473885" lon="2.8176699578762054">
				<ele>95.99</ele>
				<time>2013-07-12T09:25:03</time>
			</trkpt>
			<trkpt lat="48.65519994869828" lon="2.8167899418622255">
				<ele>94.99</ele>
				<time>2013-07-12T09:25:15</time>
			</trkpt>
			<trkpt lat="48.65495997481048" lon="2.815549923107028">
				<ele>90.59</ele>
				<time>2013-07-12T09:25:29</time>
			</trkpt>
			<trkpt lat="48.6523998901248" lon="2.8150699753314257">
				<ele>104.08</ele>
				<time>2013-07-12T09:26:10</time>
			</trkpt>
			<trkpt lat="48.65208984352648" lon="2.8152599092572927">
				<ele>105.64</ele>
				<time>2013-07-12T09:26:16</time>
			</trkpt>
			<trkpt lat="48.64979990758002" lon="2.819249862805009">
				<ele>99.87</ele>
				<time>2013-07-12T09:27:11</time>
			</trkpt>
			<trkpt lat="48.648809837177396" lon="2.8220498375594616">
				<ele>99.42</ele>
				<time>2013-07-12T09:27:45</time>
			</trkpt>
			<trkpt lat="48.64859995432198" lon="2.8230998385697603">
				<ele>98.98</ele>
				<time>2013-07-12T09:27:57</time>
			</trkpt>
			<trkpt lat="48.6458099540323" lon="2.8305699583142996">
				<ele>97.95</ele>
				<time>2013-07-12T09:29:27</time>
			</trkpt>
			<trkpt lat="48.64163995720446" lon="2.8287799190729856">
				<ele>96.0</ele>
				<time>2013-07-12T09:30:37</time>
			</trkpt>
			<trkpt lat="48.64021997898817" lon="2.831689864397049">
				<ele>93.0</ele>
				<time>2013-07-12T09:31:15</time>
			</trkpt>
			<trkpt lat="48.629894061014056" lon="2.8267991077154875">
				<ele>85.81</ele>
				<time>2013-07-12T09:34:08</time>
			</trkpt>
			<trkpt lat="48.629893977195024" lon="2.8267991077154875">
				<ele>85.81</ele>
				<time>2013-07-12T09:34:08</time>
			</trkpt>
			<trkpt lat="48.62940992228687" lon="2.8265699464827776">
				<ele>86.57</ele>
				<time>2013-07-12T09:34:17</time>
			</trkpt>
			<trkpt lat="48.630669889971614" lon="2.838389938697219">
				<ele>94.0</ele>
				<time>2013-07-12T09:36:23</time>
			</trkpt>
			<trkpt lat="48.631359888240695" lon="2.8411199245601892">
				<ele>97.52</ele>
				<time>2013-07-12T09:36:54</time>
			</trkpt>
			<trkpt lat="48.63243998028338" lon="2.8436099365353584">
				<ele>97.35</ele>
				<time>2013-07-12T09:37:26</time>
			</trkpt>
			<trkpt lat="48.63362987525761" lon="2.8476298972964287">
				<ele>97.11</ele>
				<time>2013-07-12T09:38:12</time>
			</trkpt>
			<trkpt lat="48.63560842350125" lon="2.856502728536725">
				<ele>97.05</ele>
				<time>2013-07-12T09:39:51</time>
			</trkpt>
			<trkpt lat="48.63567137159407" lon="2.856886452063918">
				<ele>98.0</ele>
				<time>2013-07-12T09:39:56</time>
			</trkpt>
			<trkpt lat="48.6357544362545" lon="2.8572601173073053">
				<ele>97.42</ele>
				<time>2013-07-12T09:40:00</time>
			</trkpt>
			<trkpt lat="48.6358374170959" lon="2.857633698731661">
				<ele>97.0</ele>
				<time>2013-07-12T09:40:04</time>
			</trkpt>
			<trkpt lat="48.63592048175633" lon="2.858007363975048">
				<ele>97.28</ele>
				<time>2013-07-12T09:40:08</time>
			</trkpt>
			<trkpt lat="48.63600254058838" lon="2.8583765029907227">
				<ele>98.0</ele>
				<time>2013-07-12T09:40:12</time>
			</trkpt>
			<trkpt lat="48.63610999658704" lon="2.858785120770335">
				<ele>98.0</ele>
				<time>2013-07-12T09:40:17</time>
			</trkpt>
			<trkpt lat="48.63621711730957" lon="2.85919189453125">
				<ele>98.23</ele>
				<time>2013-07-12T09:40:21</time>
			</trkpt>
			<trkpt lat="48.63635684363544" lon="2.85957888700068">
				<ele>98.0</ele>
				<time>2013-07-12T09:40:26</time>
			</trkpt>
			<trkpt lat="48.63649606704712" lon="2.859964370727539">
				<ele>98.0</ele>
				<time>2013-07-12T09:40:31</time>
			</trkpt>
			<trkpt lat="48.63664962351322" lon="2.860329821705818">
				<ele>98.82</ele>
				<time>2013-07-12T09:40:35</time>
			</trkpt>
			<trkpt lat="48.636803179979324" lon="2.8606952726840973">
				<ele>100.14</ele>
				<time>2013-07-12T09:40:40</time>
			</trkpt>
			<trkpt lat="48.63695673644543" lon="2.8610607236623764">
				<ele>100.9</ele>
				<time>2013-07-12T09:40:45</time>
			</trkpt>
			<trkpt lat="48.63711029291153" lon="2.8614261746406555">
				<ele>100.53</ele>
				<time>2013-07-12T09:40:49</time>
			</trkpt>
			<trkpt lat="48.63726384937763" lon="2.8617916256189346">
				<ele>100.08</ele>
				<time>2013-07-12T09:40:54</time>
			</trkpt>
			<trkpt lat="48.637417405843735" lon="2.8621570765972137">
				<ele>101.0</ele>
				<time>2013-07-12T09:40:58</time>
			</trkpt>
			<trkpt lat="48.637568950653076" lon="2.862517833709717">
				<ele>101.7</ele>
				<time>2013-07-12T09:41:03</time>
			</trkpt>
			<trkpt lat="48.63756903447211" lon="2.862517833709717">
				<ele>101.7</ele>
				<time>2013-07-12T09:41:03</time>
			</trkpt>
			<trkpt lat="48.6377302184701" lon="2.862910106778145">
				<ele>103.0</ele>
				<time>2013-07-12T09:41:08</time>
			</trkpt>
			<trkpt lat="48.63789148628712" lon="2.8633024636656046">
				<ele>103.0</ele>
				<time>2013-07-12T09:41:13</time>
			</trkpt>
			<trkpt lat="48.638052670285106" lon="2.8636948205530643">
				<ele>103.0</ele>
				<time>2013-07-12T09:41:17</time>
			</trkpt>
			<trkpt lat="48.638213938102126" lon="2.864087177440524">
				<ele>102.0</ele>
				<time>2013-07-12T09:41:22</time>
			</trkpt>
			<trkpt lat="48.638375122100115" lon="2.864479534327984">
				<ele>102.77</ele>
				<time>2013-07-12T09:41:27</time>
			</trkpt>
			<trkpt lat="48.638536389917135" lon="2.864871807396412">
				<ele>104.17</ele>
				<time>2013-07-12T09:41:32</time>
			</trkpt>
			<trkpt lat="48.638697657734156" lon="2.8652641642838717">
				<ele>104.82</ele>
				<time>2013-07-12T09:41:37</time>
			</trkpt>
			<trkpt lat="48.638856410980225" lon="2.8656506538391113">
				<ele>104.26</ele>
				<time>2013-07-12T09:41:42</time>
			</trkpt>
			<trkpt lat="48.63903544843197" lon="2.865965813398361">
				<ele>104.72</ele>
				<time>2013-07-12T09:41:46</time>
			</trkpt>
			<trkpt lat="48.639214569702744" lon="2.866280972957611">
				<ele>104.94</ele>
				<time>2013-07-12T09:41:51</time>
			</trkpt>
			<trkpt lat="48.63939369097352" lon="2.866596132516861">
				<ele>104.03</ele>
				<time>2013-07-12T09:41:55</time>
			</trkpt>
			<trkpt lat="48.639572728425264" lon="2.866911292076111">
				<ele>104.51</ele>
				<time>2013-07-12T09:41:59</time>
			</trkpt>
			<trkpt lat="48.63975184969604" lon="2.8672264516353607">
				<ele>105.64</ele>
				<time>2013-07-12T09:42:04</time>
			</trkpt>
			<trkpt lat="48.63992937840521" lon="2.8675389289855957">
				<ele>106.77</ele>
				<time>2013-07-12T09:42:08</time>
			</trkpt>
			<trkpt lat="48.64010120742023" lon="2.867823578417301">
				<ele>107.0</ele>
				<time>2013-07-12T09:42:12</time>
			</trkpt>
			<trkpt lat="48.64027312025428" lon="2.8681083116680384">
				<ele>107.0</ele>
				<time>2013-07-12T09:42:16</time>
			</trkpt>
			<trkpt lat="48.640444949269295" lon="2.8683930449187756">
				<ele>107.0</ele>
				<time>2013-07-12T09:42:20</time>
			</trkpt>
			<trkpt lat="48.640615940093994" lon="2.86867618560791">
				<ele>107.0</ele>
				<time>2013-07-12T09:42:24</time>
			</trkpt>
			<trkpt lat="48.640851974487305" lon="2.8688478469848633">
				<ele>107.0</ele>
				<time>2013-07-12T09:42:29</time>
			</trkpt>
			<trkpt lat="48.641109466552734" lon="2.8689980506896973">
				<ele>106.17</ele>
				<time>2013-07-12T09:42:33</time>
			</trkpt>
			<trkpt lat="48.64123821258545" lon="2.8691697120666504">
				<ele>106.64</ele>
				<time>2013-07-12T09:42:36</time>
			</trkpt>
			<trkpt lat="48.641324043273926" lon="2.869448661804199">
				<ele>107.0</ele>
				<time>2013-07-12T09:42:39</time>
			</trkpt>
			<trkpt lat="48.64134558476508" lon="2.8696960117667913">
				<ele>107.0</ele>
				<time>2013-07-12T09:42:42</time>
			</trkpt>
			<trkpt lat="48.641367042437196" lon="2.8699421882629395">
				<ele>107.42</ele>
				<time>2013-07-12T09:42:44</time>
			</trkpt>
			<trkpt lat="48.64145278930664" lon="2.8702855110168457">
				<ele>107.91</ele>
				<time>2013-07-12T09:42:48</time>
			</trkpt>
			<trkpt lat="48.64162470214069" lon="2.8706336952745914">
				<ele>107.29</ele>
				<time>2013-07-12T09:42:53</time>
			</trkpt>
			<trkpt lat="48.64179661497474" lon="2.870981879532337">
				<ele>106.67</ele>
				<time>2013-07-12T09:42:57</time>
			</trkpt>
			<trkpt lat="48.64196861162782" lon="2.871330063790083">
				<ele>106.05</ele>
				<time>2013-07-12T09:43:02</time>
			</trkpt>
			<trkpt lat="48.642140524461865" lon="2.8716782480478287">
				<ele>105.44</ele>
				<time>2013-07-12T09:43:07</time>
			</trkpt>
			<trkpt lat="48.642311096191406" lon="2.872023582458496">
				<ele>105.91</ele>
				<time>2013-07-12T09:43:11</time>
			</trkpt>
			<trkpt lat="48.642418552190065" lon="2.8722814936190844">
				<ele>106.0</ele>
				<time>2013-07-12T09:43:14</time>
			</trkpt>
			<trkpt lat="48.6425256729126" lon="2.8725385665893555">
				<ele>106.76</ele>
				<time>2013-07-12T09:43:18</time>
			</trkpt>
			<trkpt lat="48.64263312891126" lon="2.8729399759322405">
				<ele>106.66</ele>
				<time>2013-07-12T09:43:22</time>
			</trkpt>
			<trkpt lat="48.64274066872895" lon="2.873341469094157">
				<ele>106.27</ele>
				<time>2013-07-12T09:43:27</time>
			</trkpt>
			<trkpt lat="48.642847537994385" lon="2.8737401962280273">
				<ele>105.88</ele>
				<time>2013-07-12T09:43:31</time>
			</trkpt>
			<trkpt lat="48.642928171902895" lon="2.87410581484437">
				<ele>105.0</ele>
				<time>2013-07-12T09:43:35</time>
			</trkpt>
			<trkpt lat="48.643008805811405" lon="2.874471517279744">
				<ele>105.0</ele>
				<time>2013-07-12T09:43:40</time>
			</trkpt>
			<trkpt lat="48.64308952353895" lon="2.8748371358960867">
				<ele>105.0</ele>
				<time>2013-07-12T09:43:44</time>
			</trkpt>
			<trkpt lat="48.64316940307617" lon="2.875199317932129">
				<ele>105.0</ele>
				<time>2013-07-12T09:43:48</time>
			</trkpt>
			<trkpt lat="48.64325179718435" lon="2.8755864780396223">
				<ele>105.56</ele>
				<time>2013-07-12T09:43:52</time>
			</trkpt>
			<trkpt lat="48.643334275111556" lon="2.8759736381471157">
				<ele>105.0</ele>
				<time>2013-07-12T09:43:56</time>
			</trkpt>
			<trkpt lat="48.643416753038764" lon="2.876360798254609">
				<ele>104.63</ele>
				<time>2013-07-12T09:44:01</time>
			</trkpt>
			<trkpt lat="48.64349923096597" lon="2.8767480421811342">
				<ele>104.0</ele>
				<time>2013-07-12T09:44:05</time>
			</trkpt>
			<trkpt lat="48.64358162507415" lon="2.8771352022886276">
				<ele>104.0</ele>
				<time>2013-07-12T09:44:09</time>
			</trkpt>
			<trkpt lat="48.64366292953491" lon="2.877516746520996">
				<ele>103.31</ele>
				<time>2013-07-12T09:44:13</time>
			</trkpt>
			<trkpt lat="48.64374892786145" lon="2.87797381170094">
				<ele>102.64</ele>
				<time>2013-07-12T09:44:18</time>
			</trkpt>
			<trkpt lat="48.643835010007024" lon="2.878430960699916">
				<ele>102.34</ele>
				<time>2013-07-12T09:44:23</time>
			</trkpt>
			<trkpt lat="48.643921008333564" lon="2.87888802587986">
				<ele>101.02</ele>
				<time>2013-07-12T09:44:28</time>
			</trkpt>
			<trkpt lat="48.64400625228882" lon="2.879340648651123">
				<ele>100.97</ele>
				<time>2013-07-12T09:44:33</time>
			</trkpt>
			<trkpt lat="48.64406358450651" lon="2.8797852247953415">
				<ele>101.36</ele>
				<time>2013-07-12T09:44:38</time>
			</trkpt>
			<trkpt lat="48.644120916724205" lon="2.8802298847585917">
				<ele>101.31</ele>
				<time>2013-07-12T09:44:43</time>
			</trkpt>
			<trkpt lat="48.64417791366577" lon="2.8806710243225098">
				<ele>100.1</ele>
				<time>2013-07-12T09:44:48</time>
			</trkpt>
			<trkpt lat="48.64420473575592" lon="2.881036726757884">
				<ele>100.01</ele>
				<time>2013-07-12T09:44:52</time>
			</trkpt>
			<trkpt lat="48.6442316416651" lon="2.88140251301229">
				<ele>99.91</ele>
				<time>2013-07-12T09:44:56</time>
			</trkpt>
			<trkpt lat="48.64425854757428" lon="2.881768299266696">
				<ele>99.8</ele>
				<time>2013-07-12T09:44:59</time>
			</trkpt>
			<trkpt lat="48.64428520202637" lon="2.8821301460266113">
				<ele>99.0</ele>
				<time>2013-07-12T09:45:03</time>
			</trkpt>
			<trkpt lat="48.64430238492787" lon="2.8825518395751715">
				<ele>99.0</ele>
				<time>2013-07-12T09:45:08</time>
			</trkpt>
			<trkpt lat="48.64431956782937" lon="2.8829735331237316">
				<ele>98.67</ele>
				<time>2013-07-12T09:45:12</time>
			</trkpt>
			<trkpt lat="48.644336834549904" lon="2.8833952266722918">
				<ele>98.53</ele>
				<time>2013-07-12T09:45:17</time>
			</trkpt>
			<trkpt lat="48.644354017451406" lon="2.883816920220852">
				<ele>98.46</ele>
				<time>2013-07-12T09:45:21</time>
			</trkpt>
			<trkpt lat="48.644371032714844" lon="2.884232997894287">
				<ele>97.81</ele>
				<time>2013-07-12T09:45:26</time>
			</trkpt>
			<trkpt lat="48.64438243210316" lon="2.884705066680908">
				<ele>97.36</ele>
				<time>2013-07-12T09:45:31</time>
			</trkpt>
			<trkpt lat="48.64439383149147" lon="2.8851771354675293">
				<ele>96.74</ele>
				<time>2013-07-12T09:45:36</time>
			</trkpt>
			<trkpt lat="48.644405230879784" lon="2.8856492042541504">
				<ele>96.28</ele>
				<time>2013-07-12T09:45:41</time>
			</trkpt>
			<trkpt lat="48.6444166302681" lon="2.8861212730407715">
				<ele>95.48</ele>
				<time>2013-07-12T09:45:46</time>
			</trkpt>
			<trkpt lat="48.64442802965641" lon="2.8865934256464243">
				<ele>94.85</ele>
				<time>2013-07-12T09:45:51</time>
			</trkpt>
			<trkpt lat="48.64443942904472" lon="2.8870654944330454">
				<ele>93.95</ele>
				<time>2013-07-12T09:45:56</time>
			</trkpt>
			<trkpt lat="48.64445082843304" lon="2.8875375632196665">
				<ele>93.12</ele>
				<time>2013-07-12T09:46:01</time>
			</trkpt>
			<trkpt lat="48.64446222782135" lon="2.8880096320062876">
				<ele>94.15</ele>
				<time>2013-07-12T09:46:06</time>
			</trkpt>
			<trkpt lat="48.64447362720966" lon="2.8884817846119404">
				<ele>95.07</ele>
				<time>2013-07-12T09:46:11</time>
			</trkpt>
			<trkpt lat="48.64448502659798" lon="2.8889538533985615">
				<ele>94.99</ele>
				<time>2013-07-12T09:46:16</time>
			</trkpt>
			<trkpt lat="48.64449642598629" lon="2.8894259221851826">
				<ele>94.91</ele>
				<time>2013-07-12T09:46:21</time>
			</trkpt>
			<trkpt lat="48.6445078253746" lon="2.8898979909718037">
				<ele>94.67</ele>
				<time>2013-07-12T09:46:26</time>
			</trkpt>
			<trkpt lat="48.64451930858195" lon="2.8903701435774565">
				<ele>93.87</ele>
				<time>2013-07-12T09:46:31</time>
			</trkpt>
			<trkpt lat="48.64453070797026" lon="2.8908422123640776">
				<ele>93.64</ele>
				<time>2013-07-12T09:46:36</time>
			</trkpt>
			<trkpt lat="48.644542107358575" lon="2.8913142811506987">
				<ele>94.2</ele>
				<time>2013-07-12T09:46:41</time>
			</trkpt>
			<trkpt lat="48.64455350674689" lon="2.8917863499373198">
				<ele>95.0</ele>
				<time>2013-07-12T09:46:46</time>
			</trkpt>
			<trkpt lat="48.644564151763916" lon="2.8922367095947266">
				<ele>95.0</ele>
				<time>2013-07-12T09:46:50</time>
			</trkpt>
			<trkpt lat="48.644585609436035" lon="2.892677765339613">
				<ele>95.63</ele>
				<time>2013-07-12T09:46:55</time>
			</trkpt>
			<trkpt lat="48.644607067108154" lon="2.8931164741516113">
				<ele>95.55</ele>
				<time>2013-07-12T09:47:00</time>
			</trkpt>
			<trkpt lat="48.64465719088912" lon="2.8934247605502605">
				<ele>96.31</ele>
				<time>2013-07-12T09:47:03</time>
			</trkpt>
			<trkpt lat="48.64470739848912" lon="2.8937331307679415">
				<ele>97.0</ele>
				<time>2013-07-12T09:47:06</time>
			</trkpt>
			<trkpt lat="48.64475727081299" lon="2.8940391540527344">
				<ele>97.16</ele>
				<time>2013-07-12T09:47:10</time>
			</trkpt>
			<trkpt lat="48.644843604415655" lon="2.8943870030343533">
				<ele>97.41</ele>
				<time>2013-07-12T09:47:14</time>
			</trkpt>
			<trkpt lat="48.64492993801832" lon="2.894734935835004">
				<ele>97.34</ele>
				<time>2013-07-12T09:47:18</time>
			</trkpt>
			<trkpt lat="48.64501635544002" lon="2.8950828686356544">
				<ele>97.0</ele>
				<time>2013-07-12T09:47:22</time>
			</trkpt>
			<trkpt lat="48.6451019346714" lon="2.895427532494068">
				<ele>96.77</ele>
				<time>2013-07-12T09:47:25</time>
			</trkpt>
			<trkpt lat="48.645209139212966" lon="2.895859284326434">
				<ele>96.38</ele>
				<time>2013-07-12T09:47:30</time>
			</trkpt>
			<trkpt lat="48.64531634375453" lon="2.8962910361588">
				<ele>96.0</ele>
				<time>2013-07-12T09:47:35</time>
			</trkpt>
			<trkpt lat="48.645423548296094" lon="2.896722787991166">
				<ele>96.0</ele>
				<time>2013-07-12T09:47:40</time>
			</trkpt>
			<trkpt lat="48.64552974700928" lon="2.8971505165100098">
				<ele>96.0</ele>
				<time>2013-07-12T09:47:45</time>
			</trkpt>
			<trkpt lat="48.645644411444664" lon="2.8975734673440456">
				<ele>94.95</ele>
				<time>2013-07-12T09:47:50</time>
			</trkpt>
			<trkpt lat="48.64575915969908" lon="2.8979964181780815">
				<ele>95.41</ele>
				<time>2013-07-12T09:47:55</time>
			</trkpt>
			<trkpt lat="48.645873153582215" lon="2.898416519165039">
				<ele>94.99</ele>
				<time>2013-07-12T09:47:59</time>
			</trkpt>
			<trkpt lat="48.64598773419857" lon="2.89878205396235">
				<ele>94.8</ele>
				<time>2013-07-12T09:48:04</time>
			</trkpt>
			<trkpt lat="48.64610239863396" lon="2.8991476725786924">
				<ele>94.46</ele>
				<time>2013-07-12T09:48:08</time>
			</trkpt>
			<trkpt lat="48.64621639251709" lon="2.8995108604431152">
				<ele>94.6</ele>
				<time>2013-07-12T09:48:12</time>
			</trkpt>
			<trkpt lat="48.64636684767902" lon="2.8998332284390926">
				<ele>94.0</ele>
				<time>2013-07-12T09:48:16</time>
			</trkpt>
			<trkpt lat="48.64651679992676" lon="2.9001545906066895">
				<ele>92.22</ele>
				<time>2013-07-12T09:48:21</time>
			</trkpt>
			<trkpt lat="48.64651688374579" lon="2.9001545906066895">
				<ele>92.2</ele>
				<time>2013-07-12T09:48:21</time>
			</trkpt>
			<trkpt lat="48.64672316238284" lon="2.9005026072263718">
				<ele>89.4</ele>
				<time>2013-07-12T09:48:25</time>
			</trkpt>
			<trkpt lat="48.64692944101989" lon="2.9008507914841175">
				<ele>86.58</ele>
				<time>2013-07-12T09:48:30</time>
			</trkpt>
			<trkpt lat="48.647135719656944" lon="2.9011988919228315">
				<ele>83.99</ele>
				<time>2013-07-12T09:48:35</time>
			</trkpt>
			<trkpt lat="48.647341998293996" lon="2.9015469923615456">
				<ele>82.71</ele>
				<time>2013-07-12T09:48:40</time>
			</trkpt>
			<trkpt lat="48.64754685200751" lon="2.90189266204834">
				<ele>82.35</ele>
				<time>2013-07-12T09:48:45</time>
			</trkpt>
			<trkpt lat="48.647707952186465" lon="2.902182759717107">
				<ele>82.24</ele>
				<time>2013-07-12T09:48:49</time>
			</trkpt>
			<trkpt lat="48.647869136184454" lon="2.902472857385874">
				<ele>81.95</ele>
				<time>2013-07-12T09:48:53</time>
			</trkpt>
			<trkpt lat="48.64803023636341" lon="2.9027629550546408">
				<ele>81.81</ele>
				<time>2013-07-12T09:48:57</time>
			</trkpt>
			<trkpt lat="48.64819049835205" lon="2.9030513763427734">
				<ele>82.16</ele>
				<time>2013-07-12T09:49:01</time>
			</trkpt>
			<trkpt lat="48.64834095351398" lon="2.903427556157112">
				<ele>83.16</ele>
				<time>2013-07-12T09:49:06</time>
			</trkpt>
			<trkpt lat="48.64849140867591" lon="2.9038038197904825">
				<ele>83.03</ele>
				<time>2013-07-12T09:49:11</time>
			</trkpt>
			<trkpt lat="48.64864194765687" lon="2.904179999604821">
				<ele>82.77</ele>
				<time>2013-07-12T09:49:15</time>
			</trkpt>
			<trkpt lat="48.64879131317139" lon="2.9045534133911133">
				<ele>82.47</ele>
				<time>2013-07-12T09:49:20</time>
			</trkpt>
			<trkpt lat="48.648941768333316" lon="2.904967311769724">
				<ele>82.39</ele>
				<time>2013-07-12T09:49:25</time>
			</trkpt>
			<trkpt lat="48.64909230731428" lon="2.9053812101483345">
				<ele>82.2</ele>
				<time>2013-07-12T09:49:30</time>
			</trkpt>
			<trkpt lat="48.64924284629524" lon="2.905795108526945">
				<ele>80.29</ele>
				<time>2013-07-12T09:49:35</time>
			</trkpt>
			<trkpt lat="48.649392211809754" lon="2.906205654144287">
				<ele>79.61</ele>
				<time>2013-07-12T09:49:40</time>
			</trkpt>
			<trkpt lat="48.64954484626651" lon="2.9066216479986906">
				<ele>80.01</ele>
				<time>2013-07-12T09:49:45</time>
			</trkpt>
			<trkpt lat="48.64969748072326" lon="2.907037641853094">
				<ele>79.48</ele>
				<time>2013-07-12T09:49:50</time>
			</trkpt>
			<trkpt lat="48.64985019899905" lon="2.9074536357074976">
				<ele>79.11</ele>
				<time>2013-07-12T09:49:55</time>
			</trkpt>
			<trkpt lat="48.6500028334558" lon="2.907869713380933">
				<ele>79.21</ele>
				<time>2013-07-12T09:50:00</time>
			</trkpt>
			<trkpt lat="48.65015555173159" lon="2.9082857072353363">
				<ele>79.19</ele>
				<time>2013-07-12T09:50:05</time>
			</trkpt>
			<trkpt lat="48.65030818618834" lon="2.9087017849087715">
				<ele>78.09</ele>
				<time>2013-07-12T09:50:10</time>
			</trkpt>
			<trkpt lat="48.650460904464126" lon="2.909117778763175">
				<ele>78.0</ele>
				<time>2013-07-12T09:50:15</time>
			</trkpt>
			<trkpt lat="48.65061353892088" lon="2.9095337726175785">
				<ele>78.91</ele>
				<time>2013-07-12T09:50:20</time>
			</trkpt>
			<trkpt lat="48.65076617337763" lon="2.9099498502910137">
				<ele>79.39</ele>
				<time>2013-07-12T09:50:25</time>
			</trkpt>
			<trkpt lat="48.65091889165342" lon="2.910365844145417">
				<ele>79.75</ele>
				<time>2013-07-12T09:50:30</time>
			</trkpt>
			<trkpt lat="48.65107152611017" lon="2.9107819218188524">
				<ele>80.0</ele>
				<time>2013-07-12T09:50:35</time>
			</trkpt>
			<trkpt lat="48.65122424438596" lon="2.911197915673256">
				<ele>80.63</ele>
				<time>2013-07-12T09:50:40</time>
			</trkpt>
			<trkpt lat="48.65137687884271" lon="2.911613993346691">
				<ele>81.0</ele>
				<time>2013-07-12T09:50:45</time>
			</trkpt>
			<trkpt lat="48.6515295971185" lon="2.9120299872010946">
				<ele>81.0</ele>
				<time>2013-07-12T09:50:50</time>
			</trkpt>
			<trkpt lat="48.65168223157525" lon="2.91244606487453">
				<ele>83.27</ele>
				<time>2013-07-12T09:50:55</time>
			</trkpt>
			<trkpt lat="48.651834866032004" lon="2.9128620587289333">
				<ele>85.83</ele>
				<time>2013-07-12T09:51:00</time>
			</trkpt>
			<trkpt lat="48.65198758430779" lon="2.9132781364023685">
				<ele>86.74</ele>
				<time>2013-07-12T09:51:05</time>
			</trkpt>
			<trkpt lat="48.65214021876454" lon="2.913694130256772">
				<ele>86.65</ele>
				<time>2013-07-12T09:51:10</time>
			</trkpt>
			<trkpt lat="48.65229293704033" lon="2.9141102079302073">
				<ele>85.06</ele>
				<time>2013-07-12T09:51:15</time>
			</trkpt>
			<trkpt lat="48.65243920125067" lon="2.9145097732543945">
				<ele>84.74</ele>
				<time>2013-07-12T09:51:20</time>
			</trkpt>
			<trkpt lat="48.65252511575818" lon="2.914724685251713">
				<ele>84.7</ele>
				<time>2013-07-12T09:51:23</time>
			</trkpt>
			<trkpt lat="48.652610778808594" lon="2.9149389266967773">
				<ele>85.0</ele>
				<time>2013-07-12T09:51:26</time>
			</trkpt>
			<trkpt lat="48.65267523564398" lon="2.915197005495429">
				<ele>85.0</ele>
				<time>2013-07-12T09:51:28</time>
			</trkpt>
			<trkpt lat="48.65273952484131" lon="2.9154539108276367">
				<ele>85.06</ele>
				<time>2013-07-12T09:51:31</time>
			</trkpt>
			<trkpt lat="48.652832731604576" lon="2.915905611589551">
				<ele>83.87</ele>
				<time>2013-07-12T09:51:36</time>
			</trkpt>
			<trkpt lat="48.652925938367844" lon="2.9163573123514652">
				<ele>83.22</ele>
				<time>2013-07-12T09:51:41</time>
			</trkpt>
			<trkpt lat="48.65301914513111" lon="2.9168090131133795">
				<ele>82.47</ele>
				<time>2013-07-12T09:51:46</time>
			</trkpt>
			<trkpt lat="48.65311235189438" lon="2.9172607138752937">
				<ele>81.63</ele>
				<time>2013-07-12T09:51:51</time>
			</trkpt>
			<trkpt lat="48.653205558657646" lon="2.9177124984562397">
				<ele>81.91</ele>
				<time>2013-07-12T09:51:56</time>
			</trkpt>
			<trkpt lat="48.653297424316406" lon="2.9181575775146484">
				<ele>83.23</ele>
				<time>2013-07-12T09:52:01</time>
			</trkpt>
			<trkpt lat="48.653361881151795" lon="2.9184479266405106">
				<ele>84.0</ele>
				<time>2013-07-12T09:52:05</time>
			</trkpt>
			<trkpt lat="48.65342617034912" lon="2.9187369346618652">
				<ele>82.59</ele>
				<time>2013-07-12T09:52:08</time>
			</trkpt>
			<trkpt lat="48.65350135602057" lon="2.918973471969366">
				<ele>80.78</ele>
				<time>2013-07-12T09:52:11</time>
			</trkpt>
			<trkpt lat="48.653576374053955" lon="2.9192090034484863">
				<ele>79.54</ele>
				<time>2013-07-12T09:52:13</time>
			</trkpt>
			<trkpt lat="48.65373395383358" lon="2.9195768013596535">
				<ele>78.71</ele>
				<time>2013-07-12T09:52:18</time>
			</trkpt>
			<trkpt lat="48.65389161743224" lon="2.9199445992708206">
				<ele>78.52</ele>
				<time>2013-07-12T09:52:23</time>
			</trkpt>
			<trkpt lat="48.65404928103089" lon="2.9203124810010195">
				<ele>79.0</ele>
				<time>2013-07-12T09:52:27</time>
			</trkpt>
			<trkpt lat="48.65420694462955" lon="2.9206802789121866">
				<ele>79.05</ele>
				<time>2013-07-12T09:52:32</time>
			</trkpt>
			<trkpt lat="48.65436460822821" lon="2.9210481606423855">
				<ele>81.0</ele>
				<time>2013-07-12T09:52:37</time>
			</trkpt>
			<trkpt lat="48.65452227182686" lon="2.9214159585535526">
				<ele>80.19</ele>
				<time>2013-07-12T09:52:41</time>
			</trkpt>
			<trkpt lat="48.65467993542552" lon="2.9217838402837515">
				<ele>79.31</ele>
				<time>2013-07-12T09:52:46</time>
			</trkpt>
			<trkpt lat="48.654837515205145" lon="2.9221516381949186">
				<ele>79.32</ele>
				<time>2013-07-12T09:52:50</time>
			</trkpt>
			<trkpt lat="48.65499258041382" lon="2.922513484954834">
				<ele>80.62</ele>
				<time>2013-07-12T09:52:55</time>
			</trkpt>
			<trkpt lat="48.65499266423285" lon="2.922513484954834">
				<ele>80.62</ele>
				<time>2013-07-12T09:52:55</time>
			</trkpt>
			<trkpt lat="48.655078411102295" lon="2.922685146331787">
				<ele>81.12</ele>
				<time>2013-07-12T09:52:57</time>
			</trkpt>
			<trkpt lat="48.655099868774414" lon="2.9227709770202637">
				<ele>81.19</ele>
				<time>2013-07-12T09:52:58</time>
			</trkpt>
			<trkpt lat="48.655099952593446" lon="2.9227709770202637">
				<ele>81.21</ele>
				<time>2013-07-12T09:52:58</time>
			</trkpt>
			<trkpt lat="48.655271865427494" lon="2.9231650102883577">
				<ele>81.14</ele>
				<time>2013-07-12T09:53:03</time>
			</trkpt>
			<trkpt lat="48.655443862080574" lon="2.9235591273754835">
				<ele>80.11</ele>
				<time>2013-07-12T09:53:08</time>
			</trkpt>
			<trkpt lat="48.65561577491462" lon="2.9239532444626093">
				<ele>79.32</ele>
				<time>2013-07-12T09:53:13</time>
			</trkpt>
			<trkpt lat="48.6557877715677" lon="2.924347361549735">
				<ele>79.45</ele>
				<time>2013-07-12T09:53:18</time>
			</trkpt>
			<trkpt lat="48.65595976822078" lon="2.924741478636861">
				<ele>78.35</ele>
				<time>2013-07-12T09:53:23</time>
			</trkpt>
			<trkpt lat="48.65612983703613" lon="2.925131320953369">
				<ele>77.0</ele>
				<time>2013-07-12T09:53:28</time>
			</trkpt>
			<trkpt lat="48.65628029219806" lon="2.9254752304404974">
				<ele>77.73</ele>
				<time>2013-07-12T09:53:33</time>
			</trkpt>
			<trkpt lat="48.6564302444458" lon="2.9258179664611816">
				<ele>79.51</ele>
				<time>2013-07-12T09:53:37</time>
			</trkpt>
			<trkpt lat="48.65659142844379" lon="2.9261080641299486">
				<ele>79.42</ele>
				<time>2013-07-12T09:53:41</time>
			</trkpt>
			<trkpt lat="48.65675219334662" lon="2.9263973236083984">
				<ele>78.84</ele>
				<time>2013-07-12T09:53:45</time>
			</trkpt>
			<trkpt lat="48.65695889107883" lon="2.926703430712223">
				<ele>78.8</ele>
				<time>2013-07-12T09:53:50</time>
			</trkpt>
			<trkpt lat="48.65716567263007" lon="2.9270095378160477">
				<ele>79.16</ele>
				<time>2013-07-12T09:53:54</time>
			</trkpt>
			<trkpt lat="48.65737245418131" lon="2.927315728738904">
				<ele>79.9</ele>
				<time>2013-07-12T09:53:59</time>
			</trkpt>
			<trkpt lat="48.657579235732555" lon="2.9276218358427286">
				<ele>81.0</ele>
				<time>2013-07-12T09:54:03</time>
			</trkpt>
			<trkpt lat="48.6577860172838" lon="2.9279279429465532">
				<ele>81.11</ele>
				<time>2013-07-12T09:54:08</time>
			</trkpt>
			<trkpt lat="48.65799279883504" lon="2.9282341338694096">
				<ele>81.38</ele>
				<time>2013-07-12T09:54:13</time>
			</trkpt>
			<trkpt lat="48.65819958038628" lon="2.928540240973234">
				<ele>81.0</ele>
				<time>2013-07-12T09:54:17</time>
			</trkpt>
			<trkpt lat="48.65840435028076" lon="2.9288434982299805">
				<ele>81.1</ele>
				<time>2013-07-12T09:54:22</time>
			</trkpt>
			<trkpt lat="48.65857626311481" lon="2.929144324734807">
				<ele>82.7</ele>
				<time>2013-07-12T09:54:26</time>
			</trkpt>
			<trkpt lat="48.65874767303467" lon="2.9294443130493164">
				<ele>85.81</ele>
				<time>2013-07-12T09:54:30</time>
			</trkpt>
			<trkpt lat="48.65889200940728" lon="2.9298251029103994">
				<ele>90.53</ele>
				<time>2013-07-12T09:54:35</time>
			</trkpt>
			<trkpt lat="48.659036345779896" lon="2.930205976590514">
				<ele>95.3</ele>
				<time>2013-07-12T09:54:40</time>
			</trkpt>
			<trkpt lat="48.65918068215251" lon="2.930586850270629">
				<ele>99.13</ele>
				<time>2013-07-12T09:54:44</time>
			</trkpt>
			<trkpt lat="48.659325102344155" lon="2.9309677239507437">
				<ele>101.76</ele>
				<time>2013-07-12T09:54:49</time>
			</trkpt>
			<trkpt lat="48.65946943871677" lon="2.9313485976308584">
				<ele>101.57</ele>
				<time>2013-07-12T09:54:54</time>
			</trkpt>
			<trkpt lat="48.65961377508938" lon="2.931729471310973">
				<ele>100.2</ele>
				<time>2013-07-12T09:54:58</time>
			</trkpt>
			<trkpt lat="48.65975618362427" lon="2.93210506439209">
				<ele>99.96</ele>
				<time>2013-07-12T09:55:03</time>
			</trkpt>
			<trkpt lat="48.65989230573177" lon="2.9323916416615248">
				<ele>100.63</ele>
				<time>2013-07-12T09:55:07</time>
			</trkpt>
			<trkpt lat="48.66002842783928" lon="2.9326782189309597">
				<ele>102.14</ele>
				<time>2013-07-12T09:55:10</time>
			</trkpt>
			<trkpt lat="48.66016387939453" lon="2.9329633712768555">
				<ele>103.66</ele>
				<time>2013-07-12T09:55:14</time>
			</trkpt>
			<trkpt lat="48.66030352190137" lon="2.933178199455142">
				<ele>105.0</ele>
				<time>2013-07-12T09:55:17</time>
			</trkpt>
			<trkpt lat="48.66044282913208" lon="2.9333925247192383">
				<ele>105.34</ele>
				<time>2013-07-12T09:55:20</time>
			</trkpt>
			<trkpt lat="48.660603845492005" lon="2.9335749987512827">
				<ele>104.56</ele>
				<time>2013-07-12T09:55:24</time>
			</trkpt>
			<trkpt lat="48.66076469421387" lon="2.9337573051452637">
				<ele>104.0</ele>
				<time>2013-07-12T09:55:27</time>
			</trkpt>
			<trkpt lat="48.66094708442688" lon="2.933875322341919">
				<ele>104.24</ele>
				<time>2013-07-12T09:55:30</time>
			</trkpt>
			<trkpt lat="48.66112947463989" lon="2.933993339538574">
				<ele>104.9</ele>
				<time>2013-07-12T09:55:33</time>
			</trkpt>
			<trkpt lat="48.66137615405023" lon="2.9340683575719595">
				<ele>105.0</ele>
				<time>2013-07-12T09:55:37</time>
			</trkpt>
			<trkpt lat="48.66162300109863" lon="2.934143543243408">
				<ele>106.34</ele>
				<time>2013-07-12T09:55:41</time>
			</trkpt>
			<trkpt lat="48.66185903549194" lon="2.934250831604004">
				<ele>107.52</ele>
				<time>2013-07-12T09:55:45</time>
			</trkpt>
			<trkpt lat="48.662095069885254" lon="2.9343581199645996">
				<ele>108.49</ele>
				<time>2013-07-12T09:55:49</time>
			</trkpt>
			<trkpt lat="48.66224527359009" lon="2.9344546794891357">
				<ele>109.24</ele>
				<time>2013-07-12T09:55:52</time>
			</trkpt>
			<trkpt lat="48.66239547729492" lon="2.934551239013672">
				<ele>109.51</ele>
				<time>2013-07-12T09:55:54</time>
			</trkpt>
			<trkpt lat="48.662620950490236" lon="2.9347766283899546">
				<ele>109.5</ele>
				<time>2013-07-12T09:55:59</time>
			</trkpt>
			<trkpt lat="48.662846172228456" lon="2.935001850128174">
				<ele>109.34</ele>
				<time>2013-07-12T09:56:03</time>
			</trkpt>
			<trkpt lat="48.66308237425983" lon="2.935259509831667">
				<ele>108.06</ele>
				<time>2013-07-12T09:56:08</time>
			</trkpt>
			<trkpt lat="48.66331824101508" lon="2.935516834259033">
				<ele>106.43</ele>
				<time>2013-07-12T09:56:12</time>
			</trkpt>
			<trkpt lat="48.6635329015553" lon="2.935753036290407">
				<ele>105.17</ele>
				<time>2013-07-12T09:56:17</time>
			</trkpt>
			<trkpt lat="48.663747645914555" lon="2.935989238321781">
				<ele>104.19</ele>
				<time>2013-07-12T09:56:21</time>
			</trkpt>
			<trkpt lat="48.66396188735962" lon="2.936224937438965">
				<ele>104.13</ele>
				<time>2013-07-12T09:56:25</time>
			</trkpt>
			<trkpt lat="48.664147881790996" lon="2.936389474198222">
				<ele>104.19</ele>
				<time>2013-07-12T09:56:28</time>
			</trkpt>
			<trkpt lat="48.664333960041404" lon="2.936554094776511">
				<ele>104.0</ele>
				<time>2013-07-12T09:56:32</time>
			</trkpt>
			<trkpt lat="48.66451978683472" lon="2.936718463897705">
				<ele>104.0</ele>
				<time>2013-07-12T09:56:35</time>
			</trkpt>
			<trkpt lat="48.66477727890015" lon="2.9369008541107178">
				<ele>104.0</ele>
				<time>2013-07-12T09:56:40</time>
			</trkpt>
			<trkpt lat="48.665034770965576" lon="2.9370832443237305">
				<ele>104.0</ele>
				<time>2013-07-12T09:56:44</time>
			</trkpt>
			<trkpt lat="48.66528161801398" lon="2.9372763633728027">
				<ele>103.14</ele>
				<time>2013-07-12T09:56:49</time>
			</trkpt>
			<trkpt lat="48.665528297424316" lon="2.937469482421875">
				<ele>102.71</ele>
				<time>2013-07-12T09:56:53</time>
			</trkpt>
			<trkpt lat="48.66576449945569" lon="2.9377164132893085">
				<ele>103.0</ele>
				<time>2013-07-12T09:56:58</time>
			</trkpt>
			<trkpt lat="48.66600036621094" lon="2.9379630088806152">
				<ele>103.0</ele>
				<time>2013-07-12T09:57:03</time>
			</trkpt>
			<trkpt lat="48.66619365289807" lon="2.9382314812391996">
				<ele>103.05</ele>
				<time>2013-07-12T09:57:07</time>
			</trkpt>
			<trkpt lat="48.66638660430908" lon="2.9384994506835938">
				<ele>103.17</ele>
				<time>2013-07-12T09:57:11</time>
			</trkpt>
			<trkpt lat="48.66655851714313" lon="2.9388325475156307">
				<ele>102.56</ele>
				<time>2013-07-12T09:57:15</time>
			</trkpt>
			<trkpt lat="48.66672992706299" lon="2.939164638519287">
				<ele>101.94</ele>
				<time>2013-07-12T09:57:20</time>
			</trkpt>
			<trkpt lat="48.66689111106098" lon="2.939503099769354">
				<ele>101.35</ele>
				<time>2013-07-12T09:57:24</time>
			</trkpt>
			<trkpt lat="48.667052295058966" lon="2.9398416448384523">
				<ele>101.0</ele>
				<time>2013-07-12T09:57:29</time>
			</trkpt>
			<trkpt lat="48.667213479056954" lon="2.940180189907551">
				<ele>100.79</ele>
				<time>2013-07-12T09:57:33</time>
			</trkpt>
			<trkpt lat="48.66737365722656" lon="2.940516471862793">
				<ele>100.0</ele>
				<time>2013-07-12T09:57:37</time>
			</trkpt>
			<trkpt lat="48.66758127696812" lon="2.940795673057437">
				<ele>100.0</ele>
				<time>2013-07-12T09:57:42</time>
			</trkpt>
			<trkpt lat="48.66778889670968" lon="2.9410749580711126">
				<ele>100.0</ele>
				<time>2013-07-12T09:57:46</time>
			</trkpt>
			<trkpt lat="48.66799592971802" lon="2.9413533210754395">
				<ele>100.43</ele>
				<time>2013-07-12T09:57:51</time>
			</trkpt>
			<trkpt lat="48.668157113716006" lon="2.941654147580266">
				<ele>100.67</ele>
				<time>2013-07-12T09:57:55</time>
			</trkpt>
			<trkpt lat="48.668318297713995" lon="2.9419550579041243">
				<ele>100.78</ele>
				<time>2013-07-12T09:57:59</time>
			</trkpt>
			<trkpt lat="48.668479481711984" lon="2.942255884408951">
				<ele>101.0</ele>
				<time>2013-07-12T09:58:03</time>
			</trkpt>
			<trkpt lat="48.66863965988159" lon="2.9425549507141113">
				<ele>101.0</ele>
				<time>2013-07-12T09:58:07</time>
			</trkpt>
			<trkpt lat="48.66879003122449" lon="2.9427805077284575">
				<ele>101.0</ele>
				<time>2013-07-12T09:58:11</time>
			</trkpt>
			<trkpt lat="48.66894006729126" lon="2.9430055618286133">
				<ele>100.6</ele>
				<time>2013-07-12T09:58:14</time>
			</trkpt>
			<trkpt lat="48.66918339394033" lon="2.9427442979067564">
				<ele>99.11</ele>
				<time>2013-07-12T09:58:19</time>
			</trkpt>
			<trkpt lat="48.66942680440843" lon="2.942482950165868">
				<ele>98.23</ele>
				<time>2013-07-12T09:58:23</time>
			</trkpt>
			<trkpt lat="48.6696701310575" lon="2.942221686244011">
				<ele>97.8</ele>
				<time>2013-07-12T09:58:28</time>
			</trkpt>
			<trkpt lat="48.6699135415256" lon="2.941960422322154">
				<ele>97.34</ele>
				<time>2013-07-12T09:58:33</time>
			</trkpt>
			<trkpt lat="48.67015686817467" lon="2.941699158400297">
				<ele>97.64</ele>
				<time>2013-07-12T09:58:38</time>
			</trkpt>
			<trkpt lat="48.67039918899536" lon="2.941439151763916">
				<ele>99.26</ele>
				<time>2013-07-12T09:58:43</time>
			</trkpt>
			<trkpt lat="48.67062105797231" lon="2.941224407404661">
				<ele>101.0</ele>
				<time>2013-07-12T09:58:47</time>
			</trkpt>
			<trkpt lat="48.67084292694926" lon="2.9410096630454063">
				<ele>101.66</ele>
				<time>2013-07-12T09:58:51</time>
			</trkpt>
			<trkpt lat="48.671064460650086" lon="2.940795421600342">
				<ele>102.57</ele>
				<time>2013-07-12T09:58:55</time>
			</trkpt>
			<trkpt lat="48.671321868896484" lon="2.9406558629125357">
				<ele>103.07</ele>
				<time>2013-07-12T09:59:00</time>
			</trkpt>
			<trkpt lat="48.671579360961914" lon="2.940516471862793">
				<ele>103.07</ele>
				<time>2013-07-12T09:59:04</time>
			</trkpt>
			<trkpt lat="48.671829644590616" lon="2.940423432737589">
				<ele>102.17</ele>
				<time>2013-07-12T09:59:08</time>
			</trkpt>
			<trkpt lat="48.67208001203835" lon="2.9403304774314165">
				<ele>100.68</ele>
				<time>2013-07-12T09:59:12</time>
			</trkpt>
			<trkpt lat="48.672330379486084" lon="2.940237522125244">
				<ele>99.57</ele>
				<time>2013-07-12T09:59:16</time>
			</trkpt>
			<trkpt lat="48.67255208082497" lon="2.9401301499456167">
				<ele>98.92</ele>
				<time>2013-07-12T09:59:20</time>
			</trkpt>
			<trkpt lat="48.67277386598289" lon="2.940022861585021">
				<ele>96.36</ele>
				<time>2013-07-12T09:59:24</time>
			</trkpt>
			<trkpt lat="48.67299565114081" lon="2.939915657043457">
				<ele>93.79</ele>
				<time>2013-07-12T09:59:28</time>
			</trkpt>
			<trkpt lat="48.67313537746668" lon="2.9395608510822058">
				<ele>91.8</ele>
				<time>2013-07-12T09:59:32</time>
			</trkpt>
			<trkpt lat="48.67327460087836" lon="2.9392075538635254">
				<ele>91.14</ele>
				<time>2013-07-12T09:59:36</time>
			</trkpt>
			<trkpt lat="48.673414159566164" lon="2.939057182520628">
				<ele>90.61</ele>
				<time>2013-07-12T09:59:39</time>
			</trkpt>
			<trkpt lat="48.67355355061591" lon="2.9389071464538574">
				<ele>88.77</ele>
				<time>2013-07-12T09:59:42</time>
			</trkpt>
			<trkpt lat="48.673553466796875" lon="2.9389071464538574">
				<ele>88.77</ele>
				<time>2013-07-12T09:59:42</time>
			</trkpt>
			<trkpt lat="48.67379662580788" lon="2.938778316602111">
				<ele>87.0</ele>
				<time>2013-07-12T09:59:46</time>
			</trkpt>
			<trkpt lat="48.67403986863792" lon="2.938649570569396">
				<ele>85.24</ele>
				<time>2013-07-12T09:59:50</time>
			</trkpt>
			<trkpt lat="48.67428311146796" lon="2.938520908355713">
				<ele>83.75</ele>
				<time>2013-07-12T09:59:54</time>
			</trkpt>
			<trkpt lat="48.67447623051703" lon="2.9384350776672363">
				<ele>82.11</ele>
				<time>2013-07-12T09:59:57</time>
			</trkpt>
			<trkpt lat="48.67474076338112" lon="2.9383349139243364">
				<ele>82.88</ele>
				<time>2013-07-12T10:00:02</time>
			</trkpt>
			<trkpt lat="48.67500538006425" lon="2.9382347501814365">
				<ele>84.49</ele>
				<time>2013-07-12T10:00:06</time>
			</trkpt>
			<trkpt lat="48.675270080566406" lon="2.9381346702575684">
				<ele>85.0</ele>
				<time>2013-07-12T10:00:10</time>
			</trkpt>
			<trkpt lat="48.675506031140685" lon="2.938070297241211">
				<ele>85.64</ele>
				<time>2013-07-12T10:00:14</time>
			</trkpt>
			<trkpt lat="48.675742065533996" lon="2.9380059242248535">
				<ele>86.49</ele>
				<time>2013-07-12T10:00:18</time>
			</trkpt>
			<trkpt lat="48.675978099927306" lon="2.937941551208496">
				<ele>87.35</ele>
				<time>2013-07-12T10:00:22</time>
			</trkpt>
			<trkpt lat="48.67621430195868" lon="2.9378771781921387">
				<ele>88.4</ele>
				<time>2013-07-12T10:00:26</time>
			</trkpt>
			<trkpt lat="48.676300048828125" lon="2.937769889831543">
				<ele>89.0</ele>
				<time>2013-07-12T10:00:28</time>
			</trkpt>
			<trkpt lat="48.6764931678772" lon="2.9374265670776367">
				<ele>89.7</ele>
				<time>2013-07-12T10:00:32</time>
			</trkpt>
			<trkpt lat="48.67666491307318" lon="2.9372119903564453">
				<ele>90.64</ele>
				<time>2013-07-12T10:00:36</time>
			</trkpt>
			<trkpt lat="48.67692240513861" lon="2.93705633841455">
				<ele>92.48</ele>
				<time>2013-07-12T10:00:40</time>
			</trkpt>
			<trkpt lat="48.67717989720404" lon="2.936900770291686">
				<ele>95.02</ele>
				<time>2013-07-12T10:00:45</time>
			</trkpt>
			<trkpt lat="48.6774374730885" lon="2.9367451183497906">
				<ele>96.44</ele>
				<time>2013-07-12T10:00:49</time>
			</trkpt>
			<trkpt lat="48.67769479751587" lon="2.9365897178649902">
				<ele>97.52</ele>
				<time>2013-07-12T10:00:54</time>
			</trkpt>
			<trkpt lat="48.6779710650444" lon="2.93643138371408">
				<ele>98.23</ele>
				<time>2013-07-12T10:00:58</time>
			</trkpt>
			<trkpt lat="48.67824741639197" lon="2.936273133382201">
				<ele>98.65</ele>
				<time>2013-07-12T10:01:03</time>
			</trkpt>
			<trkpt lat="48.6785236839205" lon="2.9361148830503225">
				<ele>99.5</ele>
				<time>2013-07-12T10:01:08</time>
			</trkpt>
			<trkpt lat="48.67880003526807" lon="2.935956632718444">
				<ele>100.49</ele>
				<time>2013-07-12T10:01:13</time>
			</trkpt>
			<trkpt lat="48.6790763027966" lon="2.9357982985675335">
				<ele>101.93</ele>
				<time>2013-07-12T10:01:17</time>
			</trkpt>
			<trkpt lat="48.67935265414417" lon="2.935640048235655">
				<ele>102.84</ele>
				<time>2013-07-12T10:01:22</time>
			</trkpt>
			<trkpt lat="48.6796289216727" lon="2.935481797903776">
				<ele>102.59</ele>
				<time>2013-07-12T10:01:27</time>
			</trkpt>
			<trkpt lat="48.67990493774414" lon="2.935323715209961">
				<ele>102.2</ele>
				<time>2013-07-12T10:01:32</time>
			</trkpt>
			<trkpt lat="48.68018388748169" lon="2.9352378845214844">
				<ele>102.9</ele>
				<time>2013-07-12T10:01:36</time>
			</trkpt>
			<trkpt lat="48.680312633514404" lon="2.9352378845214844">
				<ele>103.36</ele>
				<time>2013-07-12T10:01:38</time>
			</trkpt>
			<trkpt lat="48.680605832487345" lon="2.9353415686637163">
				<ele>103.79</ele>
				<time>2013-07-12T10:01:43</time>
			</trkpt>
			<trkpt lat="48.680899031460285" lon="2.9354452528059483">
				<ele>104.1</ele>
				<time>2013-07-12T10:01:48</time>
			</trkpt>
			<trkpt lat="48.68119231425226" lon="2.93554893694818">
				<ele>103.89</ele>
				<time>2013-07-12T10:01:53</time>
			</trkpt>
			<trkpt lat="48.6814855132252" lon="2.935652621090412">
				<ele>103.08</ele>
				<time>2013-07-12T10:01:57</time>
			</trkpt>
			<trkpt lat="48.68177879601717" lon="2.935756389051676">
				<ele>102.71</ele>
				<time>2013-07-12T10:02:02</time>
			</trkpt>
			<trkpt lat="48.682072162628174" lon="2.9358601570129395">
				<ele>102.89</ele>
				<time>2013-07-12T10:02:07</time>
			</trkpt>
			<trkpt lat="48.682343903928995" lon="2.935953112319112">
				<ele>104.0</ele>
				<time>2013-07-12T10:02:12</time>
			</trkpt>
			<trkpt lat="48.682615645229816" lon="2.936046067625284">
				<ele>104.56</ele>
				<time>2013-07-12T10:02:16</time>
			</trkpt>
			<trkpt lat="48.6828875541687" lon="2.9361391067504883">
				<ele>105.66</ele>
				<time>2013-07-12T10:02:20</time>
			</trkpt>
			<trkpt lat="48.68312358856201" lon="2.936267852783203">
				<ele>106.0</ele>
				<time>2013-07-12T10:02:24</time>
			</trkpt>
			<trkpt lat="48.68335962295532" lon="2.936396598815918">
				<ele>106.0</ele>
				<time>2013-07-12T10:02:28</time>
			</trkpt>
			<trkpt lat="48.68360638618469" lon="2.9365575313568115">
				<ele>105.82</ele>
				<time>2013-07-12T10:02:33</time>
			</trkpt>
			<trkpt lat="48.68385314941406" lon="2.936718463897705">
				<ele>105.25</ele>
				<time>2013-07-12T10:02:37</time>
			</trkpt>
			<trkpt lat="48.68402489461005" lon="2.9369544982910156">
				<ele>105.61</ele>
				<time>2013-07-12T10:02:41</time>
			</trkpt>
			<trkpt lat="48.68421792984009" lon="2.9369330406188965">
				<ele>106.52</ele>
				<time>2013-07-12T10:02:44</time>
			</trkpt>
			<trkpt lat="48.68445388041437" lon="2.9370187874883413">
				<ele>106.84</ele>
				<time>2013-07-12T10:02:48</time>
			</trkpt>
			<trkpt lat="48.68468991480768" lon="2.937104618176818">
				<ele>106.44</ele>
				<time>2013-07-12T10:02:52</time>
			</trkpt>
			<trkpt lat="48.68492603302002" lon="2.937190532684326">
				<ele>105.9</ele>
				<time>2013-07-12T10:02:56</time>
			</trkpt>
			<trkpt lat="48.68492611683905" lon="2.937190532684326">
				<ele>105.9</ele>
				<time>2013-07-12T10:02:56</time>
			</trkpt>
			<trkpt lat="48.685054862871766" lon="2.9372119903564453">
				<ele>105.52</ele>
				<time>2013-07-12T10:02:58</time>
			</trkpt>
			<trkpt lat="48.68520498275757" lon="2.9372334480285645">
				<ele>105.6</ele>
				<time>2013-07-12T10:03:00</time>
			</trkpt>
			<trkpt lat="48.685466665774584" lon="2.937267730012536">
				<ele>106.49</ele>
				<time>2013-07-12T10:03:04</time>
			</trkpt>
			<trkpt lat="48.68572843261063" lon="2.9373020958155394">
				<ele>107.0</ele>
				<time>2013-07-12T10:03:08</time>
			</trkpt>
			<trkpt lat="48.685990115627646" lon="2.937336377799511">
				<ele>107.37</ele>
				<time>2013-07-12T10:03:13</time>
			</trkpt>
			<trkpt lat="48.686251882463694" lon="2.9373707436025143">
				<ele>108.32</ele>
				<time>2013-07-12T10:03:17</time>
			</trkpt>
			<trkpt lat="48.686513900756836" lon="2.9374051094055176">
				<ele>108.95</ele>
				<time>2013-07-12T10:03:21</time>
			</trkpt>
			<trkpt lat="48.68679276667535" lon="2.9374970588833094">
				<ele>108.55</ele>
				<time>2013-07-12T10:03:26</time>
			</trkpt>
			<trkpt lat="48.6870717164129" lon="2.937589008361101">
				<ele>108.88</ele>
				<time>2013-07-12T10:03:30</time>
			</trkpt>
			<trkpt lat="48.68735066615045" lon="2.937680957838893">
				<ele>109.0</ele>
				<time>2013-07-12T10:03:35</time>
			</trkpt>
			<trkpt lat="48.687629615888" lon="2.9377729073166847">
				<ele>108.72</ele>
				<time>2013-07-12T10:03:39</time>
			</trkpt>
			<trkpt lat="48.68790848180652" lon="2.9378648567944765">
				<ele>107.71</ele>
				<time>2013-07-12T10:03:44</time>
			</trkpt>
			<trkpt lat="48.688187431544065" lon="2.9379568062722683">
				<ele>106.71</ele>
				<time>2013-07-12T10:03:49</time>
			</trkpt>
			<trkpt lat="48.68846654891968" lon="2.938048839569092">
				<ele>105.71</ele>
				<time>2013-07-12T10:03:53</time>
			</trkpt>
			<trkpt lat="48.68867039680481" lon="2.9381346702575684">
				<ele>105.0</ele>
				<time>2013-07-12T10:03:56</time>
			</trkpt>
			<trkpt lat="48.68887424468994" lon="2.938220500946045">
				<ele>105.0</ele>
				<time>2013-07-12T10:04:00</time>
			</trkpt>
			<trkpt lat="48.68914095684886" lon="2.9383737221360207">
				<ele>104.29</ele>
				<time>2013-07-12T10:04:04</time>
			</trkpt>
			<trkpt lat="48.68940766900778" lon="2.938527027145028">
				<ele>104.0</ele>
				<time>2013-07-12T10:04:09</time>
			</trkpt>
			<trkpt lat="48.6896743811667" lon="2.9386803321540356">
				<ele>104.0</ele>
				<time>2013-07-12T10:04:14</time>
			</trkpt>
			<trkpt lat="48.689941093325615" lon="2.938833637163043">
				<ele>103.03</ele>
				<time>2013-07-12T10:04:18</time>
			</trkpt>
			<trkpt lat="48.690207889303565" lon="2.9389869421720505">
				<ele>102.08</ele>
				<time>2013-07-12T10:04:23</time>
			</trkpt>
			<trkpt lat="48.69047460146248" lon="2.939140247181058">
				<ele>102.0</ele>
				<time>2013-07-12T10:04:27</time>
			</trkpt>
			<trkpt lat="48.69074106216431" lon="2.939293384552002">
				<ele>102.46</ele>
				<time>2013-07-12T10:04:32</time>
			</trkpt>
			<trkpt lat="48.69074114598334" lon="2.939293384552002">
				<ele>102.46</ele>
				<time>2013-07-12T10:04:32</time>
			</trkpt>
			<trkpt lat="48.691013641655445" lon="2.9394242260605097">
				<ele>102.51</ele>
				<time>2013-07-12T10:04:36</time>
			</trkpt>
			<trkpt lat="48.69128613732755" lon="2.939555151388049">
				<ele>101.55</ele>
				<time>2013-07-12T10:04:41</time>
			</trkpt>
			<trkpt lat="48.69155863299966" lon="2.939685992896557">
				<ele>100.57</ele>
				<time>2013-07-12T10:04:46</time>
			</trkpt>
			<trkpt lat="48.6918312124908" lon="2.9398169182240963">
				<ele>99.6</ele>
				<time>2013-07-12T10:04:50</time>
			</trkpt>
			<trkpt lat="48.692103708162904" lon="2.9399478435516357">
				<ele>99.01</ele>
				<time>2013-07-12T10:04:55</time>
			</trkpt>
			<trkpt lat="48.69237620383501" lon="2.9400786850601435">
				<ele>99.87</ele>
				<time>2013-07-12T10:04:59</time>
			</trkpt>
			<trkpt lat="48.69264878332615" lon="2.940209610387683">
				<ele>101.03</ele>
				<time>2013-07-12T10:05:04</time>
			</trkpt>
			<trkpt lat="48.692921278998256" lon="2.9403405357152224">
				<ele>100.89</ele>
				<time>2013-07-12T10:05:08</time>
			</trkpt>
			<trkpt lat="48.69319377467036" lon="2.94047137722373">
				<ele>99.74</ele>
				<time>2013-07-12T10:05:13</time>
			</trkpt>
			<trkpt lat="48.69346618652344" lon="2.9406023025512695">
				<ele>99.55</ele>
				<time>2013-07-12T10:05:18</time>
			</trkpt>
			<trkpt lat="48.693766593933105" lon="2.9407310485839844">
				<ele>99.8</ele>
				<time>2013-07-12T10:05:23</time>
			</trkpt>
			<trkpt lat="48.69399416260421" lon="2.9409457091242075">
				<ele>99.21</ele>
				<time>2013-07-12T10:05:27</time>
			</trkpt>
			<trkpt lat="48.69422173127532" lon="2.9411604534834623">
				<ele>100.73</ele>
				<time>2013-07-12T10:05:31</time>
			</trkpt>
			<trkpt lat="48.69444929994643" lon="2.9413751140236855">
				<ele>102.33</ele>
				<time>2013-07-12T10:05:35</time>
			</trkpt>
			<trkpt lat="48.694676952436566" lon="2.9415898583829403">
				<ele>102.64</ele>
				<time>2013-07-12T10:05:40</time>
			</trkpt>
			<trkpt lat="48.69490385055542" lon="2.9418039321899414">
				<ele>102.53</ele>
				<time>2013-07-12T10:05:44</time>
			</trkpt>
			<trkpt lat="48.69511314667761" lon="2.9420239571481943">
				<ele>101.78</ele>
				<time>2013-07-12T10:05:48</time>
			</trkpt>
			<trkpt lat="48.69532252661884" lon="2.942244065925479">
				<ele>100.39</ele>
				<time>2013-07-12T10:05:52</time>
			</trkpt>
			<trkpt lat="48.69553190656006" lon="2.9424641747027636">
				<ele>100.72</ele>
				<time>2013-07-12T10:05:56</time>
			</trkpt>
			<trkpt lat="48.695740699768066" lon="2.942683696746826">
				<ele>101.46</ele>
				<time>2013-07-12T10:06:00</time>
			</trkpt>
			<trkpt lat="48.695948235690594" lon="2.942927023395896">
				<ele>101.9</ele>
				<time>2013-07-12T10:06:05</time>
			</trkpt>
			<trkpt lat="48.69615585543215" lon="2.9431704338639975">
				<ele>101.03</ele>
				<time>2013-07-12T10:06:09</time>
			</trkpt>
			<trkpt lat="48.69636297225952" lon="2.943413257598877">
				<ele>99.45</ele>
				<time>2013-07-12T10:06:13</time>
			</trkpt>
			<trkpt lat="48.69636305607855" lon="2.943413257598877">
				<ele>99.45</ele>
				<time>2013-07-12T10:06:13</time>
			</trkpt>
			<trkpt lat="48.69656162336469" lon="2.9436548240482807">
				<ele>99.0</ele>
				<time>2013-07-12T10:06:17</time>
			</trkpt>
			<trkpt lat="48.69676027446985" lon="2.943896474316716">
				<ele>100.16</ele>
				<time>2013-07-12T10:06:21</time>
			</trkpt>
			<trkpt lat="48.69695892557502" lon="2.9441381245851517">
				<ele>101.45</ele>
				<time>2013-07-12T10:06:25</time>
			</trkpt>
			<trkpt lat="48.69715690612793" lon="2.9443788528442383">
				<ele>102.0</ele>
				<time>2013-07-12T10:06:29</time>
			</trkpt>
			<trkpt lat="48.697334099560976" lon="2.9446635022759438">
				<ele>102.0</ele>
				<time>2013-07-12T10:06:33</time>
			</trkpt>
			<trkpt lat="48.697511376813054" lon="2.944948235526681">
				<ele>102.0</ele>
				<time>2013-07-12T10:06:38</time>
			</trkpt>
			<trkpt lat="48.69768865406513" lon="2.9452328849583864">
				<ele>102.87</ele>
				<time>2013-07-12T10:06:42</time>
			</trkpt>
			<trkpt lat="48.69786500930786" lon="2.9455161094665527">
				<ele>104.0</ele>
				<time>2013-07-12T10:06:46</time>
			</trkpt>
			<trkpt lat="48.6980046518147" lon="2.94579547829926">
				<ele>104.41</ele>
				<time>2013-07-12T10:06:49</time>
			</trkpt>
			<trkpt lat="48.69814395904541" lon="2.9460740089416504">
				<ele>105.0</ele>
				<time>2013-07-12T10:06:53</time>
			</trkpt>
			<trkpt lat="48.69825141504407" lon="2.946407273411751">
				<ele>104.88</ele>
				<time>2013-07-12T10:06:57</time>
			</trkpt>
			<trkpt lat="48.6983585357666" lon="2.9467391967773438">
				<ele>104.88</ele>
				<time>2013-07-12T10:07:01</time>
			</trkpt>
			<trkpt lat="48.698469595983624" lon="2.9471513349562883">
				<ele>103.7</ele>
				<time>2013-07-12T10:07:06</time>
			</trkpt>
			<trkpt lat="48.69858074001968" lon="2.9475635569542646">
				<ele>103.0</ele>
				<time>2013-07-12T10:07:10</time>
			</trkpt>
			<trkpt lat="48.698691884055734" lon="2.947975778952241">
				<ele>102.82</ele>
				<time>2013-07-12T10:07:15</time>
			</trkpt>
			<trkpt lat="48.69880302809179" lon="2.9483880009502172">
				<ele>102.49</ele>
				<time>2013-07-12T10:07:20</time>
			</trkpt>
			<trkpt lat="48.69891417212784" lon="2.9488002229481936">
				<ele>102.89</ele>
				<time>2013-07-12T10:07:25</time>
			</trkpt>
			<trkpt lat="48.699025232344866" lon="2.94921244494617">
				<ele>103.0</ele>
				<time>2013-07-12T10:07:29</time>
			</trkpt>
			<trkpt lat="48.69913637638092" lon="2.949624666944146">
				<ele>102.31</ele>
				<time>2013-07-12T10:07:34</time>
			</trkpt>
			<trkpt lat="48.699247520416975" lon="2.9500368889421225">
				<ele>101.8</ele>
				<time>2013-07-12T10:07:39</time>
			</trkpt>
			<trkpt lat="48.69935866445303" lon="2.9504491109400988">
				<ele>100.5</ele>
				<time>2013-07-12T10:07:43</time>
			</trkpt>
			<trkpt lat="48.699469808489084" lon="2.9508612491190434">
				<ele>99.35</ele>
				<time>2013-07-12T10:07:48</time>
			</trkpt>
			<trkpt lat="48.69958086870611" lon="2.9512734711170197">
				<ele>99.13</ele>
				<time>2013-07-12T10:07:53</time>
			</trkpt>
			<trkpt lat="48.69968891143799" lon="2.951674461364746">
				<ele>100.25</ele>
				<time>2013-07-12T10:07:57</time>
			</trkpt>
			<trkpt lat="48.69974263943732" lon="2.951932540163398">
				<ele>100.73</ele>
				<time>2013-07-12T10:08:00</time>
			</trkpt>
			<trkpt lat="48.699796199798584" lon="2.9521894454956055">
				<ele>101.42</ele>
				<time>2013-07-12T10:08:03</time>
			</trkpt>
			<trkpt lat="48.699844563379884" lon="2.9525981470942497">
				<ele>102.0</ele>
				<time>2013-07-12T10:08:07</time>
			</trkpt>
			<trkpt lat="48.699893010780215" lon="2.9530069325119257">
				<ele>102.74</ele>
				<time>2013-07-12T10:08:12</time>
			</trkpt>
			<trkpt lat="48.699941374361515" lon="2.9534157179296017">
				<ele>104.42</ele>
				<time>2013-07-12T10:08:16</time>
			</trkpt>
			<trkpt lat="48.699989318847656" lon="2.95382022857666">
				<ele>105.0</ele>
				<time>2013-07-12T10:08:21</time>
			</trkpt>
			<trkpt lat="48.7000251095742" lon="2.954214597120881">
				<ele>105.0</ele>
				<time>2013-07-12T10:08:25</time>
			</trkpt>
			<trkpt lat="48.70006098411977" lon="2.9546090494841337">
				<ele>103.86</ele>
				<time>2013-07-12T10:08:29</time>
			</trkpt>
			<trkpt lat="48.70009660720825" lon="2.955000400543213">
				<ele>103.0</ele>
				<time>2013-07-12T10:08:33</time>
			</trkpt>
			<trkpt lat="48.70011806488037" lon="2.9552793502807617">
				<ele>103.55</ele>
				<time>2013-07-12T10:08:36</time>
			</trkpt>
			<trkpt lat="48.70022543706" lon="2.955493927001953">
				<ele>104.0</ele>
				<time>2013-07-12T10:08:39</time>
			</trkpt>
			<trkpt lat="48.7004828453064" lon="2.955558216199279">
				<ele>105.06</ele>
				<time>2013-07-12T10:08:43</time>
			</trkpt>
			<trkpt lat="48.700740253552794" lon="2.9556225892156363">
				<ele>106.71</ele>
				<time>2013-07-12T10:08:47</time>
			</trkpt>
			<trkpt lat="48.700997829437256" lon="2.9556870460510254">
				<ele>108.0</ele>
				<time>2013-07-12T10:08:51</time>
			</trkpt>
			<trkpt lat="48.70114803314209" lon="2.955751419067383">
				<ele>108.0</ele>
				<time>2013-07-12T10:08:54</time>
			</trkpt>
			<trkpt lat="48.701298236846924" lon="2.9559874534606934">
				<ele>107.52</ele>
				<time>2013-07-12T10:08:57</time>
			</trkpt>
			<trkpt lat="48.70145581662655" lon="2.9563313629478216">
				<ele>107.0</ele>
				<time>2013-07-12T10:09:02</time>
			</trkpt>
			<trkpt lat="48.701613480225205" lon="2.95667527243495">
				<ele>107.0</ele>
				<time>2013-07-12T10:09:06</time>
			</trkpt>
			<trkpt lat="48.701770305633545" lon="2.957017421722412">
				<ele>107.63</ele>
				<time>2013-07-12T10:09:11</time>
			</trkpt>
			<trkpt lat="48.701791763305664" lon="2.957124710083008">
				<ele>107.75</ele>
				<time>2013-07-12T10:09:12</time>
			</trkpt>
			<trkpt lat="48.701791763305664" lon="2.957339286804199">
				<ele>107.75</ele>
				<time>2013-07-12T10:09:14</time>
			</trkpt>
			<trkpt lat="48.7017379514873" lon="2.957721082493663">
				<ele>107.95</ele>
				<time>2013-07-12T10:09:18</time>
			</trkpt>
			<trkpt lat="48.70168413966894" lon="2.958102962002158">
				<ele>107.14</ele>
				<time>2013-07-12T10:09:22</time>
			</trkpt>
			<trkpt lat="48.70163041166961" lon="2.9584848415106535">
				<ele>105.0</ele>
				<time>2013-07-12T10:09:27</time>
			</trkpt>
			<trkpt lat="48.70157718658447" lon="2.958862781524658">
				<ele>105.44</ele>
				<time>2013-07-12T10:09:31</time>
			</trkpt>
			<trkpt lat="48.701577270403504" lon="2.959120273590088">
				<ele>105.84</ele>
				<time>2013-07-12T10:09:33</time>
			</trkpt>
			<trkpt lat="48.70162831619382" lon="2.9595424700528383">
				<ele>106.89</ele>
				<time>2013-07-12T10:09:38</time>
			</trkpt>
			<trkpt lat="48.701679445803165" lon="2.9599646665155888">
				<ele>106.58</ele>
				<time>2013-07-12T10:09:42</time>
			</trkpt>
			<trkpt lat="48.70173049159348" lon="2.960386862978339">
				<ele>104.15</ele>
				<time>2013-07-12T10:09:47</time>
			</trkpt>
			<trkpt lat="48.70178162120283" lon="2.9608090594410896">
				<ele>103.21</ele>
				<time>2013-07-12T10:09:51</time>
			</trkpt>
			<trkpt lat="48.70183266699314" lon="2.961231339722872">
				<ele>102.81</ele>
				<time>2013-07-12T10:09:56</time>
			</trkpt>
			<trkpt lat="48.70188379660249" lon="2.961653536185622">
				<ele>103.07</ele>
				<time>2013-07-12T10:10:01</time>
			</trkpt>
			<trkpt lat="48.7019348423928" lon="2.9620757326483727">
				<ele>105.29</ele>
				<time>2013-07-12T10:10:05</time>
			</trkpt>
			<trkpt lat="48.701984882354736" lon="2.962489128112793">
				<ele>105.32</ele>
				<time>2013-07-12T10:10:10</time>
			</trkpt>
			<trkpt lat="48.701984882354736" lon="2.962639331817627">
				<ele>104.82</ele>
				<time>2013-07-12T10:10:11</time>
			</trkpt>
			<trkpt lat="48.70225662365556" lon="2.9625820834189653">
				<ele>106.08</ele>
				<time>2013-07-12T10:10:16</time>
			</trkpt>
			<trkpt lat="48.70252836495638" lon="2.9625248350203037">
				<ele>107.9</ele>
				<time>2013-07-12T10:10:20</time>
			</trkpt>
			<trkpt lat="48.7028001062572" lon="2.962467670440674">
				<ele>108.45</ele>
				<time>2013-07-12T10:10:24</time>
			</trkpt>
			<trkpt lat="48.70307184755802" lon="2.962410422042012">
				<ele>107.92</ele>
				<time>2013-07-12T10:10:29</time>
			</trkpt>
			<trkpt lat="48.70334358885884" lon="2.9623532574623823">
				<ele>107.16</ele>
				<time>2013-07-12T10:10:33</time>
			</trkpt>
			<trkpt lat="48.70361566543579" lon="2.9622960090637207">
				<ele>106.37</ele>
				<time>2013-07-12T10:10:37</time>
			</trkpt>
			<trkpt lat="48.70379797182977" lon="2.9623066540807486">
				<ele>106.62</ele>
				<time>2013-07-12T10:10:40</time>
			</trkpt>
			<trkpt lat="48.703980445861816" lon="2.96231746673584">
				<ele>107.0</ele>
				<time>2013-07-12T10:10:43</time>
			</trkpt>
			<trkpt lat="48.70419502258301" lon="2.9624032136052847">
				<ele>107.0</ele>
				<time>2013-07-12T10:10:47</time>
			</trkpt>
			<trkpt lat="48.7044095993042" lon="2.9624890442937613">
				<ele>107.0</ele>
				<time>2013-07-12T10:10:50</time>
			</trkpt>
			<trkpt lat="48.70462425984442" lon="2.9625749588012695">
				<ele>107.44</ele>
				<time>2013-07-12T10:10:54</time>
			</trkpt>
			<trkpt lat="48.704675137996674" lon="2.9625749588012695">
				<ele>107.62</ele>
				<time>2013-07-12T10:10:55</time>
			</trkpt>
			<trkpt lat="48.704675137996674" lon="2.962456438690424">
				<ele>107.62</ele>
				<time>2013-07-12T10:10:56</time>
			</trkpt>
			<trkpt lat="48.7048499006778" lon="2.9625899624079466">
				<ele>107.74</ele>
				<time>2013-07-12T10:10:59</time>
			</trkpt>
			<trkpt lat="48.70542992837727" lon="2.962599853053689">
				<ele>108.0</ele>
				<time>2013-07-12T10:11:08</time>
			</trkpt>
			<trkpt lat="48.71055998839438" lon="2.9601298738271">
				<ele>114.18</ele>
				<time>2013-07-12T10:12:35</time>
			</trkpt>
			<trkpt lat="48.71391987428069" lon="2.9602998588234186">
				<ele>113.09</ele>
				<time>2013-07-12T10:13:29</time>
			</trkpt>
			<trkpt lat="48.71415984816849" lon="2.960439920425415">
				<ele>112.23</ele>
				<time>2013-07-12T10:13:33</time>
			</trkpt>
			<trkpt lat="48.714249953627586" lon="2.959989979863167">
				<ele>112.0</ele>
				<time>2013-07-12T10:13:38</time>
			</trkpt>
			<trkpt lat="48.729099836200476" lon="2.95088991522789">
				<ele>115.05</ele>
				<time>2013-07-12T10:17:54</time>
			</trkpt>
			<trkpt lat="48.72974993661046" lon="2.950789835304022">
				<ele>117.39</ele>
				<time>2013-07-12T10:18:05</time>
			</trkpt>
			<trkpt lat="48.73052987270057" lon="2.9512699507176876">
				<ele>114.44</ele>
				<time>2013-07-12T10:18:18</time>
			</trkpt>
			<trkpt lat="48.73612990602851" lon="2.95090994797647">
				<ele>119.65</ele>
				<time>2013-07-12T10:19:48</time>
			</trkpt>
			<trkpt lat="48.7369298748672" lon="2.951849978417158">
				<ele>117.28</ele>
				<time>2013-07-12T10:20:04</time>
			</trkpt>
			<trkpt lat="48.73810987919569" lon="2.9501399025321007">
				<ele>115.04</ele>
				<time>2013-07-12T10:20:30</time>
			</trkpt>
			<trkpt lat="48.73990989290178" lon="2.9482298344373703">
				<ele>114.0</ele>
				<time>2013-07-12T10:21:05</time>
			</trkpt>
			<trkpt lat="48.740369975566864" lon="2.947769919410348">
				<ele>115.0</ele>
				<time>2013-07-12T10:21:14</time>
			</trkpt>
			<trkpt lat="48.7412799987942" lon="2.947329869493842">
				<ele>113.0</ele>
				<time>2013-07-12T10:21:29</time>
			</trkpt>
			<trkpt lat="48.752189883962274" lon="2.943739900365472">
				<ele>122.0</ele>
				<time>2013-07-12T10:24:28</time>
			</trkpt>
			<trkpt lat="48.75326997600496" lon="2.94383998028934">
				<ele>117.83</ele>
				<time>2013-07-12T10:24:45</time>
			</trkpt>
			<trkpt lat="48.753719832748175" lon="2.9433399997651577">
				<ele>114.58</ele>
				<time>2013-07-12T10:24:54</time>
			</trkpt>
			<trkpt lat="48.75441997312009" lon="2.942949989810586">
				<ele>117.32</ele>
				<time>2013-07-12T10:25:06</time>
			</trkpt>
			<trkpt lat="48.76161986030638" lon="2.9406599700450897">
				<ele>120.0</ele>
				<time>2013-07-12T10:27:04</time>
			</trkpt>
			<trkpt lat="48.77732997760177" lon="2.9352799616754055">
				<ele>127.1</ele>
				<time>2013-07-12T10:31:22</time>
			</trkpt>
			<trkpt lat="48.779669953510165" lon="2.9362499993294477">
				<ele>128.47</ele>
				<time>2013-07-12T10:32:01</time>
			</trkpt>
			<trkpt lat="48.78133996389806" lon="2.936509922146797">
				<ele>123.0</ele>
				<time>2013-07-12T10:32:28</time>
			</trkpt>
			<trkpt lat="48.792489990592" lon="2.9349898640066385">
				<ele>139.0</ele>
				<time>2013-07-12T10:35:27</time>
			</trkpt>
			<trkpt lat="48.80528999492526" lon="2.9305298533290625">
				<ele>130.73</ele>
				<time>2013-07-12T10:38:57</time>
			</trkpt>
			<trkpt lat="48.80640990100801" lon="2.9295899905264378">
				<ele>125.9</ele>
				<time>2013-07-12T10:39:18</time>
			</trkpt>
			<trkpt lat="48.814819883555174" lon="2.9212898947298527">
				<ele>81.25</ele>
				<time>2013-07-12T10:41:58</time>
			</trkpt>
			<trkpt lat="48.819499919191" lon="2.910019923001528">
				<ele>57.56</ele>
				<time>2013-07-12T10:44:19</time>
			</trkpt>
			<trkpt lat="48.819779958575964" lon="2.9089199658483267">
				<ele>52.88</ele>
				<time>2013-07-12T10:44:31</time>
			</trkpt>
			<trkpt lat="48.820219840854406" lon="2.9054599162191153">
				<ele>61.77</ele>
				<time>2013-07-12T10:45:08</time>
			</trkpt>
			<trkpt lat="48.8226998783648" lon="2.9028799664229155">
				<ele>63.5</ele>
				<time>2013-07-12T10:45:57</time>
			</trkpt>
			<trkpt lat="48.82337990216911" lon="2.902519963681698">
				<ele>61.46</ele>
				<time>2013-07-12T10:46:08</time>
			</trkpt>
			<trkpt lat="48.82408993318677" lon="2.9023899603635073">
				<ele>61.39</ele>
				<time>2013-07-12T10:46:20</time>
			</trkpt>
			<trkpt lat="48.82500993087888" lon="2.901799874380231">
				<ele>68.41</ele>
				<time>2013-07-12T10:46:36</time>
			</trkpt>
			<trkpt lat="48.82718998007476" lon="2.9016899038106203">
				<ele>59.39</ele>
				<time>2013-07-12T10:47:10</time>
			</trkpt>
			<trkpt lat="48.829019917175174" lon="2.9012398794293404">
				<ele>58.51</ele>
				<time>2013-07-12T10:47:40</time>
			</trkpt>
			<trkpt lat="48.82993991486728" lon="2.901389915496111">
				<ele>56.25</ele>
				<time>2013-07-12T10:47:55</time>
			</trkpt>
			<trkpt lat="48.836009837687016" lon="2.9050799645483494">
				<ele>53.3</ele>
				<time>2013-07-12T10:49:40</time>
			</trkpt>
			<trkpt lat="48.84152999147773" lon="2.906319899484515">
				<ele>58.13</ele>
				<time>2013-07-12T10:51:09</time>
			</trkpt>
			<trkpt lat="48.84250983595848" lon="2.906749974936247">
				<ele>58.2</ele>
				<time>2013-07-12T10:51:25</time>
			</trkpt>
			<trkpt lat="48.84294996969402" lon="2.9071098938584328">
				<ele>59.61</ele>
				<time>2013-07-12T10:51:33</time>
			</trkpt>
			<trkpt lat="48.84488996118307" lon="2.9097199346870184">
				<ele>55.4</ele>
				<time>2013-07-12T10:52:15</time>
			</trkpt>
			<trkpt lat="48.84591992944479" lon="2.911599911749363">
				<ele>59.11</ele>
				<time>2013-07-12T10:52:41</time>
			</trkpt>
			<trkpt lat="48.8464099355042" lon="2.9128299560397863">
				<ele>61.07</ele>
				<time>2013-07-12T10:52:56</time>
			</trkpt>
			<trkpt lat="48.84720990434289" lon="2.9174799006432295">
				<ele>62.35</ele>
				<time>2013-07-12T10:53:46</time>
			</trkpt>
			<trkpt lat="48.84799998253584" lon="2.9192698560655117">
				<ele>68.39</ele>
				<time>2013-07-12T10:54:09</time>
			</trkpt>
			<trkpt lat="48.84931996464729" lon="2.920559998601675">
				<ele>72.6</ele>
				<time>2013-07-12T10:54:34</time>
			</trkpt>
			<trkpt lat="48.85351996868849" lon="2.9234798345714808">
				<ele>58.89</ele>
				<time>2013-07-12T10:55:48</time>
			</trkpt>
			<trkpt lat="48.85402983985841" lon="2.923679994419217">
				<ele>58.68</ele>
				<time>2013-07-12T10:55:57</time>
			</trkpt>
			<trkpt lat="48.85455991141498" lon="2.9235199000686407">
				<ele>53.68</ele>
				<time>2013-07-12T10:56:05</time>
			</trkpt>
			<trkpt lat="48.85498990304768" lon="2.922499990090728">
				<ele>53.42</ele>
				<time>2013-07-12T10:56:18</time>
			</trkpt>
			<trkpt lat="48.855129880830646" lon="2.9217099118977785">
				<ele>52.88</ele>
				<time>2013-07-12T10:56:27</time>
			</trkpt>
			<trkpt lat="48.855189979076385" lon="2.9160898458212614">
				<ele>51.17</ele>
				<time>2013-07-12T10:57:26</time>
			</trkpt>
			<trkpt lat="48.854329911991954" lon="2.9116899333894253">
				<ele>57.63</ele>
				<time>2013-07-12T10:58:14</time>
			</trkpt>
			<trkpt lat="48.85451992973685" lon="2.9101699590682983">
				<ele>55.34</ele>
				<time>2013-07-12T10:58:31</time>
			</trkpt>
			<trkpt lat="48.85479988530278" lon="2.9097698908299208">
				<ele>53.14</ele>
				<time>2013-07-12T10:58:37</time>
			</trkpt>
			<trkpt lat="48.85549994185567" lon="2.9097698908299208">
				<ele>51.44</ele>
				<time>2013-07-12T10:58:48</time>
			</trkpt>
			<trkpt lat="48.855729941278696" lon="2.9103298857808113">
				<ele>52.0</ele>
				<time>2013-07-12T10:58:55</time>
			</trkpt>
			<trkpt lat="48.85626990348101" lon="2.9109998513013124">
				<ele>52.78</ele>
				<time>2013-07-12T10:59:06</time>
			</trkpt>
			<trkpt lat="48.85697993449867" lon="2.9130499809980392">
				<ele>52.23</ele>
				<time>2013-07-12T10:59:30</time>
			</trkpt>
			<trkpt lat="48.857429875060916" lon="2.9134999215602875">
				<ele>53.0</ele>
				<time>2013-07-12T10:59:39</time>
			</trkpt>
			<trkpt lat="48.858069917187095" lon="2.913639899343252">
				<ele>53.0</ele>
				<time>2013-07-12T10:59:49</time>
			</trkpt>
			<trkpt lat="48.85776665993035" lon="2.908267769962549">
				<ele>51.0</ele>
				<time>2013-07-12T11:00:46</time>
			</trkpt>
		</trkseg>
	</trk>
</gpx>
