<?xml version="1.0" encoding="UTF-8"?>
<gpx creator="Garmin Connect" version="1.1" xsi:schemaLocation="http://www.topografix.com/GPX/1/1 http://www.topografix.com/GPX/11.xsd" xmlns:ns3="http://www.garmin.com/xmlschemas/TrackPointExtension/v1" xmlns="http://www.topografix.com/GPX/1/1" xmlns:xsi="http://www.w3.org/2001/XMLSchema-instance" xmlns:ns2="http://www.garmin.com/xmlschemas/GpxExtensions/v3">
	<metadata>
		<name>207-G2,G3-61 km-D 450 m-Tuto va bene</name>
		<link href="connect.garmin.com">
			<text>Garmin Connect</text>
		</link>
		<time>2021-02-25T08:00:00</time>
	</metadata>
	<trk>
		<name>207-G2,G3-61 km-D 450 m-Tuto va bene</name>
		<trkseg>
			<trkpt lat="48.858459843322635" lon="2.9060998745262623">
				<ele>49.0</ele>
				<time>2021-02-25T08:00:00</time>
			</trkpt>
			<trkpt lat="48.85823990218341" lon="2.907229922711849">
				<ele>49.0</ele>
				<time>2021-02-25T08:00:13</time>
			</trkpt>
			<trkpt lat="48.856669971719384" lon="2.9099899996072054">
				<ele>50.0</ele>
				<time>2021-02-25T08:00:55</time>
			</trkpt>
			<trkpt lat="48.85628993622959" lon="2.91098996065557">
				<ele>51.0</ele>
				<time>2021-02-25T08:01:08</time>
			</trkpt>
			<trkpt lat="48.85549994185567" lon="2.909829905256629">
				<ele>51.0</ele>
				<time>2021-02-25T08:01:28</time>
			</trkpt>
			<trkpt lat="48.854849841445684" lon="2.909849938005209">
				<ele>56.0</ele>
				<time>2021-02-25T08:01:39</time>
			</trkpt>
			<trkpt lat="48.854549853131175" lon="2.910249838605523">
				<ele>59.0</ele>
				<time>2021-02-25T08:01:46</time>
			</trkpt>
			<trkpt lat="48.854329995810986" lon="2.9116999078541994">
				<ele>61.0</ele>
				<time>2021-02-25T08:02:03</time>
			</trkpt>
			<trkpt lat="48.85521990247071" lon="2.9163698852062225">
				<ele>51.0</ele>
				<time>2021-02-25T08:02:59</time>
			</trkpt>
			<trkpt lat="48.855159888044" lon="2.9211998730897903">
				<ele>51.0</ele>
				<time>2021-02-25T08:03:54</time>
			</trkpt>
			<trkpt lat="48.85502988472581" lon="2.9223899357020855">
				<ele>53.0</ele>
				<time>2021-02-25T08:04:08</time>
			</trkpt>
			<trkpt lat="48.854629984125495" lon="2.923419987782836">
				<ele>54.0</ele>
				<time>2021-02-25T08:04:21</time>
			</trkpt>
			<trkpt lat="48.854419849812984" lon="2.9236298706382513">
				<ele>55.0</ele>
				<time>2021-02-25T08:04:26</time>
			</trkpt>
			<trkpt lat="48.85382993146777" lon="2.9236999433487654">
				<ele>56.0</ele>
				<time>2021-02-25T08:04:36</time>
			</trkpt>
			<trkpt lat="48.849349888041615" lon="2.92065991088748">
				<ele>70.0</ele>
				<time>2021-02-25T08:06:01</time>
			</trkpt>
			<trkpt lat="48.8479398842901" lon="2.9193199798464775">
				<ele>63.0</ele>
				<time>2021-02-25T08:06:30</time>
			</trkpt>
			<trkpt lat="48.84718987159431" lon="2.9174598678946495">
				<ele>59.0</ele>
				<time>2021-02-25T08:06:55</time>
			</trkpt>
			<trkpt lat="48.8464598916471" lon="2.91313991881907">
				<ele>60.0</ele>
				<time>2021-02-25T08:07:47</time>
			</trkpt>
			<trkpt lat="48.84613987058401" lon="2.9121899977326393">
				<ele>58.0</ele>
				<time>2021-02-25T08:07:59</time>
			</trkpt>
			<trkpt lat="48.8444999512285" lon="2.9093099758028984">
				<ele>51.0</ele>
				<time>2021-02-25T08:08:42</time>
			</trkpt>
			<trkpt lat="48.842559875920415" lon="2.9069699998945">
				<ele>55.0</ele>
				<time>2021-02-25T08:09:25</time>
			</trkpt>
			<trkpt lat="48.84178991429508" lon="2.906559957191348">
				<ele>54.0</ele>
				<time>2021-02-25T08:09:40</time>
			</trkpt>
			<trkpt lat="48.83601997978985" lon="2.9052198585122824">
				<ele>52.0</ele>
				<time>2021-02-25T08:11:21</time>
			</trkpt>
			<trkpt lat="48.833619905635715" lon="2.90387992747128">
				<ele>52.0</ele>
				<time>2021-02-25T08:12:06</time>
			</trkpt>
			<trkpt lat="48.82982994429767" lon="2.901419922709465">
				<ele>56.0</ele>
				<time>2021-02-25T08:13:17</time>
			</trkpt>
			<trkpt lat="48.829049840569496" lon="2.9012798611074686">
				<ele>59.0</ele>
				<time>2021-02-25T08:13:31</time>
			</trkpt>
			<trkpt lat="48.82704991847277" lon="2.901719994843006">
				<ele>59.0</ele>
				<time>2021-02-25T08:14:06</time>
			</trkpt>
			<trkpt lat="48.824939941987395" lon="2.9017499182373285">
				<ele>68.0</ele>
				<time>2021-02-25T08:14:43</time>
			</trkpt>
			<trkpt lat="48.824189845472574" lon="2.9023899603635073">
				<ele>60.0</ele>
				<time>2021-02-25T08:14:58</time>
			</trkpt>
			<trkpt lat="48.82325987331569" lon="2.902499930933118">
				<ele>62.0</ele>
				<time>2021-02-25T08:15:14</time>
			</trkpt>
			<trkpt lat="48.82279995828867" lon="2.902719872072339">
				<ele>64.0</ele>
				<time>2021-02-25T08:15:23</time>
			</trkpt>
			<trkpt lat="48.8203099463135" lon="2.905369894579053">
				<ele>60.0</ele>
				<time>2021-02-25T08:16:16</time>
			</trkpt>
			<trkpt lat="48.820089837536216" lon="2.9060998745262623">
				<ele>57.0</ele>
				<time>2021-02-25T08:16:25</time>
			</trkpt>
			<trkpt lat="48.81962992250919" lon="2.909839879721403">
				<ele>56.0</ele>
				<time>2021-02-25T08:17:08</time>
			</trkpt>
			<trkpt lat="48.81476992741227" lon="2.9214699380099773">
				<ele>83.0</ele>
				<time>2021-02-25T08:19:46</time>
			</trkpt>
			<trkpt lat="48.8060599565506" lon="2.9300098400563">
				<ele>126.0</ele>
				<time>2021-02-25T08:22:47</time>
			</trkpt>
			<trkpt lat="48.805109867826104" lon="2.930669914931059">
				<ele>130.0</ele>
				<time>2021-02-25T08:23:05</time>
			</trkpt>
			<trkpt lat="48.79256132058799" lon="2.9348794743418694">
				<ele>135.99</ele>
				<time>2021-02-25T08:26:49</time>
			</trkpt>
			<trkpt lat="48.792559979483485" lon="2.9348799772560596">
				<ele>136.0</ele>
				<time>2021-02-25T08:26:49</time>
			</trkpt>
			<trkpt lat="48.78145999275148" lon="2.936409842222929">
				<ele>123.0</ele>
				<time>2021-02-25T08:30:03</time>
			</trkpt>
			<trkpt lat="48.77652984112501" lon="2.9357599932700396">
				<ele>124.0</ele>
				<time>2021-02-25T08:31:29</time>
			</trkpt>
			<trkpt lat="48.75348991714418" lon="2.94336992315948">
				<ele>115.0</ele>
				<time>2021-02-25T08:38:19</time>
			</trkpt>
			<trkpt lat="48.75294995494187" lon="2.9438898526132107">
				<ele>119.0</ele>
				<time>2021-02-25T08:38:30</time>
			</trkpt>
			<trkpt lat="48.752429857850075" lon="2.943699834868312">
				<ele>120.0</ele>
				<time>2021-02-25T08:38:39</time>
			</trkpt>
			<trkpt lat="48.74121998436749" lon="2.9473898839205503">
				<ele>112.0</ele>
				<time>2021-02-25T08:41:59</time>
			</trkpt>
			<trkpt lat="48.74018984846771" lon="2.9480999149382114">
				<ele>112.0</ele>
				<time>2021-02-25T08:42:19</time>
			</trkpt>
			<trkpt lat="48.73949993401766" lon="2.9489598982036114">
				<ele>113.0</ele>
				<time>2021-02-25T08:42:34</time>
			</trkpt>
			<trkpt lat="48.738069981336594" lon="2.950259931385517">
				<ele>114.0</ele>
				<time>2021-02-25T08:43:03</time>
			</trkpt>
			<trkpt lat="48.73694990761578" lon="2.9519198834896088">
				<ele>116.0</ele>
				<time>2021-02-25T08:43:31</time>
			</trkpt>
			<trkpt lat="48.7366899009794" lon="2.951419986784458">
				<ele>116.0</ele>
				<time>2021-02-25T08:43:38</time>
			</trkpt>
			<trkpt lat="48.736059833317995" lon="2.95086988247931">
				<ele>117.0</ele>
				<time>2021-02-25T08:43:51</time>
			</trkpt>
			<trkpt lat="48.730939999222755" lon="2.951329965144396">
				<ele>113.0</ele>
				<time>2021-02-25T08:45:20</time>
			</trkpt>
			<trkpt lat="48.72944994829595" lon="2.9507799446582794">
				<ele>114.0</ele>
				<time>2021-02-25T08:45:47</time>
			</trkpt>
			<trkpt lat="48.71534991078079" lon="2.9593899194151163">
				<ele>110.0</ele>
				<time>2021-02-25T08:50:11</time>
			</trkpt>
			<trkpt lat="48.71404987759888" lon="2.959879841655493">
				<ele>111.0</ele>
				<time>2021-02-25T08:50:34</time>
			</trkpt>
			<trkpt lat="48.71375994756818" lon="2.9602799098938704">
				<ele>112.0</ele>
				<time>2021-02-25T08:50:41</time>
			</trkpt>
			<trkpt lat="48.71040986850858" lon="2.960269935429096">
				<ele>113.0</ele>
				<time>2021-02-25T08:51:40</time>
			</trkpt>
			<trkpt lat="48.70518995448947" lon="2.9625699296593666">
				<ele>105.0</ele>
				<time>2021-02-25T08:53:14</time>
			</trkpt>
			<trkpt lat="48.703521620482206" lon="2.9623101744800806">
				<ele>105.0</ele>
				<time>2021-02-25T08:53:43</time>
			</trkpt>
			<trkpt lat="48.70351994410157" lon="2.9623099230229855">
				<ele>105.0</ele>
				<time>2021-02-25T08:53:43</time>
			</trkpt>
			<trkpt lat="48.691729959100485" lon="2.9647799860686064">
				<ele>100.0</ele>
				<time>2021-02-25T08:57:11</time>
			</trkpt>
			<trkpt lat="48.68927984498441" lon="2.965739881619811">
				<ele>104.0</ele>
				<time>2021-02-25T08:57:55</time>
			</trkpt>
			<trkpt lat="48.68910985998809" lon="2.966009946539998">
				<ele>104.0</ele>
				<time>2021-02-25T08:57:59</time>
			</trkpt>
			<trkpt lat="48.689259979873896" lon="2.966859871521592">
				<ele>103.0</ele>
				<time>2021-02-25T08:58:09</time>
			</trkpt>
			<trkpt lat="48.68821995332837" lon="2.967359935864806">
				<ele>104.0</ele>
				<time>2021-02-25T08:58:28</time>
			</trkpt>
			<trkpt lat="48.687969921156764" lon="2.9682098608464003">
				<ele>103.0</ele>
				<time>2021-02-25T08:58:39</time>
			</trkpt>
			<trkpt lat="48.68991988711059" lon="2.976999878883362">
				<ele>105.0</ele>
				<time>2021-02-25T09:00:25</time>
			</trkpt>
			<trkpt lat="48.691489985212684" lon="2.9811198357492685">
				<ele>103.0</ele>
				<time>2021-02-25T09:01:20</time>
			</trkpt>
			<trkpt lat="48.691889885813" lon="2.9831599071621895">
				<ele>101.0</ele>
				<time>2021-02-25T09:01:44</time>
			</trkpt>
			<trkpt lat="48.69182987138629" lon="2.983959876000881">
				<ele>99.0</ele>
				<time>2021-02-25T09:01:54</time>
			</trkpt>
			<trkpt lat="48.69074994698167" lon="2.9878799244761467">
				<ele>98.0</ele>
				<time>2021-02-25T09:02:42</time>
			</trkpt>
			<trkpt lat="48.69068993255496" lon="2.9915898386389017">
				<ele>100.0</ele>
				<time>2021-02-25T09:03:25</time>
			</trkpt>
			<trkpt lat="48.69040989317" lon="2.993729906156659">
				<ele>98.0</ele>
				<time>2021-02-25T09:03:50</time>
			</trkpt>
			<trkpt lat="48.6905999109149" lon="2.9958699736744165">
				<ele>95.0</ele>
				<time>2021-02-25T09:04:15</time>
			</trkpt>
			<trkpt lat="48.690439984202385" lon="2.9963798448443413">
				<ele>97.0</ele>
				<time>2021-02-25T09:04:21</time>
			</trkpt>
			<trkpt lat="48.69008987210691" lon="2.996779913082719">
				<ele>100.0</ele>
				<time>2021-02-25T09:04:29</time>
			</trkpt>
			<trkpt lat="48.69005994871259" lon="2.9971799813210964">
				<ele>100.0</ele>
				<time>2021-02-25T09:04:34</time>
			</trkpt>
			<trkpt lat="48.69087995029986" lon="3.000139882788062">
				<ele>106.0</ele>
				<time>2021-02-25T09:05:11</time>
			</trkpt>
			<trkpt lat="48.69106996804476" lon="3.002549847587943">
				<ele>110.0</ele>
				<time>2021-02-25T09:05:38</time>
			</trkpt>
			<trkpt lat="48.691879995167255" lon="3.0066898372024298">
				<ele>110.0</ele>
				<time>2021-02-25T09:06:28</time>
			</trkpt>
			<trkpt lat="48.692589942365885" lon="3.0078199692070484">
				<ele>109.0</ele>
				<time>2021-02-25T09:06:46</time>
			</trkpt>
			<trkpt lat="48.694229861721396" lon="3.0112399533391">
				<ele>107.0</ele>
				<time>2021-02-25T09:07:35</time>
			</trkpt>
			<trkpt lat="48.69477988220751" lon="3.0115399416536093">
				<ele>104.0</ele>
				<time>2021-02-25T09:07:45</time>
			</trkpt>
			<trkpt lat="48.69706990197301" lon="3.011439861729741">
				<ele>92.0</ele>
				<time>2021-02-25T09:08:25</time>
			</trkpt>
			<trkpt lat="48.70080999098718" lon="3.0084699019789696">
				<ele>101.0</ele>
				<time>2021-02-25T09:09:38</time>
			</trkpt>
			<trkpt lat="48.701099921017885" lon="3.0084498692303896">
				<ele>103.0</ele>
				<time>2021-02-25T09:09:43</time>
			</trkpt>
			<trkpt lat="48.70215998031199" lon="3.0100198835134506">
				<ele>106.0</ele>
				<time>2021-02-25T09:10:09</time>
			</trkpt>
			<trkpt lat="48.703009905293584" lon="3.0101698357611895">
				<ele>108.0</ele>
				<time>2021-02-25T09:10:24</time>
			</trkpt>
			<trkpt lat="48.70611992664635" lon="3.0134099442511797">
				<ele>109.0</ele>
				<time>2021-02-25T09:11:29</time>
			</trkpt>
			<trkpt lat="48.70703992433846" lon="3.014649963006377">
				<ele>110.0</ele>
				<time>2021-02-25T09:11:51</time>
			</trkpt>
			<trkpt lat="48.70935986749828" lon="3.0165199656039476">
				<ele>108.0</ele>
				<time>2021-02-25T09:12:37</time>
			</trkpt>
			<trkpt lat="48.7105399556458" lon="3.0177298933267593">
				<ele>108.0</ele>
				<time>2021-02-25T09:13:01</time>
			</trkpt>
			<trkpt lat="48.713879976421595" lon="3.024309854954481">
				<ele>108.0</ele>
				<time>2021-02-25T09:14:37</time>
			</trkpt>
			<trkpt lat="48.7155098374933" lon="3.0297299288213253">
				<ele>111.0</ele>
				<time>2021-02-25T09:15:45</time>
			</trkpt>
			<trkpt lat="48.71728998608887" lon="3.0315199680626392">
				<ele>112.0</ele>
				<time>2021-02-25T09:16:22</time>
			</trkpt>
			<trkpt lat="48.717899937182665" lon="3.0324098747223616">
				<ele>112.0</ele>
				<time>2021-02-25T09:16:37</time>
			</trkpt>
			<trkpt lat="48.71835985220969" lon="3.033489966765046">
				<ele>112.0</ele>
				<time>2021-02-25T09:16:52</time>
			</trkpt>
			<trkpt lat="48.7188599165529" lon="3.0337499734014273">
				<ele>111.0</ele>
				<time>2021-02-25T09:17:01</time>
			</trkpt>
			<trkpt lat="48.72245994396508" lon="3.0341599322855473">
				<ele>111.0</ele>
				<time>2021-02-25T09:18:04</time>
			</trkpt>
			<trkpt lat="48.723139967769384" lon="3.034509876742959">
				<ele>110.0</ele>
				<time>2021-02-25T09:18:16</time>
			</trkpt>
			<trkpt lat="48.7252199370414" lon="3.034309968352318">
				<ele>108.0</ele>
				<time>2021-02-25T09:18:53</time>
			</trkpt>
			<trkpt lat="48.72680990025401" lon="3.0347399599850178">
				<ele>109.0</ele>
				<time>2021-02-25T09:19:21</time>
			</trkpt>
			<trkpt lat="48.72762990184128" lon="3.0344799533486366">
				<ele>109.0</ele>
				<time>2021-02-25T09:19:35</time>
			</trkpt>
			<trkpt lat="48.730128295719624" lon="3.0342001654207706">
				<ele>104.0</ele>
				<time>2021-02-25T09:20:19</time>
			</trkpt>
			<trkpt lat="48.73012997210026" lon="3.034199997782707">
				<ele>104.0</ele>
				<time>2021-02-25T09:20:19</time>
			</trkpt>
			<trkpt lat="48.73025989159942" lon="3.035019999369979">
				<ele>105.0</ele>
				<time>2021-02-25T09:20:29</time>
			</trkpt>
			<trkpt lat="48.73017992824316" lon="3.0358698405325413">
				<ele>105.0</ele>
				<time>2021-02-25T09:20:39</time>
			</trkpt>
			<trkpt lat="48.73109992593527" lon="3.0361799709498882">
				<ele>100.0</ele>
				<time>2021-02-25T09:20:55</time>
			</trkpt>
			<trkpt lat="48.73155984096229" lon="3.0373399425297976">
				<ele>101.0</ele>
				<time>2021-02-25T09:21:10</time>
			</trkpt>
			<trkpt lat="48.731799982488155" lon="3.0375099275261164">
				<ele>101.0</ele>
				<time>2021-02-25T09:21:15</time>
			</trkpt>
			<trkpt lat="48.733219876885414" lon="3.0375999491661787">
				<ele>107.0</ele>
				<time>2021-02-25T09:21:40</time>
			</trkpt>
			<trkpt lat="48.73356998898089" lon="3.0377499852329493">
				<ele>109.0</ele>
				<time>2021-02-25T09:21:46</time>
			</trkpt>
			<trkpt lat="48.734469870105386" lon="3.034039903432131">
				<ele>106.0</ele>
				<time>2021-02-25T09:22:32</time>
			</trkpt>
			<trkpt lat="48.73445989564061" lon="3.0277599301189184">
				<ele>107.0</ele>
				<time>2021-02-25T09:23:44</time>
			</trkpt>
			<trkpt lat="48.7338699772954" lon="3.02580988034606">
				<ele>102.0</ele>
				<time>2021-02-25T09:24:08</time>
			</trkpt>
			<trkpt lat="48.733159862458706" lon="3.024759879335761">
				<ele>97.0</ele>
				<time>2021-02-25T09:24:25</time>
			</trkpt>
			<trkpt lat="48.73298987746239" lon="3.021239899098873">
				<ele>101.0</ele>
				<time>2021-02-25T09:25:06</time>
			</trkpt>
			<trkpt lat="48.73432997614145" lon="3.0146198719739914">
				<ele>108.0</ele>
				<time>2021-02-25T09:26:26</time>
			</trkpt>
			<trkpt lat="48.73487999662757" lon="3.013029908761382">
				<ele>111.0</ele>
				<time>2021-02-25T09:26:46</time>
			</trkpt>
			<trkpt lat="48.73524997383356" lon="3.012749869376421">
				<ele>113.0</ele>
				<time>2021-02-25T09:26:53</time>
			</trkpt>
			<trkpt lat="48.73537997715175" lon="3.012389950454235">
				<ele>113.0</ele>
				<time>2021-02-25T09:26:58</time>
			</trkpt>
			<trkpt lat="48.73529992997646" lon="3.011299967765808">
				<ele>113.0</ele>
				<time>2021-02-25T09:27:11</time>
			</trkpt>
			<trkpt lat="48.73912995681167" lon="3.01160984672606">
				<ele>107.0</ele>
				<time>2021-02-25T09:28:17</time>
			</trkpt>
			<trkpt lat="48.741729855537415" lon="3.0125399865210056">
				<ele>110.0</ele>
				<time>2021-02-25T09:29:04</time>
			</trkpt>
			<trkpt lat="48.7430499214679" lon="3.0133599881082773">
				<ele>109.0</ele>
				<time>2021-02-25T09:29:29</time>
			</trkpt>
			<trkpt lat="48.74535997398198" lon="3.015409866347909">
				<ele>108.0</ele>
				<time>2021-02-25T09:30:15</time>
			</trkpt>
			<trkpt lat="48.749139877036214" lon="3.020329875871539">
				<ele>114.0</ele>
				<time>2021-02-25T09:31:42</time>
			</trkpt>
			<trkpt lat="48.74985996633768" lon="3.0228698439896107">
				<ele>113.0</ele>
				<time>2021-02-25T09:32:14</time>
			</trkpt>
			<trkpt lat="48.750129863619804" lon="3.0266098491847515">
				<ele>112.0</ele>
				<time>2021-02-25T09:32:57</time>
			</trkpt>
			<trkpt lat="48.75096998177469" lon="3.0292298644781113">
				<ele>113.0</ele>
				<time>2021-02-25T09:33:30</time>
			</trkpt>
			<trkpt lat="48.750949865207076" lon="3.0328699573874474">
				<ele>113.0</ele>
				<time>2021-02-25T09:34:12</time>
			</trkpt>
			<trkpt lat="48.751119850203395" lon="3.03560983389616">
				<ele>113.0</ele>
				<time>2021-02-25T09:34:44</time>
			</trkpt>
			<trkpt lat="48.75187992118299" lon="3.03568996489048">
				<ele>112.0</ele>
				<time>2021-02-25T09:34:57</time>
			</trkpt>
			<trkpt lat="48.75291986390948" lon="3.036289941519499">
				<ele>110.0</ele>
				<time>2021-02-25T09:35:16</time>
			</trkpt>
			<trkpt lat="48.75339989550412" lon="3.036109982058406">
				<ele>109.0</ele>
				<time>2021-02-25T09:35:25</time>
			</trkpt>
			<trkpt lat="48.75400984659791" lon="3.0355499871075153">
				<ele>106.0</ele>
				<time>2021-02-25T09:35:37</time>
			</trkpt>
			<trkpt lat="48.75445987097919" lon="3.0356998555362225">
				<ele>103.0</ele>
				<time>2021-02-25T09:35:45</time>
			</trkpt>
			<trkpt lat="48.755029924213886" lon="3.03562986664474">
				<ele>99.0</ele>
				<time>2021-02-25T09:35:55</time>
			</trkpt>
			<trkpt lat="48.756489884108305" lon="3.0358099937438965">
				<ele>89.0</ele>
				<time>2021-02-25T09:36:21</time>
			</trkpt>
			<trkpt lat="48.756809905171394" lon="3.0379599519073963">
				<ele>89.0</ele>
				<time>2021-02-25T09:36:46</time>
			</trkpt>
			<trkpt lat="48.75602996908128" lon="3.0400499794632196">
				<ele>89.0</ele>
				<time>2021-02-25T09:37:14</time>
			</trkpt>
			<trkpt lat="48.7566299457103" lon="3.0406299233436584">
				<ele>96.0</ele>
				<time>2021-02-25T09:37:26</time>
			</trkpt>
			<trkpt lat="48.75722983852029" lon="3.042079908773303">
				<ele>105.0</ele>
				<time>2021-02-25T09:37:46</time>
			</trkpt>
			<trkpt lat="48.757459837943316" lon="3.0422799848020077">
				<ele>107.0</ele>
				<time>2021-02-25T09:37:50</time>
			</trkpt>
			<trkpt lat="48.75871988944709" lon="3.042459860444069">
				<ele>114.0</ele>
				<time>2021-02-25T09:38:12</time>
			</trkpt>
			<trkpt lat="48.75988983549178" lon="3.0406699888408184">
				<ele>115.0</ele>
				<time>2021-02-25T09:38:41</time>
			</trkpt>
			<trkpt lat="48.76368993893266" lon="3.043949995189905">
				<ele>121.0</ele>
				<time>2021-02-25T09:39:57</time>
			</trkpt>
			<trkpt lat="48.76689995639026" lon="3.041579844430089">
				<ele>120.0</ele>
				<time>2021-02-25T09:40:59</time>
			</trkpt>
			<trkpt lat="48.768029836937785" lon="3.0386499501764774">
				<ele>113.0</ele>
				<time>2021-02-25T09:41:38</time>
			</trkpt>
			<trkpt lat="48.770369896665215" lon="3.0353298783302307">
				<ele>116.0</ele>
				<time>2021-02-25T09:42:34</time>
			</trkpt>
			<trkpt lat="48.77097984775901" lon="3.0353499110788107">
				<ele>115.0</ele>
				<time>2021-02-25T09:42:45</time>
			</trkpt>
			<trkpt lat="48.77417997457087" lon="3.0371499247848988">
				<ele>123.0</ele>
				<time>2021-02-25T09:43:44</time>
			</trkpt>
			<trkpt lat="48.7774698715657" lon="3.0370899103581905">
				<ele>118.0</ele>
				<time>2021-02-25T09:44:41</time>
			</trkpt>
			<trkpt lat="48.779889894649386" lon="3.032119944691658">
				<ele>121.0</ele>
				<time>2021-02-25T09:45:52</time>
			</trkpt>
			<trkpt lat="48.781989896669984" lon="3.029899997636676">
				<ele>122.0</ele>
				<time>2021-02-25T09:46:37</time>
			</trkpt>
			<trkpt lat="48.78253907896578" lon="3.0297701619565487">
				<ele>122.99</ele>
				<time>2021-02-25T09:46:46</time>
			</trkpt>
			<trkpt lat="48.7825399171561" lon="3.0297699943184853">
				<ele>123.0</ele>
				<time>2021-02-25T09:46:46</time>
			</trkpt>
			<trkpt lat="48.7891399115324" lon="3.0298199504613876">
				<ele>125.0</ele>
				<time>2021-02-25T09:48:41</time>
			</trkpt>
			<trkpt lat="48.78941995091736" lon="3.029639907181263">
				<ele>125.0</ele>
				<time>2021-02-25T09:48:47</time>
			</trkpt>
			<trkpt lat="48.78959999419749" lon="3.0292498972266912">
				<ele>125.0</ele>
				<time>2021-02-25T09:48:52</time>
			</trkpt>
			<trkpt lat="48.7907599657774" lon="3.0257698986679316">
				<ele>121.0</ele>
				<time>2021-02-25T09:49:37</time>
			</trkpt>
			<trkpt lat="48.791229855269194" lon="3.0252298526465893">
				<ele>121.0</ele>
				<time>2021-02-25T09:49:47</time>
			</trkpt>
			<trkpt lat="48.79162992350757" lon="3.024419993162155">
				<ele>120.0</ele>
				<time>2021-02-25T09:49:59</time>
			</trkpt>
			<trkpt lat="48.792799953371286" lon="3.024379927664995">
				<ele>118.0</ele>
				<time>2021-02-25T09:50:19</time>
			</trkpt>
			<trkpt lat="48.79369983449578" lon="3.023789841681719">
				<ele>118.0</ele>
				<time>2021-02-25T09:50:36</time>
			</trkpt>
			<trkpt lat="48.79604986868799" lon="3.02406988106668">
				<ele>114.0</ele>
				<time>2021-02-25T09:51:17</time>
			</trkpt>
			<trkpt lat="48.79600997082889" lon="3.023449871689081">
				<ele>112.0</ele>
				<time>2021-02-25T09:51:24</time>
			</trkpt>
			<trkpt lat="48.795419884845614" lon="3.022049842402339">
				<ele>107.0</ele>
				<time>2021-02-25T09:51:43</time>
			</trkpt>
			<trkpt lat="48.79536984488368" lon="3.0215899273753166">
				<ele>104.0</ele>
				<time>2021-02-25T09:51:49</time>
			</trkpt>
			<trkpt lat="48.7961199413985" lon="3.0179498344659805">
				<ele>76.0</ele>
				<time>2021-02-25T09:52:32</time>
			</trkpt>
			<trkpt lat="48.79646988585591" lon="3.017009971663356">
				<ele>72.0</ele>
				<time>2021-02-25T09:52:45</time>
			</trkpt>
			<trkpt lat="48.796299900859594" lon="3.015839857980609">
				<ele>73.0</ele>
				<time>2021-02-25T09:52:59</time>
			</trkpt>
			<trkpt lat="48.796559907495975" lon="3.0127399787306786">
				<ele>90.0</ele>
				<time>2021-02-25T09:53:34</time>
			</trkpt>
			<trkpt lat="48.79691991023719" lon="3.0117998644709587">
				<ele>100.0</ele>
				<time>2021-02-25T09:53:47</time>
			</trkpt>
			<trkpt lat="48.797289887443185" lon="3.0112899094820023">
				<ele>103.0</ele>
				<time>2021-02-25T09:53:56</time>
			</trkpt>
			<trkpt lat="48.79776983521879" lon="3.0097999423742294">
				<ele>113.0</ele>
				<time>2021-02-25T09:54:15</time>
			</trkpt>
			<trkpt lat="48.7982199434191" lon="3.009209856390953">
				<ele>117.0</ele>
				<time>2021-02-25T09:54:25</time>
			</trkpt>
			<trkpt lat="48.79918989725411" lon="3.00459997728467">
				<ele>128.0</ele>
				<time>2021-02-25T09:55:20</time>
			</trkpt>
			<trkpt lat="48.79911999218166" lon="3.002189928665757">
				<ele>131.0</ele>
				<time>2021-02-25T09:55:48</time>
			</trkpt>
			<trkpt lat="48.79849998280406" lon="3.0021999031305313">
				<ele>132.0</ele>
				<time>2021-02-25T09:55:59</time>
			</trkpt>
			<trkpt lat="48.79750999622047" lon="3.001719955354929">
				<ele>131.0</ele>
				<time>2021-02-25T09:56:17</time>
			</trkpt>
			<trkpt lat="48.797629941254854" lon="3.0006498377770185">
				<ele>130.0</ele>
				<time>2021-02-25T09:56:29</time>
			</trkpt>
			<trkpt lat="48.797529861330986" lon="2.9982799384742975">
				<ele>130.0</ele>
				<time>2021-02-25T09:56:57</time>
			</trkpt>
			<trkpt lat="48.79775986075401" lon="2.9970898758620024">
				<ele>129.0</ele>
				<time>2021-02-25T09:57:11</time>
			</trkpt>
			<trkpt lat="48.79815992899239" lon="2.99707998521626">
				<ele>129.0</ele>
				<time>2021-02-25T09:57:18</time>
			</trkpt>
			<trkpt lat="48.799139857292175" lon="2.997459936887026">
				<ele>129.0</ele>
				<time>2021-02-25T09:57:35</time>
			</trkpt>
			<trkpt lat="48.800509963184595" lon="2.9969699308276176">
				<ele>126.0</ele>
				<time>2021-02-25T09:58:00</time>
			</trkpt>
			<trkpt lat="48.80123985931277" lon="2.997099934145808">
				<ele>126.0</ele>
				<time>2021-02-25T09:58:13</time>
			</trkpt>
			<trkpt lat="48.8014698587358" lon="2.995219873264432">
				<ele>125.0</ele>
				<time>2021-02-25T09:58:35</time>
			</trkpt>
			<trkpt lat="48.802039911970496" lon="2.994359889999032">
				<ele>124.0</ele>
				<time>2021-02-25T09:58:49</time>
			</trkpt>
			<trkpt lat="48.802959909662604" lon="2.994509842246771">
				<ele>120.0</ele>
				<time>2021-02-25T09:59:05</time>
			</trkpt>
			<trkpt lat="48.808139842003584" lon="2.994139865040779">
				<ele>93.0</ele>
				<time>2021-02-25T10:00:35</time>
			</trkpt>
			<trkpt lat="48.808589950203896" lon="2.9943798389285803">
				<ele>88.0</ele>
				<time>2021-02-25T10:00:43</time>
			</trkpt>
			<trkpt lat="48.80923988297582" lon="2.9935798700898886">
				<ele>85.0</ele>
				<time>2021-02-25T10:00:58</time>
			</trkpt>
			<trkpt lat="48.811579858884215" lon="2.9916299041360617">
				<ele>67.0</ele>
				<time>2021-02-25T10:01:44</time>
			</trkpt>
			<trkpt lat="48.81339990533888" lon="2.9918999690562487">
				<ele>62.0</ele>
				<time>2021-02-25T10:02:16</time>
			</trkpt>
			<trkpt lat="48.81697990000248" lon="2.9891499504446983">
				<ele>71.0</ele>
				<time>2021-02-25T10:03:26</time>
			</trkpt>
			<trkpt lat="48.81912985816598" lon="2.988989856094122">
				<ele>84.0</ele>
				<time>2021-02-25T10:04:03</time>
			</trkpt>
			<trkpt lat="48.81957996636629" lon="2.9884298611432314">
				<ele>85.0</ele>
				<time>2021-02-25T10:04:13</time>
			</trkpt>
			<trkpt lat="48.82067992351949" lon="2.98506997525692">
				<ele>96.0</ele>
				<time>2021-02-25T10:04:56</time>
			</trkpt>
			<trkpt lat="48.82093993015587" lon="2.9849199391901493">
				<ele>99.0</ele>
				<time>2021-02-25T10:05:01</time>
			</trkpt>
			<trkpt lat="48.82249996997416" lon="2.984839892014861">
				<ele>117.0</ele>
				<time>2021-02-25T10:05:29</time>
			</trkpt>
			<trkpt lat="48.82365994155407" lon="2.983459895476699">
				<ele>128.0</ele>
				<time>2021-02-25T10:05:54</time>
			</trkpt>
			<trkpt lat="48.82413988932967" lon="2.9833198338747025">
				<ele>129.0</ele>
				<time>2021-02-25T10:06:03</time>
			</trkpt>
			<trkpt lat="48.826509956270456" lon="2.984349885955453">
				<ele>132.0</ele>
				<time>2021-02-25T10:06:46</time>
			</trkpt>
			<trkpt lat="48.82845992222428" lon="2.986069852486253">
				<ele>133.0</ele>
				<time>2021-02-25T10:07:25</time>
			</trkpt>
			<trkpt lat="48.830439979210496" lon="2.9874499328434467">
				<ele>132.0</ele>
				<time>2021-02-25T10:08:03</time>
			</trkpt>
			<trkpt lat="48.83319988846779" lon="2.989789992570877">
				<ele>134.0</ele>
				<time>2021-02-25T10:08:58</time>
			</trkpt>
			<trkpt lat="48.835379937663674" lon="2.98820992000401">
				<ele>136.0</ele>
				<time>2021-02-25T10:09:40</time>
			</trkpt>
			<trkpt lat="48.83673998527229" lon="2.987709939479828">
				<ele>136.0</ele>
				<time>2021-02-25T10:10:04</time>
			</trkpt>
			<trkpt lat="48.840109845623374" lon="2.9877798445522785">
				<ele>140.0</ele>
				<time>2021-02-25T10:11:03</time>
			</trkpt>
			<trkpt lat="48.84080998599529" lon="2.987949913367629">
				<ele>140.0</ele>
				<time>2021-02-25T10:11:15</time>
			</trkpt>
			<trkpt lat="48.84161992929876" lon="2.9885499738156796">
				<ele>140.0</ele>
				<time>2021-02-25T10:11:31</time>
			</trkpt>
			<trkpt lat="48.842789959162474" lon="2.990149911493063">
				<ele>140.0</ele>
				<time>2021-02-25T10:11:58</time>
			</trkpt>
			<trkpt lat="48.843309888616204" lon="2.990579903125763">
				<ele>140.0</ele>
				<time>2021-02-25T10:12:09</time>
			</trkpt>
			<trkpt lat="48.8440699595958" lon="2.9908798914402723">
				<ele>139.0</ele>
				<time>2021-02-25T10:12:22</time>
			</trkpt>
			<trkpt lat="48.851988427340984" lon="2.989110304042697">
				<ele>142.99</ele>
				<time>2021-02-25T10:14:41</time>
			</trkpt>
			<trkpt lat="48.851989936083555" lon="2.98910996876657">
				<ele>143.0</ele>
				<time>2021-02-25T10:14:41</time>
			</trkpt>
			<trkpt lat="48.85235999710858" lon="2.9891899321228266">
				<ele>144.0</ele>
				<time>2021-02-25T10:14:48</time>
			</trkpt>
			<trkpt lat="48.856409965083" lon="2.9916399624198675">
				<ele>142.0</ele>
				<time>2021-02-25T10:16:04</time>
			</trkpt>
			<trkpt lat="48.858759915456176" lon="2.992019997909665">
				<ele>145.0</ele>
				<time>2021-02-25T10:16:45</time>
			</trkpt>
			<trkpt lat="48.86105999350548" lon="2.9914098791778088">
				<ele>139.0</ele>
				<time>2021-02-25T10:17:26</time>
			</trkpt>
			<trkpt lat="48.86993994936347" lon="2.9906099941581488">
				<ele>145.0</ele>
				<time>2021-02-25T10:20:00</time>
			</trkpt>
			<trkpt lat="48.87072994373739" lon="2.9903299547731876">
				<ele>143.0</ele>
				<time>2021-02-25T10:20:15</time>
			</trkpt>
			<trkpt lat="48.8714599236846" lon="2.9893999826163054">
				<ele>143.0</ele>
				<time>2021-02-25T10:20:31</time>
			</trkpt>
			<trkpt lat="48.87373988516629" lon="2.9854099452495575">
				<ele>146.0</ele>
				<time>2021-02-25T10:21:32</time>
			</trkpt>
			<trkpt lat="48.874289905652404" lon="2.9838799964636564">
				<ele>148.0</ele>
				<time>2021-02-25T10:21:52</time>
			</trkpt>
			<trkpt lat="48.87666994705796" lon="2.9796699341386557">
				<ele>152.0</ele>
				<time>2021-02-25T10:22:55</time>
			</trkpt>
			<trkpt lat="48.87649987824261" lon="2.979499949142337">
				<ele>152.0</ele>
				<time>2021-02-25T10:22:59</time>
			</trkpt>
			<trkpt lat="48.87414984405041" lon="2.971069850027561">
				<ele>155.0</ele>
				<time>2021-02-25T10:24:44</time>
			</trkpt>
			<trkpt lat="48.872119998559356" lon="2.967889839783311">
				<ele>152.0</ele>
				<time>2021-02-25T10:25:34</time>
			</trkpt>
			<trkpt lat="48.86822987347841" lon="2.9601699393242598">
				<ele>148.0</ele>
				<time>2021-02-25T10:27:26</time>
			</trkpt>
			<trkpt lat="48.865999951958656" lon="2.954689934849739">
				<ele>148.0</ele>
				<time>2021-02-25T10:28:39</time>
			</trkpt>
			<trkpt lat="48.86544984765351" lon="2.95090994797647">
				<ele>139.0</ele>
				<time>2021-02-25T10:29:24</time>
			</trkpt>
			<trkpt lat="48.86535990983248" lon="2.948809862136841">
				<ele>136.0</ele>
				<time>2021-02-25T10:29:48</time>
			</trkpt>
			<trkpt lat="48.864279985427856" lon="2.9419098794460297">
				<ele>104.0</ele>
				<time>2021-02-25T10:31:09</time>
			</trkpt>
			<trkpt lat="48.86168997734785" lon="2.933579860255122">
				<ele>91.0</ele>
				<time>2021-02-25T10:32:54</time>
			</trkpt>
			<trkpt lat="48.86082999408245" lon="2.927659973502159">
				<ele>81.0</ele>
				<time>2021-02-25T10:34:04</time>
			</trkpt>
			<trkpt lat="48.86063997633755" lon="2.925229975953698">
				<ele>77.0</ele>
				<time>2021-02-25T10:34:32</time>
			</trkpt>
			<trkpt lat="48.86044995859265" lon="2.92469990439713">
				<ele>75.0</ele>
				<time>2021-02-25T10:34:39</time>
			</trkpt>
			<trkpt lat="48.859399957582355" lon="2.9231998790055513">
				<ele>69.0</ele>
				<time>2021-02-25T10:35:04</time>
			</trkpt>
			<trkpt lat="48.85900994762778" lon="2.9219298530369997">
				<ele>63.0</ele>
				<time>2021-02-25T10:35:20</time>
			</trkpt>
			<trkpt lat="48.85904984548688" lon="2.91801986284554">
				<ele>56.0</ele>
				<time>2021-02-25T10:36:05</time>
			</trkpt>
			<trkpt lat="48.85949995368719" lon="2.9150799103081226">
				<ele>55.0</ele>
				<time>2021-02-25T10:36:39</time>
			</trkpt>
			<trkpt lat="48.858049884438515" lon="2.91360997594893">
				<ele>51.0</ele>
				<time>2021-02-25T10:37:10</time>
			</trkpt>
			<trkpt lat="48.8576898816973" lon="2.9081598948687315">
				<ele>51.0</ele>
				<time>2021-02-25T10:38:12</time>
			</trkpt>
			<trkpt lat="48.8581299316138" lon="2.9072999116033316">
				<ele>49.0</ele>
				<time>2021-02-25T10:38:25</time>
			</trkpt>
			<trkpt lat="48.85844986885786" lon="2.9072098899632692">
				<ele>49.0</ele>
				<time>2021-02-25T10:38:30</time>
			</trkpt>
		</trkseg>
	</trk>
</gpx>
