<?xml version="1.0" encoding="UTF-8"?>
<gpx creator="Garmin Connect" version="1.1" xsi:schemaLocation="http://www.topografix.com/GPX/1/1 http://www.topografix.com/GPX/11.xsd" xmlns:ns3="http://www.garmin.com/xmlschemas/TrackPointExtension/v1" xmlns="http://www.topografix.com/GPX/1/1" xmlns:xsi="http://www.w3.org/2001/XMLSchema-instance" xmlns:ns2="http://www.garmin.com/xmlschemas/GpxExtensions/v3">
	<metadata>
		<name>208-G3-69 km-D 799 m-Mary sur Marne</name>
		<link href="connect.garmin.com">
			<text>Garmin Connect</text>
		</link>
		<time>2020-06-30T08:00:00</time>
	</metadata>
	<trk>
		<name>208-G3-69 km-D 799 m-Mary sur Marne</name>
		<trkseg>
			<trkpt lat="48.85790999047458" lon="2.90688986890018">
				<ele>49.0</ele>
				<time>2020-06-30T08:00:00</time>
			</trkpt>
			<trkpt lat="48.85824996046722" lon="2.9070799704641104">
				<ele>49.0</ele>
				<time>2020-06-30T08:00:06</time>
			</trkpt>
			<trkpt lat="48.858239986002445" lon="2.907229922711849">
				<ele>49.0</ele>
				<time>2020-06-30T08:00:08</time>
			</trkpt>
			<trkpt lat="48.8581299316138" lon="2.9072999954223633">
				<ele>49.0</ele>
				<time>2020-06-30T08:00:10</time>
			</trkpt>
			<trkpt lat="48.857119996100664" lon="2.909199921414256">
				<ele>51.0</ele>
				<time>2020-06-30T08:00:38</time>
			</trkpt>
			<trkpt lat="48.85718998499215" lon="2.9095099680125713">
				<ele>51.0</ele>
				<time>2020-06-30T08:00:42</time>
			</trkpt>
			<trkpt lat="48.85731998831034" lon="2.91055996902287">
				<ele>51.0</ele>
				<time>2020-06-30T08:00:54</time>
			</trkpt>
			<trkpt lat="48.85772994719446" lon="2.9135699942708015">
				<ele>51.0</ele>
				<time>2020-06-30T08:01:29</time>
			</trkpt>
			<trkpt lat="48.858049968257546" lon="2.91360997594893">
				<ele>51.0</ele>
				<time>2020-06-30T08:01:35</time>
			</trkpt>
			<trkpt lat="48.858239986002445" lon="2.9137199465185404">
				<ele>51.0</ele>
				<time>2020-06-30T08:01:38</time>
			</trkpt>
			<trkpt lat="48.859289987012744" lon="2.9148699436336756">
				<ele>53.0</ele>
				<time>2020-06-30T08:02:01</time>
			</trkpt>
			<trkpt lat="48.859369950369" lon="2.915249979123473">
				<ele>54.0</ele>
				<time>2020-06-30T08:02:05</time>
			</trkpt>
			<trkpt lat="48.859379924833775" lon="2.9155299346894026">
				<ele>55.0</ele>
				<time>2020-06-30T08:02:09</time>
			</trkpt>
			<trkpt lat="48.85916995815933" lon="2.9171299561858177">
				<ele>56.0</ele>
				<time>2020-06-30T08:02:27</time>
			</trkpt>
			<trkpt lat="48.8591799326241" lon="2.917249985039234">
				<ele>57.0</ele>
				<time>2020-06-30T08:02:29</time>
			</trkpt>
			<trkpt lat="48.85904992930591" lon="2.9180199466645718">
				<ele>56.0</ele>
				<time>2020-06-30T08:02:38</time>
			</trkpt>
			<trkpt lat="48.85908999480307" lon="2.9181899316608906">
				<ele>57.0</ele>
				<time>2020-06-30T08:02:40</time>
			</trkpt>
			<trkpt lat="48.859079936519265" lon="2.918549934402108">
				<ele>57.0</ele>
				<time>2020-06-30T08:02:44</time>
			</trkpt>
			<trkpt lat="48.858949933201075" lon="2.919619968160987">
				<ele>57.0</ele>
				<time>2020-06-30T08:02:57</time>
			</trkpt>
			<trkpt lat="48.8589399587363" lon="2.9202199447900057">
				<ele>59.0</ele>
				<time>2020-06-30T08:03:03</time>
			</trkpt>
			<trkpt lat="48.85897994041443" lon="2.921679988503456">
				<ele>62.0</ele>
				<time>2020-06-30T08:03:20</time>
			</trkpt>
			<trkpt lat="48.85905998758972" lon="2.9222199507057667">
				<ele>64.0</ele>
				<time>2020-06-30T08:03:26</time>
			</trkpt>
			<trkpt lat="48.85914992541075" lon="2.922539971768856">
				<ele>66.0</ele>
				<time>2020-06-30T08:03:30</time>
			</trkpt>
			<trkpt lat="48.859399957582355" lon="2.923199962824583">
				<ele>69.0</ele>
				<time>2020-06-30T08:03:39</time>
			</trkpt>
			<trkpt lat="48.8595599681139" lon="2.9234999511390924">
				<ele>70.0</ele>
				<time>2020-06-30T08:03:44</time>
			</trkpt>
			<trkpt lat="48.86044995859265" lon="2.9246999882161617">
				<ele>75.0</ele>
				<time>2020-06-30T08:04:04</time>
			</trkpt>
			<trkpt lat="48.86063997633755" lon="2.925229975953698">
				<ele>77.0</ele>
				<time>2020-06-30T08:04:11</time>
			</trkpt>
			<trkpt lat="48.86076997965574" lon="2.926139999181032">
				<ele>78.0</ele>
				<time>2020-06-30T08:04:22</time>
			</trkpt>
			<trkpt lat="48.86082999408245" lon="2.927659973502159">
				<ele>81.0</ele>
				<time>2020-06-30T08:04:39</time>
			</trkpt>
			<trkpt lat="48.86168997734785" lon="2.933579944074154">
				<ele>91.0</ele>
				<time>2020-06-30T08:05:49</time>
			</trkpt>
			<trkpt lat="48.862429931759834" lon="2.9359299782663584">
				<ele>93.0</ele>
				<time>2020-06-30T08:06:19</time>
			</trkpt>
			<trkpt lat="48.863609936088324" lon="2.9394799657166004">
				<ele>97.0</ele>
				<time>2020-06-30T08:07:04</time>
			</trkpt>
			<trkpt lat="48.86397999711335" lon="2.940719984471798">
				<ele>100.0</ele>
				<time>2020-06-30T08:07:20</time>
			</trkpt>
			<trkpt lat="48.864279985427856" lon="2.9419099632650614">
				<ele>104.0</ele>
				<time>2020-06-30T08:07:34</time>
			</trkpt>
			<trkpt lat="48.8644899521023" lon="2.942989971488714">
				<ele>105.0</ele>
				<time>2020-06-30T08:07:47</time>
			</trkpt>
			<trkpt lat="48.86535999365151" lon="2.9488099459558725">
				<ele>136.0</ele>
				<time>2020-06-30T08:08:55</time>
			</trkpt>
			<trkpt lat="48.86544993147254" lon="2.95090994797647">
				<ele>139.0</ele>
				<time>2020-06-30T08:09:20</time>
			</trkpt>
			<trkpt lat="48.86585997417569" lon="2.9539199732244015">
				<ele>148.0</ele>
				<time>2020-06-30T08:09:55</time>
			</trkpt>
			<trkpt lat="48.865999951958656" lon="2.954689934849739">
				<ele>148.0</ele>
				<time>2020-06-30T08:10:04</time>
			</trkpt>
			<trkpt lat="48.86608997359872" lon="2.9550399631261826">
				<ele>149.0</ele>
				<time>2020-06-30T08:10:08</time>
			</trkpt>
			<trkpt lat="48.868229957297444" lon="2.9601699393242598">
				<ele>148.0</ele>
				<time>2020-06-30T08:11:18</time>
			</trkpt>
			<trkpt lat="48.867289926856756" lon="2.962859943509102">
				<ele>146.0</ele>
				<time>2020-06-30T08:11:53</time>
			</trkpt>
			<trkpt lat="48.86684996075928" lon="2.964029973372817">
				<ele>145.0</ele>
				<time>2020-06-30T08:12:08</time>
			</trkpt>
			<trkpt lat="48.864129949361086" lon="2.9696299228817225">
				<ele>150.0</ele>
				<time>2020-06-30T08:13:28</time>
			</trkpt>
			<trkpt lat="48.86333995498717" lon="2.979589970782399">
				<ele>145.0</ele>
				<time>2020-06-30T08:15:23</time>
			</trkpt>
			<trkpt lat="48.86307994835079" lon="2.981019923463464">
				<ele>144.0</ele>
				<time>2020-06-30T08:15:40</time>
			</trkpt>
			<trkpt lat="48.86278993450105" lon="2.9822699166834354">
				<ele>141.0</ele>
				<time>2020-06-30T08:15:55</time>
			</trkpt>
			<trkpt lat="48.86262992396951" lon="2.983549917116761">
				<ele>140.0</ele>
				<time>2020-06-30T08:16:10</time>
			</trkpt>
			<trkpt lat="48.8625199533999" lon="2.9843299370259047">
				<ele>140.0</ele>
				<time>2020-06-30T08:16:19</time>
			</trkpt>
			<trkpt lat="48.86247997172177" lon="2.986219972372055">
				<ele>142.0</ele>
				<time>2020-06-30T08:16:41</time>
			</trkpt>
			<trkpt lat="48.86250997893512" lon="2.988399937748909">
				<ele>139.0</ele>
				<time>2020-06-30T08:17:05</time>
			</trkpt>
			<trkpt lat="48.86239992454648" lon="2.9895799420773983">
				<ele>137.0</ele>
				<time>2020-06-30T08:17:19</time>
			</trkpt>
			<trkpt lat="48.862409982830286" lon="2.990159969776869">
				<ele>137.0</ele>
				<time>2020-06-30T08:17:26</time>
			</trkpt>
			<trkpt lat="48.86243999004364" lon="2.990449983626604">
				<ele>138.0</ele>
				<time>2020-06-30T08:17:29</time>
			</trkpt>
			<trkpt lat="48.86256999336183" lon="2.9907199647277594">
				<ele>140.0</ele>
				<time>2020-06-30T08:17:33</time>
			</trkpt>
			<trkpt lat="48.86271994560957" lon="2.991249952465296">
				<ele>140.0</ele>
				<time>2020-06-30T08:17:40</time>
			</trkpt>
			<trkpt lat="48.86346995830536" lon="2.9911799635738134">
				<ele>140.0</ele>
				<time>2020-06-30T08:17:53</time>
			</trkpt>
			<trkpt lat="48.86398997157812" lon="2.991139981895685">
				<ele>141.0</ele>
				<time>2020-06-30T08:18:02</time>
			</trkpt>
			<trkpt lat="48.86419993825257" lon="2.9911799635738134">
				<ele>141.0</ele>
				<time>2020-06-30T08:18:05</time>
			</trkpt>
			<trkpt lat="48.86435994878411" lon="2.9913699813187122">
				<ele>142.0</ele>
				<time>2020-06-30T08:18:09</time>
			</trkpt>
			<trkpt lat="48.865439957007766" lon="2.9922899790108204">
				<ele>145.0</ele>
				<time>2020-06-30T08:18:30</time>
			</trkpt>
			<trkpt lat="48.86611998081207" lon="2.9928999301046133">
				<ele>147.0</ele>
				<time>2020-06-30T08:18:44</time>
			</trkpt>
			<trkpt lat="48.86609994806349" lon="2.993029933422804">
				<ele>147.0</ele>
				<time>2020-06-30T08:18:46</time>
			</trkpt>
			<trkpt lat="48.86657997965813" lon="2.993549946695566">
				<ele>148.0</ele>
				<time>2020-06-30T08:18:56</time>
			</trkpt>
			<trkpt lat="48.86726997792721" lon="2.99443993717432">
				<ele>148.0</ele>
				<time>2020-06-30T08:19:12</time>
			</trkpt>
			<trkpt lat="48.8675899989903" lon="2.994649987667799">
				<ele>148.0</ele>
				<time>2020-06-30T08:19:18</time>
			</trkpt>
			<trkpt lat="48.86839994229376" lon="2.9948099981993437">
				<ele>148.0</ele>
				<time>2020-06-30T08:19:32</time>
			</trkpt>
			<trkpt lat="48.86857998557389" lon="2.995139993727207">
				<ele>149.0</ele>
				<time>2020-06-30T08:19:37</time>
			</trkpt>
			<trkpt lat="48.86874997057021" lon="2.9956799559295177">
				<ele>149.0</ele>
				<time>2020-06-30T08:19:44</time>
			</trkpt>
			<trkpt lat="48.868899922817945" lon="2.995799984782934">
				<ele>149.0</ele>
				<time>2020-06-30T08:19:47</time>
			</trkpt>
			<trkpt lat="48.86907996609807" lon="2.9957599192857742">
				<ele>149.0</ele>
				<time>2020-06-30T08:19:50</time>
			</trkpt>
			<trkpt lat="48.869239976629615" lon="2.995549952611327">
				<ele>149.0</ele>
				<time>2020-06-30T08:19:54</time>
			</trkpt>
			<trkpt lat="48.869519932195544" lon="2.9947699327021837">
				<ele>149.0</ele>
				<time>2020-06-30T08:20:04</time>
			</trkpt>
			<trkpt lat="48.86968991719186" lon="2.994599947705865">
				<ele>149.0</ele>
				<time>2020-06-30T08:20:07</time>
			</trkpt>
			<trkpt lat="48.86988999322057" lon="2.994569940492511">
				<ele>149.0</ele>
				<time>2020-06-30T08:20:11</time>
			</trkpt>
			<trkpt lat="48.87025997042656" lon="2.994619980454445">
				<ele>150.0</ele>
				<time>2020-06-30T08:20:17</time>
			</trkpt>
			<trkpt lat="48.87106999754906" lon="2.994619980454445">
				<ele>150.0</ele>
				<time>2020-06-30T08:20:31</time>
			</trkpt>
			<trkpt lat="48.87114996090531" lon="2.9947699327021837">
				<ele>150.0</ele>
				<time>2020-06-30T08:20:34</time>
			</trkpt>
			<trkpt lat="48.87116999365389" lon="2.9949699249118567">
				<ele>150.0</ele>
				<time>2020-06-30T08:20:36</time>
			</trkpt>
			<trkpt lat="48.871219949796796" lon="2.9962699580937624">
				<ele>151.0</ele>
				<time>2020-06-30T08:20:51</time>
			</trkpt>
			<trkpt lat="48.87126998975873" lon="2.9973999224603176">
				<ele>151.0</ele>
				<time>2020-06-30T08:21:04</time>
			</trkpt>
			<trkpt lat="48.87131994590163" lon="2.997749950736761">
				<ele>152.0</ele>
				<time>2020-06-30T08:21:08</time>
			</trkpt>
			<trkpt lat="48.87137996032834" lon="2.997889928519726">
				<ele>152.0</ele>
				<time>2020-06-30T08:21:10</time>
			</trkpt>
			<trkpt lat="48.87159998528659" lon="2.998149935156107">
				<ele>152.0</ele>
				<time>2020-06-30T08:21:15</time>
			</trkpt>
			<trkpt lat="48.87298995628953" lon="2.999299932271242">
				<ele>151.0</ele>
				<time>2020-06-30T08:21:42</time>
			</trkpt>
			<trkpt lat="48.87317997403443" lon="2.9995899461209774">
				<ele>151.0</ele>
				<time>2020-06-30T08:21:47</time>
			</trkpt>
			<trkpt lat="48.87395999394357" lon="3.0014399997889996">
				<ele>153.0</ele>
				<time>2020-06-30T08:22:12</time>
			</trkpt>
			<trkpt lat="48.87403995729983" lon="3.0015899520367384">
				<ele>153.0</ele>
				<time>2020-06-30T08:22:14</time>
			</trkpt>
			<trkpt lat="48.874249923974276" lon="3.0018199514597654">
				<ele>153.0</ele>
				<time>2020-06-30T08:22:19</time>
			</trkpt>
			<trkpt lat="48.87460992671549" lon="3.0018999986350536">
				<ele>153.0</ele>
				<time>2020-06-30T08:22:25</time>
			</trkpt>
			<trkpt lat="48.87737997807562" lon="3.001289963722229">
				<ele>154.0</ele>
				<time>2020-06-30T08:23:14</time>
			</trkpt>
			<trkpt lat="48.877879958599806" lon="3.001279989257455">
				<ele>155.0</ele>
				<time>2020-06-30T08:23:22</time>
			</trkpt>
			<trkpt lat="48.878389997407794" lon="3.001479981467128">
				<ele>154.0</ele>
				<time>2020-06-30T08:23:32</time>
			</trkpt>
			<trkpt lat="48.87995992787182" lon="3.0023099575191736">
				<ele>155.0</ele>
				<time>2020-06-30T08:24:01</time>
			</trkpt>
			<trkpt lat="48.880499973893166" lon="3.0026699602603912">
				<ele>155.0</ele>
				<time>2020-06-30T08:24:11</time>
			</trkpt>
			<trkpt lat="48.88100992888212" lon="3.0031999479979277">
				<ele>156.0</ele>
				<time>2020-06-30T08:24:22</time>
			</trkpt>
			<trkpt lat="48.881119983270764" lon="3.0031699407845736">
				<ele>157.0</ele>
				<time>2020-06-30T08:24:24</time>
			</trkpt>
			<trkpt lat="48.88116993941367" lon="3.0034099984914064">
				<ele>157.0</ele>
				<time>2020-06-30T08:24:26</time>
			</trkpt>
			<trkpt lat="48.88132994994521" lon="3.00373999401927">
				<ele>156.0</ele>
				<time>2020-06-30T08:24:31</time>
			</trkpt>
			<trkpt lat="48.88280994258821" lon="3.005749974399805">
				<ele>155.0</ele>
				<time>2020-06-30T08:25:06</time>
			</trkpt>
			<trkpt lat="48.883719965815544" lon="3.007079930976033">
				<ele>155.0</ele>
				<time>2020-06-30T08:25:28</time>
			</trkpt>
			<trkpt lat="48.8909699767828" lon="3.0171299166977406">
				<ele>150.0</ele>
				<time>2020-06-30T08:28:18</time>
			</trkpt>
			<trkpt lat="48.891369961202145" lon="3.0180099327117205">
				<ele>151.0</ele>
				<time>2020-06-30T08:28:31</time>
			</trkpt>
			<trkpt lat="48.89150993898511" lon="3.0184599570930004">
				<ele>153.0</ele>
				<time>2020-06-30T08:28:36</time>
			</trkpt>
			<trkpt lat="48.89253999106586" lon="3.0232899449765682">
				<ele>155.0</ele>
				<time>2020-06-30T08:29:34</time>
			</trkpt>
			<trkpt lat="48.89274995774031" lon="3.0240199249237776">
				<ele>156.0</ele>
				<time>2020-06-30T08:29:43</time>
			</trkpt>
			<trkpt lat="48.89352997764945" lon="3.025289950892329">
				<ele>155.0</ele>
				<time>2020-06-30T08:30:03</time>
			</trkpt>
			<trkpt lat="48.89708993956447" lon="3.03035999648273">
				<ele>159.0</ele>
				<time>2020-06-30T08:31:28</time>
			</trkpt>
			<trkpt lat="48.89709010720253" lon="3.030360247939825">
				<ele>159.0</ele>
				<time>2020-06-30T08:31:28</time>
			</trkpt>
			<trkpt lat="48.89905993826687" lon="3.0333799961954355">
				<ele>159.0</ele>
				<time>2020-06-30T08:32:17</time>
			</trkpt>
			<trkpt lat="48.89951993711293" lon="3.034139983355999">
				<ele>159.0</ele>
				<time>2020-06-30T08:32:29</time>
			</trkpt>
			<trkpt lat="48.9001499209553" lon="3.035649983212352">
				<ele>162.0</ele>
				<time>2020-06-30T08:32:49</time>
			</trkpt>
			<trkpt lat="48.900499949231744" lon="3.0355699360370636">
				<ele>162.0</ele>
				<time>2020-06-30T08:32:55</time>
			</trkpt>
			<trkpt lat="48.900649985298514" lon="3.035469939932227">
				<ele>162.0</ele>
				<time>2020-06-30T08:32:58</time>
			</trkpt>
			<trkpt lat="48.90083991922438" lon="3.0352399405092">
				<ele>162.0</ele>
				<time>2020-06-30T08:33:02</time>
			</trkpt>
			<trkpt lat="48.90360997058451" lon="3.0314199719578028">
				<ele>165.0</ele>
				<time>2020-06-30T08:34:08</time>
			</trkpt>
			<trkpt lat="48.90403996221721" lon="3.0306799337267876">
				<ele>167.0</ele>
				<time>2020-06-30T08:34:19</time>
			</trkpt>
			<trkpt lat="48.90598992817104" lon="3.026759969070554">
				<ele>168.0</ele>
				<time>2020-06-30T08:35:15</time>
			</trkpt>
			<trkpt lat="48.906989973038435" lon="3.0247499886900187">
				<ele>162.0</ele>
				<time>2020-06-30T08:35:44</time>
			</trkpt>
			<trkpt lat="48.90735995024443" lon="3.024099972099066">
				<ele>161.0</ele>
				<time>2020-06-30T08:35:54</time>
			</trkpt>
			<trkpt lat="48.90806998126209" lon="3.022999931126833">
				<ele>164.0</ele>
				<time>2020-06-30T08:36:11</time>
			</trkpt>
			<trkpt lat="48.908489998430014" lon="3.0224699433892965">
				<ele>163.0</ele>
				<time>2020-06-30T08:36:21</time>
			</trkpt>
			<trkpt lat="48.910019947215915" lon="3.021039990708232">
				<ele>168.0</ele>
				<time>2020-06-30T08:36:52</time>
			</trkpt>
			<trkpt lat="48.910429989919066" lon="3.020589966326952">
				<ele>170.0</ele>
				<time>2020-06-30T08:37:01</time>
			</trkpt>
			<trkpt lat="48.912469977512956" lon="3.0175399594008923">
				<ele>173.0</ele>
				<time>2020-06-30T08:37:51</time>
			</trkpt>
			<trkpt lat="48.91281992197037" lon="3.0191499553620815">
				<ele>173.0</ele>
				<time>2020-06-30T08:38:10</time>
			</trkpt>
			<trkpt lat="48.91339994966984" lon="3.0208999291062355">
				<ele>167.0</ele>
				<time>2020-06-30T08:38:33</time>
			</trkpt>
			<trkpt lat="48.91404996626079" lon="3.0231099855154753">
				<ele>171.0</ele>
				<time>2020-06-30T08:39:00</time>
			</trkpt>
			<trkpt lat="48.91438993625343" lon="3.023969968780875">
				<ele>173.0</ele>
				<time>2020-06-30T08:39:12</time>
			</trkpt>
			<trkpt lat="48.91449999064207" lon="3.024369953200221">
				<ele>174.0</ele>
				<time>2020-06-30T08:39:17</time>
			</trkpt>
			<trkpt lat="48.91440996900201" lon="3.0256199464201927">
				<ele>171.0</ele>
				<time>2020-06-30T08:39:31</time>
			</trkpt>
			<trkpt lat="48.9139199629426" lon="3.0297799687832594">
				<ele>170.0</ele>
				<time>2020-06-30T08:40:19</time>
			</trkpt>
			<trkpt lat="48.9139199629426" lon="3.0304899998009205">
				<ele>171.0</ele>
				<time>2020-06-30T08:40:27</time>
			</trkpt>
			<trkpt lat="48.9141099806875" lon="3.0309399403631687">
				<ele>171.0</ele>
				<time>2020-06-30T08:40:34</time>
			</trkpt>
			<trkpt lat="48.917369954288006" lon="3.0359999276697636">
				<ele>164.0</ele>
				<time>2020-06-30T08:41:55</time>
			</trkpt>
			<trkpt lat="48.917559972032905" lon="3.036349955946207">
				<ele>163.0</ele>
				<time>2020-06-30T08:42:00</time>
			</trkpt>
			<trkpt lat="48.91786993481219" lon="3.0371299758553505">
				<ele>162.0</ele>
				<time>2020-06-30T08:42:10</time>
			</trkpt>
			<trkpt lat="48.91799993813038" lon="3.0373499169945717">
				<ele>162.0</ele>
				<time>2020-06-30T08:42:14</time>
			</trkpt>
			<trkpt lat="48.91917994245887" lon="3.039009952917695">
				<ele>160.0</ele>
				<time>2020-06-30T08:42:42</time>
			</trkpt>
			<trkpt lat="48.91954991966486" lon="3.039659969508648">
				<ele>159.0</ele>
				<time>2020-06-30T08:42:51</time>
			</trkpt>
			<trkpt lat="48.9196599740535" lon="3.0399399250745773">
				<ele>158.0</ele>
				<time>2020-06-30T08:42:55</time>
			</trkpt>
			<trkpt lat="48.91977991908789" lon="3.040529927238822">
				<ele>157.0</ele>
				<time>2020-06-30T08:43:02</time>
			</trkpt>
			<trkpt lat="48.920049984008074" lon="3.0422499775886536">
				<ele>154.0</ele>
				<time>2020-06-30T08:43:22</time>
			</trkpt>
			<trkpt lat="48.92068994231522" lon="3.0448199529200792">
				<ele>147.0</ele>
				<time>2020-06-30T08:43:54</time>
			</trkpt>
			<trkpt lat="48.92109998501837" lon="3.0460399389266968">
				<ele>142.0</ele>
				<time>2020-06-30T08:44:10</time>
			</trkpt>
			<trkpt lat="48.92181999050081" lon="3.0475399643182755">
				<ele>133.0</ele>
				<time>2020-06-30T08:44:31</time>
			</trkpt>
			<trkpt lat="48.92248995602131" lon="3.0490799713879824">
				<ele>125.0</ele>
				<time>2020-06-30T08:44:52</time>
			</trkpt>
			<trkpt lat="48.9236699603498" lon="3.0508299451321363">
				<ele>117.0</ele>
				<time>2020-06-30T08:45:21</time>
			</trkpt>
			<trkpt lat="48.92441997304559" lon="3.051929986104369">
				<ele>113.0</ele>
				<time>2020-06-30T08:45:39</time>
			</trkpt>
			<trkpt lat="48.924519969150424" lon="3.0521399527788162">
				<ele>113.0</ele>
				<time>2020-06-30T08:45:42</time>
			</trkpt>
			<trkpt lat="48.92461996525526" lon="3.052549995481968">
				<ele>113.0</ele>
				<time>2020-06-30T08:45:47</time>
			</trkpt>
			<trkpt lat="48.9247199613601" lon="3.054309943690896">
				<ele>113.0</ele>
				<time>2020-06-30T08:46:07</time>
			</trkpt>
			<trkpt lat="48.92461996525526" lon="3.0550099164247513">
				<ele>114.0</ele>
				<time>2020-06-30T08:46:15</time>
			</trkpt>
			<trkpt lat="48.924589958041906" lon="3.0557699874043465">
				<ele>114.0</ele>
				<time>2020-06-30T08:46:24</time>
			</trkpt>
			<trkpt lat="48.92467997968197" lon="3.057599924504757">
				<ele>108.0</ele>
				<time>2020-06-30T08:46:45</time>
			</trkpt>
			<trkpt lat="48.92473999410868" lon="3.0582199338823557">
				<ele>109.0</ele>
				<time>2020-06-30T08:46:52</time>
			</trkpt>
			<trkpt lat="48.925079964101315" lon="3.0595199670642614">
				<ele>110.0</ele>
				<time>2020-06-30T08:47:08</time>
			</trkpt>
			<trkpt lat="48.92526998184621" lon="3.0601699836552143">
				<ele>108.0</ele>
				<time>2020-06-30T08:47:16</time>
			</trkpt>
			<trkpt lat="48.925919998437166" lon="3.0619499646127224">
				<ele>105.0</ele>
				<time>2020-06-30T08:47:39</time>
			</trkpt>
			<trkpt lat="48.92597992904484" lon="3.062479952350259">
				<ele>105.0</ele>
				<time>2020-06-30T08:47:46</time>
			</trkpt>
			<trkpt lat="48.925959980115294" lon="3.063419982790947">
				<ele>106.0</ele>
				<time>2020-06-30T08:47:56</time>
			</trkpt>
			<trkpt lat="48.92609995789826" lon="3.0644399765878916">
				<ele>105.0</ele>
				<time>2020-06-30T08:48:08</time>
			</trkpt>
			<trkpt lat="48.92614999786019" lon="3.065229970961809">
				<ele>105.0</ele>
				<time>2020-06-30T08:48:17</time>
			</trkpt>
			<trkpt lat="48.926499942317605" lon="3.0663299281150103">
				<ele>99.0</ele>
				<time>2020-06-30T08:48:31</time>
			</trkpt>
			<trkpt lat="48.92740996554494" lon="3.0680099967867136">
				<ele>94.0</ele>
				<time>2020-06-30T08:48:56</time>
			</trkpt>
			<trkpt lat="48.92757995054126" lon="3.0682499706745148">
				<ele>93.0</ele>
				<time>2020-06-30T08:49:00</time>
			</trkpt>
			<trkpt lat="48.92731994390488" lon="3.06853998452425">
				<ele>94.0</ele>
				<time>2020-06-30T08:49:06</time>
			</trkpt>
			<trkpt lat="48.92725992947817" lon="3.0688199400901794">
				<ele>94.0</ele>
				<time>2020-06-30T08:49:09</time>
			</trkpt>
			<trkpt lat="48.92738993279636" lon="3.0702099949121475">
				<ele>91.0</ele>
				<time>2020-06-30T08:49:25</time>
			</trkpt>
			<trkpt lat="48.927569976076484" lon="3.071229988709092">
				<ele>93.0</ele>
				<time>2020-06-30T08:49:37</time>
			</trkpt>
			<trkpt lat="48.92757995054126" lon="3.071459988132119">
				<ele>94.0</ele>
				<time>2020-06-30T08:49:40</time>
			</trkpt>
			<trkpt lat="48.927499987185" lon="3.0726099852472544">
				<ele>97.0</ele>
				<time>2020-06-30T08:49:53</time>
			</trkpt>
			<trkpt lat="48.92743997275829" lon="3.0757199227809906">
				<ele>107.0</ele>
				<time>2020-06-30T08:50:29</time>
			</trkpt>
			<trkpt lat="48.92700998112559" lon="3.0794999934732914">
				<ele>115.0</ele>
				<time>2020-06-30T08:51:13</time>
			</trkpt>
			<trkpt lat="48.92680998891592" lon="3.0810499750077724">
				<ele>117.0</ele>
				<time>2020-06-30T08:51:31</time>
			</trkpt>
			<trkpt lat="48.926629945635796" lon="3.0827999487519264">
				<ele>124.0</ele>
				<time>2020-06-30T08:51:51</time>
			</trkpt>
			<trkpt lat="48.92667998559773" lon="3.0832699220627546">
				<ele>125.0</ele>
				<time>2020-06-30T08:51:56</time>
			</trkpt>
			<trkpt lat="48.9268799778074" lon="3.0841199308633804">
				<ele>126.0</ele>
				<time>2020-06-30T08:52:07</time>
			</trkpt>
			<trkpt lat="48.926949966698885" lon="3.0845999624580145">
				<ele>128.0</ele>
				<time>2020-06-30T08:52:12</time>
			</trkpt>
			<trkpt lat="48.92698994837701" lon="3.085209997370839">
				<ele>130.0</ele>
				<time>2020-06-30T08:52:19</time>
			</trkpt>
			<trkpt lat="48.92695994116366" lon="3.085569916293025">
				<ele>130.0</ele>
				<time>2020-06-30T08:52:23</time>
			</trkpt>
			<trkpt lat="48.92655995674431" lon="3.0874299444258213">
				<ele>117.0</ele>
				<time>2020-06-30T08:52:46</time>
			</trkpt>
			<trkpt lat="48.92653992399573" lon="3.0880899354815483">
				<ele>115.0</ele>
				<time>2020-06-30T08:52:53</time>
			</trkpt>
			<trkpt lat="48.926839996129274" lon="3.090419936925173">
				<ele>109.0</ele>
				<time>2020-06-30T08:53:21</time>
			</trkpt>
			<trkpt lat="48.927229922264814" lon="3.091599941253662">
				<ele>116.0</ele>
				<time>2020-06-30T08:53:36</time>
			</trkpt>
			<trkpt lat="48.92727996222675" lon="3.0919299367815256">
				<ele>119.0</ele>
				<time>2020-06-30T08:53:40</time>
			</trkpt>
			<trkpt lat="48.92733997665346" lon="3.092479957267642">
				<ele>124.0</ele>
				<time>2020-06-30T08:53:46</time>
			</trkpt>
			<trkpt lat="48.92738993279636" lon="3.093809997662902">
				<ele>133.0</ele>
				<time>2020-06-30T08:54:01</time>
			</trkpt>
			<trkpt lat="48.92785998992622" lon="3.0949899181723595">
				<ele>140.0</ele>
				<time>2020-06-30T08:54:17</time>
			</trkpt>
			<trkpt lat="48.92788999713957" lon="3.0953199975192547">
				<ele>141.0</ele>
				<time>2020-06-30T08:54:21</time>
			</trkpt>
			<trkpt lat="48.92786996439099" lon="3.0961399991065264">
				<ele>144.0</ele>
				<time>2020-06-30T08:54:30</time>
			</trkpt>
			<trkpt lat="48.92790994606912" lon="3.0966399796307087">
				<ele>144.0</ele>
				<time>2020-06-30T08:54:36</time>
			</trkpt>
			<trkpt lat="48.92800994217396" lon="3.0971899162977934">
				<ele>144.0</ele>
				<time>2020-06-30T08:54:42</time>
			</trkpt>
			<trkpt lat="48.928519980981946" lon="3.099339958280325">
				<ele>143.0</ele>
				<time>2020-06-30T08:55:09</time>
			</trkpt>
			<trkpt lat="48.928579995408654" lon="3.0997199937701225">
				<ele>142.0</ele>
				<time>2020-06-30T08:55:13</time>
			</trkpt>
			<trkpt lat="48.92880999483168" lon="3.1014899164438248">
				<ele>145.0</ele>
				<time>2020-06-30T08:55:34</time>
			</trkpt>
			<trkpt lat="48.92905994318426" lon="3.1050299294292927">
				<ele>145.0</ele>
				<time>2020-06-30T08:56:14</time>
			</trkpt>
			<trkpt lat="48.929309975355864" lon="3.106519980356097">
				<ele>145.0</ele>
				<time>2020-06-30T08:56:32</time>
			</trkpt>
			<trkpt lat="48.929379964247346" lon="3.1075099669396877">
				<ele>144.0</ele>
				<time>2020-06-30T08:56:43</time>
			</trkpt>
			<trkpt lat="48.929359931498766" lon="3.108659964054823">
				<ele>143.0</ele>
				<time>2020-06-30T08:56:56</time>
			</trkpt>
			<trkpt lat="48.92919992096722" lon="3.1112099904567003">
				<ele>143.0</ele>
				<time>2020-06-30T08:57:26</time>
			</trkpt>
			<trkpt lat="48.92908995039761" lon="3.1118799559772015">
				<ele>143.0</ele>
				<time>2020-06-30T08:57:34</time>
			</trkpt>
			<trkpt lat="48.92906991764903" lon="3.112199977040291">
				<ele>143.0</ele>
				<time>2020-06-30T08:57:37</time>
			</trkpt>
			<trkpt lat="48.929139990359545" lon="3.113039927557111">
				<ele>142.0</ele>
				<time>2020-06-30T08:57:47</time>
			</trkpt>
			<trkpt lat="48.92912993207574" lon="3.113329941406846">
				<ele>142.0</ele>
				<time>2020-06-30T08:57:50</time>
			</trkpt>
			<trkpt lat="48.92905994318426" lon="3.1137399841099977">
				<ele>142.0</ele>
				<time>2020-06-30T08:57:55</time>
			</trkpt>
			<trkpt lat="48.92830993048847" lon="3.1167299766093493">
				<ele>144.0</ele>
				<time>2020-06-30T08:58:32</time>
			</trkpt>
			<trkpt lat="48.92819995991886" lon="3.1173899676650763">
				<ele>144.0</ele>
				<time>2020-06-30T08:58:40</time>
			</trkpt>
			<trkpt lat="48.92818998545408" lon="3.117729937657714">
				<ele>144.0</ele>
				<time>2020-06-30T08:58:43</time>
			</trkpt>
			<trkpt lat="48.928259974345565" lon="3.1181499548256397">
				<ele>144.0</ele>
				<time>2020-06-30T08:58:48</time>
			</trkpt>
			<trkpt lat="48.92852995544672" lon="3.119309926405549">
				<ele>146.0</ele>
				<time>2020-06-30T08:59:03</time>
			</trkpt>
			<trkpt lat="48.928539929911494" lon="3.120199916884303">
				<ele>148.0</ele>
				<time>2020-06-30T08:59:13</time>
			</trkpt>
			<trkpt lat="48.92848997376859" lon="3.1207299884408712">
				<ele>148.0</ele>
				<time>2020-06-30T08:59:19</time>
			</trkpt>
			<trkpt lat="48.92834999598563" lon="3.1216099206358194">
				<ele>149.0</ele>
				<time>2020-06-30T08:59:29</time>
			</trkpt>
			<trkpt lat="48.928109938278794" lon="3.122679954394698">
				<ele>150.0</ele>
				<time>2020-06-30T08:59:42</time>
			</trkpt>
			<trkpt lat="48.927959986031055" lon="3.1242699176073074">
				<ele>149.0</ele>
				<time>2020-06-30T09:00:00</time>
			</trkpt>
			<trkpt lat="48.927999967709184" lon="3.124399920925498">
				<ele>149.0</ele>
				<time>2020-06-30T09:00:02</time>
			</trkpt>
			<trkpt lat="48.92848997376859" lon="3.1251699663698673">
				<ele>147.0</ele>
				<time>2020-06-30T09:00:14</time>
			</trkpt>
			<trkpt lat="48.929359931498766" lon="3.1263599451631308">
				<ele>139.0</ele>
				<time>2020-06-30T09:00:35</time>
			</trkpt>
			<trkpt lat="48.93574995920062" lon="3.1231899932026863">
				<ele>106.0</ele>
				<time>2020-06-30T09:02:32</time>
			</trkpt>
			<trkpt lat="48.93575046211481" lon="3.123189741745591">
				<ele>105.99</ele>
				<time>2020-06-30T09:02:32</time>
			</trkpt>
			<trkpt lat="48.93731997348368" lon="3.122649947181344">
				<ele>99.0</ele>
				<time>2020-06-30T09:03:00</time>
			</trkpt>
			<trkpt lat="48.9382999856025" lon="3.1222799699753523">
				<ele>92.0</ele>
				<time>2020-06-30T09:03:17</time>
			</trkpt>
			<trkpt lat="48.938829973340034" lon="3.121989956125617">
				<ele>92.0</ele>
				<time>2020-06-30T09:03:27</time>
			</trkpt>
			<trkpt lat="48.94010997377336" lon="3.121049925684929">
				<ele>79.0</ele>
				<time>2020-06-30T09:03:52</time>
			</trkpt>
			<trkpt lat="48.94047995097935" lon="3.120859991759062">
				<ele>77.0</ele>
				<time>2020-06-30T09:03:59</time>
			</trkpt>
			<trkpt lat="48.94118998199701" lon="3.120699981227517">
				<ele>71.0</ele>
				<time>2020-06-30T09:04:11</time>
			</trkpt>
			<trkpt lat="48.94311999902129" lon="3.120669974014163">
				<ele>59.0</ele>
				<time>2020-06-30T09:04:45</time>
			</trkpt>
			<trkpt lat="48.943559965118766" lon="3.1207199301570654">
				<ele>56.0</ele>
				<time>2020-06-30T09:04:52</time>
			</trkpt>
			<trkpt lat="48.9432299695909" lon="3.1236599665135145">
				<ele>52.0</ele>
				<time>2020-06-30T09:05:26</time>
			</trkpt>
			<trkpt lat="48.94317992962897" lon="3.1238399259746075">
				<ele>52.0</ele>
				<time>2020-06-30T09:05:29</time>
			</trkpt>
			<trkpt lat="48.94323994405568" lon="3.12394998036325">
				<ele>53.0</ele>
				<time>2020-06-30T09:05:30</time>
			</trkpt>
			<trkpt lat="48.94333994016051" lon="3.123969929292798">
				<ele>53.0</ele>
				<time>2020-06-30T09:05:32</time>
			</trkpt>
			<trkpt lat="48.94338998012245" lon="3.1238999404013157">
				<ele>53.0</ele>
				<time>2020-06-30T09:05:33</time>
			</trkpt>
			<trkpt lat="48.94382994621992" lon="3.1240799836814404">
				<ele>53.0</ele>
				<time>2020-06-30T09:05:41</time>
			</trkpt>
			<trkpt lat="48.94697994925082" lon="3.126169927418232">
				<ele>54.0</ele>
				<time>2020-06-30T09:06:41</time>
			</trkpt>
			<trkpt lat="48.947789976373315" lon="3.1266899406909943">
				<ele>53.0</ele>
				<time>2020-06-30T09:06:56</time>
			</trkpt>
			<trkpt lat="48.94784999080002" lon="3.1266899406909943">
				<ele>54.0</ele>
				<time>2020-06-30T09:06:57</time>
			</trkpt>
			<trkpt lat="48.94945998676121" lon="3.1258999463170767">
				<ele>57.0</ele>
				<time>2020-06-30T09:07:27</time>
			</trkpt>
			<trkpt lat="48.949529975652695" lon="3.1231999676674604">
				<ele>56.0</ele>
				<time>2020-06-30T09:07:58</time>
			</trkpt>
			<trkpt lat="48.94972996786237" lon="3.1162899266928434">
				<ele>54.0</ele>
				<time>2020-06-30T09:09:17</time>
			</trkpt>
			<trkpt lat="48.94994999282062" lon="3.112439950928092">
				<ele>54.0</ele>
				<time>2020-06-30T09:10:01</time>
			</trkpt>
			<trkpt lat="48.95002995617688" lon="3.1121099554002285">
				<ele>55.0</ele>
				<time>2020-06-30T09:10:05</time>
			</trkpt>
			<trkpt lat="48.951059924438596" lon="3.1094299256801605">
				<ele>56.0</ele>
				<time>2020-06-30T09:10:40</time>
			</trkpt>
			<trkpt lat="48.95143995992839" lon="3.1080999691039324">
				<ele>58.0</ele>
				<time>2020-06-30T09:10:57</time>
			</trkpt>
			<trkpt lat="48.951809937134385" lon="3.106259973719716">
				<ele>56.0</ele>
				<time>2020-06-30T09:11:19</time>
			</trkpt>
			<trkpt lat="48.95191999152303" lon="3.105289936065674">
				<ele>55.0</ele>
				<time>2020-06-30T09:11:30</time>
			</trkpt>
			<trkpt lat="48.952109925448895" lon="3.1019599735736847">
				<ele>53.0</ele>
				<time>2020-06-30T09:12:08</time>
			</trkpt>
			<trkpt lat="48.95217999815941" lon="3.101339964196086">
				<ele>53.0</ele>
				<time>2020-06-30T09:12:16</time>
			</trkpt>
			<trkpt lat="48.95228996872902" lon="3.100539995357394">
				<ele>53.0</ele>
				<time>2020-06-30T09:12:25</time>
			</trkpt>
			<trkpt lat="48.95248996093869" lon="3.099579932168126">
				<ele>52.0</ele>
				<time>2020-06-30T09:12:36</time>
			</trkpt>
			<trkpt lat="48.95307996310294" lon="3.097339952364564">
				<ele>55.0</ele>
				<time>2020-06-30T09:13:04</time>
			</trkpt>
			<trkpt lat="48.95317995920777" lon="3.0968299973756075">
				<ele>55.0</ele>
				<time>2020-06-30T09:13:10</time>
			</trkpt>
			<trkpt lat="48.95349998027086" lon="3.0939199682325125">
				<ele>57.0</ele>
				<time>2020-06-30T09:13:44</time>
			</trkpt>
			<trkpt lat="48.95362998358905" lon="3.0936699360609055">
				<ele>58.0</ele>
				<time>2020-06-30T09:13:48</time>
			</trkpt>
			<trkpt lat="48.95433993078768" lon="3.093169955536723">
				<ele>67.0</ele>
				<time>2020-06-30T09:14:01</time>
			</trkpt>
			<trkpt lat="48.957419944927096" lon="3.0904099624603987">
				<ele>68.0</ele>
				<time>2020-06-30T09:15:03</time>
			</trkpt>
			<trkpt lat="48.96201993338764" lon="3.086279947310686">
				<ele>69.0</ele>
				<time>2020-06-30T09:16:36</time>
			</trkpt>
			<trkpt lat="48.96255997940898" lon="3.0856799706816673">
				<ele>70.0</ele>
				<time>2020-06-30T09:16:48</time>
			</trkpt>
			<trkpt lat="48.96288997493684" lon="3.085189964622259">
				<ele>71.0</ele>
				<time>2020-06-30T09:16:56</time>
			</trkpt>
			<trkpt lat="48.963949950411916" lon="3.083099937066436">
				<ele>60.0</ele>
				<time>2020-06-30T09:17:26</time>
			</trkpt>
			<trkpt lat="48.964269971475005" lon="3.0823599826544523">
				<ele>59.0</ele>
				<time>2020-06-30T09:17:36</time>
			</trkpt>
			<trkpt lat="48.96460994146764" lon="3.081359937787056">
				<ele>61.0</ele>
				<time>2020-06-30T09:17:49</time>
			</trkpt>
			<trkpt lat="48.964979918673635" lon="3.079419946298003">
				<ele>68.0</ele>
				<time>2020-06-30T09:18:12</time>
			</trkpt>
			<trkpt lat="48.96522995084524" lon="3.078899933025241">
				<ele>72.0</ele>
				<time>2020-06-30T09:18:20</time>
			</trkpt>
			<trkpt lat="48.96543991751969" lon="3.0786199774593115">
				<ele>75.0</ele>
				<time>2020-06-30T09:18:24</time>
			</trkpt>
			<trkpt lat="48.96559992805123" lon="3.078499948605895">
				<ele>76.0</ele>
				<time>2020-06-30T09:18:27</time>
			</trkpt>
			<trkpt lat="48.96599999628961" lon="3.078289981931448">
				<ele>79.0</ele>
				<time>2020-06-30T09:18:35</time>
			</trkpt>
			<trkpt lat="48.96702996455133" lon="3.0779099464416504">
				<ele>88.0</ele>
				<time>2020-06-30T09:18:53</time>
			</trkpt>
			<trkpt lat="48.96756992675364" lon="3.078489974141121">
				<ele>91.0</ele>
				<time>2020-06-30T09:19:05</time>
			</trkpt>
			<trkpt lat="48.96810997277498" lon="3.0792299285531044">
				<ele>94.0</ele>
				<time>2020-06-30T09:19:17</time>
			</trkpt>
			<trkpt lat="48.96850995719433" lon="3.0796799529343843">
				<ele>95.0</ele>
				<time>2020-06-30T09:19:26</time>
			</trkpt>
			<trkpt lat="48.968849927186966" lon="3.0799399595707655">
				<ele>95.0</ele>
				<time>2020-06-30T09:19:33</time>
			</trkpt>
			<trkpt lat="48.96960999816656" lon="3.0802299734205008">
				<ele>97.0</ele>
				<time>2020-06-30T09:19:46</time>
			</trkpt>
			<trkpt lat="48.96988995373249" lon="3.0803999584168196">
				<ele>97.0</ele>
				<time>2020-06-30T09:19:52</time>
			</trkpt>
			<trkpt lat="48.9709999691695" lon="3.0816299188882113">
				<ele>97.0</ele>
				<time>2020-06-30T09:20:15</time>
			</trkpt>
			<trkpt lat="48.97175995633006" lon="3.0826199892908335">
				<ele>96.0</ele>
				<time>2020-06-30T09:20:33</time>
			</trkpt>
			<trkpt lat="48.9722899440676" lon="3.08314997702837">
				<ele>96.0</ele>
				<time>2020-06-30T09:20:44</time>
			</trkpt>
			<trkpt lat="48.97497994825244" lon="3.084269966930151">
				<ele>96.0</ele>
				<time>2020-06-30T09:21:32</time>
			</trkpt>
			<trkpt lat="48.975159991532564" lon="3.0843899957835674">
				<ele>96.0</ele>
				<time>2020-06-30T09:21:36</time>
			</trkpt>
			<trkpt lat="48.97542997263372" lon="3.084669951349497">
				<ele>98.0</ele>
				<time>2020-06-30T09:21:42</time>
			</trkpt>
			<trkpt lat="48.975679920986295" lon="3.0849999468773603">
				<ele>100.0</ele>
				<time>2020-06-30T09:21:47</time>
			</trkpt>
			<trkpt lat="48.97566994652152" lon="3.0851999390870333">
				<ele>99.0</ele>
				<time>2020-06-30T09:21:50</time>
			</trkpt>
			<trkpt lat="48.97575996816158" lon="3.085369924083352">
				<ele>100.0</ele>
				<time>2020-06-30T09:21:52</time>
			</trkpt>
			<trkpt lat="48.97704994305968" lon="3.086909931153059">
				<ele>104.0</ele>
				<time>2020-06-30T09:22:21</time>
			</trkpt>
			<trkpt lat="48.97656999528408" lon="3.0881899315863848">
				<ele>99.0</ele>
				<time>2020-06-30T09:22:37</time>
			</trkpt>
			<trkpt lat="48.97650998085737" lon="3.08847994543612">
				<ele>99.0</ele>
				<time>2020-06-30T09:22:41</time>
			</trkpt>
			<trkpt lat="48.97652992978692" lon="3.0886299815028906">
				<ele>99.0</ele>
				<time>2020-06-30T09:22:43</time>
			</trkpt>
			<trkpt lat="48.97661995142698" lon="3.0888599809259176">
				<ele>101.0</ele>
				<time>2020-06-30T09:22:46</time>
			</trkpt>
			<trkpt lat="48.977589989081025" lon="3.09066996909678">
				<ele>107.0</ele>
				<time>2020-06-30T09:23:12</time>
			</trkpt>
			<trkpt lat="48.9784099906683" lon="3.0929999705404043">
				<ele>110.0</ele>
				<time>2020-06-30T09:23:43</time>
			</trkpt>
			<trkpt lat="48.97880997508764" lon="3.09425993822515">
				<ele>110.0</ele>
				<time>2020-06-30T09:23:59</time>
			</trkpt>
			<trkpt lat="48.97918992675841" lon="3.0952199175953865">
				<ele>112.0</ele>
				<time>2020-06-30T09:24:11</time>
			</trkpt>
			<trkpt lat="48.9793199300766" lon="3.0961299408227205">
				<ele>112.0</ele>
				<time>2020-06-30T09:24:22</time>
			</trkpt>
			<trkpt lat="48.979459991678596" lon="3.096629921346903">
				<ele>113.0</ele>
				<time>2020-06-30T09:24:28</time>
			</trkpt>
			<trkpt lat="48.979909932240844" lon="3.0977099295705557">
				<ele>115.0</ele>
				<time>2020-06-30T09:24:43</time>
			</trkpt>
			<trkpt lat="48.98007991723716" lon="3.098039925098419">
				<ele>115.0</ele>
				<time>2020-06-30T09:24:48</time>
			</trkpt>
			<trkpt lat="48.98022995330393" lon="3.098229942843318">
				<ele>115.0</ele>
				<time>2020-06-30T09:24:51</time>
			</trkpt>
			<trkpt lat="48.98151992820203" lon="3.098859926685691">
				<ele>114.0</ele>
				<time>2020-06-30T09:25:15</time>
			</trkpt>
			<trkpt lat="48.98182997480035" lon="3.099059918895364">
				<ele>113.0</ele>
				<time>2020-06-30T09:25:21</time>
			</trkpt>
			<trkpt lat="48.98198998533189" lon="3.0992399621754885">
				<ele>112.0</ele>
				<time>2020-06-30T09:25:24</time>
			</trkpt>
			<trkpt lat="48.982249991968274" lon="3.0997299682348967">
				<ele>111.0</ele>
				<time>2020-06-30T09:25:31</time>
			</trkpt>
			<trkpt lat="48.98262994363904" lon="3.1005999259650707">
				<ele>111.0</ele>
				<time>2020-06-30T09:25:43</time>
			</trkpt>
			<trkpt lat="48.98285994306207" lon="3.1009299214929342">
				<ele>111.0</ele>
				<time>2020-06-30T09:25:49</time>
			</trkpt>
			<trkpt lat="48.98440992459655" lon="3.1012699753046036">
				<ele>118.0</ele>
				<time>2020-06-30T09:26:16</time>
			</trkpt>
			<trkpt lat="48.986679995432496" lon="3.1021399330347776">
				<ele>126.0</ele>
				<time>2020-06-30T09:26:57</time>
			</trkpt>
			<trkpt lat="48.98784994147718" lon="3.1018499191850424">
				<ele>130.0</ele>
				<time>2020-06-30T09:27:17</time>
			</trkpt>
			<trkpt lat="48.98840993642807" lon="3.101769955828786">
				<ele>134.0</ele>
				<time>2020-06-30T09:27:27</time>
			</trkpt>
			<trkpt lat="48.988849986344576" lon="3.101789988577366">
				<ele>137.0</ele>
				<time>2020-06-30T09:27:35</time>
			</trkpt>
			<trkpt lat="48.99009997956455" lon="3.1021399330347776">
				<ele>146.0</ele>
				<time>2020-06-30T09:27:57</time>
			</trkpt>
			<trkpt lat="48.990589985623956" lon="3.1021699402481318">
				<ele>148.0</ele>
				<time>2020-06-30T09:28:05</time>
			</trkpt>
			<trkpt lat="48.992419922724366" lon="3.10181999579072">
				<ele>156.0</ele>
				<time>2020-06-30T09:28:37</time>
			</trkpt>
			<trkpt lat="48.994819996878505" lon="3.101079957559705">
				<ele>154.0</ele>
				<time>2020-06-30T09:29:20</time>
			</trkpt>
			<trkpt lat="48.99631993845105" lon="3.0998599715530872">
				<ele>150.0</ele>
				<time>2020-06-30T09:29:50</time>
			</trkpt>
			<trkpt lat="48.996559996157885" lon="3.099739942699671">
				<ele>149.0</ele>
				<time>2020-06-30T09:29:54</time>
			</trkpt>
			<trkpt lat="48.99790998548269" lon="3.0997599754482508">
				<ele>140.0</ele>
				<time>2020-06-30T09:30:18</time>
			</trkpt>
			<trkpt lat="48.99772994220257" lon="3.0978699401021004">
				<ele>135.0</ele>
				<time>2020-06-30T09:30:39</time>
			</trkpt>
			<trkpt lat="48.99770999327302" lon="3.0965799652040005">
				<ele>133.0</ele>
				<time>2020-06-30T09:30:54</time>
			</trkpt>
			<trkpt lat="48.997249994426966" lon="3.091809991747141">
				<ele>122.0</ele>
				<time>2020-06-30T09:31:49</time>
			</trkpt>
			<trkpt lat="48.997209928929806" lon="3.091589966788888">
				<ele>121.0</ele>
				<time>2020-06-30T09:31:52</time>
			</trkpt>
			<trkpt lat="48.996969955042005" lon="3.0908599868416786">
				<ele>119.0</ele>
				<time>2020-06-30T09:32:01</time>
			</trkpt>
			<trkpt lat="48.99693994782865" lon="3.0906499363482">
				<ele>119.0</ele>
				<time>2020-06-30T09:32:04</time>
			</trkpt>
			<trkpt lat="48.996989987790585" lon="3.0901199486106634">
				<ele>119.0</ele>
				<time>2020-06-30T09:32:10</time>
			</trkpt>
			<trkpt lat="48.997289976105094" lon="3.0882299970835447">
				<ele>125.0</ele>
				<time>2020-06-30T09:32:32</time>
			</trkpt>
			<trkpt lat="48.99740992113948" lon="3.086959971114993">
				<ele>131.0</ele>
				<time>2020-06-30T09:32:47</time>
			</trkpt>
			<trkpt lat="48.99740983732045" lon="3.0869587138295174">
				<ele>131.0</ele>
				<time>2020-06-30T09:32:47</time>
			</trkpt>
			<trkpt lat="48.99730992503464" lon="3.0841999780386686">
				<ele>136.0</ele>
				<time>2020-06-30T09:33:18</time>
			</trkpt>
			<trkpt lat="48.99723993614316" lon="3.083159951493144">
				<ele>137.0</ele>
				<time>2020-06-30T09:33:30</time>
			</trkpt>
			<trkpt lat="48.997079925611615" lon="3.0824299715459347">
				<ele>138.0</ele>
				<time>2020-06-30T09:33:39</time>
			</trkpt>
			<trkpt lat="48.9967299811542" lon="3.0812499672174454">
				<ele>136.0</ele>
				<time>2020-06-30T09:33:54</time>
			</trkpt>
			<trkpt lat="48.9962899312377" lon="3.0788199696689844">
				<ele>128.0</ele>
				<time>2020-06-30T09:34:22</time>
			</trkpt>
			<trkpt lat="48.99618993513286" lon="3.077889997512102">
				<ele>125.0</ele>
				<time>2020-06-30T09:34:33</time>
			</trkpt>
			<trkpt lat="48.996089939028025" lon="3.07734995149076">
				<ele>123.0</ele>
				<time>2020-06-30T09:34:40</time>
			</trkpt>
			<trkpt lat="48.99568995460868" lon="3.076009936630726">
				<ele>120.0</ele>
				<time>2020-06-30T09:34:56</time>
			</trkpt>
			<trkpt lat="48.99429998360574" lon="3.072739988565445">
				<ele>113.0</ele>
				<time>2020-06-30T09:35:41</time>
			</trkpt>
			<trkpt lat="48.993769995868206" lon="3.070719949901104">
				<ele>110.0</ele>
				<time>2020-06-30T09:36:06</time>
			</trkpt>
			<trkpt lat="48.99323992431164" lon="3.0682399962097406">
				<ele>109.0</ele>
				<time>2020-06-30T09:36:35</time>
			</trkpt>
			<trkpt lat="48.992909928783774" lon="3.065829947590828">
				<ele>115.0</ele>
				<time>2020-06-30T09:37:04</time>
			</trkpt>
			<trkpt lat="48.992899954319" lon="3.064979938790202">
				<ele>116.0</ele>
				<time>2020-06-30T09:37:13</time>
			</trkpt>
			<trkpt lat="48.994559990242124" lon="3.0639999266713858">
				<ele>118.0</ele>
				<time>2020-06-30T09:37:44</time>
			</trkpt>
			<trkpt lat="48.99532995186746" lon="3.0634999461472034">
				<ele>116.0</ele>
				<time>2020-06-30T09:37:59</time>
			</trkpt>
			<trkpt lat="48.99611994624138" lon="3.062769966199994">
				<ele>114.0</ele>
				<time>2020-06-30T09:38:15</time>
			</trkpt>
			<trkpt lat="48.9969199988991" lon="3.0623699817806482">
				<ele>110.0</ele>
				<time>2020-06-30T09:38:30</time>
			</trkpt>
			<trkpt lat="49.00034995749593" lon="3.061819961294532">
				<ele>107.0</ele>
				<time>2020-06-30T09:39:30</time>
			</trkpt>
			<trkpt lat="49.000769974663854" lon="3.0617099907249212">
				<ele>106.0</ele>
				<time>2020-06-30T09:39:37</time>
			</trkpt>
			<trkpt lat="49.00107993744314" lon="3.0615599546581507">
				<ele>106.0</ele>
				<time>2020-06-30T09:39:43</time>
			</trkpt>
			<trkpt lat="49.00241995230317" lon="3.0606499314308167">
				<ele>108.0</ele>
				<time>2020-06-30T09:40:08</time>
			</trkpt>
			<trkpt lat="49.005499966442585" lon="3.0582399666309357">
				<ele>116.0</ele>
				<time>2020-06-30T09:41:08</time>
			</trkpt>
			<trkpt lat="49.007819993421435" lon="3.0566099379211664">
				<ele>121.0</ele>
				<time>2020-06-30T09:41:53</time>
			</trkpt>
			<trkpt lat="49.00855994783342" lon="3.0560299940407276">
				<ele>123.0</ele>
				<time>2020-06-30T09:42:07</time>
			</trkpt>
			<trkpt lat="49.00914994999766" lon="3.055449966341257">
				<ele>124.0</ele>
				<time>2020-06-30T09:42:20</time>
			</trkpt>
			<trkpt lat="49.00997992604971" lon="3.054479928687215">
				<ele>123.0</ele>
				<time>2020-06-30T09:42:38</time>
			</trkpt>
			<trkpt lat="49.01124995201826" lon="3.052709922194481">
				<ele>125.0</ele>
				<time>2020-06-30T09:43:08</time>
			</trkpt>
			<trkpt lat="49.01167994365096" lon="3.052079938352108">
				<ele>125.0</ele>
				<time>2020-06-30T09:43:18</time>
			</trkpt>
			<trkpt lat="49.01319991797209" lon="3.049589926376939">
				<ele>120.0</ele>
				<time>2020-06-30T09:43:57</time>
			</trkpt>
			<trkpt lat="49.0135099645704" lon="3.0491699930280447">
				<ele>119.0</ele>
				<time>2020-06-30T09:44:04</time>
			</trkpt>
			<trkpt lat="49.01373996399343" lon="3.0489199608564377">
				<ele>118.0</ele>
				<time>2020-06-30T09:44:09</time>
			</trkpt>
			<trkpt lat="49.014759957790375" lon="3.0480299703776836">
				<ele>115.0</ele>
				<time>2020-06-30T09:44:30</time>
			</trkpt>
			<trkpt lat="49.01592998765409" lon="3.04683999158442">
				<ele>113.0</ele>
				<time>2020-06-30T09:44:54</time>
			</trkpt>
			<trkpt lat="49.017089959234" lon="3.0455799400806427">
				<ele>110.0</ele>
				<time>2020-06-30T09:45:19</time>
			</trkpt>
			<trkpt lat="49.017769983038306" lon="3.0446799751371145">
				<ele>105.0</ele>
				<time>2020-06-30T09:45:35</time>
			</trkpt>
			<trkpt lat="49.01871998794377" lon="3.0435799341648817">
				<ele>93.0</ele>
				<time>2020-06-30T09:45:55</time>
			</trkpt>
			<trkpt lat="49.018949987366796" lon="3.043239964172244">
				<ele>90.0</ele>
				<time>2020-06-30T09:46:01</time>
			</trkpt>
			<trkpt lat="49.01917998678982" lon="3.042769990861416">
				<ele>85.0</ele>
				<time>2020-06-30T09:46:08</time>
			</trkpt>
			<trkpt lat="49.01983997784555" lon="3.0409299954771996">
				<ele>77.0</ele>
				<time>2020-06-30T09:46:31</time>
			</trkpt>
			<trkpt lat="49.019939973950386" lon="3.040749952197075">
				<ele>76.0</ele>
				<time>2020-06-30T09:46:34</time>
			</trkpt>
			<trkpt lat="49.020779924467206" lon="3.0380299407988787">
				<ele>68.0</ele>
				<time>2020-06-30T09:47:08</time>
			</trkpt>
			<trkpt lat="49.02103993110359" lon="3.03740993142128">
				<ele>67.0</ele>
				<time>2020-06-30T09:47:17</time>
			</trkpt>
			<trkpt lat="49.02129993773997" lon="3.0369099508970976">
				<ele>67.0</ele>
				<time>2020-06-30T09:47:24</time>
			</trkpt>
			<trkpt lat="49.02206998318434" lon="3.035469939932227">
				<ele>62.0</ele>
				<time>2020-06-30T09:47:45</time>
			</trkpt>
			<trkpt lat="49.02226997539401" lon="3.035209933295846">
				<ele>61.0</ele>
				<time>2020-06-30T09:47:50</time>
			</trkpt>
			<trkpt lat="49.02241992764175" lon="3.035229966044426">
				<ele>60.0</ele>
				<time>2020-06-30T09:47:53</time>
			</trkpt>
			<trkpt lat="49.02252998203039" lon="3.0351499188691378">
				<ele>60.0</ele>
				<time>2020-06-30T09:47:55</time>
			</trkpt>
			<trkpt lat="49.02260994538665" lon="3.0349099449813366">
				<ele>60.0</ele>
				<time>2020-06-30T09:47:58</time>
			</trkpt>
			<trkpt lat="49.022579938173294" lon="3.0346999783068895">
				<ele>59.0</ele>
				<time>2020-06-30T09:48:00</time>
			</trkpt>
			<trkpt lat="49.02247994206846" lon="3.0345299933105707">
				<ele>59.0</ele>
				<time>2020-06-30T09:48:03</time>
			</trkpt>
			<trkpt lat="49.02232998982072" lon="3.0344999860972166">
				<ele>60.0</ele>
				<time>2020-06-30T09:48:05</time>
			</trkpt>
			<trkpt lat="49.02215992100537" lon="3.034139983355999">
				<ele>60.0</ele>
				<time>2020-06-30T09:48:11</time>
			</trkpt>
			<trkpt lat="49.021739987656474" lon="3.033629944548011">
				<ele>59.0</ele>
				<time>2020-06-30T09:48:20</time>
			</trkpt>
			<trkpt lat="49.02006997726858" lon="3.0313499830663204">
				<ele>61.0</ele>
				<time>2020-06-30T09:48:59</time>
			</trkpt>
			<trkpt lat="49.01921996846795" lon="3.030089931562543">
				<ele>63.0</ele>
				<time>2020-06-30T09:49:20</time>
			</trkpt>
			<trkpt lat="49.01807994581759" lon="3.028629971668124">
				<ele>65.0</ele>
				<time>2020-06-30T09:49:45</time>
			</trkpt>
			<trkpt lat="49.01759999804199" lon="3.029309995472431">
				<ele>67.0</ele>
				<time>2020-06-30T09:49:57</time>
			</trkpt>
			<trkpt lat="49.017359940335155" lon="3.0297299288213253">
				<ele>67.0</ele>
				<time>2020-06-30T09:50:03</time>
			</trkpt>
			<trkpt lat="49.01726991869509" lon="3.0304499343037605">
				<ele>69.0</ele>
				<time>2020-06-30T09:50:12</time>
			</trkpt>
			<trkpt lat="49.01721996255219" lon="3.030629977583885">
				<ele>69.0</ele>
				<time>2020-06-30T09:50:14</time>
			</trkpt>
			<trkpt lat="49.01701997034252" lon="3.031029962003231">
				<ele>70.0</ele>
				<time>2020-06-30T09:50:20</time>
			</trkpt>
			<trkpt lat="49.01683992706239" lon="3.031259961426258">
				<ele>70.0</ele>
				<time>2020-06-30T09:50:24</time>
			</trkpt>
			<trkpt lat="49.016609927639365" lon="3.031459953635931">
				<ele>70.0</ele>
				<time>2020-06-30T09:50:28</time>
			</trkpt>
			<trkpt lat="49.016389986500144" lon="3.0315699242055416">
				<ele>70.0</ele>
				<time>2020-06-30T09:50:32</time>
			</trkpt>
			<trkpt lat="49.01599997654557" lon="3.031659945845604">
				<ele>70.0</ele>
				<time>2020-06-30T09:50:39</time>
			</trkpt>
			<trkpt lat="49.015609966591" lon="3.0318499635905027">
				<ele>69.0</ele>
				<time>2020-06-30T09:50:46</time>
			</trkpt>
			<trkpt lat="49.01538994163275" lon="3.03205993026495">
				<ele>69.0</ele>
				<time>2020-06-30T09:50:51</time>
			</trkpt>
			<trkpt lat="49.01482994668186" lon="3.0329199973493814">
				<ele>70.0</ele>
				<time>2020-06-30T09:51:05</time>
			</trkpt>
			<trkpt lat="49.014569940045476" lon="3.0331899784505367">
				<ele>70.0</ele>
				<time>2020-06-30T09:51:10</time>
			</trkpt>
			<trkpt lat="49.01437992230058" lon="3.0333199817687273">
				<ele>70.0</ele>
				<time>2020-06-30T09:51:14</time>
			</trkpt>
			<trkpt lat="49.01366997510195" lon="3.0335899628698826">
				<ele>70.0</ele>
				<time>2020-06-30T09:51:26</time>
			</trkpt>
			<trkpt lat="49.01340996846557" lon="3.0337499734014273">
				<ele>70.0</ele>
				<time>2020-06-30T09:51:31</time>
			</trkpt>
			<trkpt lat="49.012609999626875" lon="3.0345099605619907">
				<ele>75.0</ele>
				<time>2020-06-30T09:51:48</time>
			</trkpt>
			<trkpt lat="49.011899968609214" lon="3.0348999705165625">
				<ele>78.0</ele>
				<time>2020-06-30T09:52:01</time>
			</trkpt>
			<trkpt lat="49.010609993711114" lon="3.035889957100153">
				<ele>86.0</ele>
				<time>2020-06-30T09:52:26</time>
			</trkpt>
			<trkpt lat="49.010139936581254" lon="3.036399995908141">
				<ele>90.0</ele>
				<time>2020-06-30T09:52:36</time>
			</trkpt>
			<trkpt lat="49.00974992662668" lon="3.037039954215288">
				<ele>94.0</ele>
				<time>2020-06-30T09:52:46</time>
			</trkpt>
			<trkpt lat="49.00872993282974" lon="3.039379930123687">
				<ele>94.0</ele>
				<time>2020-06-30T09:53:18</time>
			</trkpt>
			<trkpt lat="49.00868995115161" lon="3.039609929546714">
				<ele>93.0</ele>
				<time>2020-06-30T09:53:21</time>
			</trkpt>
			<trkpt lat="49.00861996226013" lon="3.040959918871522">
				<ele>93.0</ele>
				<time>2020-06-30T09:53:36</time>
			</trkpt>
			<trkpt lat="49.008549973368645" lon="3.041239958256483">
				<ele>93.0</ele>
				<time>2020-06-30T09:53:40</time>
			</trkpt>
			<trkpt lat="49.00827999226749" lon="3.0415099393576384">
				<ele>93.0</ele>
				<time>2020-06-30T09:53:45</time>
			</trkpt>
			<trkpt lat="49.00707995519042" lon="3.0424299370497465">
				<ele>96.0</ele>
				<time>2020-06-30T09:54:09</time>
			</trkpt>
			<trkpt lat="49.0060499869287" lon="3.043679930269718">
				<ele>96.0</ele>
				<time>2020-06-30T09:54:32</time>
			</trkpt>
			<trkpt lat="49.005609937012196" lon="3.044269932433963">
				<ele>97.0</ele>
				<time>2020-06-30T09:54:42</time>
			</trkpt>
			<trkpt lat="49.00546995922923" lon="3.04453999735415">
				<ele>97.0</ele>
				<time>2020-06-30T09:54:46</time>
			</trkpt>
			<trkpt lat="49.004919938743114" lon="3.0460199899971485">
				<ele>95.0</ele>
				<time>2020-06-30T09:55:05</time>
			</trkpt>
			<trkpt lat="49.004729920998216" lon="3.0462199822068214">
				<ele>93.0</ele>
				<time>2020-06-30T09:55:09</time>
			</trkpt>
			<trkpt lat="49.00443999096751" lon="3.046359959989786">
				<ele>91.0</ele>
				<time>2020-06-30T09:55:14</time>
			</trkpt>
			<trkpt lat="49.00294994004071" lon="3.046289971098304">
				<ele>79.0</ele>
				<time>2020-06-30T09:55:40</time>
			</trkpt>
			<trkpt lat="49.00149995461106" lon="3.0463699344545603">
				<ele>73.0</ele>
				<time>2020-06-30T09:56:06</time>
			</trkpt>
			<trkpt lat="49.000449953600764" lon="3.046569926664233">
				<ele>71.0</ele>
				<time>2020-06-30T09:56:24</time>
			</trkpt>
			<trkpt lat="49.00019992142916" lon="3.0466499738395214">
				<ele>71.0</ele>
				<time>2020-06-30T09:56:29</time>
			</trkpt>
			<trkpt lat="48.99996992200613" lon="3.0467999260872602">
				<ele>71.0</ele>
				<time>2020-06-30T09:56:33</time>
			</trkpt>
			<trkpt lat="48.999999929219484" lon="3.046979969367385">
				<ele>71.0</ele>
				<time>2020-06-30T09:56:35</time>
			</trkpt>
			<trkpt lat="48.9992599748075" lon="3.047469975426793">
				<ele>70.0</ele>
				<time>2020-06-30T09:56:49</time>
			</trkpt>
			<trkpt lat="48.99826998822391" lon="3.04855995811522">
				<ele>68.0</ele>
				<time>2020-06-30T09:57:10</time>
			</trkpt>
			<trkpt lat="48.996799970045686" lon="3.0498699657619">
				<ele>70.0</ele>
				<time>2020-06-30T09:57:40</time>
			</trkpt>
			<trkpt lat="48.996369978412986" lon="3.050159979611635">
				<ele>72.0</ele>
				<time>2020-06-30T09:57:48</time>
			</trkpt>
			<trkpt lat="48.99491999298334" lon="3.0504099279642105">
				<ele>79.0</ele>
				<time>2020-06-30T09:58:13</time>
			</trkpt>
			<trkpt lat="48.99448991753161" lon="3.050359971821308">
				<ele>79.0</ele>
				<time>2020-06-30T09:58:21</time>
			</trkpt>
			<trkpt lat="48.99360998533666" lon="3.0503899790346622">
				<ele>85.0</ele>
				<time>2020-06-30T09:58:36</time>
			</trkpt>
			<trkpt lat="48.992889979854226" lon="3.050949973985553">
				<ele>93.0</ele>
				<time>2020-06-30T09:58:50</time>
			</trkpt>
			<trkpt lat="48.99256995879114" lon="3.051009988412261">
				<ele>95.0</ele>
				<time>2020-06-30T09:58:56</time>
			</trkpt>
			<trkpt lat="48.99263994768262" lon="3.0520399566739798">
				<ele>97.0</ele>
				<time>2020-06-30T09:59:08</time>
			</trkpt>
			<trkpt lat="48.992609940469265" lon="3.0522399488836527">
				<ele>98.0</ele>
				<time>2020-06-30T09:59:10</time>
			</trkpt>
			<trkpt lat="48.992369966581464" lon="3.052299963310361">
				<ele>99.0</ele>
				<time>2020-06-30T09:59:14</time>
			</trkpt>
			<trkpt lat="48.991939974948764" lon="3.052079938352108">
				<ele>102.0</ele>
				<time>2020-06-30T09:59:22</time>
			</trkpt>
			<trkpt lat="48.991879960522056" lon="3.0519499350339174">
				<ele>102.0</ele>
				<time>2020-06-30T09:59:24</time>
			</trkpt>
			<trkpt lat="48.99166999384761" lon="3.051199922338128">
				<ele>99.0</ele>
				<time>2020-06-30T09:59:33</time>
			</trkpt>
			<trkpt lat="48.99154996499419" lon="3.049929980188608">
				<ele>97.0</ele>
				<time>2020-06-30T09:59:48</time>
			</trkpt>
			<trkpt lat="48.99153999052942" lon="3.0497799441218376">
				<ele>97.0</ele>
				<time>2020-06-30T09:59:50</time>
			</trkpt>
			<trkpt lat="48.99181994609535" lon="3.047159928828478">
				<ele>88.0</ele>
				<time>2020-06-30T10:00:20</time>
			</trkpt>
			<trkpt lat="48.99180997163057" lon="3.0462799966335297">
				<ele>84.0</ele>
				<time>2020-06-30T10:00:30</time>
			</trkpt>
			<trkpt lat="48.99169991724193" lon="3.045859979465604">
				<ele>82.0</ele>
				<time>2020-06-30T10:00:35</time>
			</trkpt>
			<trkpt lat="48.991509983316064" lon="3.045619921758771">
				<ele>78.0</ele>
				<time>2020-06-30T10:00:40</time>
			</trkpt>
			<trkpt lat="48.99076994508505" lon="3.0453599989414215">
				<ele>72.0</ele>
				<time>2020-06-30T10:00:53</time>
			</trkpt>
			<trkpt lat="48.99057992734015" lon="3.0453399661928415">
				<ele>70.0</ele>
				<time>2020-06-30T10:00:56</time>
			</trkpt>
			<trkpt lat="48.98920998908579" lon="3.0455499328672886">
				<ele>68.0</ele>
				<time>2020-06-30T10:01:20</time>
			</trkpt>
			<trkpt lat="48.98689993657172" lon="3.046299945563078">
				<ele>63.0</ele>
				<time>2020-06-30T10:02:01</time>
			</trkpt>
			<trkpt lat="48.984339935705066" lon="3.046579984948039">
				<ele>58.0</ele>
				<time>2020-06-30T10:02:46</time>
			</trkpt>
			<trkpt lat="48.982659950852394" lon="3.0464799888432026">
				<ele>59.0</ele>
				<time>2020-06-30T10:03:15</time>
			</trkpt>
			<trkpt lat="48.98265911266208" lon="3.0464797373861074">
				<ele>58.99</ele>
				<time>2020-06-30T10:03:15</time>
			</trkpt>
			<trkpt lat="48.98148992098868" lon="3.046159967780113">
				<ele>55.0</ele>
				<time>2020-06-30T10:03:36</time>
			</trkpt>
			<trkpt lat="48.97948999889195" lon="3.045409955084324">
				<ele>59.0</ele>
				<time>2020-06-30T10:04:12</time>
			</trkpt>
			<trkpt lat="48.97853999398649" lon="3.04492992348969">
				<ele>60.0</ele>
				<time>2020-06-30T10:04:29</time>
			</trkpt>
			<trkpt lat="48.97747993469238" lon="3.0441899690777063">
				<ele>52.0</ele>
				<time>2020-06-30T10:04:49</time>
			</trkpt>
			<trkpt lat="48.976839976385236" lon="3.0438099335879087">
				<ele>51.0</ele>
				<time>2020-06-30T10:05:01</time>
			</trkpt>
			<trkpt lat="48.976579969748855" lon="3.0437599774450064">
				<ele>54.0</ele>
				<time>2020-06-30T10:05:06</time>
			</trkpt>
			<trkpt lat="48.97647997364402" lon="3.043839940801263">
				<ele>55.0</ele>
				<time>2020-06-30T10:05:08</time>
			</trkpt>
			<trkpt lat="48.976389952003956" lon="3.0440199840813875">
				<ele>55.0</ele>
				<time>2020-06-30T10:05:10</time>
			</trkpt>
			<trkpt lat="48.97588997147977" lon="3.0468999221920967">
				<ele>61.0</ele>
				<time>2020-06-30T10:05:45</time>
			</trkpt>
			<trkpt lat="48.97570992819965" lon="3.0471199471503496">
				<ele>66.0</ele>
				<time>2020-06-30T10:05:49</time>
			</trkpt>
			<trkpt lat="48.975439947098494" lon="3.0470799654722214">
				<ele>72.0</ele>
				<time>2020-06-30T10:05:53</time>
			</trkpt>
			<trkpt lat="48.97531991824508" lon="3.046949962154031">
				<ele>75.0</ele>
				<time>2020-06-30T10:05:56</time>
			</trkpt>
			<trkpt lat="48.97518999874592" lon="3.0466299410909414">
				<ele>78.0</ele>
				<time>2020-06-30T10:06:00</time>
			</trkpt>
			<trkpt lat="48.975099977105856" lon="3.046069946140051">
				<ele>81.0</ele>
				<time>2020-06-30T10:06:07</time>
			</trkpt>
			<trkpt lat="48.97499998100102" lon="3.044959930703044">
				<ele>81.0</ele>
				<time>2020-06-30T10:06:19</time>
			</trkpt>
			<trkpt lat="48.97478993050754" lon="3.0439399369060993">
				<ele>80.0</ele>
				<time>2020-06-30T10:06:32</time>
			</trkpt>
			<trkpt lat="48.974409978836775" lon="3.0424299370497465">
				<ele>82.0</ele>
				<time>2020-06-30T10:06:50</time>
			</trkpt>
			<trkpt lat="48.97373992949724" lon="3.040959918871522">
				<ele>86.0</ele>
				<time>2020-06-30T10:07:11</time>
			</trkpt>
			<trkpt lat="48.973339945077896" lon="3.0402199644595385">
				<ele>88.0</ele>
				<time>2020-06-30T10:07:22</time>
			</trkpt>
			<trkpt lat="48.97230997681618" lon="3.0383999180048704">
				<ele>91.0</ele>
				<time>2020-06-30T10:07:49</time>
			</trkpt>
			<trkpt lat="48.971469942480326" lon="3.0371099431067705">
				<ele>89.0</ele>
				<time>2020-06-30T10:08:10</time>
			</trkpt>
			<trkpt lat="48.971169954165816" lon="3.036779947578907">
				<ele>89.0</ele>
				<time>2020-06-30T10:08:16</time>
			</trkpt>
			<trkpt lat="48.97029999643564" lon="3.036069916561246">
				<ele>91.0</ele>
				<time>2020-06-30T10:08:33</time>
			</trkpt>
			<trkpt lat="48.96982993930578" lon="3.0355999432504177">
				<ele>91.0</ele>
				<time>2020-06-30T10:08:43</time>
			</trkpt>
			<trkpt lat="48.9689499232918" lon="3.034579949453473">
				<ele>91.0</ele>
				<time>2020-06-30T10:09:02</time>
			</trkpt>
			<trkpt lat="48.96842999383807" lon="3.0340799689292908">
				<ele>90.0</ele>
				<time>2020-06-30T10:09:13</time>
			</trkpt>
			<trkpt lat="48.968069991096854" lon="3.033859943971038">
				<ele>90.0</ele>
				<time>2020-06-30T10:09:20</time>
			</trkpt>
			<trkpt lat="48.967319978401065" lon="3.0335799884051085">
				<ele>90.0</ele>
				<time>2020-06-30T10:09:33</time>
			</trkpt>
			<trkpt lat="48.96687992848456" lon="3.0333299562335014">
				<ele>90.0</ele>
				<time>2020-06-30T10:09:42</time>
			</trkpt>
			<trkpt lat="48.966699969023466" lon="3.0331099312752485">
				<ele>90.0</ele>
				<time>2020-06-30T10:09:46</time>
			</trkpt>
			<trkpt lat="48.96535995416343" lon="3.031019987538457">
				<ele>86.0</ele>
				<time>2020-06-30T10:10:19</time>
			</trkpt>
			<trkpt lat="48.965109921991825" lon="3.030609944835305">
				<ele>86.0</ele>
				<time>2020-06-30T10:10:25</time>
			</trkpt>
			<trkpt lat="48.96453995257616" lon="3.029449973255396">
				<ele>86.0</ele>
				<time>2020-06-30T10:10:42</time>
			</trkpt>
			<trkpt lat="48.96423996426165" lon="3.029059963300824">
				<ele>85.0</ele>
				<time>2020-06-30T10:10:49</time>
			</trkpt>
			<trkpt lat="48.963989932090044" lon="3.028829963877797">
				<ele>84.0</ele>
				<time>2020-06-30T10:10:54</time>
			</trkpt>
			<trkpt lat="48.96367996931076" lon="3.0286799278110266">
				<ele>83.0</ele>
				<time>2020-06-30T10:10:59</time>
			</trkpt>
			<trkpt lat="48.96333999931812" lon="3.02859996445477">
				<ele>82.0</ele>
				<time>2020-06-30T10:11:05</time>
			</trkpt>
			<trkpt lat="48.962139962241054" lon="3.0284899938851595">
				<ele>76.0</ele>
				<time>2020-06-30T10:11:26</time>
			</trkpt>
			<trkpt lat="48.96128995344043" lon="3.0284199211746454">
				<ele>70.0</ele>
				<time>2020-06-30T10:11:41</time>
			</trkpt>
			<trkpt lat="48.96070992574096" lon="3.0284399539232254">
				<ele>67.0</ele>
				<time>2020-06-30T10:11:51</time>
			</trkpt>
			<trkpt lat="48.959799986332655" lon="3.028849996626377">
				<ele>64.0</ele>
				<time>2020-06-30T10:12:08</time>
			</trkpt>
			<trkpt lat="48.959539979696274" lon="3.028849996626377">
				<ele>63.0</ele>
				<time>2020-06-30T10:12:12</time>
			</trkpt>
			<trkpt lat="48.95940997637808" lon="3.0287599749863148">
				<ele>63.0</ele>
				<time>2020-06-30T10:12:15</time>
			</trkpt>
			<trkpt lat="48.95926999859512" lon="3.028569957241416">
				<ele>62.0</ele>
				<time>2020-06-30T10:12:18</time>
			</trkpt>
			<trkpt lat="48.95896992646158" lon="3.0280299950391054">
				<ele>60.0</ele>
				<time>2020-06-30T10:12:26</time>
			</trkpt>
			<trkpt lat="48.958789967000484" lon="3.027239916846156">
				<ele>59.0</ele>
				<time>2020-06-30T10:12:36</time>
			</trkpt>
			<trkpt lat="48.958679996430874" lon="3.0269799940288067">
				<ele>59.0</ele>
				<time>2020-06-30T10:12:39</time>
			</trkpt>
			<trkpt lat="48.95868997089565" lon="3.026829957962036">
				<ele>59.0</ele>
				<time>2020-06-30T10:12:41</time>
			</trkpt>
			<trkpt lat="48.958639930933714" lon="3.026769943535328">
				<ele>59.0</ele>
				<time>2020-06-30T10:12:42</time>
			</trkpt>
			<trkpt lat="48.95855996757746" lon="3.026809925213456">
				<ele>58.0</ele>
				<time>2020-06-30T10:12:44</time>
			</trkpt>
			<trkpt lat="48.958489978685975" lon="3.026569951325655">
				<ele>58.0</ele>
				<time>2020-06-30T10:12:47</time>
			</trkpt>
			<trkpt lat="48.958229972049594" lon="3.024809919297695">
				<ele>57.0</ele>
				<time>2020-06-30T10:13:07</time>
			</trkpt>
			<trkpt lat="48.95815998315811" lon="3.024119921028614">
				<ele>57.0</ele>
				<time>2020-06-30T10:13:15</time>
			</trkpt>
			<trkpt lat="48.957909950986505" lon="3.022989956662059">
				<ele>56.0</ele>
				<time>2020-06-30T10:13:29</time>
			</trkpt>
			<trkpt lat="48.95763996988535" lon="3.0221799295395613">
				<ele>56.0</ele>
				<time>2020-06-30T10:13:39</time>
			</trkpt>
			<trkpt lat="48.957369988784194" lon="3.0215799529105425">
				<ele>55.0</ele>
				<time>2020-06-30T10:13:47</time>
			</trkpt>
			<trkpt lat="48.95710998214781" lon="3.020539926365018">
				<ele>55.0</ele>
				<time>2020-06-30T10:14:00</time>
			</trkpt>
			<trkpt lat="48.957009986042976" lon="3.0193699803203344">
				<ele>54.0</ele>
				<time>2020-06-30T10:14:14</time>
			</trkpt>
			<trkpt lat="48.95682994276285" lon="3.018129961565137">
				<ele>54.0</ele>
				<time>2020-06-30T10:14:28</time>
			</trkpt>
			<trkpt lat="48.95553996786475" lon="3.018369935452938">
				<ele>53.0</ele>
				<time>2020-06-30T10:14:51</time>
			</trkpt>
			<trkpt lat="48.954299949109554" lon="3.019019952043891">
				<ele>54.0</ele>
				<time>2020-06-30T10:15:14</time>
			</trkpt>
			<trkpt lat="48.95395997911692" lon="3.0191299226135015">
				<ele>53.0</ele>
				<time>2020-06-30T10:15:20</time>
			</trkpt>
			<trkpt lat="48.95315992645919" lon="3.0192099697887897">
				<ele>51.0</ele>
				<time>2020-06-30T10:15:34</time>
			</trkpt>
			<trkpt lat="48.95133996382356" lon="3.0189699959009886">
				<ele>57.0</ele>
				<time>2020-06-30T10:16:05</time>
			</trkpt>
			<trkpt lat="48.951099989935756" lon="3.0189799703657627">
				<ele>58.0</ele>
				<time>2020-06-30T10:16:10</time>
			</trkpt>
			<trkpt lat="48.95046992227435" lon="3.019219944253564">
				<ele>71.0</ele>
				<time>2020-06-30T10:16:21</time>
			</trkpt>
			<trkpt lat="48.950349977239966" lon="3.0191399808973074">
				<ele>73.0</ele>
				<time>2020-06-30T10:16:23</time>
			</trkpt>
			<trkpt lat="48.95017999224365" lon="3.0188999231904745">
				<ele>76.0</ele>
				<time>2020-06-30T10:16:27</time>
			</trkpt>
			<trkpt lat="48.950069937855005" lon="3.018099954351783">
				<ele>73.0</ele>
				<time>2020-06-30T10:16:37</time>
			</trkpt>
			<trkpt lat="48.94996994175017" lon="3.01789996214211">
				<ele>73.0</ele>
				<time>2020-06-30T10:16:39</time>
			</trkpt>
			<trkpt lat="48.949849996715784" lon="3.0177699588239193">
				<ele>74.0</ele>
				<time>2020-06-30T10:16:42</time>
			</trkpt>
			<trkpt lat="48.9495899900794" lon="3.0176399555057287">
				<ele>77.0</ele>
				<time>2020-06-30T10:16:47</time>
			</trkpt>
			<trkpt lat="48.948089964687824" lon="3.017239971086383">
				<ele>93.0</ele>
				<time>2020-06-30T10:17:13</time>
			</trkpt>
			<trkpt lat="48.94719997420907" lon="3.0171799566596746">
				<ele>106.0</ele>
				<time>2020-06-30T10:17:29</time>
			</trkpt>
			<trkpt lat="48.94700995646417" lon="3.0171399749815464">
				<ele>109.0</ele>
				<time>2020-06-30T10:17:32</time>
			</trkpt>
			<trkpt lat="48.9468599203974" lon="3.0169199500232935">
				<ele>108.0</ele>
				<time>2020-06-30T10:17:36</time>
			</trkpt>
			<trkpt lat="48.94682999700308" lon="3.016329947859049">
				<ele>106.0</ele>
				<time>2020-06-30T10:17:42</time>
			</trkpt>
			<trkpt lat="48.946759924292564" lon="3.016129955649376">
				<ele>107.0</ele>
				<time>2020-06-30T10:17:45</time>
			</trkpt>
			<trkpt lat="48.94625994376838" lon="3.015679931268096">
				<ele>111.0</ele>
				<time>2020-06-30T10:17:55</time>
			</trkpt>
			<trkpt lat="48.9459499809891" lon="3.0152299907058477">
				<ele>112.0</ele>
				<time>2020-06-30T10:18:03</time>
			</trkpt>
			<trkpt lat="48.94528998993337" lon="3.014669995754957">
				<ele>114.0</ele>
				<time>2020-06-30T10:18:16</time>
			</trkpt>
			<trkpt lat="48.9447099622339" lon="3.014409989118576">
				<ele>115.0</ele>
				<time>2020-06-30T10:18:26</time>
			</trkpt>
			<trkpt lat="48.94457995891571" lon="3.0142999347299337">
				<ele>115.0</ele>
				<time>2020-06-30T10:18:29</time>
			</trkpt>
			<trkpt lat="48.944479962810874" lon="3.0140899680554867">
				<ele>116.0</ele>
				<time>2020-06-30T10:18:32</time>
			</trkpt>
			<trkpt lat="48.94435993395746" lon="3.0127499531954527">
				<ele>123.0</ele>
				<time>2020-06-30T10:18:47</time>
			</trkpt>
			<trkpt lat="48.9442799706012" lon="3.0125299282372">
				<ele>125.0</ele>
				<time>2020-06-30T10:18:50</time>
			</trkpt>
			<trkpt lat="48.94420998170972" lon="3.012439990416169">
				<ele>126.0</ele>
				<time>2020-06-30T10:18:52</time>
			</trkpt>
			<trkpt lat="48.94405994564295" lon="3.012379975989461">
				<ele>128.0</ele>
				<time>2020-06-30T10:18:54</time>
			</trkpt>
			<trkpt lat="48.94388996064663" lon="3.012389950454235">
				<ele>129.0</ele>
				<time>2020-06-30T10:18:57</time>
			</trkpt>
			<trkpt lat="48.94323994405568" lon="3.0126799643039703">
				<ele>132.0</ele>
				<time>2020-06-30T10:19:09</time>
			</trkpt>
			<trkpt lat="48.94148997031152" lon="3.0144899524748325">
				<ele>147.0</ele>
				<time>2020-06-30T10:19:46</time>
			</trkpt>
			<trkpt lat="48.94107992760837" lon="3.01482992246747">
				<ele>149.0</ele>
				<time>2020-06-30T10:19:54</time>
			</trkpt>
			<trkpt lat="48.94059997983277" lon="3.0148999951779842">
				<ele>148.0</ele>
				<time>2020-06-30T10:20:03</time>
			</trkpt>
			<trkpt lat="48.93975994549692" lon="3.0146899446845055">
				<ele>149.0</ele>
				<time>2020-06-30T10:20:17</time>
			</trkpt>
			<trkpt lat="48.93621993251145" lon="3.013069974258542">
				<ele>158.0</ele>
				<time>2020-06-30T10:21:22</time>
			</trkpt>
			<trkpt lat="48.93349992111325" lon="3.011289993301034">
				<ele>167.0</ele>
				<time>2020-06-30T10:22:13</time>
			</trkpt>
			<trkpt lat="48.93314997665584" lon="3.0109499394893646">
				<ele>169.0</ele>
				<time>2020-06-30T10:22:20</time>
			</trkpt>
			<trkpt lat="48.93249996006489" lon="3.010149970650673">
				<ele>171.0</ele>
				<time>2020-06-30T10:22:35</time>
			</trkpt>
			<trkpt lat="48.93189998343587" lon="3.0093099363148212">
				<ele>171.0</ele>
				<time>2020-06-30T10:22:49</time>
			</trkpt>
			<trkpt lat="48.93178992904723" lon="3.009289987385273">
				<ele>170.0</ele>
				<time>2020-06-30T10:22:51</time>
			</trkpt>
			<trkpt lat="48.93089993856847" lon="3.0096799973398447">
				<ele>170.0</ele>
				<time>2020-06-30T10:23:07</time>
			</trkpt>
			<trkpt lat="48.93076993525028" lon="3.0096799973398447">
				<ele>169.0</ele>
				<time>2020-06-30T10:23:10</time>
			</trkpt>
			<trkpt lat="48.93061998300254" lon="3.009549994021654">
				<ele>169.0</ele>
				<time>2020-06-30T10:23:13</time>
			</trkpt>
			<trkpt lat="48.92719999887049" lon="3.0042599234730005">
				<ele>161.0</ele>
				<time>2020-06-30T10:24:37</time>
			</trkpt>
			<trkpt lat="48.92579996958375" lon="3.001499930396676">
				<ele>165.0</ele>
				<time>2020-06-30T10:25:17</time>
			</trkpt>
			<trkpt lat="48.92551993019879" lon="3.0018599331378937">
				<ele>166.0</ele>
				<time>2020-06-30T10:25:24</time>
			</trkpt>
			<trkpt lat="48.92468995414674" lon="3.003119984641671">
				<ele>165.0</ele>
				<time>2020-06-30T10:25:44</time>
			</trkpt>
			<trkpt lat="48.92405997030437" lon="3.003889946267009">
				<ele>165.0</ele>
				<time>2020-06-30T10:25:58</time>
			</trkpt>
			<trkpt lat="48.923619920387864" lon="3.0043099634349346">
				<ele>165.0</ele>
				<time>2020-06-30T10:26:07</time>
			</trkpt>
			<trkpt lat="48.92251996323466" lon="3.000849997624755">
				<ele>158.0</ele>
				<time>2020-06-30T10:26:51</time>
			</trkpt>
			<trkpt lat="48.92063998617232" lon="2.994179930537939">
				<ele>160.0</ele>
				<time>2020-06-30T10:28:14</time>
			</trkpt>
			<trkpt lat="48.92029993236065" lon="2.9927099961787462">
				<ele>162.0</ele>
				<time>2020-06-30T10:28:32</time>
			</trkpt>
			<trkpt lat="48.92016992904246" lon="2.991509959101677">
				<ele>163.0</ele>
				<time>2020-06-30T10:28:46</time>
			</trkpt>
			<trkpt lat="48.92014998011291" lon="2.990799928084016">
				<ele>163.0</ele>
				<time>2020-06-30T10:28:54</time>
			</trkpt>
			<trkpt lat="48.92018996179104" lon="2.989329993724823">
				<ele>164.0</ele>
				<time>2020-06-30T10:29:11</time>
			</trkpt>
			<trkpt lat="48.92014998011291" lon="2.988879969343543">
				<ele>164.0</ele>
				<time>2020-06-30T10:29:16</time>
			</trkpt>
			<trkpt lat="48.919409941881895" lon="2.9841299448162317">
				<ele>161.0</ele>
				<time>2020-06-30T10:30:12</time>
			</trkpt>
			<trkpt lat="48.91870996914804" lon="2.980929985642433">
				<ele>153.0</ele>
				<time>2020-06-30T10:30:50</time>
			</trkpt>
			<trkpt lat="48.91872991807759" lon="2.980679953470826">
				<ele>152.0</ele>
				<time>2020-06-30T10:30:53</time>
			</trkpt>
			<trkpt lat="48.91885992139578" lon="2.9804599285125732">
				<ele>151.0</ele>
				<time>2020-06-30T10:30:57</time>
			</trkpt>
			<trkpt lat="48.920049984008074" lon="2.979479916393757">
				<ele>143.0</ele>
				<time>2020-06-30T10:31:20</time>
			</trkpt>
			<trkpt lat="48.920719949528575" lon="2.978679947555065">
				<ele>141.0</ele>
				<time>2020-06-30T10:31:35</time>
			</trkpt>
			<trkpt lat="48.92136996611953" lon="2.977269943803549">
				<ele>141.0</ele>
				<time>2020-06-30T10:31:55</time>
			</trkpt>
			<trkpt lat="48.921749917790294" lon="2.9762599244713783">
				<ele>142.0</ele>
				<time>2020-06-30T10:32:08</time>
			</trkpt>
			<trkpt lat="48.92173994332552" lon="2.9758699983358383">
				<ele>144.0</ele>
				<time>2020-06-30T10:32:13</time>
			</trkpt>
			<trkpt lat="48.92154992558062" lon="2.9752599634230137">
				<ele>147.0</ele>
				<time>2020-06-30T10:32:20</time>
			</trkpt>
			<trkpt lat="48.92145998775959" lon="2.974659986793995">
				<ele>150.0</ele>
				<time>2020-06-30T10:32:27</time>
			</trkpt>
			<trkpt lat="48.92138999886811" lon="2.973839985206723">
				<ele>153.0</ele>
				<time>2020-06-30T10:32:37</time>
			</trkpt>
			<trkpt lat="48.92108992673457" lon="2.971929917111993">
				<ele>158.0</ele>
				<time>2020-06-30T10:32:59</time>
			</trkpt>
			<trkpt lat="48.92105991952121" lon="2.9714899510145187">
				<ele>158.0</ele>
				<time>2020-06-30T10:33:04</time>
			</trkpt>
			<trkpt lat="48.92105991952121" lon="2.9707299638539553">
				<ele>155.0</ele>
				<time>2020-06-30T10:33:13</time>
			</trkpt>
			<trkpt lat="48.92108992673457" lon="2.9704799316823483">
				<ele>154.0</ele>
				<time>2020-06-30T10:33:16</time>
			</trkpt>
			<trkpt lat="48.92081994563341" lon="2.969749951735139">
				<ele>152.0</ele>
				<time>2020-06-30T10:33:25</time>
			</trkpt>
			<trkpt lat="48.920819610357285" lon="2.969749616459012">
				<ele>152.0</ele>
				<time>2020-06-30T10:33:25</time>
			</trkpt>
			<trkpt lat="48.920609978958964" lon="2.96955993399024">
				<ele>152.0</ele>
				<time>2020-06-30T10:33:30</time>
			</trkpt>
			<trkpt lat="48.92034997232258" lon="2.96914997510612">
				<ele>152.0</ele>
				<time>2020-06-30T10:33:36</time>
			</trkpt>
			<trkpt lat="48.92016992904246" lon="2.968949982896447">
				<ele>153.0</ele>
				<time>2020-06-30T10:33:40</time>
			</trkpt>
			<trkpt lat="48.91964999958873" lon="2.9684999585151672">
				<ele>154.0</ele>
				<time>2020-06-30T10:33:50</time>
			</trkpt>
			<trkpt lat="48.91909997910261" lon="2.968199970200658">
				<ele>157.0</ele>
				<time>2020-06-30T10:34:01</time>
			</trkpt>
			<trkpt lat="48.91530993394554" lon="2.966439938172698">
				<ele>167.0</ele>
				<time>2020-06-30T10:35:10</time>
			</trkpt>
			<trkpt lat="48.91487994231284" lon="2.9660799354314804">
				<ele>168.0</ele>
				<time>2020-06-30T10:35:18</time>
			</trkpt>
			<trkpt lat="48.91414996236563" lon="2.965329922735691">
				<ele>167.0</ele>
				<time>2020-06-30T10:35:33</time>
			</trkpt>
			<trkpt lat="48.91397997736931" lon="2.9650699999183416">
				<ele>166.0</ele>
				<time>2020-06-30T10:35:38</time>
			</trkpt>
			<trkpt lat="48.9135399274528" lon="2.9623899701982737">
				<ele>165.0</ele>
				<time>2020-06-30T10:36:09</time>
			</trkpt>
			<trkpt lat="48.9134899713099" lon="2.962259966880083">
				<ele>165.0</ele>
				<time>2020-06-30T10:36:11</time>
			</trkpt>
			<trkpt lat="48.913299953565" lon="2.962029967457056">
				<ele>165.0</ele>
				<time>2020-06-30T10:36:15</time>
			</trkpt>
			<trkpt lat="48.913179924711585" lon="2.961969953030348">
				<ele>165.0</ele>
				<time>2020-06-30T10:36:17</time>
			</trkpt>
			<trkpt lat="48.912919918075204" lon="2.9619599785655737">
				<ele>165.0</ele>
				<time>2020-06-30T10:36:22</time>
			</trkpt>
			<trkpt lat="48.911309922114015" lon="2.9624199774116278">
				<ele>169.0</ele>
				<time>2020-06-30T10:36:50</time>
			</trkpt>
			<trkpt lat="48.91060994938016" lon="2.9625499807298183">
				<ele>168.0</ele>
				<time>2020-06-30T10:37:03</time>
			</trkpt>
			<trkpt lat="48.9096599444747" lon="2.962229959666729">
				<ele>167.0</ele>
				<time>2020-06-30T10:37:20</time>
			</trkpt>
			<trkpt lat="48.90906994231045" lon="2.962019992992282">
				<ele>167.0</ele>
				<time>2020-06-30T10:37:30</time>
			</trkpt>
			<trkpt lat="48.90787996351719" lon="2.961799968034029">
				<ele>168.0</ele>
				<time>2020-06-30T10:37:51</time>
			</trkpt>
			<trkpt lat="48.90705996192992" lon="2.961349943652749">
				<ele>166.0</ele>
				<time>2020-06-30T10:38:06</time>
			</trkpt>
			<trkpt lat="48.906409945338964" lon="2.961129918694496">
				<ele>163.0</ele>
				<time>2020-06-30T10:38:18</time>
			</trkpt>
			<trkpt lat="48.901619939133525" lon="2.960279993712902">
				<ele>146.0</ele>
				<time>2020-06-30T10:39:42</time>
			</trkpt>
			<trkpt lat="48.9011499658227" lon="2.958239922299981">
				<ele>144.0</ele>
				<time>2020-06-30T10:40:07</time>
			</trkpt>
			<trkpt lat="48.900609919801354" lon="2.9569599218666553">
				<ele>148.0</ele>
				<time>2020-06-30T10:40:24</time>
			</trkpt>
			<trkpt lat="48.90001991763711" lon="2.9548299964517355">
				<ele>151.0</ele>
				<time>2020-06-30T10:40:50</time>
			</trkpt>
			<trkpt lat="48.8998599909246" lon="2.9544999171048403">
				<ele>151.0</ele>
				<time>2020-06-30T10:40:55</time>
			</trkpt>
			<trkpt lat="48.89967994764447" lon="2.9543399903923273">
				<ele>151.0</ele>
				<time>2020-06-30T10:40:59</time>
			</trkpt>
			<trkpt lat="48.899259930476546" lon="2.9541699215769768">
				<ele>152.0</ele>
				<time>2020-06-30T10:41:06</time>
			</trkpt>
			<trkpt lat="48.89915993437171" lon="2.954079983755946">
				<ele>152.0</ele>
				<time>2020-06-30T10:41:08</time>
			</trkpt>
			<trkpt lat="48.89859993942082" lon="2.953149927780032">
				<ele>154.0</ele>
				<time>2020-06-30T10:41:23</time>
			</trkpt>
			<trkpt lat="48.89808998443186" lon="2.9527499433606863">
				<ele>155.0</ele>
				<time>2020-06-30T10:41:33</time>
			</trkpt>
			<trkpt lat="48.897859985008836" lon="2.9523899406194687">
				<ele>155.0</ele>
				<time>2020-06-30T10:41:38</time>
			</trkpt>
			<trkpt lat="48.89763996005058" lon="2.95221995562315">
				<ele>156.0</ele>
				<time>2020-06-30T10:41:43</time>
			</trkpt>
			<trkpt lat="48.89747994951904" lon="2.9521799739450216">
				<ele>156.0</ele>
				<time>2020-06-30T10:41:46</time>
			</trkpt>
			<trkpt lat="48.89621998183429" lon="2.95221995562315">
				<ele>159.0</ele>
				<time>2020-06-30T10:42:07</time>
			</trkpt>
			<trkpt lat="48.896009931340814" lon="2.95223998837173">
				<ele>160.0</ele>
				<time>2020-06-30T10:42:11</time>
			</trkpt>
			<trkpt lat="48.89556996524334" lon="2.9523999989032745">
				<ele>160.0</ele>
				<time>2020-06-30T10:42:19</time>
			</trkpt>
			<trkpt lat="48.89545999467373" lon="2.9512199945747852">
				<ele>159.0</ele>
				<time>2020-06-30T10:42:33</time>
			</trkpt>
			<trkpt lat="48.89552998356521" lon="2.9506299924105406">
				<ele>159.0</ele>
				<time>2020-06-30T10:42:39</time>
			</trkpt>
			<trkpt lat="48.89563995413482" lon="2.9501399863511324">
				<ele>159.0</ele>
				<time>2020-06-30T10:42:45</time>
			</trkpt>
			<trkpt lat="48.895689994096756" lon="2.9494499880820513">
				<ele>158.0</ele>
				<time>2020-06-30T10:42:53</time>
			</trkpt>
			<trkpt lat="48.89577993191779" lon="2.94916994869709">
				<ele>158.0</ele>
				<time>2020-06-30T10:42:57</time>
			</trkpt>
			<trkpt lat="48.89625996351242" lon="2.9485899209976196">
				<ele>158.0</ele>
				<time>2020-06-30T10:43:08</time>
			</trkpt>
			<trkpt lat="48.89630991965532" lon="2.948469975963235">
				<ele>158.0</ele>
				<time>2020-06-30T10:43:09</time>
			</trkpt>
			<trkpt lat="48.89636993408203" lon="2.948099998757243">
				<ele>159.0</ele>
				<time>2020-06-30T10:43:14</time>
			</trkpt>
			<trkpt lat="48.8963299524039" lon="2.9474299494177103">
				<ele>159.0</ele>
				<time>2020-06-30T10:43:21</time>
			</trkpt>
			<trkpt lat="48.89612996019423" lon="2.9467699583619833">
				<ele>157.0</ele>
				<time>2020-06-30T10:43:30</time>
			</trkpt>
			<trkpt lat="48.896029964089394" lon="2.946189930662513">
				<ele>156.0</ele>
				<time>2020-06-30T10:43:36</time>
			</trkpt>
			<trkpt lat="48.89575998298824" lon="2.9435699991881847">
				<ele>157.0</ele>
				<time>2020-06-30T10:44:07</time>
			</trkpt>
			<trkpt lat="48.89576995745301" lon="2.942749997600913">
				<ele>158.0</ele>
				<time>2020-06-30T10:44:16</time>
			</trkpt>
			<trkpt lat="48.8958999607712" lon="2.941559934988618">
				<ele>157.0</ele>
				<time>2020-06-30T10:44:30</time>
			</trkpt>
			<trkpt lat="48.89592996798456" lon="2.9408299550414085">
				<ele>156.0</ele>
				<time>2020-06-30T10:44:38</time>
			</trkpt>
			<trkpt lat="48.89587992802262" lon="2.940499959513545">
				<ele>156.0</ele>
				<time>2020-06-30T10:44:42</time>
			</trkpt>
			<trkpt lat="48.895389921963215" lon="2.9408399295061827">
				<ele>156.0</ele>
				<time>2020-06-30T10:44:52</time>
			</trkpt>
			<trkpt lat="48.894209917634726" lon="2.9393099807202816">
				<ele>153.0</ele>
				<time>2020-06-30T10:45:19</time>
			</trkpt>
			<trkpt lat="48.89401998370886" lon="2.938979985192418">
				<ele>153.0</ele>
				<time>2020-06-30T10:45:24</time>
			</trkpt>
			<trkpt lat="48.89230999164283" lon="2.9354599211364985">
				<ele>154.0</ele>
				<time>2020-06-30T10:46:14</time>
			</trkpt>
			<trkpt lat="48.892039926722646" lon="2.935189940035343">
				<ele>154.0</ele>
				<time>2020-06-30T10:46:19</time>
			</trkpt>
			<trkpt lat="48.89186994172633" lon="2.935149958357215">
				<ele>154.0</ele>
				<time>2020-06-30T10:46:22</time>
			</trkpt>
			<trkpt lat="48.891819985583425" lon="2.9350599367171526">
				<ele>154.0</ele>
				<time>2020-06-30T10:46:24</time>
			</trkpt>
			<trkpt lat="48.89153994619846" lon="2.9348199628293514">
				<ele>154.0</ele>
				<time>2020-06-30T10:46:29</time>
			</trkpt>
			<trkpt lat="48.8910199329257" lon="2.934669926762581">
				<ele>152.0</ele>
				<time>2020-06-30T10:46:38</time>
			</trkpt>
			<trkpt lat="48.8910199329257" lon="2.9342299606651068">
				<ele>152.0</ele>
				<time>2020-06-30T10:46:44</time>
			</trkpt>
			<trkpt lat="48.8911599945277" lon="2.9328099824488163">
				<ele>153.0</ele>
				<time>2020-06-30T10:47:00</time>
			</trkpt>
			<trkpt lat="48.8911599945277" lon="2.932479986920953">
				<ele>152.0</ele>
				<time>2020-06-30T10:47:04</time>
			</trkpt>
			<trkpt lat="48.89107994735241" lon="2.9321699403226376">
				<ele>152.0</ele>
				<time>2020-06-30T10:47:08</time>
			</trkpt>
			<trkpt lat="48.890359941869974" lon="2.931549930945039">
				<ele>151.0</ele>
				<time>2020-06-30T10:47:22</time>
			</trkpt>
			<trkpt lat="48.89111992903054" lon="2.9286499600857496">
				<ele>150.0</ele>
				<time>2020-06-30T10:47:58</time>
			</trkpt>
			<trkpt lat="48.891179943457246" lon="2.928269924595952">
				<ele>150.0</ele>
				<time>2020-06-30T10:48:02</time>
			</trkpt>
			<trkpt lat="48.89111992903054" lon="2.9282199684530497">
				<ele>150.0</ele>
				<time>2020-06-30T10:48:03</time>
			</trkpt>
			<trkpt lat="48.8910199329257" lon="2.9279999434947968">
				<ele>150.0</ele>
				<time>2020-06-30T10:48:06</time>
			</trkpt>
			<trkpt lat="48.890169924125075" lon="2.925649993121624">
				<ele>148.0</ele>
				<time>2020-06-30T10:48:37</time>
			</trkpt>
			<trkpt lat="48.886839961633086" lon="2.9161799512803555">
				<ele>115.0</ele>
				<time>2020-06-30T10:50:40</time>
			</trkpt>
			<trkpt lat="48.88491991907358" lon="2.9106899723410606">
				<ele>105.0</ele>
				<time>2020-06-30T10:51:51</time>
			</trkpt>
			<trkpt lat="48.884649937972426" lon="2.9099999740719795">
				<ele>105.0</ele>
				<time>2020-06-30T10:52:00</time>
			</trkpt>
			<trkpt lat="48.884429996833205" lon="2.9095699824392796">
				<ele>105.0</ele>
				<time>2020-06-30T10:52:07</time>
			</trkpt>
			<trkpt lat="48.88435992412269" lon="2.9095399752259254">
				<ele>104.0</ele>
				<time>2020-06-30T10:52:08</time>
			</trkpt>
			<trkpt lat="48.88304991647601" lon="2.9077199287712574">
				<ele>100.0</ele>
				<time>2020-06-30T10:52:39</time>
			</trkpt>
			<trkpt lat="48.88265999034047" lon="2.907239980995655">
				<ele>98.0</ele>
				<time>2020-06-30T10:52:47</time>
			</trkpt>
			<trkpt lat="48.88206998817623" lon="2.9066699277609587">
				<ele>97.0</ele>
				<time>2020-06-30T10:53:00</time>
			</trkpt>
			<trkpt lat="48.88113993220031" lon="2.9059499222785234">
				<ele>94.0</ele>
				<time>2020-06-30T10:53:18</time>
			</trkpt>
			<trkpt lat="48.88063995167613" lon="2.9057399556040764">
				<ele>92.0</ele>
				<time>2020-06-30T10:53:27</time>
			</trkpt>
			<trkpt lat="48.879509987309575" lon="2.905679941177368">
				<ele>91.0</ele>
				<time>2020-06-30T10:53:46</time>
			</trkpt>
			<trkpt lat="48.87837993912399" lon="2.9060199949890375">
				<ele>93.0</ele>
				<time>2020-06-30T10:54:07</time>
			</trkpt>
			<trkpt lat="48.878179946914315" lon="2.9060299694538116">
				<ele>94.0</ele>
				<time>2020-06-30T10:54:10</time>
			</trkpt>
			<trkpt lat="48.87713992036879" lon="2.9046299401670694">
				<ele>99.0</ele>
				<time>2020-06-30T10:54:34</time>
			</trkpt>
			<trkpt lat="48.87653994373977" lon="2.9040599707514048">
				<ele>102.0</ele>
				<time>2020-06-30T10:54:46</time>
			</trkpt>
			<trkpt lat="48.87603996321559" lon="2.903699968010187">
				<ele>105.0</ele>
				<time>2020-06-30T10:54:56</time>
			</trkpt>
			<trkpt lat="48.87508995831013" lon="2.9032899253070354">
				<ele>109.0</ele>
				<time>2020-06-30T10:55:13</time>
			</trkpt>
			<trkpt lat="48.87393996119499" lon="2.9026699997484684">
				<ele>113.0</ele>
				<time>2020-06-30T10:55:35</time>
			</trkpt>
			<trkpt lat="48.873599991202354" lon="2.902579978108406">
				<ele>114.0</ele>
				<time>2020-06-30T10:55:41</time>
			</trkpt>
			<trkpt lat="48.87173996306956" lon="2.902949955314398">
				<ele>121.0</ele>
				<time>2020-06-30T10:56:13</time>
			</trkpt>
			<trkpt lat="48.869799971580505" lon="2.902949955314398">
				<ele>123.0</ele>
				<time>2020-06-30T10:56:47</time>
			</trkpt>
			<trkpt lat="48.86774992570281" lon="2.9029399808496237">
				<ele>117.0</ele>
				<time>2020-06-30T10:57:23</time>
			</trkpt>
			<trkpt lat="48.86754993349314" lon="2.902989936992526">
				<ele>115.0</ele>
				<time>2020-06-30T10:57:26</time>
			</trkpt>
			<trkpt lat="48.86600992642343" lon="2.90432995185256">
				<ele>103.0</ele>
				<time>2020-06-30T10:57:57</time>
			</trkpt>
			<trkpt lat="48.86583994142711" lon="2.9043999407440424">
				<ele>102.0</ele>
				<time>2020-06-30T10:58:00</time>
			</trkpt>
			<trkpt lat="48.86546996422112" lon="2.9044299479573965">
				<ele>99.0</ele>
				<time>2020-06-30T10:58:07</time>
			</trkpt>
			<trkpt lat="48.86469991877675" lon="2.9044499807059765">
				<ele>92.0</ele>
				<time>2020-06-30T10:58:20</time>
			</trkpt>
			<trkpt lat="48.86446991935372" lon="2.904339926317334">
				<ele>90.0</ele>
				<time>2020-06-30T10:58:24</time>
			</trkpt>
			<trkpt lat="48.86422994546592" lon="2.9040099307894707">
				<ele>88.0</ele>
				<time>2020-06-30T10:58:30</time>
			</trkpt>
			<trkpt lat="48.86408996768296" lon="2.9035199247300625">
				<ele>87.0</ele>
				<time>2020-06-30T10:58:36</time>
			</trkpt>
			<trkpt lat="48.86398997157812" lon="2.9033599980175495">
				<ele>86.0</ele>
				<time>2020-06-30T10:58:38</time>
			</trkpt>
			<trkpt lat="48.86376994661987" lon="2.903189929202199">
				<ele>83.0</ele>
				<time>2020-06-30T10:58:43</time>
			</trkpt>
			<trkpt lat="48.86353994719684" lon="2.903189929202199">
				<ele>80.0</ele>
				<time>2020-06-30T10:58:47</time>
			</trkpt>
			<trkpt lat="48.8633799366653" lon="2.9032799508422613">
				<ele>77.0</ele>
				<time>2020-06-30T10:58:50</time>
			</trkpt>
			<trkpt lat="48.86325999163091" lon="2.90344993583858">
				<ele>75.0</ele>
				<time>2020-06-30T10:58:53</time>
			</trkpt>
			<trkpt lat="48.86295991949737" lon="2.9042099229991436">
				<ele>71.0</ele>
				<time>2020-06-30T10:59:03</time>
			</trkpt>
			<trkpt lat="48.86259991675615" lon="2.9048899468034506">
				<ele>68.0</ele>
				<time>2020-06-30T10:59:13</time>
			</trkpt>
			<trkpt lat="48.862259946763515" lon="2.9053499456495047">
				<ele>66.0</ele>
				<time>2020-06-30T10:59:21</time>
			</trkpt>
			<trkpt lat="48.86192995123565" lon="2.905669966712594">
				<ele>63.0</ele>
				<time>2020-06-30T10:59:27</time>
			</trkpt>
			<trkpt lat="48.85987998917699" lon="2.90692993439734">
				<ele>52.0</ele>
				<time>2020-06-30T11:00:06</time>
			</trkpt>
			<trkpt lat="48.8591299764812" lon="2.9071199521422386">
				<ele>51.0</ele>
				<time>2020-06-30T11:00:19</time>
			</trkpt>
			<trkpt lat="48.858239986002445" lon="2.907229922711849">
				<ele>49.0</ele>
				<time>2020-06-30T11:00:35</time>
			</trkpt>
			<trkpt lat="48.85824996046722" lon="2.9070799704641104">
				<ele>49.0</ele>
				<time>2020-06-30T11:00:36</time>
			</trkpt>
			<trkpt lat="48.85790990665555" lon="2.90688986890018">
				<ele>49.0</ele>
				<time>2020-06-30T11:00:43</time>
			</trkpt>
		</trkseg>
	</trk>
</gpx>
