<?xml version="1.0" encoding="UTF-8"?>
<gpx creator="Garmin Connect" version="1.1" xsi:schemaLocation="http://www.topografix.com/GPX/1/1 http://www.topografix.com/GPX/11.xsd" xmlns:ns3="http://www.garmin.com/xmlschemas/TrackPointExtension/v1" xmlns="http://www.topografix.com/GPX/1/1" xmlns:xsi="http://www.w3.org/2001/XMLSchema-instance" xmlns:ns2="http://www.garmin.com/xmlschemas/GpxExtensions/v3">
	<metadata>
		<name>300-G2-80 km-D 627 m-Randonnées Créçoises</name>
		<link href="connect.garmin.com">
			<text>Garmin Connect</text>
		</link>
		<time>2016-08-28T08:00:00</time>
	</metadata>
	<wpt lat="48.7455576838988" lon="3.0624069410034">
		<ele>0.0</ele>
		<name>Ravito</name>
		<type>FOOD</type>
	</wpt>
	<wpt lat="48.8505028025014" lon="3.14224771546555">
		<ele>0.0</ele>
		<name>Ravito</name>
		<type>FOOD</type>
	</wpt>
	<trk>
		<name>300-G2-80 km-D 627 m-Randonnées Créçoises</name>
		<trkseg>
			<trkpt lat="48.85847778059542" lon="2.9162461683154106">
				<ele>53.09</ele>
				<time>2016-08-28T08:00:00</time>
			</trkpt>
			<trkpt lat="48.858786821365356" lon="2.9163873195648193">
				<ele>53.69</ele>
				<time>2016-08-28T08:00:05</time>
			</trkpt>
			<trkpt lat="48.858829736709595" lon="2.916151285171509">
				<ele>54.0</ele>
				<time>2016-08-28T08:00:08</time>
			</trkpt>
			<trkpt lat="48.85886192321777" lon="2.9160869121551514">
				<ele>54.0</ele>
				<time>2016-08-28T08:00:09</time>
			</trkpt>
			<trkpt lat="48.85891556739807" lon="2.9160654544830322">
				<ele>54.0</ele>
				<time>2016-08-28T08:00:09</time>
			</trkpt>
			<trkpt lat="48.85930188931525" lon="2.9161834716796875">
				<ele>56.77</ele>
				<time>2016-08-28T08:00:16</time>
			</trkpt>
			<trkpt lat="48.859376991167665" lon="2.9162049293518066">
				<ele>58.42</ele>
				<time>2016-08-28T08:00:17</time>
			</trkpt>
			<trkpt lat="48.85943055152893" lon="2.9156899452209473">
				<ele>58.05</ele>
				<time>2016-08-28T08:00:23</time>
			</trkpt>
			<trkpt lat="48.85943055152893" lon="2.9156041145324707">
				<ele>57.98</ele>
				<time>2016-08-28T08:00:23</time>
			</trkpt>
			<trkpt lat="48.85946273803711" lon="2.9151535034179688">
				<ele>56.55</ele>
				<time>2016-08-28T08:00:28</time>
			</trkpt>
			<trkpt lat="48.85944128036499" lon="2.915024757385254">
				<ele>55.92</ele>
				<time>2016-08-28T08:00:30</time>
			</trkpt>
			<trkpt lat="48.85925889015198" lon="2.9148316383361816">
				<ele>53.97</ele>
				<time>2016-08-28T08:00:33</time>
			</trkpt>
			<trkpt lat="48.85925897397101" lon="2.9148316383361816">
				<ele>53.97</ele>
				<time>2016-08-28T08:00:33</time>
			</trkpt>
			<trkpt lat="48.85920532979071" lon="2.914777994155884">
				<ele>53.78</ele>
				<time>2016-08-28T08:00:34</time>
			</trkpt>
			<trkpt lat="48.85866888798773" lon="2.914177179336548">
				<ele>51.85</ele>
				<time>2016-08-28T08:00:45</time>
			</trkpt>
			<trkpt lat="48.85854014195502" lon="2.9140377044677734">
				<ele>51.38</ele>
				<time>2016-08-28T08:00:47</time>
			</trkpt>
			<trkpt lat="48.858304023742676" lon="2.913823127746582">
				<ele>51.93</ele>
				<time>2016-08-28T08:00:52</time>
			</trkpt>
			<trkpt lat="48.8581645488739" lon="2.9137051105499268">
				<ele>52.92</ele>
				<time>2016-08-28T08:00:54</time>
			</trkpt>
			<trkpt lat="48.85803580284119" lon="2.913544178009033">
				<ele>53.0</ele>
				<time>2016-08-28T08:00:57</time>
			</trkpt>
			<trkpt lat="48.85802507400513" lon="2.913447618484497">
				<ele>53.0</ele>
				<time>2016-08-28T08:00:58</time>
			</trkpt>
			<trkpt lat="48.85792851448059" lon="2.911022901535034">
				<ele>52.0</ele>
				<time>2016-08-28T08:01:24</time>
			</trkpt>
			<trkpt lat="48.857842683792114" lon="2.909359931945801">
				<ele>53.0</ele>
				<time>2016-08-28T08:01:41</time>
			</trkpt>
			<trkpt lat="48.857789039611816" lon="2.9088234901428223">
				<ele>52.0</ele>
				<time>2016-08-28T08:01:47</time>
			</trkpt>
			<trkpt lat="48.85775685310364" lon="2.908608913421631">
				<ele>51.58</ele>
				<time>2016-08-28T08:01:49</time>
			</trkpt>
			<trkpt lat="48.8577139377594" lon="2.9082870483398438">
				<ele>51.0</ele>
				<time>2016-08-28T08:01:53</time>
			</trkpt>
			<trkpt lat="48.85768175125122" lon="2.908254861831665">
				<ele>51.0</ele>
				<time>2016-08-28T08:01:53</time>
			</trkpt>
			<trkpt lat="48.857638919726014" lon="2.908276319503784">
				<ele>51.0</ele>
				<time>2016-08-28T08:01:54</time>
			</trkpt>
			<trkpt lat="48.857455775141716" lon="2.908612685278058">
				<ele>51.88</ele>
				<time>2016-08-28T08:01:59</time>
			</trkpt>
			<trkpt lat="48.85744772851467" lon="2.908602710813284">
				<ele>51.89</ele>
				<time>2016-08-28T08:01:59</time>
			</trkpt>
			<trkpt lat="48.85744772851467" lon="2.908602626994252">
				<ele>51.89</ele>
				<time>2016-08-28T08:01:59</time>
			</trkpt>
			<trkpt lat="48.856669971719384" lon="2.9099899996072054">
				<ele>50.78</ele>
				<time>2016-08-28T08:02:18</time>
			</trkpt>
			<trkpt lat="48.85628993622959" lon="2.91098996065557">
				<ele>52.71</ele>
				<time>2016-08-28T08:02:30</time>
			</trkpt>
			<trkpt lat="48.85549994185567" lon="2.909829905256629">
				<ele>51.44</ele>
				<time>2016-08-28T08:02:48</time>
			</trkpt>
			<trkpt lat="48.854849841445684" lon="2.909849938005209">
				<ele>52.94</ele>
				<time>2016-08-28T08:02:58</time>
			</trkpt>
			<trkpt lat="48.854549853131175" lon="2.910249838605523">
				<ele>54.97</ele>
				<time>2016-08-28T08:03:05</time>
			</trkpt>
			<trkpt lat="48.854329995810986" lon="2.9116999078541994">
				<ele>57.63</ele>
				<time>2016-08-28T08:03:20</time>
			</trkpt>
			<trkpt lat="48.85521990247071" lon="2.9163698852062225">
				<ele>51.56</ele>
				<time>2016-08-28T08:04:11</time>
			</trkpt>
			<trkpt lat="48.855159888044" lon="2.9211998730897903">
				<ele>51.77</ele>
				<time>2016-08-28T08:05:02</time>
			</trkpt>
			<trkpt lat="48.85502988472581" lon="2.9223899357020855">
				<ele>53.81</ele>
				<time>2016-08-28T08:05:15</time>
			</trkpt>
			<trkpt lat="48.854629984125495" lon="2.923419987782836">
				<ele>53.06</ele>
				<time>2016-08-28T08:05:28</time>
			</trkpt>
			<trkpt lat="48.854419849812984" lon="2.9236298706382513">
				<ele>54.77</ele>
				<time>2016-08-28T08:05:32</time>
			</trkpt>
			<trkpt lat="48.85382993146777" lon="2.9236999433487654">
				<ele>58.53</ele>
				<time>2016-08-28T08:05:41</time>
			</trkpt>
			<trkpt lat="48.849349888041615" lon="2.92065991088748">
				<ele>72.35</ele>
				<time>2016-08-28T08:07:00</time>
			</trkpt>
			<trkpt lat="48.8479398842901" lon="2.9193199798464775">
				<ele>67.42</ele>
				<time>2016-08-28T08:07:26</time>
			</trkpt>
			<trkpt lat="48.84718987159431" lon="2.9174598678946495">
				<ele>61.88</ele>
				<time>2016-08-28T08:07:49</time>
			</trkpt>
			<trkpt lat="48.8464598916471" lon="2.91313991881907">
				<ele>59.73</ele>
				<time>2016-08-28T08:08:36</time>
			</trkpt>
			<trkpt lat="48.84613987058401" lon="2.9121899977326393">
				<ele>59.81</ele>
				<time>2016-08-28T08:08:48</time>
			</trkpt>
			<trkpt lat="48.8444999512285" lon="2.9093099758028984">
				<ele>52.61</ele>
				<time>2016-08-28T08:09:28</time>
			</trkpt>
			<trkpt lat="48.842559875920415" lon="2.9069699998945">
				<ele>55.06</ele>
				<time>2016-08-28T08:10:07</time>
			</trkpt>
			<trkpt lat="48.84178991429508" lon="2.906559957191348">
				<ele>56.37</ele>
				<time>2016-08-28T08:10:20</time>
			</trkpt>
			<trkpt lat="48.83601997978985" lon="2.9052198585122824">
				<ele>53.0</ele>
				<time>2016-08-28T08:11:54</time>
			</trkpt>
			<trkpt lat="48.833619905635715" lon="2.90387992747128">
				<ele>53.43</ele>
				<time>2016-08-28T08:12:35</time>
			</trkpt>
			<trkpt lat="48.83025993593037" lon="2.9016698710620403">
				<ele>54.77</ele>
				<time>2016-08-28T08:13:33</time>
			</trkpt>
			<trkpt lat="48.82935142144561" lon="2.9013138078153133">
				<ele>56.01</ele>
				<time>2016-08-28T08:13:48</time>
			</trkpt>
			<trkpt lat="48.829351253807545" lon="2.9013137239962816">
				<ele>56.01</ele>
				<time>2016-08-28T08:13:49</time>
			</trkpt>
			<trkpt lat="48.82935108616948" lon="2.9013137239962816">
				<ele>56.01</ele>
				<time>2016-08-28T08:13:49</time>
			</trkpt>
			<trkpt lat="48.829350834712386" lon="2.90131364017725">
				<ele>56.01</ele>
				<time>2016-08-28T08:13:49</time>
			</trkpt>
			<trkpt lat="48.82928998209536" lon="2.9012898355722427">
				<ele>56.27</ele>
				<time>2016-08-28T08:13:50</time>
			</trkpt>
			<trkpt lat="48.82704991847277" lon="2.901719994843006">
				<ele>59.57</ele>
				<time>2016-08-28T08:14:26</time>
			</trkpt>
			<trkpt lat="48.82502996362746" lon="2.9017298854887486">
				<ele>70.03</ele>
				<time>2016-08-28T08:14:58</time>
			</trkpt>
			<trkpt lat="48.824189845472574" lon="2.9023899603635073">
				<ele>61.39</ele>
				<time>2016-08-28T08:15:13</time>
			</trkpt>
			<trkpt lat="48.8228898961097" lon="2.9026499669998884">
				<ele>64.28</ele>
				<time>2016-08-28T08:15:34</time>
			</trkpt>
			<trkpt lat="48.8203099463135" lon="2.905369894579053">
				<ele>62.42</ele>
				<time>2016-08-28T08:16:24</time>
			</trkpt>
			<trkpt lat="48.820089837536216" lon="2.9060998745262623">
				<ele>57.42</ele>
				<time>2016-08-28T08:16:33</time>
			</trkpt>
			<trkpt lat="48.81962992250919" lon="2.909839879721403">
				<ele>55.66</ele>
				<time>2016-08-28T08:17:13</time>
			</trkpt>
			<trkpt lat="48.81482994183898" lon="2.921379916369915">
				<ele>81.62</ele>
				<time>2016-08-28T08:19:37</time>
			</trkpt>
			<trkpt lat="48.8057298772037" lon="2.9303099121898413">
				<ele>128.68</ele>
				<time>2016-08-28T08:22:30</time>
			</trkpt>
			<trkpt lat="48.80474986508489" lon="2.9307999182492495">
				<ele>132.2</ele>
				<time>2016-08-28T08:22:47</time>
			</trkpt>
			<trkpt lat="48.792559979483485" lon="2.9348799772560596">
				<ele>139.0</ele>
				<time>2016-08-28T08:26:07</time>
			</trkpt>
			<trkpt lat="48.78135991282761" lon="2.9363999515771866">
				<ele>123.39</ele>
				<time>2016-08-28T08:29:07</time>
			</trkpt>
			<trkpt lat="48.780919862911105" lon="2.937749857082963">
				<ele>122.97</ele>
				<time>2016-08-28T08:29:23</time>
			</trkpt>
			<trkpt lat="48.78083998337388" lon="2.93885987251997">
				<ele>126.75</ele>
				<time>2016-08-28T08:29:35</time>
			</trkpt>
			<trkpt lat="48.779219929128885" lon="2.9398599173873663">
				<ele>127.68</ele>
				<time>2016-08-28T08:30:03</time>
			</trkpt>
			<trkpt lat="48.7791499402374" lon="2.940049935132265">
				<ele>126.3</ele>
				<time>2016-08-28T08:30:05</time>
			</trkpt>
			<trkpt lat="48.779389914125204" lon="2.9418498650193214">
				<ele>124.33</ele>
				<time>2016-08-28T08:30:24</time>
			</trkpt>
			<trkpt lat="48.78034997731447" lon="2.9457998368889093">
				<ele>125.93</ele>
				<time>2016-08-28T08:31:09</time>
			</trkpt>
			<trkpt lat="48.78046992234886" lon="2.9481198638677597">
				<ele>123.36</ele>
				<time>2016-08-28T08:31:33</time>
			</trkpt>
			<trkpt lat="48.7802398391068" lon="2.9483398888260126">
				<ele>124.57</ele>
				<time>2016-08-28T08:31:38</time>
			</trkpt>
			<trkpt lat="48.77743994817138" lon="2.9492699448019266">
				<ele>121.0</ele>
				<time>2016-08-28T08:32:23</time>
			</trkpt>
			<trkpt lat="48.77630989998579" lon="2.95000989921391">
				<ele>118.58</ele>
				<time>2016-08-28T08:32:43</time>
			</trkpt>
			<trkpt lat="48.77639992162585" lon="2.952079977840185">
				<ele>118.76</ele>
				<time>2016-08-28T08:33:05</time>
			</trkpt>
			<trkpt lat="48.778059957548976" lon="2.95889999717474">
				<ele>120.0</ele>
				<time>2016-08-28T08:34:22</time>
			</trkpt>
			<trkpt lat="48.773309933021665" lon="2.9613198526203632">
				<ele>117.64</ele>
				<time>2016-08-28T08:35:42</time>
			</trkpt>
			<trkpt lat="48.7690098490566" lon="2.9643499944359064">
				<ele>114.87</ele>
				<time>2016-08-28T08:36:58</time>
			</trkpt>
			<trkpt lat="48.76727999188006" lon="2.9659199248999357">
				<ele>118.94</ele>
				<time>2016-08-28T08:37:30</time>
			</trkpt>
			<trkpt lat="48.755409959703684" lon="2.9742999840527773">
				<ele>115.0</ele>
				<time>2016-08-28T08:41:00</time>
			</trkpt>
			<trkpt lat="48.7477298732847" lon="2.9783399775624275">
				<ele>111.58</ele>
				<time>2016-08-28T08:43:10</time>
			</trkpt>
			<trkpt lat="48.74439991079271" lon="2.980429921299219">
				<ele>111.0</ele>
				<time>2016-08-28T08:44:08</time>
			</trkpt>
			<trkpt lat="48.740049954503775" lon="2.9840399231761694">
				<ele>111.06</ele>
				<time>2016-08-28T08:45:27</time>
			</trkpt>
			<trkpt lat="48.73894999735057" lon="2.985659893602133">
				<ele>114.91</ele>
				<time>2016-08-28T08:45:52</time>
			</trkpt>
			<trkpt lat="48.73865989968181" lon="2.9868598468601704">
				<ele>112.93</ele>
				<time>2016-08-28T08:46:05</time>
			</trkpt>
			<trkpt lat="48.73648999258876" lon="2.987419841811061">
				<ele>111.87</ele>
				<time>2016-08-28T08:46:40</time>
			</trkpt>
			<trkpt lat="48.735839892178774" lon="2.988629937171936">
				<ele>112.21</ele>
				<time>2016-08-28T08:46:57</time>
			</trkpt>
			<trkpt lat="48.735539987683296" lon="2.988819871097803">
				<ele>113.0</ele>
				<time>2016-08-28T08:47:02</time>
			</trkpt>
			<trkpt lat="48.7351599521935" lon="2.98859984613955">
				<ele>112.47</ele>
				<time>2016-08-28T08:47:09</time>
			</trkpt>
			<trkpt lat="48.7353999260813" lon="3.012259863317013">
				<ele>117.0</ele>
				<time>2016-08-28T08:51:18</time>
			</trkpt>
			<trkpt lat="48.73524997383356" lon="3.012749869376421">
				<ele>115.65</ele>
				<time>2016-08-28T08:51:24</time>
			</trkpt>
			<trkpt lat="48.73487999662757" lon="3.013029908761382">
				<ele>114.32</ele>
				<time>2016-08-28T08:51:31</time>
			</trkpt>
			<trkpt lat="48.73432997614145" lon="3.0146198719739914">
				<ele>109.76</ele>
				<time>2016-08-28T08:51:50</time>
			</trkpt>
			<trkpt lat="48.73296984471381" lon="3.021619850769639">
				<ele>100.53</ele>
				<time>2016-08-28T08:53:07</time>
			</trkpt>
			<trkpt lat="48.733159862458706" lon="3.024759879335761">
				<ele>98.74</ele>
				<time>2016-08-28T08:53:40</time>
			</trkpt>
			<trkpt lat="48.7338699772954" lon="3.02580988034606">
				<ele>105.38</ele>
				<time>2016-08-28T08:53:56</time>
			</trkpt>
			<trkpt lat="48.734449837356806" lon="3.0276598501950502">
				<ele>108.79</ele>
				<time>2016-08-28T08:54:18</time>
			</trkpt>
			<trkpt lat="48.73449996113777" lon="3.0334998574107885">
				<ele>108.96</ele>
				<time>2016-08-28T08:55:19</time>
			</trkpt>
			<trkpt lat="48.73314997181296" lon="3.040269836783409">
				<ele>109.0</ele>
				<time>2016-08-28T08:56:34</time>
			</trkpt>
			<trkpt lat="48.73339983634651" lon="3.0457098595798016">
				<ele>112.0</ele>
				<time>2016-08-28T08:57:32</time>
			</trkpt>
			<trkpt lat="48.73299993574619" lon="3.0492999963462353">
				<ele>112.0</ele>
				<time>2016-08-28T08:58:10</time>
			</trkpt>
			<trkpt lat="48.73178984038532" lon="3.053789846599102">
				<ele>113.29</ele>
				<time>2016-08-28T08:59:01</time>
			</trkpt>
			<trkpt lat="48.73126060701907" lon="3.0608821939677">
				<ele>118.31</ele>
				<time>2016-08-28T09:00:17</time>
			</trkpt>
			<trkpt lat="48.7312606908381" lon="3.0608821939677">
				<ele>118.31</ele>
				<time>2016-08-28T09:00:17</time>
			</trkpt>
			<trkpt lat="48.73126077465713" lon="3.0608821939677">
				<ele>118.31</ele>
				<time>2016-08-28T09:00:17</time>
			</trkpt>
			<trkpt lat="48.73126211576164" lon="3.060865346342325">
				<ele>118.31</ele>
				<time>2016-08-28T09:00:17</time>
			</trkpt>
			<trkpt lat="48.731263456866145" lon="3.0608484987169504">
				<ele>118.31</ele>
				<time>2016-08-28T09:00:17</time>
			</trkpt>
			<trkpt lat="48.73126479797065" lon="3.0608316510915756">
				<ele>118.32</ele>
				<time>2016-08-28T09:00:17</time>
			</trkpt>
			<trkpt lat="48.73122992925346" lon="3.0612999480217695">
				<ele>118.08</ele>
				<time>2016-08-28T09:00:22</time>
			</trkpt>
			<trkpt lat="48.73279985971749" lon="3.0611199885606766">
				<ele>117.0</ele>
				<time>2016-08-28T09:00:47</time>
			</trkpt>
			<trkpt lat="48.733929907903075" lon="3.0603198520839214">
				<ele>116.0</ele>
				<time>2016-08-28T09:01:07</time>
			</trkpt>
			<trkpt lat="48.73428991064429" lon="3.060269895941019">
				<ele>116.41</ele>
				<time>2016-08-28T09:01:13</time>
			</trkpt>
			<trkpt lat="48.735389867797494" lon="3.060699887573719">
				<ele>116.0</ele>
				<time>2016-08-28T09:01:31</time>
			</trkpt>
			<trkpt lat="48.73781994916499" lon="3.060919912531972">
				<ele>116.91</ele>
				<time>2016-08-28T09:02:10</time>
			</trkpt>
			<trkpt lat="48.73976991511881" lon="3.0614998564124107">
				<ele>116.83</ele>
				<time>2016-08-28T09:02:42</time>
			</trkpt>
			<trkpt lat="48.74225992709398" lon="3.0615299474447966">
				<ele>116.05</ele>
				<time>2016-08-28T09:03:22</time>
			</trkpt>
			<trkpt lat="48.743379916995764" lon="3.0621499568223953">
				<ele>115.0</ele>
				<time>2016-08-28T09:03:41</time>
			</trkpt>
			<trkpt lat="48.7442899402231" lon="3.062439886853099">
				<ele>115.19</ele>
				<time>2016-08-28T09:03:56</time>
			</trkpt>
			<trkpt lat="48.74555761925876" lon="3.062406862154603">
				<ele>128.02</ele>
				<time>2016-08-28T09:04:16</time>
			</trkpt>
			<trkpt lat="48.74697986058891" lon="3.0623699817806482">
				<ele>127.15</ele>
				<time>2016-08-28T09:04:39</time>
			</trkpt>
			<trkpt lat="48.74899998307228" lon="3.062479952350259">
				<ele>126.54</ele>
				<time>2016-08-28T09:05:11</time>
			</trkpt>
			<trkpt lat="48.75011997297406" lon="3.062709951773286">
				<ele>118.49</ele>
				<time>2016-08-28T09:05:30</time>
			</trkpt>
			<trkpt lat="48.74991998076439" lon="3.0639799777418375">
				<ele>117.85</ele>
				<time>2016-08-28T09:05:43</time>
			</trkpt>
			<trkpt lat="48.746629916131496" lon="3.0739699490368366">
				<ele>113.65</ele>
				<time>2016-08-28T09:07:41</time>
			</trkpt>
			<trkpt lat="48.74655984342098" lon="3.0851998552680016">
				<ele>116.49</ele>
				<time>2016-08-28T09:09:40</time>
			</trkpt>
			<trkpt lat="48.74599984847009" lon="3.0896698404103518">
				<ele>114.87</ele>
				<time>2016-08-28T09:10:28</time>
			</trkpt>
			<trkpt lat="48.74066996388137" lon="3.1091298535466194">
				<ele>132.25</ele>
				<time>2016-08-28T09:14:10</time>
			</trkpt>
			<trkpt lat="48.74062445014715" lon="3.1106715369969606">
				<ele>134.2</ele>
				<time>2016-08-28T09:14:27</time>
			</trkpt>
			<trkpt lat="48.74062336049974" lon="3.1107053998857737">
				<ele>134.07</ele>
				<time>2016-08-28T09:14:27</time>
			</trkpt>
			<trkpt lat="48.74062344431877" lon="3.1107053998857737">
				<ele>134.07</ele>
				<time>2016-08-28T09:14:27</time>
			</trkpt>
			<trkpt lat="48.74062336049974" lon="3.1107054837048054">
				<ele>134.07</ele>
				<time>2016-08-28T09:14:27</time>
			</trkpt>
			<trkpt lat="48.7405199278146" lon="3.1142199318856">
				<ele>128.36</ele>
				<time>2016-08-28T09:15:04</time>
			</trkpt>
			<trkpt lat="48.7400899361819" lon="3.1177898682653904">
				<ele>121.98</ele>
				<time>2016-08-28T09:15:42</time>
			</trkpt>
			<trkpt lat="48.74059997498989" lon="3.1227199360728264">
				<ele>113.56</ele>
				<time>2016-08-28T09:16:35</time>
			</trkpt>
			<trkpt lat="48.74104999937117" lon="3.124839887022972">
				<ele>109.49</ele>
				<time>2016-08-28T09:16:59</time>
			</trkpt>
			<trkpt lat="48.74068999662995" lon="3.1273899134248495">
				<ele>109.02</ele>
				<time>2016-08-28T09:17:26</time>
			</trkpt>
			<trkpt lat="48.74288999475539" lon="3.1295599043369293">
				<ele>109.84</ele>
				<time>2016-08-28T09:18:08</time>
			</trkpt>
			<trkpt lat="48.7432399392128" lon="3.129769954830408">
				<ele>109.54</ele>
				<time>2016-08-28T09:18:14</time>
			</trkpt>
			<trkpt lat="48.74331998638809" lon="3.129589995369315">
				<ele>108.28</ele>
				<time>2016-08-28T09:18:17</time>
			</trkpt>
			<trkpt lat="48.74351997859776" lon="3.12972997315228">
				<ele>108.39</ele>
				<time>2016-08-28T09:18:20</time>
			</trkpt>
			<trkpt lat="48.74517993070185" lon="3.131789993494749">
				<ele>111.81</ele>
				<time>2016-08-28T09:18:54</time>
			</trkpt>
			<trkpt lat="48.74819993041456" lon="3.132839994505048">
				<ele>135.72</ele>
				<time>2016-08-28T09:19:44</time>
			</trkpt>
			<trkpt lat="48.75028995797038" lon="3.1344899721443653">
				<ele>142.79</ele>
				<time>2016-08-28T09:20:22</time>
			</trkpt>
			<trkpt lat="48.75073998235166" lon="3.135779947042465">
				<ele>145.75</ele>
				<time>2016-08-28T09:20:37</time>
			</trkpt>
			<trkpt lat="48.75419986434281" lon="3.1404198333621025">
				<ele>145.0</ele>
				<time>2016-08-28T09:21:51</time>
			</trkpt>
			<trkpt lat="48.75636985525489" lon="3.1420599203556776">
				<ele>144.09</ele>
				<time>2016-08-28T09:22:30</time>
			</trkpt>
			<trkpt lat="48.7593999132514" lon="3.1434698402881622">
				<ele>148.57</ele>
				<time>2016-08-28T09:23:21</time>
			</trkpt>
			<trkpt lat="48.76185983419418" lon="3.14665999263525">
				<ele>153.0</ele>
				<time>2016-08-28T09:24:12</time>
			</trkpt>
			<trkpt lat="48.7622198369354" lon="3.147399863228202">
				<ele>153.0</ele>
				<time>2016-08-28T09:24:22</time>
			</trkpt>
			<trkpt lat="48.7623699568212" lon="3.148869965225458">
				<ele>150.45</ele>
				<time>2016-08-28T09:24:38</time>
			</trkpt>
			<trkpt lat="48.762759966775775" lon="3.15005986019969">
				<ele>150.67</ele>
				<time>2016-08-28T09:24:52</time>
			</trkpt>
			<trkpt lat="48.763019973412156" lon="3.1501099839806557">
				<ele>151.0</ele>
				<time>2016-08-28T09:24:56</time>
			</trkpt>
			<trkpt lat="48.76375984400511" lon="3.1496998574584723">
				<ele>148.72</ele>
				<time>2016-08-28T09:25:09</time>
			</trkpt>
			<trkpt lat="48.76440994441509" lon="3.1499699223786592">
				<ele>148.24</ele>
				<time>2016-08-28T09:25:20</time>
			</trkpt>
			<trkpt lat="48.764719907194376" lon="3.149919966235757">
				<ele>148.73</ele>
				<time>2016-08-28T09:25:25</time>
			</trkpt>
			<trkpt lat="48.766159834340215" lon="3.148669973015785">
				<ele>150.9</ele>
				<time>2016-08-28T09:25:51</time>
			</trkpt>
			<trkpt lat="48.76640995033085" lon="3.148669973015785">
				<ele>151.24</ele>
				<time>2016-08-28T09:25:55</time>
			</trkpt>
			<trkpt lat="48.76725995913148" lon="3.1497398391366005">
				<ele>151.0</ele>
				<time>2016-08-28T09:26:13</time>
			</trkpt>
			<trkpt lat="48.767489874735475" lon="3.150759916752577">
				<ele>150.69</ele>
				<time>2016-08-28T09:26:24</time>
			</trkpt>
			<trkpt lat="48.7682899273932" lon="3.151489980518818">
				<ele>149.0</ele>
				<time>2016-08-28T09:26:39</time>
			</trkpt>
			<trkpt lat="48.76959993503988" lon="3.15323987044394">
				<ele>147.7</ele>
				<time>2016-08-28T09:27:07</time>
			</trkpt>
			<trkpt lat="48.770369896665215" lon="3.1549099646508694">
				<ele>142.97</ele>
				<time>2016-08-28T09:27:29</time>
			</trkpt>
			<trkpt lat="48.77387998625636" lon="3.1575499288737774">
				<ele>135.61</ele>
				<time>2016-08-28T09:28:31</time>
			</trkpt>
			<trkpt lat="48.773739924654365" lon="3.1598199997097254">
				<ele>130.12</ele>
				<time>2016-08-28T09:28:55</time>
			</trkpt>
			<trkpt lat="48.77396992407739" lon="3.1605898775160313">
				<ele>128.95</ele>
				<time>2016-08-28T09:29:04</time>
			</trkpt>
			<trkpt lat="48.773829862475395" lon="3.165449872612953">
				<ele>119.0</ele>
				<time>2016-08-28T09:29:56</time>
			</trkpt>
			<trkpt lat="48.77349995076656" lon="3.1655999924987555">
				<ele>119.5</ele>
				<time>2016-08-28T09:30:01</time>
			</trkpt>
			<trkpt lat="48.77314983867109" lon="3.166499873623252">
				<ele>120.12</ele>
				<time>2016-08-28T09:30:12</time>
			</trkpt>
			<trkpt lat="48.771699937060475" lon="3.169039925560355">
				<ele>128.41</ele>
				<time>2016-08-28T09:30:48</time>
			</trkpt>
			<trkpt lat="48.77104983665049" lon="3.1696998327970505">
				<ele>130.98</ele>
				<time>2016-08-28T09:31:00</time>
			</trkpt>
			<trkpt lat="48.7724999897182" lon="3.1741599272936583">
				<ele>114.97</ele>
				<time>2016-08-28T09:31:53</time>
			</trkpt>
			<trkpt lat="48.7716899625957" lon="3.17538988776505">
				<ele>115.0</ele>
				<time>2016-08-28T09:32:11</time>
			</trkpt>
			<trkpt lat="48.77131990157068" lon="3.176349950954318">
				<ele>115.55</ele>
				<time>2016-08-28T09:32:23</time>
			</trkpt>
			<trkpt lat="48.770949924364686" lon="3.1780499685555696">
				<ele>117.54</ele>
				<time>2016-08-28T09:32:42</time>
			</trkpt>
			<trkpt lat="48.770929891616106" lon="3.179369866847992">
				<ele>116.86</ele>
				<time>2016-08-28T09:32:56</time>
			</trkpt>
			<trkpt lat="48.76906986348331" lon="3.1830998975783587">
				<ele>128.33</ele>
				<time>2016-08-28T09:33:45</time>
			</trkpt>
			<trkpt lat="48.76839989796281" lon="3.186719873920083">
				<ele>129.52</ele>
				<time>2016-08-28T09:34:25</time>
			</trkpt>
			<trkpt lat="48.76762993633747" lon="3.1885398365557194">
				<ele>125.73</ele>
				<time>2016-08-28T09:34:47</time>
			</trkpt>
			<trkpt lat="48.76696986146271" lon="3.189319856464863">
				<ele>125.3</ele>
				<time>2016-08-28T09:35:01</time>
			</trkpt>
			<trkpt lat="48.76725995913148" lon="3.1914799567312">
				<ele>122.14</ele>
				<time>2016-08-28T09:35:24</time>
			</trkpt>
			<trkpt lat="48.76677984371781" lon="3.19188991561532">
				<ele>122.36</ele>
				<time>2016-08-28T09:35:33</time>
			</trkpt>
			<trkpt lat="48.766629891470075" lon="3.1922299694269896">
				<ele>123.6</ele>
				<time>2016-08-28T09:35:37</time>
			</trkpt>
			<trkpt lat="48.76679987646639" lon="3.19274989888072">
				<ele>127.2</ele>
				<time>2016-08-28T09:35:43</time>
			</trkpt>
			<trkpt lat="48.76727999188006" lon="3.1928299460560083">
				<ele>127.49</ele>
				<time>2016-08-28T09:35:51</time>
			</trkpt>
			<trkpt lat="48.76744997687638" lon="3.1930899526923895">
				<ele>129.09</ele>
				<time>2016-08-28T09:35:55</time>
			</trkpt>
			<trkpt lat="48.76745995134115" lon="3.1951998453587294">
				<ele>134.82</ele>
				<time>2016-08-28T09:36:17</time>
			</trkpt>
			<trkpt lat="48.7681498657912" lon="3.1972698401659727">
				<ele>139.67</ele>
				<time>2016-08-28T09:36:42</time>
			</trkpt>
			<trkpt lat="48.76850995235145" lon="3.1977899372577667">
				<ele>140.38</ele>
				<time>2016-08-28T09:36:50</time>
			</trkpt>
			<trkpt lat="48.7693399284035" lon="3.1980099622160196">
				<ele>143.49</ele>
				<time>2016-08-28T09:37:03</time>
			</trkpt>
			<trkpt lat="48.76869988627732" lon="3.1992999371141195">
				<ele>137.26</ele>
				<time>2016-08-28T09:37:20</time>
			</trkpt>
			<trkpt lat="48.77047995105386" lon="3.200919907540083">
				<ele>146.46</ele>
				<time>2016-08-28T09:37:53</time>
			</trkpt>
			<trkpt lat="48.77090994268656" lon="3.2017498835921288">
				<ele>147.59</ele>
				<time>2016-08-28T09:38:05</time>
			</trkpt>
			<trkpt lat="48.77177998423576" lon="3.205359885469079">
				<ele>151.87</ele>
				<time>2016-08-28T09:38:45</time>
			</trkpt>
			<trkpt lat="48.771329959854484" lon="3.2061299309134483">
				<ele>153.36</ele>
				<time>2016-08-28T09:38:56</time>
			</trkpt>
			<trkpt lat="48.77099988050759" lon="3.207509843632579">
				<ele>154.98</ele>
				<time>2016-08-28T09:39:11</time>
			</trkpt>
			<trkpt lat="48.77127983607352" lon="3.20776985026896">
				<ele>157.0</ele>
				<time>2016-08-28T09:39:17</time>
			</trkpt>
			<trkpt lat="48.771849889308214" lon="3.2079499773681164">
				<ele>156.52</ele>
				<time>2016-08-28T09:39:26</time>
			</trkpt>
			<trkpt lat="48.772879941388965" lon="3.2099699322134256">
				<ele>155.0</ele>
				<time>2016-08-28T09:39:53</time>
			</trkpt>
			<trkpt lat="48.77439991571009" lon="3.2089698873460293">
				<ele>151.02</ele>
				<time>2016-08-28T09:40:19</time>
			</trkpt>
			<trkpt lat="48.77549987286329" lon="3.208529921248555">
				<ele>153.99</ele>
				<time>2016-08-28T09:40:38</time>
			</trkpt>
			<trkpt lat="48.77601996995509" lon="3.2086399756371975">
				<ele>153.39</ele>
				<time>2016-08-28T09:40:46</time>
			</trkpt>
			<trkpt lat="48.778359945863485" lon="3.2097599655389786">
				<ele>151.0</ele>
				<time>2016-08-28T09:41:25</time>
			</trkpt>
			<trkpt lat="48.779999865219" lon="3.2100898772478104">
				<ele>147.0</ele>
				<time>2016-08-28T09:41:52</time>
			</trkpt>
			<trkpt lat="48.78165998496115" lon="3.2101899571716785">
				<ele>145.0</ele>
				<time>2016-08-28T09:42:18</time>
			</trkpt>
			<trkpt lat="48.78375990316272" lon="3.2098098378628492">
				<ele>140.95</ele>
				<time>2016-08-28T09:42:52</time>
			</trkpt>
			<trkpt lat="48.78607993014157" lon="3.2097499072551727">
				<ele>140.58</ele>
				<time>2016-08-28T09:43:30</time>
			</trkpt>
			<trkpt lat="48.7868398334831" lon="3.2099899649620056">
				<ele>138.0</ele>
				<time>2016-08-28T09:43:42</time>
			</trkpt>
			<trkpt lat="48.787343837320805" lon="3.210293222218752">
				<ele>133.05</ele>
				<time>2016-08-28T09:43:51</time>
			</trkpt>
			<trkpt lat="48.787343921139836" lon="3.2102933060377836">
				<ele>133.05</ele>
				<time>2016-08-28T09:43:51</time>
			</trkpt>
			<trkpt lat="48.787364875897765" lon="3.2103059627115726">
				<ele>132.93</ele>
				<time>2016-08-28T09:43:51</time>
			</trkpt>
			<trkpt lat="48.78736671991646" lon="3.210307052358985">
				<ele>132.94</ele>
				<time>2016-08-28T09:43:51</time>
			</trkpt>
			<trkpt lat="48.78736856393516" lon="3.2103081420063972">
				<ele>132.91</ele>
				<time>2016-08-28T09:43:51</time>
			</trkpt>
			<trkpt lat="48.78737049177289" lon="3.2103093154728413">
				<ele>132.92</ele>
				<time>2016-08-28T09:43:51</time>
			</trkpt>
			<trkpt lat="48.787919925525784" lon="3.2106399815529585">
				<ele>132.0</ele>
				<time>2016-08-28T09:44:01</time>
			</trkpt>
			<trkpt lat="48.78917997702956" lon="3.2099198922514915">
				<ele>129.52</ele>
				<time>2016-08-28T09:44:22</time>
			</trkpt>
			<trkpt lat="48.790409937500954" lon="3.2097199000418186">
				<ele>134.46</ele>
				<time>2016-08-28T09:44:42</time>
			</trkpt>
			<trkpt lat="48.791039837524295" lon="3.2094498351216316">
				<ele>135.44</ele>
				<time>2016-08-28T09:44:52</time>
			</trkpt>
			<trkpt lat="48.791569992899895" lon="3.2095199916511774">
				<ele>135.0</ele>
				<time>2016-08-28T09:45:01</time>
			</trkpt>
			<trkpt lat="48.792239958420396" lon="3.20993984118104">
				<ele>134.22</ele>
				<time>2016-08-28T09:45:13</time>
			</trkpt>
			<trkpt lat="48.7933898717165" lon="3.2076999451965094">
				<ele>124.1</ele>
				<time>2016-08-28T09:45:42</time>
			</trkpt>
			<trkpt lat="48.79493985325098" lon="3.20647987537086">
				<ele>119.49</ele>
				<time>2016-08-28T09:46:10</time>
			</trkpt>
			<trkpt lat="48.795759938657284" lon="3.2054098416119814">
				<ele>117.53</ele>
				<time>2016-08-28T09:46:28</time>
			</trkpt>
			<trkpt lat="48.79656996577978" lon="3.204919835552573">
				<ele>115.0</ele>
				<time>2016-08-28T09:46:42</time>
			</trkpt>
			<trkpt lat="48.79656996577978" lon="3.2025498524308205">
				<ele>106.83</ele>
				<time>2016-08-28T09:47:07</time>
			</trkpt>
			<trkpt lat="48.79763999953866" lon="3.2029998768121004">
				<ele>106.9</ele>
				<time>2016-08-28T09:47:24</time>
			</trkpt>
			<trkpt lat="48.79851984791458" lon="3.202969953417778">
				<ele>104.62</ele>
				<time>2016-08-28T09:47:39</time>
			</trkpt>
			<trkpt lat="48.79876988008618" lon="3.2003899198025465">
				<ele>96.42</ele>
				<time>2016-08-28T09:48:06</time>
			</trkpt>
			<trkpt lat="48.79958996549249" lon="3.199609899893403">
				<ele>89.56</ele>
				<time>2016-08-28T09:48:22</time>
			</trkpt>
			<trkpt lat="48.801499949768186" lon="3.194739930331707">
				<ele>92.53</ele>
				<time>2016-08-28T09:49:21</time>
			</trkpt>
			<trkpt lat="48.80215985700488" lon="3.1936899293214083">
				<ele>95.94</ele>
				<time>2016-08-28T09:49:37</time>
			</trkpt>
			<trkpt lat="48.80238985642791" lon="3.192529957741499">
				<ele>99.86</ele>
				<time>2016-08-28T09:49:49</time>
			</trkpt>
			<trkpt lat="48.80304993130267" lon="3.1912898551672697">
				<ele>100.36</ele>
				<time>2016-08-28T09:50:06</time>
			</trkpt>
			<trkpt lat="48.802979942411184" lon="3.188099954277277">
				<ele>102.74</ele>
				<time>2016-08-28T09:50:40</time>
			</trkpt>
			<trkpt lat="48.8037199806422" lon="3.178599989041686">
				<ele>123.73</ele>
				<time>2016-08-28T09:52:21</time>
			</trkpt>
			<trkpt lat="48.8063498865813" lon="3.1735198851674795">
				<ele>115.44</ele>
				<time>2016-08-28T09:53:29</time>
			</trkpt>
			<trkpt lat="48.8078298792243" lon="3.1716598570346832">
				<ele>116.81</ele>
				<time>2016-08-28T09:54:00</time>
			</trkpt>
			<trkpt lat="48.808049988001585" lon="3.170999949797988">
				<ele>116.66</ele>
				<time>2016-08-28T09:54:08</time>
			</trkpt>
			<trkpt lat="48.80857989192009" lon="3.167279977351427">
				<ele>123.81</ele>
				<time>2016-08-28T09:54:48</time>
			</trkpt>
			<trkpt lat="48.80897996015847" lon="3.167379889637232">
				<ele>120.98</ele>
				<time>2016-08-28T09:54:54</time>
			</trkpt>
			<trkpt lat="48.809789987280965" lon="3.16827985458076">
				<ele>119.19</ele>
				<time>2016-08-28T09:55:10</time>
			</trkpt>
			<trkpt lat="48.8105998467654" lon="3.1684599816799164">
				<ele>116.36</ele>
				<time>2016-08-28T09:55:23</time>
			</trkpt>
			<trkpt lat="48.81091986782849" lon="3.1684098578989506">
				<ele>114.99</ele>
				<time>2016-08-28T09:55:28</time>
			</trkpt>
			<trkpt lat="48.812329871580005" lon="3.1675699073821306">
				<ele>108.41</ele>
				<time>2016-08-28T09:55:53</time>
			</trkpt>
			<trkpt lat="48.81447999738157" lon="3.167789848521352">
				<ele>98.18</ele>
				<time>2016-08-28T09:56:27</time>
			</trkpt>
			<trkpt lat="48.81484997458756" lon="3.167669987305999">
				<ele>96.71</ele>
				<time>2016-08-28T09:56:33</time>
			</trkpt>
			<trkpt lat="48.81508994847536" lon="3.1672898679971695">
				<ele>93.98</ele>
				<time>2016-08-28T09:56:39</time>
			</trkpt>
			<trkpt lat="48.814929854124784" lon="3.1631099805235863">
				<ele>86.7</ele>
				<time>2016-08-28T09:57:23</time>
			</trkpt>
			<trkpt lat="48.8144298736006" lon="3.1608599424362183">
				<ele>90.73</ele>
				<time>2016-08-28T09:57:48</time>
			</trkpt>
			<trkpt lat="48.8146198913455" lon="3.1578699499368668">
				<ele>88.06</ele>
				<time>2016-08-28T09:58:20</time>
			</trkpt>
			<trkpt lat="48.81425988860428" lon="3.15630991011858">
				<ele>89.0</ele>
				<time>2016-08-28T09:58:37</time>
			</trkpt>
			<trkpt lat="48.81422996520996" lon="3.1537099275738">
				<ele>86.94</ele>
				<time>2016-08-28T09:59:05</time>
			</trkpt>
			<trkpt lat="48.813619846478105" lon="3.1515799183398485">
				<ele>87.31</ele>
				<time>2016-08-28T09:59:29</time>
			</trkpt>
			<trkpt lat="48.81392997689545" lon="3.1509699672460556">
				<ele>83.0</ele>
				<time>2016-08-28T09:59:37</time>
			</trkpt>
			<trkpt lat="48.8143299613148" lon="3.150819931179285">
				<ele>79.46</ele>
				<time>2016-08-28T09:59:44</time>
			</trkpt>
			<trkpt lat="48.814869839698076" lon="3.1512299738824368">
				<ele>77.98</ele>
				<time>2016-08-28T09:59:53</time>
			</trkpt>
			<trkpt lat="48.81596988067031" lon="3.1511699594557285">
				<ele>81.18</ele>
				<time>2016-08-28T10:00:11</time>
			</trkpt>
			<trkpt lat="48.8162899017334" lon="3.153889887034893">
				<ele>79.98</ele>
				<time>2016-08-28T10:00:40</time>
			</trkpt>
			<trkpt lat="48.81866994313896" lon="3.1599799264222383">
				<ele>79.88</ele>
				<time>2016-08-28T10:01:55</time>
			</trkpt>
			<trkpt lat="48.8194898609072" lon="3.1597298942506313">
				<ele>90.98</ele>
				<time>2016-08-28T10:02:08</time>
			</trkpt>
			<trkpt lat="48.820279855281115" lon="3.1589299254119396">
				<ele>102.02</ele>
				<time>2016-08-28T10:02:23</time>
			</trkpt>
			<trkpt lat="48.82166991010308" lon="3.158109923824668">
				<ele>108.84</ele>
				<time>2016-08-28T10:02:47</time>
			</trkpt>
			<trkpt lat="48.8213099911809" lon="3.1541999336332083">
				<ele>116.77</ele>
				<time>2016-08-28T10:03:29</time>
			</trkpt>
			<trkpt lat="48.82088997401297" lon="3.1528899259865284">
				<ele>117.75</ele>
				<time>2016-08-28T10:03:44</time>
			</trkpt>
			<trkpt lat="48.819869896396995" lon="3.1513698678463697">
				<ele>114.35</ele>
				<time>2016-08-28T10:04:07</time>
			</trkpt>
			<trkpt lat="48.819589940831065" lon="3.1491299718618393">
				<ele>114.77</ele>
				<time>2016-08-28T10:04:31</time>
			</trkpt>
			<trkpt lat="48.81976998411119" lon="3.1478199642151594">
				<ele>118.21</ele>
				<time>2016-08-28T10:04:45</time>
			</trkpt>
			<trkpt lat="48.8202599901706" lon="3.1460699904710054">
				<ele>119.81</ele>
				<time>2016-08-28T10:05:05</time>
			</trkpt>
			<trkpt lat="48.81994994357228" lon="3.1425299774855375">
				<ele>117.5</ele>
				<time>2016-08-28T10:05:43</time>
			</trkpt>
			<trkpt lat="48.82060985080898" lon="3.1389298662543297">
				<ele>115.62</ele>
				<time>2016-08-28T10:06:22</time>
			</trkpt>
			<trkpt lat="48.82058998569846" lon="3.1369899585843086">
				<ele>116.14</ele>
				<time>2016-08-28T10:06:43</time>
			</trkpt>
			<trkpt lat="48.82124997675419" lon="3.1368999369442463">
				<ele>119.38</ele>
				<time>2016-08-28T10:06:53</time>
			</trkpt>
			<trkpt lat="48.8215499650687" lon="3.13718986697495">
				<ele>121.74</ele>
				<time>2016-08-28T10:06:59</time>
			</trkpt>
			<trkpt lat="48.825129959732294" lon="3.13720989972353">
				<ele>132.0</ele>
				<time>2016-08-28T10:07:57</time>
			</trkpt>
			<trkpt lat="48.8258599396795" lon="3.137529920786619">
				<ele>132.0</ele>
				<time>2016-08-28T10:08:09</time>
			</trkpt>
			<trkpt lat="48.83429984562099" lon="3.1433899607509375">
				<ele>134.56</ele>
				<time>2016-08-28T10:10:37</time>
			</trkpt>
			<trkpt lat="48.83830991573632" lon="3.1480399053543806">
				<ele>132.29</ele>
				<time>2016-08-28T10:11:58</time>
			</trkpt>
			<trkpt lat="48.8413898460567" lon="3.1501898635178804">
				<ele>133.0</ele>
				<time>2016-08-28T10:12:52</time>
			</trkpt>
			<trkpt lat="48.8430199585855" lon="3.1509599089622498">
				<ele>132.72</ele>
				<time>2016-08-28T10:13:20</time>
			</trkpt>
			<trkpt lat="48.845159858465195" lon="3.1508998945355415">
				<ele>134.82</ele>
				<time>2016-08-28T10:13:54</time>
			</trkpt>
			<trkpt lat="48.84658989496529" lon="3.1514099333435297">
				<ele>134.42</ele>
				<time>2016-08-28T10:14:17</time>
			</trkpt>
			<trkpt lat="48.84662996046245" lon="3.15007989294827">
				<ele>134.63</ele>
				<time>2016-08-28T10:14:31</time>
			</trkpt>
			<trkpt lat="48.84978985413909" lon="3.1455399189144373">
				<ele>120.88</ele>
				<time>2016-08-28T10:15:41</time>
			</trkpt>
			<trkpt lat="48.850329983979464" lon="3.1440599262714386">
				<ele>125.02</ele>
				<time>2016-08-28T10:15:59</time>
			</trkpt>
			<trkpt lat="48.85050273500383" lon="3.14224767498672">
				<ele>125.9</ele>
				<time>2016-08-28T10:16:18</time>
			</trkpt>
			<trkpt lat="48.85059988126159" lon="3.1412298604846">
				<ele>125.65</ele>
				<time>2016-08-28T10:16:29</time>
			</trkpt>
			<trkpt lat="48.85093993507326" lon="3.139879871159792">
				<ele>129.03</ele>
				<time>2016-08-28T10:16:44</time>
			</trkpt>
			<trkpt lat="48.850699961185455" lon="3.1382498424500227">
				<ele>129.1</ele>
				<time>2016-08-28T10:17:02</time>
			</trkpt>
			<trkpt lat="48.850379940122366" lon="3.137509888038039">
				<ele>130.22</ele>
				<time>2016-08-28T10:17:11</time>
			</trkpt>
			<trkpt lat="48.850399889051914" lon="3.1364199053496122">
				<ele>133.0</ele>
				<time>2016-08-28T10:17:23</time>
			</trkpt>
			<trkpt lat="48.84920999407768" lon="3.135029934346676">
				<ele>136.52</ele>
				<time>2016-08-28T10:17:47</time>
			</trkpt>
			<trkpt lat="48.84780988097191" lon="3.1342799216508865">
				<ele>135.0</ele>
				<time>2016-08-28T10:18:10</time>
			</trkpt>
			<trkpt lat="48.84711996652186" lon="3.1333498656749725">
				<ele>134.57</ele>
				<time>2016-08-28T10:18:25</time>
			</trkpt>
			<trkpt lat="48.8447399251163" lon="3.1276199966669083">
				<ele>139.0</ele>
				<time>2016-08-28T10:19:37</time>
			</trkpt>
			<trkpt lat="48.8447399251163" lon="3.1267399806529284">
				<ele>140.08</ele>
				<time>2016-08-28T10:19:46</time>
			</trkpt>
			<trkpt lat="48.845309978351" lon="3.125439863651991">
				<ele>140.0</ele>
				<time>2016-08-28T10:20:02</time>
			</trkpt>
			<trkpt lat="48.84548993781209" lon="3.1243099831044674">
				<ele>142.52</ele>
				<time>2016-08-28T10:20:15</time>
			</trkpt>
			<trkpt lat="48.844429878517985" lon="3.1211598962545395">
				<ele>137.6</ele>
				<time>2016-08-28T10:20:52</time>
			</trkpt>
			<trkpt lat="48.84508986957371" lon="3.119559958577156">
				<ele>135.82</ele>
				<time>2016-08-28T10:21:12</time>
			</trkpt>
			<trkpt lat="48.84467991068959" lon="3.117059888318181">
				<ele>131.5</ele>
				<time>2016-08-28T10:21:39</time>
			</trkpt>
			<trkpt lat="48.844469860196114" lon="3.114429982379079">
				<ele>126.0</ele>
				<time>2016-08-28T10:22:07</time>
			</trkpt>
			<trkpt lat="48.84501996450126" lon="3.111099936068058">
				<ele>131.37</ele>
				<time>2016-08-28T10:22:43</time>
			</trkpt>
			<trkpt lat="48.84563997387886" lon="3.1098499428480864">
				<ele>134.05</ele>
				<time>2016-08-28T10:23:00</time>
			</trkpt>
			<trkpt lat="48.84568993002176" lon="3.109089871868491">
				<ele>136.28</ele>
				<time>2016-08-28T10:23:08</time>
			</trkpt>
			<trkpt lat="48.84550997056067" lon="3.1075299996882677">
				<ele>135.98</ele>
				<time>2016-08-28T10:23:24</time>
			</trkpt>
			<trkpt lat="48.84495995007455" lon="3.106419900432229">
				<ele>135.5</ele>
				<time>2016-08-28T10:23:39</time>
			</trkpt>
			<trkpt lat="48.84477999061346" lon="3.10306990519166">
				<ele>138.86</ele>
				<time>2016-08-28T10:24:14</time>
			</trkpt>
			<trkpt lat="48.84404984302819" lon="3.1018298864364624">
				<ele>135.24</ele>
				<time>2016-08-28T10:24:32</time>
			</trkpt>
			<trkpt lat="48.843309888616204" lon="3.0972199235111475">
				<ele>137.6</ele>
				<time>2016-08-28T10:25:22</time>
			</trkpt>
			<trkpt lat="48.84314996190369" lon="3.095709839835763">
				<ele>139.95</ele>
				<time>2016-08-28T10:25:38</time>
			</trkpt>
			<trkpt lat="48.843689924106" lon="3.0936398450285196">
				<ele>138.06</ele>
				<time>2016-08-28T10:26:01</time>
			</trkpt>
			<trkpt lat="48.84290998801589" lon="3.0903399735689163">
				<ele>128.49</ele>
				<time>2016-08-28T10:26:38</time>
			</trkpt>
			<trkpt lat="48.843159936368465" lon="3.0891999509185553">
				<ele>122.55</ele>
				<time>2016-08-28T10:26:51</time>
			</trkpt>
			<trkpt lat="48.84510990232229" lon="3.0841999780386686">
				<ele>129.04</ele>
				<time>2016-08-28T10:27:52</time>
			</trkpt>
			<trkpt lat="48.84575983509421" lon="3.080169875174761">
				<ele>126.0</ele>
				<time>2016-08-28T10:28:36</time>
			</trkpt>
			<trkpt lat="48.84711996652186" lon="3.0792198702692986">
				<ele>127.66</ele>
				<time>2016-08-28T10:29:00</time>
			</trkpt>
			<trkpt lat="48.8479398842901" lon="3.0790799763053656">
				<ele>133.0</ele>
				<time>2016-08-28T10:29:13</time>
			</trkpt>
			<trkpt lat="48.85014985688031" lon="3.0763698555529118">
				<ele>135.0</ele>
				<time>2016-08-28T10:29:59</time>
			</trkpt>
			<trkpt lat="48.850959884002805" lon="3.0750499572604895">
				<ele>132.89</ele>
				<time>2016-08-28T10:30:18</time>
			</trkpt>
			<trkpt lat="48.85083985514939" lon="3.073179954662919">
				<ele>135.12</ele>
				<time>2016-08-28T10:30:38</time>
			</trkpt>
			<trkpt lat="48.850979916751385" lon="3.071199981495738">
				<ele>137.0</ele>
				<time>2016-08-28T10:30:59</time>
			</trkpt>
			<trkpt lat="48.850549925118685" lon="3.0676698591560125">
				<ele>139.72</ele>
				<time>2016-08-28T10:31:36</time>
			</trkpt>
			<trkpt lat="48.850719910115004" lon="3.0628399550914764">
				<ele>142.57</ele>
				<time>2016-08-28T10:32:27</time>
			</trkpt>
			<trkpt lat="48.850339874625206" lon="3.060329994186759">
				<ele>142.49</ele>
				<time>2016-08-28T10:32:54</time>
			</trkpt>
			<trkpt lat="48.8504698779434" lon="3.0595799814909697">
				<ele>141.0</ele>
				<time>2016-08-28T10:33:03</time>
			</trkpt>
			<trkpt lat="48.8511499017477" lon="3.0578298401087523">
				<ele>142.16</ele>
				<time>2016-08-28T10:33:24</time>
			</trkpt>
			<trkpt lat="48.851709896698594" lon="3.0545598920434713">
				<ele>141.08</ele>
				<time>2016-08-28T10:34:00</time>
			</trkpt>
			<trkpt lat="48.85279996320605" lon="3.0508999340236187">
				<ele>142.55</ele>
				<time>2016-08-28T10:34:42</time>
			</trkpt>
			<trkpt lat="48.852999871596694" lon="3.0490198731422424">
				<ele>143.0</ele>
				<time>2016-08-28T10:35:02</time>
			</trkpt>
			<trkpt lat="48.85308997705579" lon="3.04443983361125">
				<ele>145.56</ele>
				<time>2016-08-28T10:35:50</time>
			</trkpt>
			<trkpt lat="48.8534898776561" lon="3.042939892038703">
				<ele>147.16</ele>
				<time>2016-08-28T10:36:07</time>
			</trkpt>
			<trkpt lat="48.853859854862094" lon="3.0421799048781395">
				<ele>147.0</ele>
				<time>2016-08-28T10:36:17</time>
			</trkpt>
			<trkpt lat="48.858219953253865" lon="3.0436899047344923">
				<ele>145.25</ele>
				<time>2016-08-28T10:37:29</time>
			</trkpt>
			<trkpt lat="48.86398988775909" lon="3.04357985034585">
				<ele>146.0</ele>
				<time>2016-08-28T10:39:01</time>
			</trkpt>
			<trkpt lat="48.87124987319112" lon="3.04140985943377">
				<ele>151.0</ele>
				<time>2016-08-28T10:41:00</time>
			</trkpt>
			<trkpt lat="48.8770099170506" lon="3.037919970229268">
				<ele>149.13</ele>
				<time>2016-08-28T10:42:39</time>
			</trkpt>
			<trkpt lat="48.87462995946407" lon="3.027599835768342">
				<ele>152.29</ele>
				<time>2016-08-28T10:44:34</time>
			</trkpt>
			<trkpt lat="48.876869855448604" lon="3.01791999489069">
				<ele>151.0</ele>
				<time>2016-08-28T10:46:22</time>
			</trkpt>
			<trkpt lat="48.87806989252567" lon="3.01439993083477">
				<ele>153.0</ele>
				<time>2016-08-28T10:47:04</time>
			</trkpt>
			<trkpt lat="48.87737989425659" lon="3.0095698591321707">
				<ele>153.61</ele>
				<time>2016-08-28T10:47:56</time>
			</trkpt>
			<trkpt lat="48.87740998528898" lon="3.0089299846440554">
				<ele>153.69</ele>
				<time>2016-08-28T10:48:03</time>
			</trkpt>
			<trkpt lat="48.88028531335294" lon="3.0043526273220778">
				<ele>155.48</ele>
				<time>2016-08-28T10:49:10</time>
			</trkpt>
			<trkpt lat="48.880285397171974" lon="3.004352543503046">
				<ele>155.48</ele>
				<time>2016-08-28T10:49:10</time>
			</trkpt>
			<trkpt lat="48.880285480991006" lon="3.004352543503046">
				<ele>155.48</ele>
				<time>2016-08-28T10:49:10</time>
			</trkpt>
			<trkpt lat="48.880301071330905" lon="3.00432781688869">
				<ele>155.63</ele>
				<time>2016-08-28T10:49:10</time>
			</trkpt>
			<trkpt lat="48.88029822148383" lon="3.0043324269354343">
				<ele>155.6</ele>
				<time>2016-08-28T10:49:10</time>
			</trkpt>
			<trkpt lat="48.88029537163675" lon="3.0043370369821787">
				<ele>155.57</ele>
				<time>2016-08-28T10:49:10</time>
			</trkpt>
			<trkpt lat="48.88028992339969" lon="3.0043289065361023">
				<ele>155.58</ele>
				<time>2016-08-28T10:49:10</time>
			</trkpt>
			<trkpt lat="48.88098478317261" lon="3.0032479763031006">
				<ele>158.0</ele>
				<time>2016-08-28T10:49:26</time>
			</trkpt>
			<trkpt lat="48.88067364692688" lon="3.0027973651885986">
				<ele>157.08</ele>
				<time>2016-08-28T10:49:33</time>
			</trkpt>
			<trkpt lat="48.880083644762635" lon="3.0023574829101562">
				<ele>155.14</ele>
				<time>2016-08-28T10:49:43</time>
			</trkpt>
			<trkpt lat="48.87843132019043" lon="3.00150990486145">
				<ele>155.0</ele>
				<time>2016-08-28T10:50:11</time>
			</trkpt>
			<trkpt lat="48.878012895584106" lon="3.001316785812378">
				<ele>155.52</ele>
				<time>2016-08-28T10:50:18</time>
			</trkpt>
			<trkpt lat="48.87774467468262" lon="3.001241683959961">
				<ele>156.03</ele>
				<time>2016-08-28T10:50:23</time>
			</trkpt>
			<trkpt lat="48.87750864028931" lon="3.00126314163208">
				<ele>155.95</ele>
				<time>2016-08-28T10:50:27</time>
			</trkpt>
			<trkpt lat="48.8746976852417" lon="3.0018746852874756">
				<ele>154.54</ele>
				<time>2016-08-28T10:51:12</time>
			</trkpt>
			<trkpt lat="48.87445092201233" lon="3.001885414123535">
				<ele>154.0</ele>
				<time>2016-08-28T10:51:16</time>
			</trkpt>
			<trkpt lat="48.87423634529114" lon="3.0018210411071777">
				<ele>154.0</ele>
				<time>2016-08-28T10:51:19</time>
			</trkpt>
			<trkpt lat="48.874086141586304" lon="3.0016708374023438">
				<ele>154.0</ele>
				<time>2016-08-28T10:51:22</time>
			</trkpt>
			<trkpt lat="48.87405403889716" lon="3.001617193222046">
				<ele>154.0</ele>
				<time>2016-08-28T10:51:23</time>
			</trkpt>
			<trkpt lat="48.87395739555359" lon="3.001434803009033">
				<ele>154.33</ele>
				<time>2016-08-28T10:51:26</time>
			</trkpt>
			<trkpt lat="48.8737428188324" lon="3.000941276550293">
				<ele>155.0</ele>
				<time>2016-08-28T10:51:32</time>
			</trkpt>
			<trkpt lat="48.87374290265143" lon="3.000941276550293">
				<ele>155.0</ele>
				<time>2016-08-28T10:51:32</time>
			</trkpt>
			<trkpt lat="48.87310981750488" lon="2.9994606971740723">
				<ele>151.44</ele>
				<time>2016-08-28T10:51:50</time>
			</trkpt>
			<trkpt lat="48.87299180030823" lon="2.9993104934692383">
				<ele>151.98</ele>
				<time>2016-08-28T10:51:53</time>
			</trkpt>
			<trkpt lat="48.87144684791565" lon="2.997990846633911">
				<ele>154.0</ele>
				<time>2016-08-28T10:52:21</time>
			</trkpt>
			<trkpt lat="48.87135028839111" lon="2.9978299140930176">
				<ele>154.0</ele>
				<time>2016-08-28T10:52:24</time>
			</trkpt>
			<trkpt lat="48.871296644210815" lon="2.997647523880005">
				<ele>154.0</ele>
				<time>2016-08-28T10:52:26</time>
			</trkpt>
			<trkpt lat="48.87115716934204" lon="2.9949653148651123">
				<ele>151.2</ele>
				<time>2016-08-28T10:52:54</time>
			</trkpt>
			<trkpt lat="48.87112498283386" lon="2.994697093963623">
				<ele>151.06</ele>
				<time>2016-08-28T10:52:57</time>
			</trkpt>
			<trkpt lat="48.871071422472596" lon="2.994621992111206">
				<ele>151.17</ele>
				<time>2016-08-28T10:52:58</time>
			</trkpt>
			<trkpt lat="48.87097477912903" lon="2.9945898056030273">
				<ele>151.74</ele>
				<time>2016-08-28T10:53:00</time>
			</trkpt>
			<trkpt lat="48.87022376060486" lon="2.9946112632751465">
				<ele>151.54</ele>
				<time>2016-08-28T10:53:12</time>
			</trkpt>
			<trkpt lat="48.869773149490356" lon="2.9945576190948486">
				<ele>151.0</ele>
				<time>2016-08-28T10:53:19</time>
			</trkpt>
			<trkpt lat="48.8696014881134" lon="2.9946327209472656">
				<ele>151.0</ele>
				<time>2016-08-28T10:53:22</time>
			</trkpt>
			<trkpt lat="48.86948347091675" lon="2.9947829246520996">
				<ele>150.04</ele>
				<time>2016-08-28T10:53:24</time>
			</trkpt>
			<trkpt lat="48.869279623031616" lon="2.9954588413238525">
				<ele>150.03</ele>
				<time>2016-08-28T10:53:32</time>
			</trkpt>
			<trkpt lat="48.8690972328186" lon="2.9957377910614014">
				<ele>150.16</ele>
				<time>2016-08-28T10:53:36</time>
			</trkpt>
			<trkpt lat="48.86901148594916" lon="2.9958343505859375">
				<ele>150.07</ele>
				<time>2016-08-28T10:53:38</time>
			</trkpt>
			<trkpt lat="48.86886119842529" lon="2.9958128929138184">
				<ele>150.0</ele>
				<time>2016-08-28T10:53:40</time>
			</trkpt>
			<trkpt lat="48.868807554244995" lon="2.9957592487335205">
				<ele>150.0</ele>
				<time>2016-08-28T10:53:41</time>
			</trkpt>
			<trkpt lat="48.86865735054016" lon="2.9955661296844482">
				<ele>150.0</ele>
				<time>2016-08-28T10:53:44</time>
			</trkpt>
			<trkpt lat="48.868560791015625" lon="2.995169162750244">
				<ele>150.0</ele>
				<time>2016-08-28T10:53:49</time>
			</trkpt>
			<trkpt lat="48.86847496032715" lon="2.9949653148651123">
				<ele>150.0</ele>
				<time>2016-08-28T10:53:51</time>
			</trkpt>
			<trkpt lat="48.868357026949525" lon="2.9947829246520996">
				<ele>150.0</ele>
				<time>2016-08-28T10:53:54</time>
			</trkpt>
			<trkpt lat="48.868324756622314" lon="2.994847297668457">
				<ele>150.0</ele>
				<time>2016-08-28T10:53:55</time>
			</trkpt>
			<trkpt lat="48.86813163757324" lon="2.9947614669799805">
				<ele>150.0</ele>
				<time>2016-08-28T10:53:58</time>
			</trkpt>
			<trkpt lat="48.8676917552948" lon="2.994675636291504">
				<ele>149.32</ele>
				<time>2016-08-28T10:54:05</time>
			</trkpt>
			<trkpt lat="48.86745572090149" lon="2.994568347930908">
				<ele>149.53</ele>
				<time>2016-08-28T10:54:09</time>
			</trkpt>
			<trkpt lat="48.86711239814758" lon="2.9942679405212402">
				<ele>150.0</ele>
				<time>2016-08-28T10:54:16</time>
			</trkpt>
			<trkpt lat="48.86690855026245" lon="2.99402117729187">
				<ele>150.0</ele>
				<time>2016-08-28T10:54:20</time>
			</trkpt>
			<trkpt lat="48.86647939682007" lon="2.9934418201446533">
				<ele>150.0</ele>
				<time>2016-08-28T10:54:29</time>
			</trkpt>
			<trkpt lat="48.86622190475464" lon="2.9931628704071045">
				<ele>150.0</ele>
				<time>2016-08-28T10:54:34</time>
			</trkpt>
			<trkpt lat="48.866071701049805" lon="2.9930341243743896">
				<ele>149.49</ele>
				<time>2016-08-28T10:54:37</time>
			</trkpt>
			<trkpt lat="48.866071701049805" lon="2.9929697513580322">
				<ele>149.49</ele>
				<time>2016-08-28T10:54:37</time>
			</trkpt>
			<trkpt lat="48.86606105603278" lon="2.9929161071777344">
				<ele>149.45</ele>
				<time>2016-08-28T10:54:38</time>
			</trkpt>
			<trkpt lat="48.86601805686951" lon="2.9928410053253174">
				<ele>149.02</ele>
				<time>2016-08-28T10:54:39</time>
			</trkpt>
			<trkpt lat="48.86593222618103" lon="2.992755174636841">
				<ele>148.42</ele>
				<time>2016-08-28T10:54:41</time>
			</trkpt>
			<trkpt lat="48.865084731951356" lon="2.9920148849487305">
				<ele>145.58</ele>
				<time>2016-08-28T10:54:56</time>
			</trkpt>
			<trkpt lat="48.86424779891968" lon="2.9912960529327393">
				<ele>142.02</ele>
				<time>2016-08-28T10:55:12</time>
			</trkpt>
			<trkpt lat="48.864140594378114" lon="2.9911351203918457">
				<ele>141.07</ele>
				<time>2016-08-28T10:55:14</time>
			</trkpt>
			<trkpt lat="48.86414051055908" lon="2.9911351203918457">
				<ele>141.07</ele>
				<time>2016-08-28T10:55:14</time>
			</trkpt>
			<trkpt lat="48.863078439608216" lon="2.991253137588501">
				<ele>141.29</ele>
				<time>2016-08-28T10:55:31</time>
			</trkpt>
			<trkpt lat="48.8627028465271" lon="2.9912853240966797">
				<ele>142.0</ele>
				<time>2016-08-28T10:55:37</time>
			</trkpt>
			<trkpt lat="48.86261701583862" lon="2.9908347129821777">
				<ele>141.0</ele>
				<time>2016-08-28T10:55:42</time>
			</trkpt>
			<trkpt lat="48.86243470944464" lon="2.9905128479003906">
				<ele>139.15</ele>
				<time>2016-08-28T10:55:47</time>
			</trkpt>
			<trkpt lat="48.86240243911743" lon="2.9896867275238037">
				<ele>137.29</ele>
				<time>2016-08-28T10:55:55</time>
			</trkpt>
			<trkpt lat="48.86241325177252" lon="2.9895150661468506">
				<ele>137.55</ele>
				<time>2016-08-28T10:55:57</time>
			</trkpt>
			<trkpt lat="48.86242398060858" lon="2.9893970489501953">
				<ele>138.02</ele>
				<time>2016-08-28T10:55:58</time>
			</trkpt>
			<trkpt lat="48.86252045631409" lon="2.988184690475464">
				<ele>141.3</ele>
				<time>2016-08-28T10:56:11</time>
			</trkpt>
			<trkpt lat="48.86249899864197" lon="2.9873263835906982">
				<ele>144.0</ele>
				<time>2016-08-28T10:56:20</time>
			</trkpt>
			<trkpt lat="48.862499082461" lon="2.9873263835906982">
				<ele>144.0</ele>
				<time>2016-08-28T10:56:20</time>
			</trkpt>
			<trkpt lat="48.86248835362494" lon="2.9864895343780518">
				<ele>144.59</ele>
				<time>2016-08-28T10:56:29</time>
			</trkpt>
			<trkpt lat="48.86248826980591" lon="2.9854273796081543">
				<ele>144.0</ele>
				<time>2016-08-28T10:56:40</time>
			</trkpt>
			<trkpt lat="48.86253126896918" lon="2.9842793941497803">
				<ele>141.92</ele>
				<time>2016-08-28T10:56:53</time>
			</trkpt>
			<trkpt lat="48.862552642822266" lon="2.9840219020843506">
				<ele>140.99</ele>
				<time>2016-08-28T10:56:55</time>
			</trkpt>
			<trkpt lat="48.86261701583862" lon="2.983582019805908">
				<ele>141.64</ele>
				<time>2016-08-28T10:57:00</time>
			</trkpt>
			<trkpt lat="48.862799406051636" lon="2.982316017150879">
				<ele>142.14</ele>
				<time>2016-08-28T10:57:14</time>
			</trkpt>
			<trkpt lat="48.86325001716614" lon="2.980191707611084">
				<ele>145.0</ele>
				<time>2016-08-28T10:57:37</time>
			</trkpt>
			<trkpt lat="48.863346576690674" lon="2.979590892791748">
				<ele>145.36</ele>
				<time>2016-08-28T10:57:44</time>
			</trkpt>
			<trkpt lat="48.86341078206897" lon="2.9787444043904543">
				<ele>146.08</ele>
				<time>2016-08-28T10:57:53</time>
			</trkpt>
			<trkpt lat="48.863410865888" lon="2.978744152933359">
				<ele>146.08</ele>
				<time>2016-08-28T10:57:53</time>
			</trkpt>
			<trkpt lat="48.863410865888" lon="2.978744236752391">
				<ele>146.08</ele>
				<time>2016-08-28T10:57:53</time>
			</trkpt>
			<trkpt lat="48.86341447010636" lon="2.9786975495517254">
				<ele>146.23</ele>
				<time>2016-08-28T10:57:53</time>
			</trkpt>
			<trkpt lat="48.86341447010636" lon="2.9786978010088205">
				<ele>146.23</ele>
				<time>2016-08-28T10:57:53</time>
			</trkpt>
			<trkpt lat="48.86341447010636" lon="2.9786980524659157">
				<ele>146.23</ele>
				<time>2016-08-28T10:57:53</time>
			</trkpt>
			<trkpt lat="48.86362552642822" lon="2.975921630859375">
				<ele>147.31</ele>
				<time>2016-08-28T10:58:23</time>
			</trkpt>
			<trkpt lat="48.864140594378114" lon="2.9696881771087646">
				<ele>151.0</ele>
				<time>2016-08-28T10:59:29</time>
			</trkpt>
			<trkpt lat="48.86419415473938" lon="2.9694736003875732">
				<ele>150.73</ele>
				<time>2016-08-28T10:59:31</time>
			</trkpt>
			<trkpt lat="48.865052461624146" lon="2.967735528945923">
				<ele>150.0</ele>
				<time>2016-08-28T10:59:54</time>
			</trkpt>
			<trkpt lat="48.86505254544318" lon="2.967735528945923">
				<ele>150.0</ele>
				<time>2016-08-28T10:59:54</time>
			</trkpt>
			<trkpt lat="48.865835666656494" lon="2.9661691188812256">
				<ele>149.64</ele>
				<time>2016-08-28T11:00:15</time>
			</trkpt>
			<trkpt lat="48.86701583862305" lon="2.9636693000793457">
				<ele>146.74</ele>
				<time>2016-08-28T11:00:47</time>
			</trkpt>
			<trkpt lat="48.86822828091681" lon="2.960193157196045">
				<ele>148.25</ele>
				<time>2016-08-28T11:01:29</time>
			</trkpt>
			<trkpt lat="48.86614680290222" lon="2.955118417739868">
				<ele>150.0</ele>
				<time>2016-08-28T11:02:32</time>
			</trkpt>
			<trkpt lat="48.86601805686951" lon="2.954721450805664">
				<ele>150.0</ele>
				<time>2016-08-28T11:02:36</time>
			</trkpt>
			<trkpt lat="48.86601814068854" lon="2.954721450805664">
				<ele>150.0</ele>
				<time>2016-08-28T11:02:36</time>
			</trkpt>
			<trkpt lat="48.86600732803345" lon="2.954678535461426">
				<ele>150.0</ele>
				<time>2016-08-28T11:02:37</time>
			</trkpt>
			<trkpt lat="48.865824937820435" lon="2.9536914825439453">
				<ele>150.0</ele>
				<time>2016-08-28T11:02:48</time>
			</trkpt>
			<trkpt lat="48.86547088623047" lon="2.951202392578125">
				<ele>141.09</ele>
				<time>2016-08-28T11:03:14</time>
			</trkpt>
			<trkpt lat="48.86541724205017" lon="2.9503870010375977">
				<ele>136.0</ele>
				<time>2016-08-28T11:03:23</time>
			</trkpt>
			<trkpt lat="48.86538505554199" lon="2.949206829071045">
				<ele>135.91</ele>
				<time>2016-08-28T11:03:36</time>
			</trkpt>
			<trkpt lat="48.865374410524964" lon="2.9490458965301514">
				<ele>136.04</ele>
				<time>2016-08-28T11:03:37</time>
			</trkpt>
			<trkpt lat="48.865309953689575" lon="2.9484879970550537">
				<ele>134.2</ele>
				<time>2016-08-28T11:03:43</time>
			</trkpt>
			<trkpt lat="48.86531003750861" lon="2.9484879970550537">
				<ele>134.2</ele>
				<time>2016-08-28T11:03:43</time>
			</trkpt>
			<trkpt lat="48.86516368947923" lon="2.947538746520877">
				<ele>129.51</ele>
				<time>2016-08-28T11:03:53</time>
			</trkpt>
			<trkpt lat="48.86516368947923" lon="2.94753841124475">
				<ele>129.51</ele>
				<time>2016-08-28T11:03:53</time>
			</trkpt>
			<trkpt lat="48.865156564861536" lon="2.947492226958275">
				<ele>129.23</ele>
				<time>2016-08-28T11:03:54</time>
			</trkpt>
			<trkpt lat="48.86515664868057" lon="2.94749247841537">
				<ele>129.23</ele>
				<time>2016-08-28T11:03:54</time>
			</trkpt>
			<trkpt lat="48.864634120836854" lon="2.9440999031066895">
				<ele>108.3</ele>
				<time>2016-08-28T11:04:31</time>
			</trkpt>
			<trkpt lat="48.864601850509644" lon="2.9438316822052">
				<ele>106.5</ele>
				<time>2016-08-28T11:04:34</time>
			</trkpt>
			<trkpt lat="48.86436581611633" lon="2.9438316822052">
				<ele>107.35</ele>
				<time>2016-08-28T11:04:37</time>
			</trkpt>
			<trkpt lat="48.86386156082153" lon="2.943638563156128">
				<ele>110.0</ele>
				<time>2016-08-28T11:04:46</time>
			</trkpt>
			<trkpt lat="48.86351823806763" lon="2.94358491897583">
				<ele>110.16</ele>
				<time>2016-08-28T11:04:51</time>
			</trkpt>
			<trkpt lat="48.86301398277283" lon="2.94358491897583">
				<ele>113.94</ele>
				<time>2016-08-28T11:04:59</time>
			</trkpt>
			<trkpt lat="48.86276730336249" lon="2.943606376647949">
				<ele>114.53</ele>
				<time>2016-08-28T11:05:03</time>
			</trkpt>
			<trkpt lat="48.86248826980591" lon="2.943660020828247">
				<ele>115.87</ele>
				<time>2016-08-28T11:05:08</time>
			</trkpt>
			<trkpt lat="48.862348794937134" lon="2.943756580352783">
				<ele>116.98</ele>
				<time>2016-08-28T11:05:10</time>
			</trkpt>
			<trkpt lat="48.86085748672485" lon="2.9451191425323486">
				<ele>123.71</ele>
				<time>2016-08-28T11:05:38</time>
			</trkpt>
			<trkpt lat="48.86064291000366" lon="2.9448938369750977">
				<ele>122.17</ele>
				<time>2016-08-28T11:05:42</time>
			</trkpt>
			<trkpt lat="48.86041760444641" lon="2.9445934295654297">
				<ele>121.09</ele>
				<time>2016-08-28T11:05:47</time>
			</trkpt>
			<trkpt lat="48.85996707715094" lon="2.943692207336426">
				<ele>118.0</ele>
				<time>2016-08-28T11:05:59</time>
			</trkpt>
			<trkpt lat="48.8597846031189" lon="2.9429733753204346">
				<ele>116.54</ele>
				<time>2016-08-28T11:06:07</time>
			</trkpt>
			<trkpt lat="48.85947346687317" lon="2.940988540649414">
				<ele>106.98</ele>
				<time>2016-08-28T11:06:29</time>
			</trkpt>
			<trkpt lat="48.85926970280707" lon="2.9397761821746826">
				<ele>98.5</ele>
				<time>2016-08-28T11:06:42</time>
			</trkpt>
			<trkpt lat="48.85923743247986" lon="2.9396796226501465">
				<ele>97.81</ele>
				<time>2016-08-28T11:06:43</time>
			</trkpt>
			<trkpt lat="48.85916233062744" lon="2.9389822483062744">
				<ele>92.41</ele>
				<time>2016-08-28T11:06:50</time>
			</trkpt>
			<trkpt lat="48.859108686447144" lon="2.9387247562408447">
				<ele>90.37</ele>
				<time>2016-08-28T11:06:53</time>
			</trkpt>
			<trkpt lat="48.85901221074164" lon="2.9384779930114746">
				<ele>88.25</ele>
				<time>2016-08-28T11:06:56</time>
			</trkpt>
			<trkpt lat="48.85890483856201" lon="2.9383385181427">
				<ele>86.56</ele>
				<time>2016-08-28T11:06:58</time>
			</trkpt>
			<trkpt lat="48.85836839675903" lon="2.9384028911590576">
				<ele>83.39</ele>
				<time>2016-08-28T11:07:07</time>
			</trkpt>
			<trkpt lat="48.85831483639777" lon="2.9383063316345215">
				<ele>82.5</ele>
				<time>2016-08-28T11:07:08</time>
			</trkpt>
			<trkpt lat="48.8582718372345" lon="2.9382312297821045">
				<ele>81.81</ele>
				<time>2016-08-28T11:07:09</time>
			</trkpt>
			<trkpt lat="48.858314752578735" lon="2.9380595684051514">
				<ele>80.72</ele>
				<time>2016-08-28T11:07:11</time>
			</trkpt>
			<trkpt lat="48.85845422744751" lon="2.9378879070281982">
				<ele>81.04</ele>
				<time>2016-08-28T11:07:14</time>
			</trkpt>
			<trkpt lat="48.85871171951294" lon="2.9377269744873047">
				<ele>80.76</ele>
				<time>2016-08-28T11:07:19</time>
			</trkpt>
			<trkpt lat="48.859044313430786" lon="2.937265634536743">
				<ele>78.63</ele>
				<time>2016-08-28T11:07:26</time>
			</trkpt>
			<trkpt lat="48.85931454598904" lon="2.936192834749818">
				<ele>73.05</ele>
				<time>2016-08-28T11:07:38</time>
			</trkpt>
			<trkpt lat="48.8593147136271" lon="2.936192499473691">
				<ele>73.05</ele>
				<time>2016-08-28T11:07:38</time>
			</trkpt>
			<trkpt lat="48.85931479744613" lon="2.936192499473691">
				<ele>73.05</ele>
				<time>2016-08-28T11:07:38</time>
			</trkpt>
			<trkpt lat="48.85932611301541" lon="2.936147740110755">
				<ele>72.81</ele>
				<time>2016-08-28T11:07:38</time>
			</trkpt>
			<trkpt lat="48.85932602919638" lon="2.9361481592059135">
				<ele>72.81</ele>
				<time>2016-08-28T11:07:38</time>
			</trkpt>
			<trkpt lat="48.85936617851257" lon="2.9359889030456543">
				<ele>71.73</ele>
				<time>2016-08-28T11:07:40</time>
			</trkpt>
			<trkpt lat="48.859355449676514" lon="2.9358386993408203">
				<ele>71.32</ele>
				<time>2016-08-28T11:07:42</time>
			</trkpt>
			<trkpt lat="48.859323263168335" lon="2.9357099533081055">
				<ele>71.04</ele>
				<time>2016-08-28T11:07:43</time>
			</trkpt>
			<trkpt lat="48.85896921157837" lon="2.935173511505127">
				<ele>75.87</ele>
				<time>2016-08-28T11:07:51</time>
			</trkpt>
			<trkpt lat="48.85888338088989" lon="2.9349052906036377">
				<ele>79.07</ele>
				<time>2016-08-28T11:07:54</time>
			</trkpt>
			<trkpt lat="48.858883464708924" lon="2.9349052906036377">
				<ele>79.07</ele>
				<time>2016-08-28T11:07:54</time>
			</trkpt>
			<trkpt lat="48.85891556739807" lon="2.9342401027679443">
				<ele>80.94</ele>
				<time>2016-08-28T11:08:02</time>
			</trkpt>
			<trkpt lat="48.858829736709595" lon="2.9336392879486084">
				<ele>84.04</ele>
				<time>2016-08-28T11:08:08</time>
			</trkpt>
			<trkpt lat="48.85867953300476" lon="2.9322659969329834">
				<ele>81.71</ele>
				<time>2016-08-28T11:08:23</time>
			</trkpt>
			<trkpt lat="48.85864734649658" lon="2.931257486343384">
				<ele>81.19</ele>
				<time>2016-08-28T11:08:33</time>
			</trkpt>
			<trkpt lat="48.85836839675903" lon="2.92960524559021">
				<ele>78.08</ele>
				<time>2016-08-28T11:08:51</time>
			</trkpt>
			<trkpt lat="48.85812163352966" lon="2.928725481033325">
				<ele>78.36</ele>
				<time>2016-08-28T11:09:01</time>
			</trkpt>
			<trkpt lat="48.85799288749695" lon="2.92760968208313">
				<ele>68.86</ele>
				<time>2016-08-28T11:09:13</time>
			</trkpt>
			<trkpt lat="48.85801434516907" lon="2.927384376525879">
				<ele>65.62</ele>
				<time>2016-08-28T11:09:16</time>
			</trkpt>
			<trkpt lat="48.8580144289881" lon="2.927384376525879">
				<ele>65.62</ele>
				<time>2016-08-28T11:09:16</time>
			</trkpt>
			<trkpt lat="48.85823965072632" lon="2.926955223083496">
				<ele>59.23</ele>
				<time>2016-08-28T11:09:21</time>
			</trkpt>
			<trkpt lat="48.85825037956238" lon="2.9267728328704834">
				<ele>57.22</ele>
				<time>2016-08-28T11:09:23</time>
			</trkpt>
			<trkpt lat="48.85812163352966" lon="2.9265260696411133">
				<ele>56.26</ele>
				<time>2016-08-28T11:09:27</time>
			</trkpt>
			<trkpt lat="48.85815390385687" lon="2.9264509677886963">
				<ele>55.79</ele>
				<time>2016-08-28T11:09:28</time>
			</trkpt>
			<trkpt lat="48.85840058326721" lon="2.9258501529693604">
				<ele>54.0</ele>
				<time>2016-08-28T11:09:35</time>
			</trkpt>
			<trkpt lat="48.85846495628357" lon="2.925539016723633">
				<ele>54.32</ele>
				<time>2016-08-28T11:09:39</time>
			</trkpt>
			<trkpt lat="48.85843276977539" lon="2.9251420497894287">
				<ele>54.0</ele>
				<time>2016-08-28T11:09:43</time>
			</trkpt>
			<trkpt lat="48.85828256607056" lon="2.92411208152771">
				<ele>56.54</ele>
				<time>2016-08-28T11:09:54</time>
			</trkpt>
			<trkpt lat="48.85828264988959" lon="2.9240047931671143">
				<ele>56.92</ele>
				<time>2016-08-28T11:09:55</time>
			</trkpt>
			<trkpt lat="48.858293294906616" lon="2.923210859298706">
				<ele>54.62</ele>
				<time>2016-08-28T11:10:03</time>
			</trkpt>
			<trkpt lat="48.858347022905946" lon="2.9224705696105957">
				<ele>54.69</ele>
				<time>2016-08-28T11:10:11</time>
			</trkpt>
			<trkpt lat="48.858368480578065" lon="2.9221057891845703">
				<ele>55.0</ele>
				<time>2016-08-28T11:10:15</time>
			</trkpt>
			<trkpt lat="48.85840058326721" lon="2.9218268394470215">
				<ele>55.0</ele>
				<time>2016-08-28T11:10:18</time>
			</trkpt>
			<trkpt lat="48.85847576893866" lon="2.921344041824341">
				<ele>56.6</ele>
				<time>2016-08-28T11:10:23</time>
			</trkpt>
			<trkpt lat="48.85866888798773" lon="2.920260429382324">
				<ele>54.36</ele>
				<time>2016-08-28T11:10:35</time>
			</trkpt>
			<trkpt lat="48.858840549364686" lon="2.9192519187927246">
				<ele>54.87</ele>
				<time>2016-08-28T11:10:46</time>
			</trkpt>
			<trkpt lat="48.85886192321777" lon="2.91911244392395">
				<ele>55.03</ele>
				<time>2016-08-28T11:10:48</time>
			</trkpt>
			<trkpt lat="48.85906585492194" lon="2.918071746826172">
				<ele>56.39</ele>
				<time>2016-08-28T11:10:59</time>
			</trkpt>
			<trkpt lat="48.859065771102905" lon="2.918071746826172">
				<ele>56.39</ele>
				<time>2016-08-28T11:10:59</time>
			</trkpt>
			<trkpt lat="48.85937690734863" lon="2.9162049293518066">
				<ele>58.34</ele>
				<time>2016-08-28T11:11:19</time>
			</trkpt>
			<trkpt lat="48.85930188931525" lon="2.9161834716796875">
				<ele>56.77</ele>
				<time>2016-08-28T11:11:21</time>
			</trkpt>
			<trkpt lat="48.85891556739807" lon="2.9160654544830322">
				<ele>54.0</ele>
				<time>2016-08-28T11:11:27</time>
			</trkpt>
			<trkpt lat="48.85886192321777" lon="2.9160869121551514">
				<ele>54.0</ele>
				<time>2016-08-28T11:11:28</time>
			</trkpt>
			<trkpt lat="48.858829736709595" lon="2.916151285171509">
				<ele>54.0</ele>
				<time>2016-08-28T11:11:29</time>
			</trkpt>
			<trkpt lat="48.858786821365356" lon="2.9163873195648193">
				<ele>53.69</ele>
				<time>2016-08-28T11:11:31</time>
			</trkpt>
			<trkpt lat="48.85861851274967" lon="2.9163104575127363">
				<ele>53.37</ele>
				<time>2016-08-28T11:11:34</time>
			</trkpt>
			<trkpt lat="48.858618177473545" lon="2.916310289874673">
				<ele>53.37</ele>
				<time>2016-08-28T11:11:34</time>
			</trkpt>
			<trkpt lat="48.85861826129258" lon="2.9163103736937046">
				<ele>53.37</ele>
				<time>2016-08-28T11:11:34</time>
			</trkpt>
			<trkpt lat="48.858587415888906" lon="2.9162962920963764">
				<ele>53.31</ele>
				<time>2016-08-28T11:11:35</time>
			</trkpt>
			<trkpt lat="48.858585990965366" lon="2.9162956215441227">
				<ele>53.3</ele>
				<time>2016-08-28T11:11:35</time>
			</trkpt>
			<trkpt lat="48.85858464986086" lon="2.9162950348109007">
				<ele>53.3</ele>
				<time>2016-08-28T11:11:35</time>
			</trkpt>
			<trkpt lat="48.85858280584216" lon="2.9162941966205835">
				<ele>53.29</ele>
				<time>2016-08-28T11:11:35</time>
			</trkpt>
			<trkpt lat="48.85851390659809" lon="2.9162626806646585">
				<ele>53.15</ele>
				<time>2016-08-28T11:11:36</time>
			</trkpt>
		</trkseg>
	</trk>
</gpx>
