<?xml version="1.0" encoding="UTF-8"?>
<gpx creator="Garmin Connect" version="1.1"
  xsi:schemaLocation="http://www.topografix.com/GPX/1/1 http://www.topografix.com/GPX/11.xsd"
  xmlns:ns3="http://www.garmin.com/xmlschemas/TrackPointExtension/v1"
  xmlns="http://www.topografix.com/GPX/1/1"
  xmlns:xsi="http://www.w3.org/2001/XMLSchema-instance" xmlns:ns2="http://www.garmin.com/xmlschemas/GpxExtensions/v3">
  <metadata>
    <name>VTT Crécyvélo77 - 2026</name>
    <link href="connect.garmin.com">
      <text>Garmin Connect</text>
    </link>
    <time>2024-09-02T08:27:55.000Z</time>
  </metadata>
  <wpt lat="48.8596099242568" lon="2.94327998533845">
    <ele>0.0</ele>
    <name>Ravito</name>
    <type>FOOD</type>
  </wpt>
  <wpt lat="48.85816743139013" lon="2.92662136533118">
    <ele>0.0</ele>
    <name>Feux tricolores</name>
    <type>INFO</type>
  </wpt>
  <trk>
    <name>VTT Crécyvélo77 - 2026</name>
    <trkseg>
      <trkpt lat="48.85818986222148" lon="2.9162099584937096">
        <ele>51.51</ele>
      </trkpt>
      <trkpt lat="48.8581299316138" lon="2.9161999840289354">
        <ele>51.52</ele>
      </trkpt>
      <trkpt lat="48.858029935508966" lon="2.916099987924099">
        <ele>51.58</ele>
      </trkpt>
      <trkpt lat="48.85790999047458" lon="2.9159399773925543">
        <ele>51.69</ele>
      </trkpt>
      <trkpt lat="48.85762995108962" lon="2.9152799863368273">
        <ele>51.96</ele>
      </trkpt>
      <trkpt lat="48.85756993666291" lon="2.9151199758052826">
        <ele>52.11</ele>
      </trkpt>
      <trkpt lat="48.857549987733364" lon="2.914939932525158">
        <ele>52.24</ele>
      </trkpt>
      <trkpt lat="48.85757999494672" lon="2.9148399364203215">
        <ele>52.36</ele>
      </trkpt>
      <trkpt lat="48.857769928872585" lon="2.914569955319166">
        <ele>52.46</ele>
      </trkpt>
      <trkpt lat="48.85814996436238" lon="2.914049942046404">
        <ele>52.66</ele>
      </trkpt>
      <trkpt lat="48.85821400210261" lon="2.9139457549899817">
        <ele>52.72</ele>
      </trkpt>
      <trkpt lat="48.858304023742676" lon="2.913823127746582">
        <ele>52.69</ele>
      </trkpt>
      <trkpt lat="48.85845422744751" lon="2.913973331451416">
        <ele>52.58</ele>
      </trkpt>
      <trkpt lat="48.858540058135986" lon="2.913694381713867">
        <ele>52.58</ele>
      </trkpt>
      <trkpt lat="48.858658242970705" lon="2.913457928225398">
        <ele>52.61</ele>
      </trkpt>
      <trkpt lat="48.8587760925293" lon="2.913222312927246">
        <ele>52.61</ele>
      </trkpt>
      <trkpt lat="48.8587760925293" lon="2.9131150245666504">
        <ele>52.57</ele>
      </trkpt>
      <trkpt lat="48.85875144973397" lon="2.912723757326603">
        <ele>52.5</ele>
      </trkpt>
      <trkpt lat="48.85872689075768" lon="2.9123324900865555">
        <ele>52.4</ele>
      </trkpt>
      <trkpt lat="48.85870233178139" lon="2.9119413066655397">
        <ele>52.32</ele>
      </trkpt>
      <trkpt lat="48.858677772805095" lon="2.9115500394254923">
        <ele>52.32</ele>
      </trkpt>
      <trkpt lat="48.85865354910493" lon="2.9111641366034746">
        <ele>52.16</ele>
      </trkpt>
      <trkpt lat="48.858626475557685" lon="2.910733390599489">
        <ele>51.84</ele>
      </trkpt>
      <trkpt lat="48.85859940201044" lon="2.9103027284145355">
        <ele>51.47</ele>
      </trkpt>
      <trkpt lat="48.8585723284632" lon="2.909872066229582">
        <ele>51.15</ele>
      </trkpt>
      <trkpt lat="48.85854525491595" lon="2.909441404044628">
        <ele>50.9</ele>
      </trkpt>
      <trkpt lat="48.85851860046387" lon="2.9090166091918945">
        <ele>50.63</ele>
      </trkpt>
      <trkpt lat="48.85854559019208" lon="2.909447271376848">
        <ele>50.26</ele>
      </trkpt>
      <trkpt lat="48.858572663739324" lon="2.909877933561802">
        <ele>49.85</ele>
      </trkpt>
      <trkpt lat="48.85859973728657" lon="2.9103085957467556">
        <ele>49.5</ele>
      </trkpt>
      <trkpt lat="48.85862681083381" lon="2.9107392579317093">
        <ele>49.26</ele>
      </trkpt>
      <trkpt lat="48.85865354910493" lon="2.9111641366034746">
        <ele>52.16</ele>
      </trkpt>
      <trkpt lat="48.858626475557685" lon="2.910733390599489">
        <ele>51.84</ele>
      </trkpt>
      <trkpt lat="48.85859940201044" lon="2.9103027284145355">
        <ele>51.47</ele>
      </trkpt>
      <trkpt lat="48.8585723284632" lon="2.909872066229582">
        <ele>51.15</ele>
      </trkpt>
      <trkpt lat="48.85854525491595" lon="2.909441404044628">
        <ele>50.9</ele>
      </trkpt>
      <trkpt lat="48.85851860046387" lon="2.9090166091918945">
        <ele>50.63</ele>
      </trkpt>
      <trkpt lat="48.858561515808105" lon="2.9090380668640137">
        <ele>48.01</ele>
      </trkpt>
      <trkpt lat="48.85872730985284" lon="2.9090601950883865">
        <ele>48.19</ele>
      </trkpt>
      <trkpt lat="48.858883464708924" lon="2.909080982208252">
        <ele>48.45</ele>
      </trkpt>
      <trkpt lat="48.85872730985284" lon="2.9090601950883865">
        <ele>48.19</ele>
      </trkpt>
      <trkpt lat="48.858883464708924" lon="2.909080982208252">
        <ele>48.45</ele>
      </trkpt>
      <trkpt lat="48.85937690734863" lon="2.9091989994049072">
        <ele>50.12</ele>
      </trkpt>
      <trkpt lat="48.859591484069824" lon="2.909274101257324">
        <ele>51.05</ele>
      </trkpt>
      <trkpt lat="48.859591484069824" lon="2.909456491470337">
        <ele>52.23</ele>
      </trkpt>
      <trkpt lat="48.859623754397035" lon="2.9094457626342773">
        <ele>53.58</ele>
      </trkpt>
      <trkpt lat="48.85965594090521" lon="2.909456491470337">
        <ele>55.16</ele>
      </trkpt>
      <trkpt lat="48.85969877243042" lon="2.909456491470337">
        <ele>56.97</ele>
      </trkpt>
      <trkpt lat="48.85970950126648" lon="2.9094350337982178">
        <ele>59.0</ele>
      </trkpt>
      <trkpt lat="48.85972023010254" lon="2.9093384742736816">
        <ele>61.23</ele>
      </trkpt>
      <trkpt lat="48.85976314544678" lon="2.909306287765503">
        <ele>63.7</ele>
      </trkpt>
      <trkpt lat="48.86043285951018" lon="2.909581968560815">
        <ele>66.7</ele>
      </trkpt>
      <trkpt lat="48.86067509651184" lon="2.909681797027588">
        <ele>69.66</ele>
      </trkpt>
      <trkpt lat="48.862080574035645" lon="2.9103469848632812">
        <ele>73.7</ele>
      </trkpt>
      <trkpt lat="48.86216640472412" lon="2.9108726978302">
        <ele>77.09</ele>
      </trkpt>
      <trkpt lat="48.862348794937134" lon="2.9112696647644043">
        <ele>80.46</ele>
      </trkpt>
      <trkpt lat="48.8626492023468" lon="2.9115164279937744">
        <ele>83.71</ele>
      </trkpt>
      <trkpt lat="48.86372208595276" lon="2.9121601581573486">
        <ele>87.4</ele>
      </trkpt>
      <trkpt lat="48.86372216977179" lon="2.9121601581573486">
        <ele>90.06</ele>
      </trkpt>
      <trkpt lat="48.863807916641235" lon="2.9122138023376465">
        <ele>92.56</ele>
      </trkpt>
      <trkpt lat="48.86391528882086" lon="2.911677360534668">
        <ele>94.64</ele>
      </trkpt>
      <trkpt lat="48.8640118483454" lon="2.911173105239868">
        <ele>96.44</ele>
      </trkpt>
      <trkpt lat="48.86401176452637" lon="2.911173105239868">
        <ele>98.08</ele>
      </trkpt>
      <trkpt lat="48.86425861157477" lon="2.909853458404541">
        <ele>99.75</ele>
      </trkpt>
      <trkpt lat="48.864322900772095" lon="2.9092419147491455">
        <ele>100.91</ele>
      </trkpt>
      <trkpt lat="48.864355171099305" lon="2.908501625061035">
        <ele>101.95</ele>
      </trkpt>
      <trkpt lat="48.86435508728027" lon="2.908501625061035">
        <ele>102.72</ele>
      </trkpt>
      <trkpt lat="48.864376628771424" lon="2.9078686237335205">
        <ele>103.3</ele>
      </trkpt>
      <trkpt lat="48.86441946029663" lon="2.9067957401275635">
        <ele>103.6</ele>
      </trkpt>
      <trkpt lat="48.8644088152796" lon="2.906012535095215">
        <ele>103.81</ele>
      </trkpt>
      <trkpt lat="48.86439800262451" lon="2.904564142227173">
        <ele>103.64</ele>
      </trkpt>
      <trkpt lat="48.86450529098511" lon="2.9044032096862793">
        <ele>103.93</ele>
      </trkpt>
      <trkpt lat="48.8646125793457" lon="2.9044675827026367">
        <ele>104.2</ele>
      </trkpt>
      <trkpt lat="48.86474132537842" lon="2.904489040374756">
        <ele>104.48</ele>
      </trkpt>
      <trkpt lat="48.86574983596802" lon="2.9044461250305176">
        <ele>105.22</ele>
      </trkpt>
      <trkpt lat="48.86592149734497" lon="2.904413938522339">
        <ele>105.47</ele>
      </trkpt>
      <trkpt lat="48.866039514541626" lon="2.9043495655059814">
        <ele>105.67</ele>
      </trkpt>
      <trkpt lat="48.86616826057434" lon="2.904231548309326">
        <ele>105.84</ele>
      </trkpt>
      <trkpt lat="48.86611461639404" lon="2.903931140899658">
        <ele>105.9</ele>
      </trkpt>
      <trkpt lat="48.866114281117916" lon="2.90362436324358">
        <ele>105.82</ele>
      </trkpt>
      <trkpt lat="48.86611436493695" lon="2.9036250337958336">
        <ele>105.75</ele>
      </trkpt>
      <trkpt lat="48.86611444875598" lon="2.9036257043480873">
        <ele>105.62</ele>
      </trkpt>
      <trkpt lat="48.86611453257501" lon="2.9036264587193727">
        <ele>105.45</ele>
      </trkpt>
      <trkpt lat="48.86611461639404" lon="2.903627213090658">
        <ele>105.23</ele>
      </trkpt>
      <trkpt lat="48.86611461639404" lon="2.9028475284576416">
        <ele>104.9</ele>
      </trkpt>
      <trkpt lat="48.866071701049805" lon="2.9023003578186035">
        <ele>104.58</ele>
      </trkpt>
      <trkpt lat="48.866028785705566" lon="2.9022037982940674">
        <ele>104.26</ele>
      </trkpt>
      <trkpt lat="48.86594295501709" lon="2.9021501541137695">
        <ele>103.92</ele>
      </trkpt>
      <trkpt lat="48.865309953689575" lon="2.9020965099334717">
        <ele>103.41</ele>
      </trkpt>
      <trkpt lat="48.865288496017456" lon="2.9012703895568848">
        <ele>103.19</ele>
      </trkpt>
      <trkpt lat="48.865299224853516" lon="2.9003262519836426">
        <ele>102.91</ele>
      </trkpt>
      <trkpt lat="48.86524558067322" lon="2.899167537689209">
        <ele>102.71</ele>
      </trkpt>
      <trkpt lat="48.8651704788208" lon="2.8987598419189453">
        <ele>102.49</ele>
      </trkpt>
      <trkpt lat="48.86510610580444" lon="2.8982126712799072">
        <ele>102.43</ele>
      </trkpt>
      <trkpt lat="48.865127647295594" lon="2.897547483444214">
        <ele>102.42</ele>
      </trkpt>
      <trkpt lat="48.86512756347656" lon="2.897547483444214">
        <ele>102.35</ele>
      </trkpt>
      <trkpt lat="48.86521339416504" lon="2.8968393802642822">
        <ele>102.3</ele>
      </trkpt>
      <trkpt lat="48.8652777671814" lon="2.8947043418884277">
        <ele>102.11</ele>
      </trkpt>
      <trkpt lat="48.86529930867255" lon="2.892976999282837">
        <ele>102.11</ele>
      </trkpt>
      <trkpt lat="48.8656747341156" lon="2.8908205032348633">
        <ele>102.25</ele>
      </trkpt>
      <trkpt lat="48.865824937820435" lon="2.8894472122192383">
        <ele>102.56</ele>
      </trkpt>
      <trkpt lat="48.86593943461776" lon="2.888909848406911">
        <ele>102.9</ele>
      </trkpt>
      <trkpt lat="48.865939266979694" lon="2.888911021873355">
        <ele>103.18</ele>
      </trkpt>
      <trkpt lat="48.865939350798726" lon="2.888911021873355">
        <ele>103.48</ele>
      </trkpt>
      <trkpt lat="48.86593943461776" lon="2.888911021873355">
        <ele>103.81</ele>
      </trkpt>
      <trkpt lat="48.86593951843679" lon="2.8889111056923866">
        <ele>104.15</ele>
      </trkpt>
      <trkpt lat="48.865939853712916" lon="2.888909848406911">
        <ele>104.49</ele>
      </trkpt>
      <trkpt lat="48.86593968607485" lon="2.888910938054323">
        <ele>104.82</ele>
      </trkpt>
      <trkpt lat="48.86593951843679" lon="2.8889120277017355">
        <ele>105.13</ele>
      </trkpt>
      <trkpt lat="48.865939350798726" lon="2.8889132011681795">
        <ele>105.4</ele>
      </trkpt>
      <trkpt lat="48.86601814068854" lon="2.8885459899902344">
        <ele>105.66</ele>
      </trkpt>
      <trkpt lat="48.866071784868836" lon="2.8885674476623535">
        <ele>105.85</ele>
      </trkpt>
      <trkpt lat="48.86725195683539" lon="2.8891897201538086">
        <ele>106.23</ele>
      </trkpt>
      <trkpt lat="48.868035078048706" lon="2.8895974159240723">
        <ele>106.34</ele>
      </trkpt>
      <trkpt lat="48.86872180737555" lon="2.8899085521698">
        <ele>106.23</ele>
      </trkpt>
      <trkpt lat="48.86873253621161" lon="2.8899085521698">
        <ele>105.98</ele>
      </trkpt>
      <trkpt lat="48.869547843933105" lon="2.890702486038208">
        <ele>105.71</ele>
      </trkpt>
      <trkpt lat="48.86971950531006" lon="2.8909385204315186">
        <ele>105.21</ele>
      </trkpt>
      <trkpt lat="48.870030641555786" lon="2.891625165939331">
        <ele>104.59</ele>
      </trkpt>
      <trkpt lat="48.87017011642456" lon="2.8921616077423096">
        <ele>103.89</ele>
      </trkpt>
      <trkpt lat="48.870288133621216" lon="2.892869710922241">
        <ele>103.08</ele>
      </trkpt>
      <trkpt lat="48.87420415878296" lon="2.891603708267212">
        <ele>101.16</ele>
      </trkpt>
      <trkpt lat="48.87651085853577" lon="2.8913354873657227">
        <ele>100.07</ele>
      </trkpt>
      <trkpt lat="48.8765109423548" lon="2.8913354873657227">
        <ele>99.19</ele>
      </trkpt>
      <trkpt lat="48.87698292732239" lon="2.891324758529663">
        <ele>98.33</ele>
      </trkpt>
      <trkpt lat="48.8772189617157" lon="2.8914427757263184">
        <ele>97.53</ele>
      </trkpt>
      <trkpt lat="48.877315521240234" lon="2.891474962234497">
        <ele>96.83</ele>
      </trkpt>
      <trkpt lat="48.87750864028931" lon="2.891453504562378">
        <ele>96.2</ele>
      </trkpt>
      <trkpt lat="48.877819776535034" lon="2.8912603855133057">
        <ele>95.69</ele>
      </trkpt>
      <trkpt lat="48.878109538927674" lon="2.8910350799560547">
        <ele>95.28</ele>
      </trkpt>
      <trkpt lat="48.878291845321655" lon="2.891925573348999">
        <ele>95.17</ele>
      </trkpt>
      <trkpt lat="48.87834548950195" lon="2.8923654556274414">
        <ele>95.05</ele>
      </trkpt>
      <trkpt lat="48.87837767601013" lon="2.8926658630371094">
        <ele>95.05</ele>
      </trkpt>
      <trkpt lat="48.87842059135437" lon="2.893770933151245">
        <ele>95.34</ele>
      </trkpt>
      <trkpt lat="48.87847423553467" lon="2.8941142559051514">
        <ele>95.53</ele>
      </trkpt>
      <trkpt lat="48.87859225273132" lon="2.894800901412964">
        <ele>95.78</ele>
      </trkpt>
      <trkpt lat="48.878624523058534" lon="2.89514422416687">
        <ele>96.06</ele>
      </trkpt>
      <trkpt lat="48.878570795059204" lon="2.8956055641174316">
        <ele>96.33</ele>
      </trkpt>
      <trkpt lat="48.87844447977841" lon="2.896225741133094">
        <ele>96.52</ele>
      </trkpt>
      <trkpt lat="48.878444815054536" lon="2.89622456766665">
        <ele>96.68</ele>
      </trkpt>
      <trkpt lat="48.878444815054536" lon="2.8962246514856815">
        <ele>96.79</ele>
      </trkpt>
      <trkpt lat="48.878444815054536" lon="2.8962247353047132">
        <ele>96.85</ele>
      </trkpt>
      <trkpt lat="48.878444815054536" lon="2.8962249029427767">
        <ele>96.84</ele>
      </trkpt>
      <trkpt lat="48.87844489887357" lon="2.8962249029427767">
        <ele>96.76</ele>
      </trkpt>
      <trkpt lat="48.878444228321314" lon="2.896228339523077">
        <ele>96.6</ele>
      </trkpt>
      <trkpt lat="48.87844456359744" lon="2.896227166056633">
        <ele>96.38</ele>
      </trkpt>
      <trkpt lat="48.878444815054536" lon="2.896225992590189">
        <ele>96.07</ele>
      </trkpt>
      <trkpt lat="48.8784206751734" lon="2.896345853805542">
        <ele>95.71</ele>
      </trkpt>
      <trkpt lat="48.87847423553467" lon="2.8963351249694824">
        <ele>95.28</ele>
      </trkpt>
      <trkpt lat="48.87866735458374" lon="2.896195650100708">
        <ele>94.8</ele>
      </trkpt>
      <trkpt lat="48.878806829452515" lon="2.896345853805542">
        <ele>94.29</ele>
      </trkpt>
      <trkpt lat="48.87945055961609" lon="2.896721363067627">
        <ele>93.76</ele>
      </trkpt>
      <trkpt lat="48.879815340042114" lon="2.8971505165100098">
        <ele>92.9</ele>
      </trkpt>
      <trkpt lat="48.87985825538635" lon="2.8973007202148438">
        <ele>92.44</ele>
      </trkpt>
      <trkpt lat="48.87993335723877" lon="2.897847890853882">
        <ele>91.96</ele>
      </trkpt>
      <trkpt lat="48.8800835609436" lon="2.8980839252471924">
        <ele>91.49</ele>
      </trkpt>
      <trkpt lat="48.88020157814026" lon="2.898191213607788">
        <ele>91.18</ele>
      </trkpt>
      <trkpt lat="48.880523443222046" lon="2.8982126712799072">
        <ele>90.88</ele>
      </trkpt>
      <trkpt lat="48.880791664123535" lon="2.8982770442962646">
        <ele>90.79</ele>
      </trkpt>
      <trkpt lat="48.88121008872986" lon="2.898513078689575">
        <ele>90.74</ele>
      </trkpt>
      <trkpt lat="48.88216495513916" lon="2.899113893508911">
        <ele>91.67</ele>
      </trkpt>
      <trkpt lat="48.882068395614624" lon="2.9008948802948">
        <ele>92.34</ele>
      </trkpt>
      <trkpt lat="48.882036209106445" lon="2.9012703895568848">
        <ele>93.1</ele>
      </trkpt>
      <trkpt lat="48.88193964958191" lon="2.901785373687744">
        <ele>94.01</ele>
      </trkpt>
      <trkpt lat="48.884815061464906" lon="2.9038023948669434">
        <ele>96.04</ele>
      </trkpt>
      <trkpt lat="48.8851660117507" lon="2.9040505830198526">
        <ele>97.23</ele>
      </trkpt>
      <trkpt lat="48.88516617938876" lon="2.9040506668388844">
        <ele>98.38</ele>
      </trkpt>
      <trkpt lat="48.88516626320779" lon="2.904050750657916">
        <ele>99.54</ele>
      </trkpt>
      <trkpt lat="48.88516643084586" lon="2.9040509182959795">
        <ele>100.71</ele>
      </trkpt>
      <trkpt lat="48.88517003506422" lon="2.9040535166859627">
        <ele>101.85</ele>
      </trkpt>
      <trkpt lat="48.88517011888325" lon="2.9040536005049944">
        <ele>102.95</ele>
      </trkpt>
      <trkpt lat="48.885170286521316" lon="2.904053768143058">
        <ele>104.0</ele>
      </trkpt>
      <trkpt lat="48.88639211654663" lon="2.9049181938171387">
        <ele>105.32</ele>
      </trkpt>
      <trkpt lat="48.88539433479309" lon="2.908329963684082">
        <ele>106.3</ele>
      </trkpt>
      <trkpt lat="48.885308587923646" lon="2.9086732864379883">
        <ele>107.1</ele>
      </trkpt>
      <trkpt lat="48.885287046432495" lon="2.908952236175537">
        <ele>107.78</ele>
      </trkpt>
      <trkpt lat="48.885308587923646" lon="2.9093170166015625">
        <ele>108.45</ele>
      </trkpt>
      <trkpt lat="48.88526299037039" lon="2.9093282483518124">
        <ele>108.92</ele>
      </trkpt>
      <trkpt lat="48.885262655094266" lon="2.909328415989876">
        <ele>109.3</ele>
      </trkpt>
      <trkpt lat="48.885262655094266" lon="2.9093284998089075">
        <ele>109.58</ele>
      </trkpt>
      <trkpt lat="48.885262571275234" lon="2.9093285836279392">
        <ele>109.76</ele>
      </trkpt>
      <trkpt lat="48.88526240363717" lon="2.909328667446971">
        <ele>109.86</ele>
      </trkpt>
      <trkpt lat="48.88526240363717" lon="2.9093287512660027">
        <ele>109.88</ele>
      </trkpt>
      <trkpt lat="48.88525846414268" lon="2.909329840913415">
        <ele>109.84</ele>
      </trkpt>
      <trkpt lat="48.885258212685585" lon="2.9093299247324467">
        <ele>109.74</ele>
      </trkpt>
      <trkpt lat="48.88525787740946" lon="2.90933009237051">
        <ele>109.61</ele>
      </trkpt>
      <trkpt lat="48.88497591018677" lon="2.909402847290039">
        <ele>109.35</ele>
      </trkpt>
      <trkpt lat="48.8846218585968" lon="2.909531593322754">
        <ele>109.07</ele>
      </trkpt>
      <trkpt lat="48.88445019721985" lon="2.9096603393554688">
        <ele>108.85</ele>
      </trkpt>
      <trkpt lat="48.8840211275965" lon="2.910100221633911">
        <ele>108.67</ele>
      </trkpt>
      <trkpt lat="48.883323669433594" lon="2.910904884338379">
        <ele>108.73</ele>
      </trkpt>
      <trkpt lat="48.88308763504028" lon="2.9112589359283447">
        <ele>108.7</ele>
      </trkpt>
      <trkpt lat="48.8826048374176" lon="2.9117846488952637">
        <ele>108.81</ele>
      </trkpt>
      <trkpt lat="48.882412388920784" lon="2.9119601659476757">
        <ele>108.91</ele>
      </trkpt>
      <trkpt lat="48.8824029173702" lon="2.9119366966187954">
        <ele>108.95</ele>
      </trkpt>
      <trkpt lat="48.88240274973214" lon="2.911936193704605">
        <ele>109.04</ele>
      </trkpt>
      <trkpt lat="48.88240274973214" lon="2.9119361098855734">
        <ele>109.18</ele>
      </trkpt>
      <trkpt lat="48.88240274973214" lon="2.91193594224751">
        <ele>109.37</ele>
      </trkpt>
      <trkpt lat="48.882402665913105" lon="2.911935690790415">
        <ele>109.63</ele>
      </trkpt>
      <trkpt lat="48.88240057043731" lon="2.9119304101914167">
        <ele>109.96</ele>
      </trkpt>
      <trkpt lat="48.88240048661828" lon="2.91193007491529">
        <ele>110.36</ele>
      </trkpt>
      <trkpt lat="48.88240031898022" lon="2.9119295720010996">
        <ele>110.84</ele>
      </trkpt>
      <trkpt lat="48.88239998370409" lon="2.911929991096258">
        <ele>111.41</ele>
      </trkpt>
      <trkpt lat="48.882219940423965" lon="2.912109950557351">
        <ele>112.09</ele>
      </trkpt>
      <trkpt lat="48.88232999481261" lon="2.912329975515604">
        <ele>112.91</ele>
      </trkpt>
      <trkpt lat="48.88276996091008" lon="2.913219965994358">
        <ele>113.82</ele>
      </trkpt>
      <trkpt lat="48.88295997865498" lon="2.913659932091832">
        <ele>114.81</ele>
      </trkpt>
      <trkpt lat="48.883159970864654" lon="2.9141899198293686">
        <ele>115.81</ele>
      </trkpt>
      <trkpt lat="48.88340991921723" lon="2.9150899685919285">
        <ele>116.99</ele>
      </trkpt>
      <trkpt lat="48.883639918640256" lon="2.9162599984556437">
        <ele>118.33</ele>
      </trkpt>
      <trkpt lat="48.88370999135077" lon="2.916509946808219">
        <ele>119.52</ele>
      </trkpt>
      <trkpt lat="48.88385994359851" lon="2.916989978402853">
        <ele>120.81</ele>
      </trkpt>
      <trkpt lat="48.88394996523857" lon="2.9171499889343977">
        <ele>122.05</ele>
      </trkpt>
      <trkpt lat="48.883559955284" lon="2.917819954454899">
        <ele>123.29</ele>
      </trkpt>
      <trkpt lat="48.88337999582291" lon="2.9181799571961164">
        <ele>124.55</ele>
      </trkpt>
      <trkpt lat="48.88306994922459" lon="2.9188299737870693">
        <ele>125.9</ele>
      </trkpt>
      <trkpt lat="48.88304991647601" lon="2.918929969891906">
        <ele>127.28</ele>
      </trkpt>
      <trkpt lat="48.883229959756136" lon="2.9192599654197693">
        <ele>128.76</ele>
      </trkpt>
      <trkpt lat="48.8835099991411" lon="2.9196999315172434">
        <ele>130.32</ele>
      </trkpt>
      <trkpt lat="48.88413998298347" lon="2.9205799475312233">
        <ele>131.78</ele>
      </trkpt>
      <trkpt lat="48.884389931336045" lon="2.920979931950569">
        <ele>133.27</ele>
      </trkpt>
      <trkpt lat="48.884859988465905" lon="2.921849973499775">
        <ele>134.58</ele>
      </trkpt>
      <trkpt lat="48.885269947350025" lon="2.922509964555502">
        <ele>135.88</ele>
      </trkpt>
      <trkpt lat="48.88596992008388" lon="2.92342996224761">
        <ele>137.11</ele>
      </trkpt>
      <trkpt lat="48.88639999553561" lon="2.9239799827337265">
        <ele>138.35</ele>
      </trkpt>
      <trkpt lat="48.88651994057" lon="2.924139993265271">
        <ele>139.44</ele>
      </trkpt>
      <trkpt lat="48.88663996942341" lon="2.924319952726364">
        <ele>140.47</ele>
      </trkpt>
      <trkpt lat="48.88682998716831" lon="2.92473996989429">
        <ele>141.42</ele>
      </trkpt>
      <trkpt lat="48.886859994381666" lon="2.9248099587857723">
        <ele>142.29</ele>
      </trkpt>
      <trkpt lat="48.8873899821192" lon="2.926279976963997">
        <ele>143.01</ele>
      </trkpt>
      <trkpt lat="48.88808995485306" lon="2.928119972348213">
        <ele>143.91</ele>
      </trkpt>
      <trkpt lat="48.88808995485306" lon="2.928229942917824">
        <ele>144.65</ele>
      </trkpt>
      <trkpt lat="48.888039998710155" lon="2.928769988939166">
        <ele>145.34</ele>
      </trkpt>
      <trkpt lat="48.888039998710155" lon="2.928999988362193">
        <ele>146.04</ele>
      </trkpt>
      <trkpt lat="48.88810998760164" lon="2.9293099511414766">
        <ele>146.85</ele>
      </trkpt>
      <trkpt lat="48.88832992874086" lon="2.929829964414239">
        <ele>147.73</ele>
      </trkpt>
      <trkpt lat="48.88866998255253" lon="2.9303999338299036">
        <ele>148.53</ele>
      </trkpt>
      <trkpt lat="48.888749945908785" lon="2.930549969896674">
        <ele>149.12</ele>
      </trkpt>
      <trkpt lat="48.889349922537804" lon="2.9305599443614483">
        <ele>149.61</ele>
      </trkpt>
      <trkpt lat="48.88966994360089" lon="2.9306599404662848">
        <ele>150.21</ele>
      </trkpt>
      <trkpt lat="48.89001997187734" lon="2.9307999182492495">
        <ele>150.72</ele>
      </trkpt>
      <trkpt lat="48.890204122290015" lon="2.93088692240417">
        <ele>151.11</ele>
      </trkpt>
      <trkpt lat="48.890204541385174" lon="2.930887173861265">
        <ele>151.43</ele>
      </trkpt>
      <trkpt lat="48.890204625204206" lon="2.930887257680297">
        <ele>151.7</ele>
      </trkpt>
      <trkpt lat="48.8902048766613" lon="2.9308874253183603">
        <ele>151.92</ele>
      </trkpt>
      <trkpt lat="48.89020873233676" lon="2.930889269337058">
        <ele>152.1</ele>
      </trkpt>
      <trkpt lat="48.890209067612886" lon="2.9308894369751215">
        <ele>152.24</ele>
      </trkpt>
      <trkpt lat="48.89020940288901" lon="2.930889604613185">
        <ele>152.35</ele>
      </trkpt>
      <trkpt lat="48.89020294882357" lon="2.9309227131307125">
        <ele>152.45</ele>
      </trkpt>
      <trkpt lat="48.89046907424927" lon="2.9310429096221924">
        <ele>152.54</ele>
      </trkpt>
      <trkpt lat="48.89034032821655" lon="2.931579351425171">
        <ele>152.65</ele>
      </trkpt>
      <trkpt lat="48.890104377642274" lon="2.932448387145996">
        <ele>152.55</ele>
      </trkpt>
      <trkpt lat="48.88990052975714" lon="2.9332101345062256">
        <ele>152.66</ele>
      </trkpt>
      <trkpt lat="48.88967522419989" lon="2.934079170227051">
        <ele>152.58</ele>
      </trkpt>
      <trkpt lat="48.88936400413513" lon="2.9350876808166504">
        <ele>152.86</ele>
      </trkpt>
      <trkpt lat="48.88919242657721" lon="2.9355382919311523">
        <ele>152.96</ele>
      </trkpt>
      <trkpt lat="48.889031410217285" lon="2.9359567165374756">
        <ele>153.11</ele>
      </trkpt>
      <trkpt lat="48.88799071311951" lon="2.9383385181427">
        <ele>152.97</ele>
      </trkpt>
      <trkpt lat="48.88758301734924" lon="2.9394757747650146">
        <ele>153.09</ele>
      </trkpt>
      <trkpt lat="48.88746500015259" lon="2.9397547245025635">
        <ele>153.3</ele>
      </trkpt>
      <trkpt lat="48.8872504234314" lon="2.9400980472564697">
        <ele>153.56</ele>
      </trkpt>
      <trkpt lat="48.88715386390686" lon="2.9406344890594482">
        <ele>153.79</ele>
      </trkpt>
      <trkpt lat="48.88675698079169" lon="2.9431235790252686">
        <ele>154.16</ele>
      </trkpt>
      <trkpt lat="48.88648867607117" lon="2.9447221755981445">
        <ele>154.69</ele>
      </trkpt>
      <trkpt lat="48.886284828186035" lon="2.94533371925354">
        <ele>154.88</ele>
      </trkpt>
      <trkpt lat="48.884772062301636" lon="2.9482626914978027">
        <ele>154.99</ele>
      </trkpt>
      <trkpt lat="48.88428934849799" lon="2.9478979110717773">
        <ele>155.12</ele>
      </trkpt>
      <trkpt lat="48.884289264678955" lon="2.9478979110717773">
        <ele>155.31</ele>
      </trkpt>
      <trkpt lat="48.88358116149902" lon="2.947382926940918">
        <ele>155.58</ele>
      </trkpt>
      <trkpt lat="48.88333439826965" lon="2.947136163711548">
        <ele>155.67</ele>
      </trkpt>
      <trkpt lat="48.883012533187866" lon="2.9465889930725098">
        <ele>155.76</ele>
      </trkpt>
      <trkpt lat="48.88267993927002" lon="2.945859432220459">
        <ele>155.88</ele>
      </trkpt>
      <trkpt lat="48.88238565064967" lon="2.9450652468949556">
        <ele>156.0</ele>
      </trkpt>
      <trkpt lat="48.882385985925794" lon="2.9450661689043045">
        <ele>156.08</ele>
      </trkpt>
      <trkpt lat="48.882385985925794" lon="2.945066001266241">
        <ele>156.14</ele>
      </trkpt>
      <trkpt lat="48.882385985925794" lon="2.9450659174472094">
        <ele>156.18</ele>
      </trkpt>
      <trkpt lat="48.88238590210676" lon="2.9450655821710825">
        <ele>156.19</ele>
      </trkpt>
      <trkpt lat="48.88238389045" lon="2.9450602177530527">
        <ele>156.18</ele>
      </trkpt>
      <trkpt lat="48.88238430954516" lon="2.9450611397624016">
        <ele>156.15</ele>
      </trkpt>
      <trkpt lat="48.88238472864032" lon="2.945062229409814">
        <ele>156.1</ele>
      </trkpt>
      <trkpt lat="48.88238472864032" lon="2.9450623132288456">
        <ele>156.02</ele>
      </trkpt>
      <trkpt lat="48.88225078582764" lon="2.9447007179260254">
        <ele>155.93</ele>
      </trkpt>
      <trkpt lat="48.88214349746704" lon="2.943960428237915">
        <ele>155.7</ele>
      </trkpt>
      <trkpt lat="48.882057666778564" lon="2.943059206008911">
        <ele>155.45</ele>
      </trkpt>
      <trkpt lat="48.88187527656555" lon="2.942308187484741">
        <ele>155.33</ele>
      </trkpt>
      <trkpt lat="48.881596326828" lon="2.941814661026001">
        <ele>155.01</ele>
      </trkpt>
      <trkpt lat="48.880029916763306" lon="2.940816879272461">
        <ele>154.77</ele>
      </trkpt>
      <trkpt lat="48.87931292876601" lon="2.940299715846777">
        <ele>154.62</ele>
      </trkpt>
      <trkpt lat="48.87931267730892" lon="2.9402995482087135">
        <ele>154.32</ele>
      </trkpt>
      <trkpt lat="48.879312593489885" lon="2.9402995482087135">
        <ele>153.98</ele>
      </trkpt>
      <trkpt lat="48.879312509670854" lon="2.9402995482087135">
        <ele>153.59</ele>
      </trkpt>
      <trkpt lat="48.87931225821376" lon="2.94029938057065">
        <ele>153.15</ele>
      </trkpt>
      <trkpt lat="48.87930731289089" lon="2.9402957763522863">
        <ele>152.67</ele>
      </trkpt>
      <trkpt lat="48.87930697761476" lon="2.940295524895191">
        <ele>152.14</ele>
      </trkpt>
      <trkpt lat="48.8793068099767" lon="2.9402954410761595">
        <ele>151.57</ele>
      </trkpt>
      <trkpt lat="48.87845277786255" lon="2.9396796226501465">
        <ele>150.91</ele>
      </trkpt>
      <trkpt lat="48.87720823287964" lon="2.9384994506835938">
        <ele>149.99</ele>
      </trkpt>
      <trkpt lat="48.876038789749146" lon="2.9372870922088623">
        <ele>149.35</ele>
      </trkpt>
      <trkpt lat="48.87572765350342" lon="2.9367077350616455">
        <ele>148.68</ele>
      </trkpt>
      <trkpt lat="48.87442954815924" lon="2.9344546794891357">
        <ele>147.66</ele>
      </trkpt>
      <trkpt lat="48.87395739555359" lon="2.9336178302764893">
        <ele>146.97</ele>
      </trkpt>
      <trkpt lat="48.873538970947266" lon="2.9331672191619873">
        <ele>146.36</ele>
      </trkpt>
      <trkpt lat="48.8735390547663" lon="2.9331672191619873">
        <ele>145.73</ele>
      </trkpt>
      <trkpt lat="48.87295961380005" lon="2.9325342178344727">
        <ele>145.13</ele>
      </trkpt>
      <trkpt lat="48.87226223945618" lon="2.9317080974578857">
        <ele>144.44</ele>
      </trkpt>
      <trkpt lat="48.8717257976532" lon="2.931032180786133">
        <ele>143.86</ele>
      </trkpt>
      <trkpt lat="48.87117862701416" lon="2.9301416873931885">
        <ele>143.44</ele>
      </trkpt>
      <trkpt lat="48.87051343917847" lon="2.9284894466400146">
        <ele>142.87</ele>
      </trkpt>
      <trkpt lat="48.8704929035157" lon="2.928356174379587">
        <ele>142.48</ele>
      </trkpt>
      <trkpt lat="48.87048779055476" lon="2.928357683122158">
        <ele>142.22</ele>
      </trkpt>
      <trkpt lat="48.87048712000251" lon="2.928357934579253">
        <ele>142.02</ele>
      </trkpt>
      <trkpt lat="48.87048703618348" lon="2.928358018398285">
        <ele>141.87</ele>
      </trkpt>
      <trkpt lat="48.870486952364445" lon="2.9283581022173166">
        <ele>141.75</ele>
      </trkpt>
      <trkpt lat="48.87048678472638" lon="2.9283581860363483">
        <ele>141.67</ele>
      </trkpt>
      <trkpt lat="48.87048678472638" lon="2.92835826985538">
        <ele>141.59</ele>
      </trkpt>
      <trkpt lat="48.87048142030835" lon="2.9283601976931095">
        <ele>141.51</ele>
      </trkpt>
      <trkpt lat="48.870480665937066" lon="2.9283605329692364">
        <ele>141.41</ele>
      </trkpt>
      <trkpt lat="48.870480163022876" lon="2.9283607844263315">
        <ele>141.26</ele>
      </trkpt>
      <trkpt lat="48.87047999538481" lon="2.9283599462360144">
        <ele>141.06</ele>
      </trkpt>
      <trkpt lat="48.870399948209524" lon="2.927639940753579">
        <ele>140.67</ele>
      </trkpt>
      <trkpt lat="48.87034999206662" lon="2.927159992977977">
        <ele>140.36</ele>
      </trkpt>
      <trkpt lat="48.870289977639914" lon="2.9274799302220345">
        <ele>139.85</ele>
      </trkpt>
      <trkpt lat="48.870079927146435" lon="2.9288399778306484">
        <ele>139.36</ele>
      </trkpt>
      <trkpt lat="48.86970994994044" lon="2.931159920990467">
        <ele>138.56</ele>
      </trkpt>
      <trkpt lat="48.86957994662225" lon="2.931849919259548">
        <ele>137.56</ele>
      </trkpt>
      <trkpt lat="48.86941993609071" lon="2.932549975812435">
        <ele>136.33</ele>
      </trkpt>
      <trkpt lat="48.869239976629615" lon="2.93313997797668">
        <ele>134.95</ele>
      </trkpt>
      <trkpt lat="48.86914995498955" lon="2.933399984613061">
        <ele>133.49</ele>
      </trkpt>
      <trkpt lat="48.86896999552846" lon="2.9339899867773056">
        <ele>131.89</ele>
      </trkpt>
      <trkpt lat="48.86855995282531" lon="2.9350799694657326">
        <ele>129.88</ele>
      </trkpt>
      <trkpt lat="48.868169942870736" lon="2.9362199921160936">
        <ele>127.69</ele>
      </trkpt>
      <trkpt lat="48.868079921230674" lon="2.936549987643957">
        <ele>125.66</ele>
      </trkpt>
      <trkpt lat="48.867799965664744" lon="2.9375499486923218">
        <ele>123.37</ele>
      </trkpt>
      <trkpt lat="48.867689995095134" lon="2.938249921426177">
        <ele>121.05</ele>
      </trkpt>
      <trkpt lat="48.86761992238462" lon="2.939149970188737">
        <ele>118.73</ele>
      </trkpt>
      <trkpt lat="48.86756996624172" lon="2.93977995403111">
        <ele>116.49</ele>
      </trkpt>
      <trkpt lat="48.867499977350235" lon="2.939989920705557">
        <ele>114.42</ele>
      </trkpt>
      <trkpt lat="48.86727995239198" lon="2.9403799306601286">
        <ele>112.36</ele>
      </trkpt>
      <trkpt lat="48.867029920220375" lon="2.9407699406147003">
        <ele>110.5</ele>
      </trkpt>
      <trkpt lat="48.86688994243741" lon="2.940949983894825">
        <ele>108.89</ele>
      </trkpt>
      <trkpt lat="48.8663499802351" lon="2.9415399860590696">
        <ele>107.23</ele>
      </trkpt>
      <trkpt lat="48.86614998802543" lon="2.9416999965906143">
        <ele>105.73</ele>
      </trkpt>
      <trkpt lat="48.86579995974898" lon="2.9418999888002872">
        <ele>104.44</ele>
      </trkpt>
      <trkpt lat="48.86569996364415" lon="2.9419699776917696">
        <ele>103.6</ele>
      </trkpt>
      <trkpt lat="48.86565998196602" lon="2.942019933834672">
        <ele>103.04</ele>
      </trkpt>
      <trkpt lat="48.86561991646886" lon="2.9421199299395084">
        <ele>102.76</ele>
      </trkpt>
      <trkpt lat="48.86542998254299" lon="2.942519998177886">
        <ele>102.81</ele>
      </trkpt>
      <trkpt lat="48.86496998369694" lon="2.943349974229932">
        <ele>102.97</ele>
      </trkpt>
      <trkpt lat="48.86481994763017" lon="2.9436599370092154">
        <ele>103.46</ele>
      </trkpt>
      <trkpt lat="48.864749958738685" lon="2.9437199514359236">
        <ele>104.12</ele>
      </trkpt>
      <trkpt lat="48.86447997763753" lon="2.94381994754076">
        <ele>105.06</ele>
      </trkpt>
      <trkpt lat="48.86435994878411" lon="2.9437999986112118">
        <ele>106.07</ele>
      </trkpt>
      <trkpt lat="48.86383993551135" lon="2.943619955331087">
        <ele>107.4</ele>
      </trkpt>
      <trkpt lat="48.863459983840585" lon="2.943559940904379">
        <ele>108.68</ele>
      </trkpt>
      <trkpt lat="48.86293997056782" lon="2.943579973652959">
        <ele>110.3</ele>
      </trkpt>
      <trkpt lat="48.86256999336183" lon="2.943619955331087">
        <ele>111.77</ele>
      </trkpt>
      <trkpt lat="48.86239992454648" lon="2.9436899442225695">
        <ele>113.28</ele>
      </trkpt>
      <trkpt lat="48.86226992122829" lon="2.9437699913978577">
        <ele>114.79</ele>
      </trkpt>
      <trkpt lat="48.86210999451578" lon="2.9438999947160482">
        <ele>116.34</ele>
      </trkpt>
      <trkpt lat="48.861849987879395" lon="2.9441399686038494">
        <ele>117.82</ele>
      </trkpt>
      <trkpt lat="48.86144991964102" lon="2.944529978558421">
        <ele>119.19</ele>
      </trkpt>
      <trkpt lat="48.861139956861734" lon="2.9448099341243505">
        <ele>120.47</ele>
      </trkpt>
      <trkpt lat="48.86030998080969" lon="2.945609986782074">
        <ele>121.6</ele>
      </trkpt>
      <trkpt lat="48.85947992093861" lon="2.9463999811559916">
        <ele>122.64</ele>
      </trkpt>
      <trkpt lat="48.85903995484114" lon="2.946879928931594">
        <ele>123.6</ele>
      </trkpt>
      <trkpt lat="48.85887583717704" lon="2.9470915719866753">
        <ele>124.42</ele>
      </trkpt>
      <trkpt lat="48.85887550190091" lon="2.9470920749008656">
        <ele>125.14</ele>
      </trkpt>
      <trkpt lat="48.85887541808188" lon="2.947092242538929">
        <ele>125.75</ele>
      </trkpt>
      <trkpt lat="48.85887541808188" lon="2.9470924101769924">
        <ele>126.25</ele>
      </trkpt>
      <trkpt lat="48.858875250443816" lon="2.9470926616340876">
        <ele>126.65</ele>
      </trkpt>
      <trkpt lat="48.858875250443816" lon="2.9470927454531193">
        <ele>126.95</ele>
      </trkpt>
      <trkpt lat="48.85887105949223" lon="2.9470982775092125">
        <ele>127.14</ele>
      </trkpt>
      <trkpt lat="48.858870724216104" lon="2.9470988642424345">
        <ele>127.22</ele>
      </trkpt>
      <trkpt lat="48.85887038893998" lon="2.947099367156625">
        <ele>127.2</ele>
      </trkpt>
      <trkpt lat="48.85886996984482" lon="2.947099953889847">
        <ele>127.08</ele>
      </trkpt>
      <trkpt lat="48.85876997373998" lon="2.9472699388861656">
        <ele>126.85</ele>
      </trkpt>
      <trkpt lat="48.85871993377805" lon="2.9470299649983644">
        <ele>126.52</ele>
      </trkpt>
      <trkpt lat="48.85872999206185" lon="2.946739951148629">
        <ele>126.07</ele>
      </trkpt>
      <trkpt lat="48.85876997373998" lon="2.946479944512248">
        <ele>125.51</ele>
      </trkpt>
      <trkpt lat="48.85878992266953" lon="2.946189930662513">
        <ele>124.79</ele>
      </trkpt>
      <trkpt lat="48.85876997373998" lon="2.945839986205101">
        <ele>123.85</ele>
      </trkpt>
      <trkpt lat="48.858799980953336" lon="2.9454799834638834">
        <ele>122.82</ele>
      </trkpt>
      <trkpt lat="48.858909951522946" lon="2.944959970191121">
        <ele>121.82</ele>
      </trkpt>
      <trkpt lat="48.859099969267845" lon="2.944219931960106">
        <ele>120.71</ele>
      </trkpt>
      <trkpt lat="48.85919996537268" lon="2.9439299181103706">
        <ele>119.53</ele>
      </trkpt>
      <trkpt lat="48.8593199942261" lon="2.9437399841845036">
        <ele>118.24</ele>
      </trkpt>
      <trkpt lat="48.8596099242568" lon="2.9432799853384495">
        <ele>116.64</ele>
      </trkpt>
      <trkpt lat="48.85951998643577" lon="2.9432299453765154">
        <ele>115.09</ele>
      </trkpt>
      <trkpt lat="48.859359975904226" lon="2.9432199709117413">
        <ele>113.42</ele>
      </trkpt>
      <trkpt lat="48.85897994041443" lon="2.943169930949807">
        <ele>111.51</ele>
      </trkpt>
      <trkpt lat="48.85861993767321" lon="2.9429999459534883">
        <ele>109.45</ele>
      </trkpt>
      <trkpt lat="48.85817997157574" lon="2.942759972065687">
        <ele>107.35</ele>
      </trkpt>
      <trkpt lat="48.85771997272968" lon="2.942489990964532">
        <ele>105.33</ele>
      </trkpt>
      <trkpt lat="48.85734999552369" lon="2.942239958792925">
        <ele>103.27</ele>
      </trkpt>
      <trkpt lat="48.85676996782422" lon="2.9417199455201626">
        <ele>101.02</ele>
      </trkpt>
      <trkpt lat="48.85644994676113" lon="2.941409982740879">
        <ele>99.24</ele>
      </trkpt>
      <trkpt lat="48.85627996176481" lon="2.9412299394607544">
        <ele>97.66</ele>
      </trkpt>
      <trkpt lat="48.856479953974485" lon="2.940959958359599">
        <ele>96.35</ele>
      </trkpt>
      <trkpt lat="48.85672386735678" lon="2.940637171268463">
        <ele>95.21</ele>
      </trkpt>
      <trkpt lat="48.856724202632904" lon="2.9406368359923363">
        <ele>94.19</ele>
      </trkpt>
      <trkpt lat="48.85672437027097" lon="2.9406367521733046">
        <ele>93.33</ele>
      </trkpt>
      <trkpt lat="48.85672445409" lon="2.9406367521733046">
        <ele>92.63</ele>
      </trkpt>
      <trkpt lat="48.856724705547094" lon="2.9406365007162094">
        <ele>92.09</ele>
      </trkpt>
      <trkpt lat="48.856724705547094" lon="2.940636584535241">
        <ele>91.7</ele>
      </trkpt>
      <trkpt lat="48.85672898031771" lon="2.940631052479148">
        <ele>91.44</ele>
      </trkpt>
      <trkpt lat="48.85672931559384" lon="2.940630717203021">
        <ele>91.3</ele>
      </trkpt>
      <trkpt lat="48.856729650869966" lon="2.940630381926894">
        <ele>91.28</ele>
      </trkpt>
      <trkpt lat="48.85672998614609" lon="2.9406299628317356">
        <ele>91.36</ele>
      </trkpt>
      <trkpt lat="48.85712997056544" lon="2.940099975094199">
        <ele>91.5</ele>
      </trkpt>
      <trkpt lat="48.85744999162853" lon="2.9396799579262733">
        <ele>91.62</ele>
      </trkpt>
      <trkpt lat="48.85772994719446" lon="2.939439984038472">
        <ele>91.87</ele>
      </trkpt>
      <trkpt lat="48.858029935508966" lon="2.9392799735069275">
        <ele>92.2</ele>
      </trkpt>
      <trkpt lat="48.85828994214535" lon="2.9392399918287992">
        <ele>92.63</ele>
      </trkpt>
      <trkpt lat="48.85882998816669" lon="2.9392199590802193">
        <ele>93.16</ele>
      </trkpt>
      <trkpt lat="48.858909951522946" lon="2.9392199590802193">
        <ele>93.52</ele>
      </trkpt>
      <trkpt lat="48.8589399587363" lon="2.9392399918287992">
        <ele>93.86</ele>
      </trkpt>
      <trkpt lat="48.85903995484114" lon="2.9394699912518263">
        <ele>94.26</ele>
      </trkpt>
      <trkpt lat="48.85911991819739" lon="2.939609969034791">
        <ele>94.54</ele>
      </trkpt>
      <trkpt lat="48.85916995815933" lon="2.9396299179643393">
        <ele>94.68</ele>
      </trkpt>
      <trkpt lat="48.85923994705081" lon="2.939609969034791">
        <ele>94.7</ele>
      </trkpt>
      <trkpt lat="48.85918999090791" lon="2.9392199590802193">
        <ele>94.42</ele>
      </trkpt>
      <trkpt lat="48.85916082188487" lon="2.9389310348778963">
        <ele>94.1</ele>
      </trkpt>
      <trkpt lat="48.85916082188487" lon="2.938930531963706">
        <ele>93.85</ele>
      </trkpt>
      <trkpt lat="48.85916082188487" lon="2.938930280506611">
        <ele>93.5</ele>
      </trkpt>
      <trkpt lat="48.85916082188487" lon="2.9389301128685474">
        <ele>93.06</ele>
      </trkpt>
      <trkpt lat="48.85916082188487" lon="2.9389295261353254">
        <ele>92.52</ele>
      </trkpt>
      <trkpt lat="48.85915998369455" lon="2.9389212280511856">
        <ele>91.89</ele>
      </trkpt>
      <trkpt lat="48.85915998369455" lon="2.9389206413179636">
        <ele>91.18</ele>
      </trkpt>
      <trkpt lat="48.85915998369455" lon="2.938920222222805">
        <ele>90.39</ele>
      </trkpt>
      <trkpt lat="48.859150344505906" lon="2.9389248322695494">
        <ele>89.53</ele>
      </trkpt>
      <trkpt lat="48.859108686447144" lon="2.9387247562408447">
        <ele>88.48</ele>
      </trkpt>
      <trkpt lat="48.85901221074164" lon="2.9384779930114746">
        <ele>87.35</ele>
      </trkpt>
      <trkpt lat="48.85890483856201" lon="2.9383385181427">
        <ele>86.23</ele>
      </trkpt>
      <trkpt lat="48.85836839675903" lon="2.9384028911590576">
        <ele>84.98</ele>
      </trkpt>
      <trkpt lat="48.85831483639777" lon="2.9383063316345215">
        <ele>83.9</ele>
      </trkpt>
      <trkpt lat="48.8582718372345" lon="2.9382312297821045">
        <ele>82.86</ele>
      </trkpt>
      <trkpt lat="48.858287427574396" lon="2.9381672758609056">
        <ele>81.88</ele>
      </trkpt>
      <trkpt lat="48.85828776285052" lon="2.9381661023944616">
        <ele>80.98</ele>
      </trkpt>
      <trkpt lat="48.85829991661012" lon="2.93803995475173">
        <ele>80.09</ele>
      </trkpt>
      <trkpt lat="48.85839999653399" lon="2.9379199258983135">
        <ele>79.34</ele>
      </trkpt>
      <trkpt lat="48.85868732817471" lon="2.9377255495637655">
        <ele>78.66</ele>
      </trkpt>
      <trkpt lat="48.85873996652663" lon="2.9376899264752865">
        <ele>78.06</ele>
      </trkpt>
      <trkpt lat="48.8589399587363" lon="2.937389938160777">
        <ele>77.47</ele>
      </trkpt>
      <trkpt lat="48.859090246260166" lon="2.9369708430022">
        <ele>76.97</ele>
      </trkpt>
      <trkpt lat="48.8591299764812" lon="2.9368599504232407">
        <ele>76.68</ele>
      </trkpt>
      <trkpt lat="48.85924631729722" lon="2.9364167992025614">
        <ele>76.35</ele>
      </trkpt>
      <trkpt lat="48.859339943155646" lon="2.936059981584549">
        <ele>76.2</ele>
      </trkpt>
      <trkpt lat="48.859359975904226" lon="2.935839956626296">
        <ele>76.26</ele>
      </trkpt>
      <trkpt lat="48.85932996869087" lon="2.9356699716299772">
        <ele>76.47</ele>
      </trkpt>
      <trkpt lat="48.859269954264164" lon="2.9355399683117867">
        <ele>76.85</ele>
      </trkpt>
      <trkpt lat="48.85902998037636" lon="2.9352314304560423">
        <ele>77.58</ele>
      </trkpt>
      <trkpt lat="48.85891992598772" lon="2.9350899439305067">
        <ele>78.28</ele>
      </trkpt>
      <trkpt lat="48.85889997705817" lon="2.9348499700427055">
        <ele>79.0</ele>
      </trkpt>
      <trkpt lat="48.8589087780565" lon="2.9343731235712767">
        <ele>79.68</ele>
      </trkpt>
      <trkpt lat="48.858909951522946" lon="2.9343099240213633">
        <ele>80.25</ele>
      </trkpt>
      <trkpt lat="48.85886175557971" lon="2.9338386096060276">
        <ele>80.92</ele>
      </trkpt>
      <trkpt lat="48.858813643455505" lon="2.9333672113716602">
        <ele>81.51</ele>
      </trkpt>
      <trkpt lat="48.85876997373998" lon="2.932939985767007">
        <ele>81.87</ele>
      </trkpt>
      <trkpt lat="48.8587240409106" lon="2.932468084618449">
        <ele>81.92</ele>
      </trkpt>
      <trkpt lat="48.85867819190025" lon="2.9319961834698915">
        <ele>81.74</ele>
      </trkpt>
      <trkpt lat="48.858632342889905" lon="2.931524282321334">
        <ele>81.72</ele>
      </trkpt>
      <trkpt lat="48.858586410060525" lon="2.931052464991808">
        <ele>81.76</ele>
      </trkpt>
      <trkpt lat="48.8585599232465" lon="2.930779969319701">
        <ele>81.42</ele>
      </trkpt>
      <trkpt lat="48.85847342200577" lon="2.9303213953971863">
        <ele>80.78</ele>
      </trkpt>
      <trkpt lat="48.858459927141666" lon="2.9302499815821648">
        <ele>80.07</ele>
      </trkpt>
      <trkpt lat="48.858352806419134" lon="2.9298014659434557">
        <ele>79.05</ele>
      </trkpt>
      <trkpt lat="48.85824560187757" lon="2.9293530341237783">
        <ele>78.01</ele>
      </trkpt>
      <trkpt lat="48.85818994604051" lon="2.929119933396578">
        <ele>76.93</ele>
      </trkpt>
      <trkpt lat="48.85810914449394" lon="2.928658928722143">
        <ele>75.68</ele>
      </trkpt>
      <trkpt lat="48.858028342947364" lon="2.9281980078667402">
        <ele>74.24</ele>
      </trkpt>
      <trkpt lat="48.85801996104419" lon="2.9281499795615673">
        <ele>72.82</ele>
      </trkpt>
      <trkpt lat="48.85796472430229" lon="2.9276804253458977">
        <ele>70.93</ele>
      </trkpt>
      <trkpt lat="48.857959946617484" lon="2.927639940753579">
        <ele>69.42</ele>
      </trkpt>
      <trkpt lat="48.85798995383084" lon="2.9274499230086803">
        <ele>67.78</ele>
      </trkpt>
      <trkpt lat="48.8580799754709" lon="2.9272899962961674">
        <ele>66.21</ele>
      </trkpt>
      <trkpt lat="48.858219953253865" lon="2.9271299857646227">
        <ele>64.66</ele>
      </trkpt>
      <trkpt lat="48.85825993493199" lon="2.926999982446432">
        <ele>63.3</ele>
      </trkpt>
      <trkpt lat="48.858239986002445" lon="2.9268299974501133">
        <ele>62.06</ele>
      </trkpt>
      <trkpt lat="48.85816739872098" lon="2.926621288061142">
        <ele>61.0</ele>
      </trkpt>
      <trkpt lat="48.85815993882716" lon="2.9265999980270863">
        <ele>60.14</ele>
      </trkpt>
      <trkpt lat="48.858109982684255" lon="2.926509976387024">
        <ele>59.41</ele>
      </trkpt>
      <trkpt lat="48.85787428356707" lon="2.9268260579556227">
        <ele>59.02</ele>
      </trkpt>
      <trkpt lat="48.85766993276775" lon="2.9270999785512686">
        <ele>58.71</ele>
      </trkpt>
      <trkpt lat="48.85759994387627" lon="2.9270399641245604">
        <ele>58.32</ele>
      </trkpt>
      <trkpt lat="48.85739995166659" lon="2.927139960229397">
        <ele>58.13</ele>
      </trkpt>
      <trkpt lat="48.85714028030634" lon="2.92740935459733">
        <ele>58.11</ele>
      </trkpt>
      <trkpt lat="48.85688052512705" lon="2.927678832784295">
        <ele>58.06</ele>
      </trkpt>
      <trkpt lat="48.8566208537668" lon="2.9279482271522284">
        <ele>58.16</ele>
      </trkpt>
      <trkpt lat="48.85636109858751" lon="2.9282176215201616">
        <ele>58.35</ele>
      </trkpt>
      <trkpt lat="48.856329917907715" lon="2.9282499756664038">
        <ele>58.52</ele>
      </trkpt>
      <trkpt lat="48.85606429539621" lon="2.9285056237131357">
        <ele>58.7</ele>
      </trkpt>
      <trkpt lat="48.85579858906567" lon="2.9287612717598677">
        <ele>58.85</ele>
      </trkpt>
      <trkpt lat="48.85553288273513" lon="2.9290169198065996">
        <ele>59.09</ele>
      </trkpt>
      <trkpt lat="48.85526994243264" lon="2.9292699694633484">
        <ele>59.4</ele>
      </trkpt>
      <trkpt lat="48.85517992079258" lon="2.9293099511414766">
        <ele>59.49</ele>
      </trkpt>
      <trkpt lat="48.85499996133149" lon="2.929349932819605">
        <ele>59.48</ele>
      </trkpt>
      <trkpt lat="48.8546987157315" lon="2.929488066583872">
        <ele>59.5</ele>
      </trkpt>
      <trkpt lat="48.85451992973685" lon="2.929569957777858">
        <ele>59.43</ele>
      </trkpt>
      <trkpt lat="48.854289930313826" lon="2.929619997739792">
        <ele>59.26</ele>
      </trkpt>
      <trkpt lat="48.853975692763925" lon="2.9296469036489725">
        <ele>58.92</ele>
      </trkpt>
      <trkpt lat="48.853939985856414" lon="2.9296499211341143">
        <ele>58.76</ele>
      </trkpt>
      <trkpt lat="48.85386999696493" lon="2.929629972204566">
        <ele>58.55</ele>
      </trkpt>
      <trkpt lat="48.85383998975158" lon="2.9295199178159237">
        <ele>58.29</ele>
      </trkpt>
      <trkpt lat="48.85376991704106" lon="2.9294899944216013">
        <ele>58.1</ele>
      </trkpt>
      <trkpt lat="48.85370998643339" lon="2.9295599833130836">
        <ele>57.95</ele>
      </trkpt>
      <trkpt lat="48.85369992814958" lon="2.9296699538826942">
        <ele>57.95</ele>
      </trkpt>
      <trkpt lat="48.85375994257629" lon="2.9297399427741766">
        <ele>57.97</ele>
      </trkpt>
      <trkpt lat="48.853489961475134" lon="2.929889978840947">
        <ele>57.86</ele>
      </trkpt>
      <trkpt lat="48.853487027809024" lon="2.929891152307391">
        <ele>57.8</ele>
      </trkpt>
      <trkpt lat="48.85323992930353" lon="2.9299999494105577">
        <ele>57.75</ele>
      </trkpt>
      <trkpt lat="48.852927619591355" lon="2.9300582874566317">
        <ele>57.6</ele>
      </trkpt>
      <trkpt lat="48.85261522606015" lon="2.930116541683674">
        <ele>57.66</ele>
      </trkpt>
      <trkpt lat="48.85248991660774" lon="2.9301399271935225">
        <ele>57.73</ele>
      </trkpt>
      <trkpt lat="48.852176098152995" lon="2.930174795910716">
        <ele>57.78</ele>
      </trkpt>
      <trkpt lat="48.85194995440543" lon="2.9301999416202307">
        <ele>57.8</ele>
      </trkpt>
      <trkpt lat="48.85163529776037" lon="2.9301912244409323">
        <ele>57.73</ele>
      </trkpt>
      <trkpt lat="48.85158995166421" lon="2.9301899671554565">
        <ele>57.75</ele>
      </trkpt>
      <trkpt lat="48.851277055218816" lon="2.9301390051841736">
        <ele>57.89</ele>
      </trkpt>
      <trkpt lat="48.85115996003151" lon="2.930119978263974">
        <ele>57.96</ele>
      </trkpt>
      <trkpt lat="48.85085259564221" lon="2.9300174675881863">
        <ele>57.97</ele>
      </trkpt>
      <trkpt lat="48.85076995007694" lon="2.9299899749457836">
        <ele>57.95</ele>
      </trkpt>
      <trkpt lat="48.85045738890767" lon="2.929933900013566">
        <ele>58.01</ele>
      </trkpt>
      <trkpt lat="48.850144911557436" lon="2.9298777412623167">
        <ele>58.16</ele>
      </trkpt>
      <trkpt lat="48.849989930167794" lon="2.929849997162819">
        <ele>58.15</ele>
      </trkpt>
      <trkpt lat="48.84967611171305" lon="2.9298150446265936">
        <ele>58.11</ele>
      </trkpt>
      <trkpt lat="48.849449967965484" lon="2.9297899827361107">
        <ele>57.97</ele>
      </trkpt>
      <trkpt lat="48.849138747900724" lon="2.9297188203781843">
        <ele>57.82</ele>
      </trkpt>
      <trkpt lat="48.84909993968904" lon="2.9297099355608225">
        <ele>57.78</ele>
      </trkpt>
      <trkpt lat="48.848795341327786" lon="2.9295899905264378">
        <ele>57.67</ele>
      </trkpt>
      <trkpt lat="48.84849074296653" lon="2.9294699616730213">
        <ele>57.71</ele>
      </trkpt>
      <trkpt lat="48.84843994863331" lon="2.9294499289244413">
        <ele>57.89</ele>
      </trkpt>
      <trkpt lat="48.84815311990678" lon="2.9292537085711956">
        <ele>58.27</ele>
      </trkpt>
      <trkpt lat="48.84786629118025" lon="2.929057404398918">
        <ele>58.77</ele>
      </trkpt>
      <trkpt lat="48.84767996147275" lon="2.9289299994707108">
        <ele>59.23</ele>
      </trkpt>
      <trkpt lat="48.8476771954447" lon="2.92892849072814">
        <ele>59.96</ele>
      </trkpt>
      <trkpt lat="48.84738374501467" lon="2.9287688992917538">
        <ele>60.85</ele>
      </trkpt>
      <trkpt lat="48.847087528556585" lon="2.928607799112797">
        <ele>61.81</ele>
      </trkpt>
      <trkpt lat="48.84679122827947" lon="2.9284467827528715">
        <ele>63.06</ele>
      </trkpt>
      <trkpt lat="48.84664999321103" lon="2.9283699207007885">
        <ele>64.66</ele>
      </trkpt>
      <trkpt lat="48.84656994603574" lon="2.928469916805625">
        <ele>66.61</ele>
      </trkpt>
      <trkpt lat="48.84625621140003" lon="2.9285073839128017">
        <ele>68.99</ele>
      </trkpt>
      <trkpt lat="48.84594247676432" lon="2.9285448510199785">
        <ele>71.53</ele>
      </trkpt>
      <trkpt lat="48.84589998051524" lon="2.928549963980913">
        <ele>73.87</ele>
      </trkpt>
      <trkpt lat="48.84560275822878" lon="2.9287067893892527">
        <ele>76.68</ele>
      </trkpt>
      <trkpt lat="48.845539977774024" lon="2.928739981725812">
        <ele>79.24</ele>
      </trkpt>
      <trkpt lat="48.84561994113028" lon="2.928979955613613">
        <ele>81.87</ele>
      </trkpt>
      <trkpt lat="48.84561994113028" lon="2.9290799517184496">
        <ele>84.48</ele>
      </trkpt>
      <trkpt lat="48.84546076878905" lon="2.929491251707077">
        <ele>87.5</ele>
      </trkpt>
      <trkpt lat="48.84537996724248" lon="2.9296999610960484">
        <ele>90.26</ele>
      </trkpt>
      <trkpt lat="48.845329927280545" lon="2.929809931665659">
        <ele>92.8</ele>
      </trkpt>
      <trkpt lat="48.84513999335468" lon="2.929869946092367">
        <ele>95.32</ele>
      </trkpt>
      <trkpt lat="48.84501996450126" lon="2.929869946092367">
        <ele>97.58</ele>
      </trkpt>
      <trkpt lat="48.844726514071226" lon="2.9296975303441286">
        <ele>99.71</ele>
      </trkpt>
      <trkpt lat="48.84443306364119" lon="2.9295250307768583">
        <ele>101.82</ele>
      </trkpt>
      <trkpt lat="48.84413969703019" lon="2.9293526150286198">
        <ele>103.78</ele>
      </trkpt>
      <trkpt lat="48.8438799418509" lon="2.929199980571866">
        <ele>105.41</ele>
      </trkpt>
      <trkpt lat="48.843877175822854" lon="2.9291980527341366">
        <ele>106.8</ele>
      </trkpt>
      <trkpt lat="48.8435950409621" lon="2.9289972223341465">
        <ele>108.0</ele>
      </trkpt>
      <trkpt lat="48.84335992857814" lon="2.9288299195468426">
        <ele>109.06</ele>
      </trkpt>
      <trkpt lat="48.84309908375144" lon="2.928563207387924">
        <ele>109.85</ele>
      </trkpt>
      <trkpt lat="48.84283823892474" lon="2.928296411409974">
        <ele>110.36</ele>
      </trkpt>
      <trkpt lat="48.84257739409804" lon="2.928029615432024">
        <ele>110.93</ele>
      </trkpt>
      <trkpt lat="48.84247999638319" lon="2.9279299546033144">
        <ele>111.52</ele>
      </trkpt>
      <trkpt lat="48.84226994588971" lon="2.9276899807155132">
        <ele>112.09</ele>
      </trkpt>
      <trkpt lat="48.84213994257152" lon="2.927629966288805">
        <ele>112.46</ele>
      </trkpt>
      <trkpt lat="48.84185059927404" lon="2.9274422954767942">
        <ele>112.7</ele>
      </trkpt>
      <trkpt lat="48.84176996536553" lon="2.927389992401004">
        <ele>112.72</ele>
      </trkpt>
      <trkpt lat="48.84157994762063" lon="2.9272699635475874">
        <ele>112.63</ele>
      </trkpt>
      <trkpt lat="48.84130351245403" lon="2.927042143419385">
        <ele>112.37</ele>
      </trkpt>
      <trkpt lat="48.841026993468404" lon="2.926814239472151">
        <ele>112.03</ele>
      </trkpt>
      <trkpt lat="48.84075055830181" lon="2.9265864193439484">
        <ele>111.6</ele>
      </trkpt>
      <trkpt lat="48.84047412313521" lon="2.926358515396714">
        <ele>111.0</ele>
      </trkpt>
      <trkpt lat="48.84019760414958" lon="2.9261306952685118">
        <ele>110.27</ele>
      </trkpt>
      <trkpt lat="48.83992116898298" lon="2.9259027913212776">
        <ele>109.43</ele>
      </trkpt>
      <trkpt lat="48.839759984984994" lon="2.9257699381560087">
        <ele>108.58</ele>
      </trkpt>
      <trkpt lat="48.83978999219835" lon="2.925659967586398">
        <ele>107.48</ele>
      </trkpt>
      <trkpt lat="48.83979099802673" lon="2.9256556928157806">
        <ele>106.35</ele>
      </trkpt>
      <trkpt lat="48.83990289643407" lon="2.9252148885279894">
        <ele>104.98</ele>
      </trkpt>
      <trkpt lat="48.83995997719467" lon="2.9249899182468653">
        <ele>103.68</ele>
      </trkpt>
      <trkpt lat="48.84006625972688" lon="2.924541151151061">
        <ele>102.21</ele>
      </trkpt>
      <trkpt lat="48.84013993665576" lon="2.924229931086302">
        <ele>100.58</ele>
      </trkpt>
      <trkpt lat="48.8402724545449" lon="2.923797508701682">
        <ele>98.85</ele>
      </trkpt>
      <trkpt lat="48.840405056253076" lon="2.9233650024980307">
        <ele>97.18</ele>
      </trkpt>
      <trkpt lat="48.84051997214556" lon="2.922989996150136">
        <ele>95.64</ele>
      </trkpt>
      <trkpt lat="48.84061980061233" lon="2.9225377924740314">
        <ele>94.12</ele>
      </trkpt>
      <trkpt lat="48.840689957141876" lon="2.9222199507057667">
        <ele>92.55</ele>
      </trkpt>
      <trkpt lat="48.84078869596124" lon="2.921767244115472">
        <ele>91.01</ele>
      </trkpt>
      <trkpt lat="48.84080998599529" lon="2.9216699302196503">
        <ele>89.69</ele>
      </trkpt>
      <trkpt lat="48.84094703011215" lon="2.9212407767772675">
        <ele>88.31</ele>
      </trkpt>
      <trkpt lat="48.84103998541832" lon="2.920949924737215">
        <ele>87.1</ele>
      </trkpt>
      <trkpt lat="48.84130535647273" lon="2.9212062433362007">
        <ele>85.98</ele>
      </trkpt>
      <trkpt lat="48.841329999268055" lon="2.921229964122176">
        <ele>85.02</ele>
      </trkpt>
      <trkpt lat="48.8413311727345" lon="2.921225856989622">
        <ele>84.15</ele>
      </trkpt>
      <trkpt lat="48.84133217856288" lon="2.921222923323512">
        <ele>83.35</ele>
      </trkpt>
      <trkpt lat="48.84133226238191" lon="2.921223007142544">
        <ele>82.6</ele>
      </trkpt>
      <trkpt lat="48.84133268147707" lon="2.9212234262377024">
        <ele>81.89</ele>
      </trkpt>
      <trkpt lat="48.84133754298091" lon="2.9212277848273516">
        <ele>81.2</ele>
      </trkpt>
      <trkpt lat="48.84133838117123" lon="2.921228539198637">
        <ele>80.52</ele>
      </trkpt>
      <trkpt lat="48.84133905172348" lon="2.921229125931859">
        <ele>79.83</ele>
      </trkpt>
      <trkpt lat="48.84133997373283" lon="2.921229964122176">
        <ele>79.11</ele>
      </trkpt>
      <trkpt lat="48.84157994762063" lon="2.921429956331849">
        <ele>78.21</ele>
      </trkpt>
      <trkpt lat="48.84176996536553" lon="2.921649981290102">
        <ele>77.3</ele>
      </trkpt>
      <trkpt lat="48.84198999032378" lon="2.9220099840313196">
        <ele>76.48</ele>
      </trkpt>
      <trkpt lat="48.84232996031642" lon="2.922729989513755">
        <ele>75.6</ele>
      </trkpt>
      <trkpt lat="48.842429956421256" lon="2.9229299817234278">
        <ele>74.58</ele>
      </trkpt>
      <trkpt lat="48.84252995252609" lon="2.92297993786633">
        <ele>73.42</ele>
      </trkpt>
      <trkpt lat="48.84260999970138" lon="2.92299997061491">
        <ele>72.21</ele>
      </trkpt>
      <trkpt lat="48.84273991920054" lon="2.922969963401556">
        <ele>70.89</ele>
      </trkpt>
      <trkpt lat="48.84279993362725" lon="2.922969963401556">
        <ele>69.63</ele>
      </trkpt>
      <trkpt lat="48.843029933050275" lon="2.922949930652976">
        <ele>68.22</ele>
      </trkpt>
      <trkpt lat="48.84331994690001" lon="2.922959988936782">
        <ele>66.75</ele>
      </trkpt>
      <trkpt lat="48.843739964067936" lon="2.922989996150136">
        <ele>65.19</ele>
      </trkpt>
      <trkpt lat="48.843799978494644" lon="2.922949930652976">
        <ele>63.97</ele>
      </trkpt>
      <trkpt lat="48.843829985708" lon="2.9229299817234278">
        <ele>62.84</ele>
      </trkpt>
      <trkpt lat="48.84378992021084" lon="2.922539971768856">
        <ele>61.84</ele>
      </trkpt>
      <trkpt lat="48.84359998628497" lon="2.920979931950569">
        <ele>60.78</ele>
      </trkpt>
      <trkpt lat="48.84354994632304" lon="2.9202099703252316">
        <ele>59.88</ele>
      </trkpt>
      <trkpt lat="48.84355933405459" lon="2.919499771669507">
        <ele>59.02</ele>
      </trkpt>
      <trkpt lat="48.84355941787362" lon="2.9194986820220947">
        <ele>58.34</ele>
      </trkpt>
      <trkpt lat="48.84355950169265" lon="2.919498346745968">
        <ele>57.74</ele>
      </trkpt>
      <trkpt lat="48.843559585511684" lon="2.9194981791079044">
        <ele>57.24</ele>
      </trkpt>
      <trkpt lat="48.843559669330716" lon="2.919497424736619">
        <ele>56.82</ele>
      </trkpt>
      <trkpt lat="48.84355975314975" lon="2.919497424736619">
        <ele>56.48</ele>
      </trkpt>
      <trkpt lat="48.84355992078781" lon="2.919488875195384">
        <ele>56.22</ele>
      </trkpt>
      <trkpt lat="48.84355992078781" lon="2.9194890428334475">
        <ele>56.03</ele>
      </trkpt>
      <trkpt lat="48.84355992078781" lon="2.919489713385701">
        <ele>55.89</ele>
      </trkpt>
      <trkpt lat="48.84355992078781" lon="2.9194899648427963">
        <ele>55.81</ele>
      </trkpt>
      <trkpt lat="48.84359998628497" lon="2.917819954454899">
        <ele>55.75</ele>
      </trkpt>
      <trkpt lat="48.84361993521452" lon="2.916999952867627">
        <ele>55.6</ele>
      </trkpt>
      <trkpt lat="48.843629993498325" lon="2.9161799512803555">
        <ele>55.58</ele>
      </trkpt>
      <trkpt lat="48.84351993910968" lon="2.916129995137453">
        <ele>55.7</ele>
      </trkpt>
      <trkpt lat="48.84338993579149" lon="2.916059922426939">
        <ele>55.87</ele>
      </trkpt>
      <trkpt lat="48.84299992583692" lon="2.9158099740743637">
        <ele>56.16</ele>
      </trkpt>
      <trkpt lat="48.84283999912441" lon="2.915679970756173">
        <ele>56.36</ele>
      </trkpt>
      <trkpt lat="48.842809991911054" lon="2.9155799746513367">
        <ele>56.48</ele>
      </trkpt>
      <trkpt lat="48.8427799846977" lon="2.9153299424797297">
        <ele>56.55</ele>
      </trkpt>
      <trkpt lat="48.84279993362725" lon="2.9151099175214767">
        <ele>56.64</ele>
      </trkpt>
      <trkpt lat="48.84283832274377" lon="2.9146735556423664">
        <ele>56.63</ele>
      </trkpt>
      <trkpt lat="48.84283857420087" lon="2.914671627804637">
        <ele>56.69</ele>
      </trkpt>
      <trkpt lat="48.8428386580199" lon="2.91467129252851">
        <ele>56.74</ele>
      </trkpt>
      <trkpt lat="48.84283874183893" lon="2.9146711248904467">
        <ele>56.77</ele>
      </trkpt>
      <trkpt lat="48.842838825657964" lon="2.9146702867001295">
        <ele>56.78</ele>
      </trkpt>
      <trkpt lat="48.842838909476995" lon="2.9146702867001295">
        <ele>56.76</ele>
      </trkpt>
      <trkpt lat="48.84283974766731" lon="2.9146614018827677">
        <ele>56.71</ele>
      </trkpt>
      <trkpt lat="48.842839831486344" lon="2.914660731330514">
        <ele>56.64</ele>
      </trkpt>
      <trkpt lat="48.842839915305376" lon="2.914660479873419">
        <ele>56.55</ele>
      </trkpt>
      <trkpt lat="48.84283999912441" lon="2.9146599769592285">
        <ele>56.43</ele>
      </trkpt>
      <trkpt lat="48.8428299408406" lon="2.914529973641038">
        <ele>56.25</ele>
      </trkpt>
      <trkpt lat="48.8428299408406" lon="2.914499966427684">
        <ele>56.08</ele>
      </trkpt>
      <trkpt lat="48.842879980802536" lon="2.9143899958580732">
        <ele>55.89</ele>
      </trkpt>
      <trkpt lat="48.84295994415879" lon="2.9141799453645945">
        <ele>55.69</ele>
      </trkpt>
      <trkpt lat="48.8430199585855" lon="2.914129989221692">
        <ele>55.46</ele>
      </trkpt>
      <trkpt lat="48.84327996522188" lon="2.9141799453645945">
        <ele>55.18</ele>
      </trkpt>
      <trkpt lat="48.843759996816516" lon="2.9142199270427227">
        <ele>54.89</ele>
      </trkpt>
      <trkpt lat="48.843779945746064" lon="2.9139599204063416">
        <ele>54.62</ele>
      </trkpt>
      <trkpt lat="48.843799978494644" lon="2.9139399714767933">
        <ele>54.36</ele>
      </trkpt>
      <trkpt lat="48.84417993016541" lon="2.913909964263439">
        <ele>54.03</ele>
      </trkpt>
      <trkpt lat="48.84436751715839" lon="2.9138533025979996">
        <ele>53.78</ele>
      </trkpt>
      <trkpt lat="48.84436961263418" lon="2.9138527158647776">
        <ele>53.54</ele>
      </trkpt>
      <trkpt lat="48.84436986409128" lon="2.9138527158647776">
        <ele>53.32</ele>
      </trkpt>
      <trkpt lat="48.84436994791031" lon="2.9138527158647776">
        <ele>53.12</ele>
      </trkpt>
      <trkpt lat="48.84437061846256" lon="2.913852548226714">
        <ele>52.94</ele>
      </trkpt>
      <trkpt lat="48.84437061846256" lon="2.9138524644076824">
        <ele>52.78</ele>
      </trkpt>
      <trkpt lat="48.84437640197575" lon="2.91385087184608">
        <ele>52.64</ele>
      </trkpt>
      <trkpt lat="48.84437765926123" lon="2.913850536569953">
        <ele>52.53</ele>
      </trkpt>
      <trkpt lat="48.844378581270576" lon="2.913850285112858">
        <ele>52.46</ele>
      </trkpt>
      <trkpt lat="48.84437992237508" lon="2.913849949836731">
        <ele>52.41</ele>
      </trkpt>
      <trkpt lat="48.8444499950856" lon="2.913819942623377">
        <ele>52.39</ele>
      </trkpt>
      <trkpt lat="48.84445996955037" lon="2.9137999936938286">
        <ele>52.42</ele>
      </trkpt>
      <trkpt lat="48.84440992958844" lon="2.912929952144623">
        <ele>52.57</ele>
      </trkpt>
      <trkpt lat="48.84477999061346" lon="2.912759967148304">
        <ele>52.51</ele>
      </trkpt>
      <trkpt lat="48.84500999003649" lon="2.9126699455082417">
        <ele>52.66</ele>
      </trkpt>
      <trkpt lat="48.84507997892797" lon="2.9126599710434675">
        <ele>52.89</ele>
      </trkpt>
      <trkpt lat="48.84520998224616" lon="2.91270992718637">
        <ele>53.15</ele>
      </trkpt>
      <trkpt lat="48.84531995281577" lon="2.9127999488264322">
        <ele>53.46</ele>
      </trkpt>
      <trkpt lat="48.84561994113028" lon="2.9130799882113934">
        <ele>53.83</ele>
      </trkpt>
      <trkpt lat="48.8457399699837" lon="2.91313991881907">
        <ele>54.24</ele>
      </trkpt>
      <trkpt lat="48.845909954980016" lon="2.91315995156765">
        <ele>54.7</ele>
      </trkpt>
      <trkpt lat="48.84604993276298" lon="2.9131199698895216">
        <ele>55.21</ele>
      </trkpt>
      <trkpt lat="48.84617993608117" lon="2.9130499809980392">
        <ele>55.77</ele>
      </trkpt>
      <trkpt lat="48.846339946612716" lon="2.912979992106557">
        <ele>56.46</ele>
      </trkpt>
      <trkpt lat="48.8464099355042" lon="2.912939926609397">
        <ele>57.0</ele>
      </trkpt>
      <trkpt lat="48.84645997546613" lon="2.91313991881907">
        <ele>57.36</ele>
      </trkpt>
      <trkpt lat="48.84649668820202" lon="2.9133435152471066">
        <ele>57.72</ele>
      </trkpt>
      <trkpt lat="48.846497191116214" lon="2.9133461136370897">
        <ele>58.04</ele>
      </trkpt>
      <trkpt lat="48.846497274935246" lon="2.9133464489132166">
        <ele>58.32</ele>
      </trkpt>
      <trkpt lat="48.84649735875428" lon="2.91334661655128">
        <ele>58.55</ele>
      </trkpt>
      <trkpt lat="48.84649761021137" lon="2.9133476223796606">
        <ele>58.74</ele>
      </trkpt>
      <trkpt lat="48.846499202772975" lon="2.9133561719208956">
        <ele>58.89</ele>
      </trkpt>
      <trkpt lat="48.84649945423007" lon="2.9133575968444347">
        <ele>59.0</ele>
      </trkpt>
      <trkpt lat="48.84649962186813" lon="2.913358435034752">
        <ele>59.07</ele>
      </trkpt>
      <trkpt lat="48.84649995714426" lon="2.9133599437773228">
        <ele>59.12</ele>
      </trkpt>
      <trkpt lat="48.846512362360954" lon="2.913354579359293">
        <ele>59.16</ele>
      </trkpt>
      <trkpt lat="48.84670279920101" lon="2.9143723100423813">
        <ele>59.13</ele>
      </trkpt>
      <trkpt lat="48.846702966839075" lon="2.9143728967756033">
        <ele>59.14</ele>
      </trkpt>
      <trkpt lat="48.84670305065811" lon="2.914373315870762">
        <ele>59.15</ele>
      </trkpt>
      <trkpt lat="48.84670313447714" lon="2.9143733996897936">
        <ele>59.18</ele>
      </trkpt>
      <trkpt lat="48.846703385934234" lon="2.914374405518174">
        <ele>59.23</ele>
      </trkpt>
      <trkpt lat="48.84670506231487" lon="2.914382955059409">
        <ele>59.32</ele>
      </trkpt>
      <trkpt lat="48.846704978495836" lon="2.914382368326187">
        <ele>59.44</ele>
      </trkpt>
      <trkpt lat="48.84670992381871" lon="2.9143799375742674">
        <ele>59.61</ele>
      </trkpt>
      <trkpt lat="48.84678276255727" lon="2.914843875914812">
        <ele>59.83</ele>
      </trkpt>
      <trkpt lat="48.8468555174768" lon="2.915307814255357">
        <ele>60.08</ele>
      </trkpt>
      <trkpt lat="48.846928272396326" lon="2.9157717525959015">
        <ele>60.42</ele>
      </trkpt>
      <trkpt lat="48.84694998152554" lon="2.9159099701792">
        <ele>60.84</ele>
      </trkpt>
      <trkpt lat="48.84701292961836" lon="2.9163771774619818">
        <ele>61.31</ele>
      </trkpt>
      <trkpt lat="48.847069926559925" lon="2.916799960657954">
        <ele>61.9</ele>
      </trkpt>
      <trkpt lat="48.84713999927044" lon="2.9172399267554283">
        <ele>62.51</ele>
      </trkpt>
      <trkpt lat="48.847219962626696" lon="2.917569922283292">
        <ele>63.22</ele>
      </trkpt>
      <trkpt lat="48.847381230443716" lon="2.9179794620722532">
        <ele>64.09</ele>
      </trkpt>
      <trkpt lat="48.847542414441705" lon="2.9183890018612146">
        <ele>64.92</ele>
      </trkpt>
      <trkpt lat="48.847703682258725" lon="2.918798541650176">
        <ele>65.59</ele>
      </trkpt>
      <trkpt lat="48.84771994315088" lon="2.9188399482518435">
        <ele>66.32</ele>
      </trkpt>
      <trkpt lat="48.847894286736846" lon="2.9192369990050793">
        <ele>67.12</ele>
      </trkpt>
      <trkpt lat="48.847899986431" lon="2.919249990954995">
        <ele>67.85</ele>
      </trkpt>
      <trkpt lat="48.84798992425203" lon="2.9193799942731857">
        <ele>68.58</ele>
      </trkpt>
      <trkpt lat="48.84826686233282" lon="2.9196065571159124">
        <ele>69.39</ele>
      </trkpt>
      <trkpt lat="48.8483199197799" lon="2.919649975374341">
        <ele>70.08</ele>
      </trkpt>
      <trkpt lat="48.84843994863331" lon="2.9197299387305975">
        <ele>70.77</ele>
      </trkpt>
      <trkpt lat="48.8485199958086" lon="2.919829934835434">
        <ele>71.37</ele>
      </trkpt>
      <trkpt lat="48.84860993362963" lon="2.9199299309402704">
        <ele>71.94</ele>
      </trkpt>
      <trkpt lat="48.848871449008584" lon="2.9201953019946814">
        <ele>72.5</ele>
      </trkpt>
      <trkpt lat="48.849132964387536" lon="2.9204606730490923">
        <ele>73.0</ele>
      </trkpt>
      <trkpt lat="48.84928995743394" lon="2.9206199292093515">
        <ele>73.4</ele>
      </trkpt>
      <trkpt lat="48.84956915862858" lon="2.9208399541676044">
        <ele>73.7</ele>
      </trkpt>
      <trkpt lat="48.8496199529618" lon="2.9208799358457327">
        <ele>73.91</ele>
      </trkpt>
      <trkpt lat="48.849905859678984" lon="2.921079257503152">
        <ele>74.02</ele>
      </trkpt>
      <trkpt lat="48.8501918502152" lon="2.9212784953415394">
        <ele>73.99</ele>
      </trkpt>
      <trkpt lat="48.85026963427663" lon="2.9213326424360275">
        <ele>73.91</ele>
      </trkpt>
      <trkpt lat="48.85027164593339" lon="2.9213340673595667">
        <ele>73.74</ele>
      </trkpt>
      <trkpt lat="48.850271897390485" lon="2.92133423499763">
        <ele>73.47</ele>
      </trkpt>
      <trkpt lat="48.85027198120952" lon="2.921334318816662">
        <ele>73.11</ele>
      </trkpt>
      <trkpt lat="48.85027265176177" lon="2.921334821730852">
        <ele>72.65</ele>
      </trkpt>
      <trkpt lat="48.850278686732054" lon="2.921339012682438">
        <ele>72.08</ele>
      </trkpt>
      <trkpt lat="48.85027994401753" lon="2.9213399346917868">
        <ele>71.42</ele>
      </trkpt>
      <trkpt lat="48.85056769475341" lon="2.9215332213789225">
        <ele>70.63</ele>
      </trkpt>
      <trkpt lat="48.85085544548929" lon="2.9217264242470264">
        <ele>69.73</ele>
      </trkpt>
      <trkpt lat="48.851143196225166" lon="2.921919710934162">
        <ele>68.72</ele>
      </trkpt>
      <trkpt lat="48.85143086314201" lon="2.922112913802266">
        <ele>67.62</ele>
      </trkpt>
      <trkpt lat="48.85171861387789" lon="2.92230611667037">
        <ele>66.48</ele>
      </trkpt>
      <trkpt lat="48.85200636461377" lon="2.922499403357506">
        <ele>65.27</ele>
      </trkpt>
      <trkpt lat="48.85229411534965" lon="2.92269260622561">
        <ele>64.03</ele>
      </trkpt>
      <trkpt lat="48.85258186608553" lon="2.9228858929127455">
        <ele>62.77</ele>
      </trkpt>
      <trkpt lat="48.85286961682141" lon="2.9230790957808495">
        <ele>61.58</ele>
      </trkpt>
      <trkpt lat="48.85298998095095" lon="2.923159981146455">
        <ele>60.47</ele>
      </trkpt>
      <trkpt lat="48.85327756404877" lon="2.923353686928749">
        <ele>59.31</ele>
      </trkpt>
      <trkpt lat="48.85347998701036" lon="2.9234899766743183">
        <ele>58.18</ele>
      </trkpt>
      <trkpt lat="48.85345995426178" lon="2.923819972202182">
        <ele>57.07</ele>
      </trkpt>
      <trkpt lat="48.85343078523874" lon="2.9242948070168495">
        <ele>55.97</ele>
      </trkpt>
      <trkpt lat="48.853401616215706" lon="2.924769725650549">
        <ele>54.92</ele>
      </trkpt>
      <trkpt lat="48.8533899653703" lon="2.924959994852543">
        <ele>54.03</ele>
      </trkpt>
      <trkpt lat="48.85340756736696" lon="2.925436170771718">
        <ele>53.21</ele>
      </trkpt>
      <trkpt lat="48.85340999811888" lon="2.9254999570548534">
        <ele>52.51</ele>
      </trkpt>
      <trkpt lat="48.85339993983507" lon="2.9256899747997522">
        <ele>51.86</ele>
      </trkpt>
      <trkpt lat="48.85334998369217" lon="2.9259199742227793">
        <ele>51.33</ele>
      </trkpt>
      <trkpt lat="48.8532604649663" lon="2.9263772070407867">
        <ele>50.82</ele>
      </trkpt>
      <trkpt lat="48.85325996205211" lon="2.9263799730688334">
        <ele>50.46</ele>
      </trkpt>
      <trkpt lat="48.85321998037398" lon="2.926719943061471">
        <ele>50.18</ele>
      </trkpt>
      <trkpt lat="48.85322827845812" lon="2.9268058575689793">
        <ele>49.97</ele>
      </trkpt>
      <trkpt lat="48.853228613734245" lon="2.9268089588731527">
        <ele>49.82</ele>
      </trkpt>
      <trkpt lat="48.85322869755328" lon="2.926809461787343">
        <ele>49.73</ele>
      </trkpt>
      <trkpt lat="48.85322878137231" lon="2.9268095456063747">
        <ele>49.69</ele>
      </trkpt>
      <trkpt lat="48.85322894901037" lon="2.926810635253787">
        <ele>49.69</ele>
      </trkpt>
      <trkpt lat="48.85322995483875" lon="2.9268199391663074">
        <ele>49.73</ele>
      </trkpt>
      <trkpt lat="48.853229619562626" lon="2.926820022985339">
        <ele>49.79</ele>
      </trkpt>
      <trkpt lat="48.85322827845812" lon="2.9268208611756563">
        <ele>49.88</ele>
      </trkpt>
      <trkpt lat="48.853229619562626" lon="2.926820106804371">
        <ele>49.98</ele>
      </trkpt>
      <trkpt lat="48.85323179885745" lon="2.9268187656998634">
        <ele>50.09</ele>
      </trkpt>
      <trkpt lat="48.854824947193265" lon="2.9269280657172203">
        <ele>50.24</ele>
      </trkpt>
      <trkpt lat="48.85482754558325" lon="2.9269283171743155">
        <ele>50.35</ele>
      </trkpt>
      <trkpt lat="48.85482796467841" lon="2.926928400993347">
        <ele>50.45</ele>
      </trkpt>
      <trkpt lat="48.85482813231647" lon="2.926928400993347">
        <ele>50.53</ele>
      </trkpt>
      <trkpt lat="48.85482871904969" lon="2.926928484812379">
        <ele>50.61</ele>
      </trkpt>
      <trkpt lat="48.85482897050679" lon="2.926928484812379">
        <ele>50.67</ele>
      </trkpt>
      <trkpt lat="48.8548353407532" lon="2.926928987726569">
        <ele>50.7</ele>
      </trkpt>
      <trkpt lat="48.854837184771895" lon="2.9269291553646326">
        <ele>50.73</ele>
      </trkpt>
      <trkpt lat="48.85483902879059" lon="2.926929323002696">
        <ele>50.73</ele>
      </trkpt>
      <trkpt lat="48.854842046275735" lon="2.926929574459791">
        <ele>50.72</ele>
      </trkpt>
      <trkpt lat="48.85537681169808" lon="2.9266575817018747">
        <ele>50.6</ele>
      </trkpt>
      <trkpt lat="48.855378990992904" lon="2.926656575873494">
        <ele>50.56</ele>
      </trkpt>
      <trkpt lat="48.85537932626903" lon="2.9266564920544624">
        <ele>50.53</ele>
      </trkpt>
      <trkpt lat="48.855379493907094" lon="2.9266564920544624">
        <ele>50.48</ele>
      </trkpt>
      <trkpt lat="48.85538016445935" lon="2.9266562405973673">
        <ele>50.44</ele>
      </trkpt>
      <trkpt lat="48.85538016445935" lon="2.926656324416399">
        <ele>50.4</ele>
      </trkpt>
      <trkpt lat="48.85538661852479" lon="2.926653139293194">
        <ele>50.35</ele>
      </trkpt>
      <trkpt lat="48.85538804344833" lon="2.92665246874094">
        <ele>50.32</ele>
      </trkpt>
      <trkpt lat="48.85538963600993" lon="2.9266517143696547">
        <ele>50.29</ele>
      </trkpt>
      <trkpt lat="48.85539215058088" lon="2.926650457084179">
        <ele>50.26</ele>
      </trkpt>
      <trkpt lat="48.855686355382204" lon="2.9261184576898813">
        <ele>50.25</ele>
      </trkpt>
      <trkpt lat="48.85568752884865" lon="2.926116529852152">
        <ele>50.24</ele>
      </trkpt>
      <trkpt lat="48.85568778030574" lon="2.926116194576025">
        <ele>50.24</ele>
      </trkpt>
      <trkpt lat="48.855687864124775" lon="2.9261161107569933">
        <ele>50.24</ele>
      </trkpt>
      <trkpt lat="48.855688367038965" lon="2.926115272566676">
        <ele>50.26</ele>
      </trkpt>
      <trkpt lat="48.855688450858" lon="2.926115272566676">
        <ele>50.27</ele>
      </trkpt>
      <trkpt lat="48.855692809447646" lon="2.9261074773967266">
        <ele>50.3</ele>
      </trkpt>
      <trkpt lat="48.8556934799999" lon="2.926106471568346">
        <ele>50.33</ele>
      </trkpt>
      <trkpt lat="48.855694150552154" lon="2.9261053819209337">
        <ele>50.37</ele>
      </trkpt>
      <trkpt lat="48.85569549165666" lon="2.9261030349880457">
        <ele>50.4</ele>
      </trkpt>
      <trkpt lat="48.85556993074715" lon="2.925097458064556">
        <ele>50.48</ele>
      </trkpt>
      <trkpt lat="48.85556984692812" lon="2.9250964522361755">
        <ele>50.52</ele>
      </trkpt>
      <trkpt lat="48.85556984692812" lon="2.9250958655029535">
        <ele>50.55</ele>
      </trkpt>
      <trkpt lat="48.85556984692812" lon="2.92509569786489">
        <ele>50.58</ele>
      </trkpt>
      <trkpt lat="48.85556976310909" lon="2.925094524398446">
        <ele>50.61</ele>
      </trkpt>
      <trkpt lat="48.85556850582361" lon="2.9250843822956085">
        <ele>50.63</ele>
      </trkpt>
      <trkpt lat="48.855568589642644" lon="2.9250846337527037">
        <ele>50.64</ele>
      </trkpt>
      <trkpt lat="48.855568673461676" lon="2.9250847175717354">
        <ele>50.64</ele>
      </trkpt>
      <trkpt lat="48.85556850582361" lon="2.925083292648196">
        <ele>50.64</ele>
      </trkpt>
      <trkpt lat="48.855784675106406" lon="2.924660677090287">
        <ele>50.6</ele>
      </trkpt>
      <trkpt lat="48.85578593239188" lon="2.924658413976431">
        <ele>50.58</ele>
      </trkpt>
      <trkpt lat="48.85578618384898" lon="2.924658078700304">
        <ele>50.55</ele>
      </trkpt>
      <trkpt lat="48.85578635148704" lon="2.9246579110622406">
        <ele>50.51</ele>
      </trkpt>
      <trkpt lat="48.85578685440123" lon="2.9246569890528917">
        <ele>50.46</ele>
      </trkpt>
      <trkpt lat="48.85578685440123" lon="2.9246570728719234">
        <ele>50.41</ele>
      </trkpt>
      <trkpt lat="48.85579129680991" lon="2.9246485233306885">
        <ele>50.34</ele>
      </trkpt>
      <trkpt lat="48.8557920511812" lon="2.924647182226181">
        <ele>50.27</ele>
      </trkpt>
      <trkpt lat="48.85579280555248" lon="2.9246458411216736">
        <ele>50.19</ele>
      </trkpt>
      <trkpt lat="48.85579423047602" lon="2.9246432427316904">
        <ele>50.11</ele>
      </trkpt>
      <trkpt lat="48.85601710528135" lon="2.923378413543105">
        <ele>49.97</ele>
      </trkpt>
      <trkpt lat="48.856017272919416" lon="2.923377826809883">
        <ele>49.87</ele>
      </trkpt>
      <trkpt lat="48.85601744055748" lon="2.923377323895693">
        <ele>49.77</ele>
      </trkpt>
      <trkpt lat="48.85601752437651" lon="2.9233771562576294">
        <ele>49.66</ele>
      </trkpt>
      <trkpt lat="48.85601777583361" lon="2.9233758989721537">
        <ele>49.56</ele>
      </trkpt>
      <trkpt lat="48.85601785965264" lon="2.9233758989721537">
        <ele>49.45</ele>
      </trkpt>
      <trkpt lat="48.85601978749037" lon="2.9233654215931892">
        <ele>49.34</ele>
      </trkpt>
      <trkpt lat="48.856019703671336" lon="2.923366092145443">
        <ele>49.23</ele>
      </trkpt>
      <trkpt lat="48.856019619852304" lon="2.9233667626976967">
        <ele>49.12</ele>
      </trkpt>
      <trkpt lat="48.8560198713094" lon="2.923365840688348">
        <ele>49.01</ele>
      </trkpt>
      <trkpt lat="48.85656779631972" lon="2.9224044363945723">
        <ele>48.82</ele>
      </trkpt>
      <trkpt lat="48.85656871832907" lon="2.9224028438329697">
        <ele>48.73</ele>
      </trkpt>
      <trkpt lat="48.8565690536052" lon="2.922402424737811">
        <ele>48.65</ele>
      </trkpt>
      <trkpt lat="48.85656913742423" lon="2.9224023409187794">
        <ele>48.59</ele>
      </trkpt>
      <trkpt lat="48.856569807976484" lon="2.922401335090399">
        <ele>48.54</ele>
      </trkpt>
      <trkpt lat="48.856569891795516" lon="2.922401335090399">
        <ele>48.5</ele>
      </trkpt>
      <trkpt lat="48.856575172394514" lon="2.92239211499691">
        <ele>48.48</ele>
      </trkpt>
      <trkpt lat="48.85657559148967" lon="2.9223914444446564">
        <ele>48.47</ele>
      </trkpt>
      <trkpt lat="48.85657601058483" lon="2.9223908577114344">
        <ele>48.47</ele>
      </trkpt>
      <trkpt lat="48.85657710023224" lon="2.9223890136927366">
        <ele>48.48</ele>
      </trkpt>
      <trkpt lat="48.85713265277445" lon="2.9222730081528425">
        <ele>48.58</ele>
      </trkpt>
      <trkpt lat="48.8571354188025" lon="2.9222725052386522">
        <ele>48.61</ele>
      </trkpt>
      <trkpt lat="48.85713575407863" lon="2.9222725052386522">
        <ele>48.64</ele>
      </trkpt>
      <trkpt lat="48.85713592171669" lon="2.9222725052386522">
        <ele>48.67</ele>
      </trkpt>
      <trkpt lat="48.85713692754507" lon="2.922272337600589">
        <ele>48.71</ele>
      </trkpt>
      <trkpt lat="48.85713692754507" lon="2.922272253781557">
        <ele>48.75</ele>
      </trkpt>
      <trkpt lat="48.857144974172115" lon="2.9222706612199545">
        <ele>48.79</ele>
      </trkpt>
      <trkpt lat="48.857146902009845" lon="2.9222703259438276">
        <ele>48.84</ele>
      </trkpt>
      <trkpt lat="48.857148829847574" lon="2.9222699906677008">
        <ele>48.89</ele>
      </trkpt>
      <trkpt lat="48.857151847332716" lon="2.9222694039344788">
        <ele>48.94</ele>
      </trkpt>
      <trkpt lat="48.85758535936475" lon="2.9206821229308844">
        <ele>48.97</ele>
      </trkpt>
      <trkpt lat="48.85758544318378" lon="2.920681955292821">
        <ele>49.03</ele>
      </trkpt>
      <trkpt lat="48.85758561082184" lon="2.9206814523786306">
        <ele>49.11</ele>
      </trkpt>
      <trkpt lat="48.857585694640875" lon="2.920681284740567">
        <ele>49.19</ele>
      </trkpt>
      <trkpt lat="48.85758611373603" lon="2.920679859817028">
        <ele>49.28</ele>
      </trkpt>
      <trkpt lat="48.857586197555065" lon="2.920679859817028">
        <ele>49.38</ele>
      </trkpt>
      <trkpt lat="48.85758938267827" lon="2.9206685442477465">
        <ele>49.5</ele>
      </trkpt>
      <trkpt lat="48.857589131221175" lon="2.920669550076127">
        <ele>49.62</ele>
      </trkpt>
      <trkpt lat="48.85758887976408" lon="2.9206706397235394">
        <ele>49.76</ele>
      </trkpt>
      <trkpt lat="48.85758904740214" lon="2.920670136809349">
        <ele>49.89</ele>
      </trkpt>
      <trkpt lat="48.85783237405121" lon="2.9193505737930536">
        <ele>50.18</ele>
      </trkpt>
      <trkpt lat="48.85783254168928" lon="2.919349819421768">
        <ele>50.32</ele>
      </trkpt>
      <trkpt lat="48.85783270932734" lon="2.919349316507578">
        <ele>50.45</ele>
      </trkpt>
      <trkpt lat="48.85783279314637" lon="2.9193491488695145">
        <ele>50.57</ele>
      </trkpt>
      <trkpt lat="48.8578331284225" lon="2.919347556307912">
        <ele>50.69</ele>
      </trkpt>
      <trkpt lat="48.85783321224153" lon="2.919347556307912">
        <ele>50.8</ele>
      </trkpt>
      <trkpt lat="48.857835810631514" lon="2.919333642348647">
        <ele>50.9</ele>
      </trkpt>
      <trkpt lat="48.85783572681248" lon="2.9193341452628374">
        <ele>50.99</ele>
      </trkpt>
      <trkpt lat="48.85783564299345" lon="2.919334815815091">
        <ele>51.07</ele>
      </trkpt>
      <trkpt lat="48.857835894450545" lon="2.919333726167679">
        <ele>51.13</ele>
      </trkpt>
      <trkpt lat="48.85790169239044" lon="2.9191007930785418">
        <ele>51.19</ele>
      </trkpt>
      <trkpt lat="48.857902782037854" lon="2.9190972726792097">
        <ele>51.24</ele>
      </trkpt>
      <trkpt lat="48.85790294967592" lon="2.9190967697650194">
        <ele>51.28</ele>
      </trkpt>
      <trkpt lat="48.85790303349495" lon="2.919096602126956">
        <ele>51.31</ele>
      </trkpt>
      <trkpt lat="48.85790353640914" lon="2.919095093384385">
        <ele>51.34</ele>
      </trkpt>
      <trkpt lat="48.85790362022817" lon="2.919095093384385">
        <ele>51.35</ele>
      </trkpt>
      <trkpt lat="48.857907727360725" lon="2.9190808441489935">
        <ele>51.36</ele>
      </trkpt>
      <trkpt lat="48.85790839791298" lon="2.919078664854169">
        <ele>51.36</ele>
      </trkpt>
      <trkpt lat="48.85790906846523" lon="2.919076569378376">
        <ele>51.35</ele>
      </trkpt>
      <trkpt lat="48.857910158112645" lon="2.9190728813409805">
        <ele>51.33</ele>
      </trkpt>
      <trkpt lat="48.85792415589094" lon="2.9190318938344717">
        <ele>51.31</ele>
      </trkpt>
      <trkpt lat="48.85792549699545" lon="2.919028038159013">
        <ele>51.28</ele>
      </trkpt>
      <trkpt lat="48.857925748452544" lon="2.9190275352448225">
        <ele>51.23</ele>
      </trkpt>
      <trkpt lat="48.857925832271576" lon="2.919027367606759">
        <ele>51.18</ele>
      </trkpt>
      <trkpt lat="48.8579264190048" lon="2.919025858864188">
        <ele>51.12</ele>
      </trkpt>
      <trkpt lat="48.85792650282383" lon="2.919025858864188">
        <ele>51.05</ele>
      </trkpt>
      <trkpt lat="48.85793136432767" lon="2.9190121963620186">
        <ele>50.97</ele>
      </trkpt>
      <trkpt lat="48.85793237015605" lon="2.9190095979720354">
        <ele>50.88</ele>
      </trkpt>
      <trkpt lat="48.8579332921654" lon="2.9190071672201157">
        <ele>50.77</ele>
      </trkpt>
      <trkpt lat="48.85793480090797" lon="2.9190031439065933">
        <ele>50.66</ele>
      </trkpt>
      <trkpt lat="48.85791728273034" lon="2.9189062491059303">
        <ele>50.49</ele>
      </trkpt>
      <trkpt lat="48.85791661217809" lon="2.9189021419733763">
        <ele>50.37</ele>
      </trkpt>
      <trkpt lat="48.857916528359056" lon="2.9189015552401543">
        <ele>50.24</ele>
      </trkpt>
      <trkpt lat="48.857916528359056" lon="2.918901387602091">
        <ele>50.11</ele>
      </trkpt>
      <trkpt lat="48.85791627690196" lon="2.918899543583393">
        <ele>49.98</ele>
      </trkpt>
      <trkpt lat="48.85791627690196" lon="2.9188993759453297">
        <ele>49.85</ele>
      </trkpt>
      <trkpt lat="48.857913594692945" lon="2.918884204700589">
        <ele>49.72</ele>
      </trkpt>
      <trkpt lat="48.857913091778755" lon="2.9188814386725426">
        <ele>49.59</ele>
      </trkpt>
      <trkpt lat="48.8579126726836" lon="2.9188788402825594">
        <ele>49.48</ele>
      </trkpt>
      <trkpt lat="48.85791191831231" lon="2.9188743140548468">
        <ele>49.37</ele>
      </trkpt>
      <trkpt lat="48.85790546424687" lon="2.9188658483326435">
        <ele>49.28</ele>
      </trkpt>
      <trkpt lat="48.85791778564453" lon="2.918844223022461">
        <ele>49.2</ele>
      </trkpt>
      <trkpt lat="48.85793924331665" lon="2.9187369346618652">
        <ele>49.13</ele>
      </trkpt>
      <trkpt lat="48.85794997215271" lon="2.9185009002685547">
        <ele>49.07</ele>
      </trkpt>
      <trkpt lat="48.85793924331665" lon="2.918297052383423">
        <ele>49.11</ele>
      </trkpt>
      <trkpt lat="48.857810497283936" lon="2.9176855087280273">
        <ele>49.22</ele>
      </trkpt>
      <trkpt lat="48.857789039611816" lon="2.917492389678955">
        <ele>49.38</ele>
      </trkpt>
      <trkpt lat="48.857810497283936" lon="2.9169774055480957">
        <ele>49.56</ele>
      </trkpt>
      <trkpt lat="48.857789039611816" lon="2.9166340827941895">
        <ele>49.84</ele>
      </trkpt>
      <trkpt lat="48.8576602935791" lon="2.9162371158599854">
        <ele>50.23</ele>
      </trkpt>
      <trkpt lat="48.85742861777544" lon="2.9156150948256254">
        <ele>50.54</ele>
      </trkpt>
      <trkpt lat="48.85742761194706" lon="2.915612328797579">
        <ele>50.74</ele>
      </trkpt>
      <trkpt lat="48.857427444308996" lon="2.915611742064357">
        <ele>50.94</ele>
      </trkpt>
      <trkpt lat="48.857427360489964" lon="2.9156115744262934">
        <ele>51.12</ele>
      </trkpt>
      <trkpt lat="48.85742677375674" lon="2.915609898045659">
        <ele>51.3</ele>
      </trkpt>
      <trkpt lat="48.85742677375674" lon="2.9156097304075956">
        <ele>51.47</ele>
      </trkpt>
      <trkpt lat="48.85742166079581" lon="2.915596067905426">
        <ele>51.62</ele>
      </trkpt>
      <trkpt lat="48.85742115788162" lon="2.915594559162855">
        <ele>51.76</ele>
      </trkpt>
      <trkpt lat="48.85742065496743" lon="2.915593134239316">
        <ele>51.88</ele>
      </trkpt>
      <trkpt lat="48.857419565320015" lon="2.9155901167541742">
        <ele>51.98</ele>
      </trkpt>
      <trkpt lat="48.857582258060575" lon="2.915146965533495">
        <ele>52.07</ele>
      </trkpt>
      <trkpt lat="48.85758351534605" lon="2.9151437804102898">
        <ele>52.14</ele>
      </trkpt>
      <trkpt lat="48.857583766803145" lon="2.9151432774960995">
        <ele>52.2</ele>
      </trkpt>
      <trkpt lat="48.85758385062218" lon="2.915143109858036">
        <ele>52.25</ele>
      </trkpt>
      <trkpt lat="48.85758452117443" lon="2.9151415172964334">
        <ele>52.28</ele>
      </trkpt>
      <trkpt lat="48.85758460499346" lon="2.9151414334774017">
        <ele>52.3</ele>
      </trkpt>
      <trkpt lat="48.8575897179544" lon="2.915127770975232">
        <ele>52.29</ele>
      </trkpt>
      <trkpt lat="48.85759047232568" lon="2.915125759318471">
        <ele>52.27</ele>
      </trkpt>
      <trkpt lat="48.857591142877936" lon="2.9151240829378366">
        <ele>52.22</ele>
      </trkpt>
      <trkpt lat="48.857592483982444" lon="2.9151206463575363">
        <ele>52.15</ele>
      </trkpt>
      <trkpt lat="48.85757999494672" lon="2.9151299502700567">
        <ele>52.04</ele>
      </trkpt>
      <trkpt lat="48.85762995108962" lon="2.9152799863368273">
        <ele>51.96</ele>
      </trkpt>
      <trkpt lat="48.85790999047458" lon="2.9159399773925543">
        <ele>51.69</ele>
      </trkpt>
      <trkpt lat="48.858029935508966" lon="2.916099987924099">
        <ele>51.58</ele>
      </trkpt>
      <trkpt lat="48.8581299316138" lon="2.9161999840289354">
        <ele>51.52</ele>
      </trkpt>
      <trkpt lat="48.858186760917306" lon="2.9162067733705044">
        <ele>51.56</ele>
      </trkpt>
    </trkseg>
  </trk>
</gpx>
